{"type":"FeatureCollection","metadata":{"schema_version":1,"place_id":"0012059c-75cc-523d-9bfb-6464d4362ddf","place_name":"Taman Tong Talun","place_type":"park","osm_reference":"way/1288724427","protection_context":"no protected status confirmed from included OSM tags","resolution_m":50,"raster_coverage":1.0,"interpretation":"Suggested search habitats, not predicted plant locations or probabilities of presence."},"features":[{"type":"Feature","geometry":{"type":"Polygon","coordinates":[[[118.61343549999998,4.478695895103788],[118.61377119999997,4.47843319510405],[118.61368879999999,4.478246495104246],[118.61322570000002,4.4784494951040585],[118.61343549999998,4.478695895103788]]]},"properties":{"place_id":"0012059c-75cc-523d-9bfb-6464d4362ddf","habitat":"forest_edge_opening","habitat_label":"Forest edge or opening","resolution_m":50}},{"type":"Feature","geometry":{"type":"Polygon","coordinates":[[[118.61343549999998,4.478695895103788],[118.61377119999997,4.47843319510405],[118.61368879999999,4.478246495104246],[118.61322570000002,4.4784494951040585],[118.61343549999998,4.478695895103788]]]},"properties":{"place_id":"0012059c-75cc-523d-9bfb-6464d4362ddf","habitat":"disturbed_built_edge","habitat_label":"Disturbed, bare or built edge","resolution_m":50}},{"type":"Feature","geometry":{"type":"Polygon","coordinates":[[[118.61375493220613,4.47844592536538],[118.61377119999997,4.47843319510405],[118.61375493220613,4.4783963359121595],[118.61375493220613,4.47844592536538]]]},"properties":{"place_id":"0012059c-75cc-523d-9bfb-6464d4362ddf","habitat":"seasonal_water_wetland","habitat_label":"Seasonal water or wetland","resolution_m":50}},{"type":"Feature","geometry":{"type":"Polygon","coordinates":[[[118.61343549999998,4.478695895103788],[118.61368879999999,4.478246495104246],[118.61322570000002,4.4784494951040585],[118.61343549999998,4.478695895103788]]]},"properties":{"place_id":"0012059c-75cc-523d-9bfb-6464d4362ddf","habitat":"water_edge","habitat_label":"Water edge","resolution_m":50}}]}