{"type":"FeatureCollection","metadata":{"schema_version":1,"place_id":"004f385f-0b31-5720-a4ac-f4ad661a87d6","place_name":"Taman Eco-Rimba Kenong","place_type":"park","osm_reference":"way/1271699507","protection_context":"mapped protected boundary","resolution_m":50,"raster_coverage":1.0,"interpretation":"Suggested search habitats, not predicted plant locations or probabilities of presence."},"features":[{"type":"Feature","geometry":{"type":"Polygon","coordinates":[[[102.18736769999998,4.217382695377659],[102.1881509,4.215820495379326],[102.1865362,4.21457399538061],[102.1856296,4.216783495378283],[102.18736769999998,4.217382695377659]]]},"properties":{"place_id":"004f385f-0b31-5720-a4ac-f4ad661a87d6","habitat":"forest_interior","habitat_label":"Forest interior","resolution_m":50}}]}