{"type":"FeatureCollection","metadata":{"schema_version":1,"place_id":"00798ceb-6bcc-515e-9a79-71023548b51a","place_name":"Sri Hartamas Park","place_type":"park","osm_reference":"way/461515714","protection_context":"no protected status confirmed from included OSM tags","resolution_m":50,"raster_coverage":1.0,"interpretation":"Suggested search habitats, not predicted plant locations or probabilities of presence."},"features":[{"type":"Feature","geometry":{"type":"Polygon","coordinates":[[[101.64813043364133,3.1558180664319355],[101.64813043364133,3.15542555559436],[101.64761222525075,3.15542555559436],[101.64761222525075,3.1558180664319355],[101.64813043364133,3.1558180664319355]]]},"properties":{"place_id":"00798ceb-6bcc-515e-9a79-71023548b51a","habitat":"forest_interior","habitat_label":"Forest interior","resolution_m":50}},{"type":"Feature","geometry":{"type":"Polygon","coordinates":[[[101.6477045,3.1551629965113293],[101.6474564,3.1557989965106623],[101.6482504,3.156560996509812],[101.64877209999999,3.1555218965109573],[101.6477045,3.1551629965113293]],[[101.64761222525075,3.15542555559436],[101.64813043364133,3.15542555559436],[101.64813043364133,3.1558180664319355],[101.64761222525075,3.1558180664319355],[101.64761222525075,3.15542555559436]]]},"properties":{"place_id":"00798ceb-6bcc-515e-9a79-71023548b51a","habitat":"forest_edge_opening","habitat_label":"Forest edge or opening","resolution_m":50}},{"type":"Feature","geometry":{"type":"Polygon","coordinates":[[[101.6477045,3.1551629965113293],[101.6474564,3.1557989965106623],[101.6482504,3.156560996509812],[101.64877209999999,3.1555218965109573],[101.6477045,3.1551629965113293]],[[101.64761222525075,3.15542555559436],[101.64813043364133,3.15542555559436],[101.64813043364133,3.1558180664319355],[101.64761222525075,3.1558180664319355],[101.64761222525075,3.15542555559436]]]},"properties":{"place_id":"00798ceb-6bcc-515e-9a79-71023548b51a","habitat":"disturbed_built_edge","habitat_label":"Disturbed, bare or built edge","resolution_m":50}}]}