{"type":"FeatureCollection","metadata":{"schema_version":1,"place_id":"013b22c8-d679-5c14-88a2-68749f3994bb","place_name":"Resident BK5/6D Park","place_type":"park","osm_reference":"way/684583345","protection_context":"no protected status confirmed from included OSM tags","resolution_m":50,"raster_coverage":1.0,"interpretation":"Suggested search habitats, not predicted plant locations or probabilities of presence."},"features":[{"type":"Feature","geometry":{"type":"Polygon","coordinates":[[[101.64889130000002,3.041222096634671],[101.6481539,3.0405865966353476],[101.64814009999999,3.04121289663466],[101.64889130000002,3.041222096634671]]]},"properties":{"place_id":"013b22c8-d679-5c14-88a2-68749f3994bb","habitat":"forest_edge_opening","habitat_label":"Forest edge or opening","resolution_m":50}},{"type":"Feature","geometry":{"type":"Polygon","coordinates":[[[101.64889130000002,3.041222096634671],[101.6481539,3.0405865966353476],[101.64814009999999,3.04121289663466],[101.64889130000002,3.041222096634671]]]},"properties":{"place_id":"013b22c8-d679-5c14-88a2-68749f3994bb","habitat":"disturbed_built_edge","habitat_label":"Disturbed, bare or built edge","resolution_m":50}}]}