{"type":"FeatureCollection","metadata":{"schema_version":1,"place_id":"01444f71-0053-5976-8817-555ff70a5081","place_name":"Pasir Gudang Park","place_type":"park","osm_reference":"way/494544590","protection_context":"no protected status confirmed from included OSM tags","resolution_m":50,"raster_coverage":1.0,"interpretation":"Suggested search habitats, not predicted plant locations or probabilities of presence."},"features":[{"type":"Feature","geometry":{"type":"Polygon","coordinates":[[[103.90181872418954,1.4765653037576087],[103.90140559999999,1.4743469983554929],[103.9008202,1.474105098355783],[103.8997715,1.4746352983552042],[103.90126229999998,1.4769955983525953],[103.9023062,1.476576598353068],[103.90181872418954,1.4765653037576087]]]},"properties":{"place_id":"01444f71-0053-5976-8817-555ff70a5081","habitat":"forest_edge_opening","habitat_label":"Forest edge or opening","resolution_m":50}},{"type":"Feature","geometry":{"type":"MultiPolygon","coordinates":[[[[103.901300515799,1.4749970711980043],[103.90166629421707,1.4749970711980043],[103.901300515799,1.4742281021193784],[103.901300515799,1.4749970711980043]]],[[[103.90026409901787,1.4753891292370156],[103.90028199999999,1.4757232983540056],[103.90078230740843,1.475781187343275],[103.90078230740843,1.4753891292370156],[103.90026409901787,1.4753891292370156]]],[[[103.9023062,1.476576598353068],[103.90198414908082,1.475781187343275],[103.90181872418954,1.4753731006548712],[103.901300515799,1.4753891292370156],[103.901300515799,1.4765653037576087],[103.90181872418954,1.4767722611122955],[103.9023062,1.476576598353068]]]]},"properties":{"place_id":"01444f71-0053-5976-8817-555ff70a5081","habitat":"open_grassland","habitat_label":"Open grassland or shrubland","resolution_m":50}},{"type":"Feature","geometry":{"type":"Polygon","coordinates":[[[103.90078230740843,1.4746050132262227],[103.901300515799,1.4746050132262227],[103.9011664,1.474102898355809],[103.8997715,1.4746352983552042],[103.90126229999998,1.4769955983525953],[103.9023016390739,1.4765653037576087],[103.90181872418954,1.4753731006548712],[103.901300515799,1.4753891292370156],[103.90078230740843,1.4746050132262227]],[[103.901300515799,1.4765653037576087],[103.901300515799,1.4761732455168002],[103.90181872418954,1.4761732455168002],[103.90181872418954,1.4765653037576087],[103.901300515799,1.4765653037576087]],[[103.90078230740843,1.4753891292370156],[103.90026409901787,1.4753891292370156],[103.90026409901787,1.4749970711980043],[103.90078230740843,1.4749970711980043],[103.90078230740843,1.4753891292370156]]]},"properties":{"place_id":"01444f71-0053-5976-8817-555ff70a5081","habitat":"disturbed_built_edge","habitat_label":"Disturbed, bare or built edge","resolution_m":50}},{"type":"Feature","geometry":{"type":"Polygon","coordinates":[[[103.901300515799,1.4753891292370156],[103.901300515799,1.4749970711980043],[103.90026409901787,1.4746050132262227],[103.90026409901787,1.4753891292370156],[103.901300515799,1.4753891292370156]]]},"properties":{"place_id":"01444f71-0053-5976-8817-555ff70a5081","habitat":"permanent_water","habitat_label":"Permanent water","resolution_m":50}},{"type":"Feature","geometry":{"type":"Polygon","coordinates":[[[103.90128712858645,1.4742129553216532],[103.8997715,1.4746352983552042],[103.90028199999999,1.4757232983540056],[103.901300515799,1.4761732455168002],[103.90182522164892,1.4753891292370156],[103.90128712858645,1.4742129553216532]],[[103.90026409901787,1.4746050132262227],[103.90078230740843,1.4746050132262227],[103.901300515799,1.4753891292370156],[103.90026409901787,1.4753891292370156],[103.90026409901787,1.4746050132262227]]]},"properties":{"place_id":"01444f71-0053-5976-8817-555ff70a5081","habitat":"water_edge","habitat_label":"Water edge","resolution_m":50}}]}