{"type":"FeatureCollection","metadata":{"schema_version":1,"place_id":"0162c153-6937-5e35-b906-562c9402c763","place_name":"Camp Site UTM · OSM way/477390065","place_type":"park","osm_reference":"way/477390065","protection_context":"no protected status confirmed from included OSM tags","resolution_m":50,"raster_coverage":1.0,"interpretation":"Suggested search habitats, not predicted plant locations or probabilities of presence."},"features":[{"type":"Feature","geometry":{"type":"Polygon","coordinates":[[[103.62717479999999,1.5607071982597298],[103.6272874,1.5605248982599282],[103.6271989,1.5605061982599344],[103.62717479999999,1.5607071982597298]]]},"properties":{"place_id":"0162c153-6937-5e35-b906-562c9402c763","habitat":"forest_interior","habitat_label":"Forest interior","resolution_m":50}}]}