{"type":"FeatureCollection","metadata":{"schema_version":1,"place_id":"016498d6-d4d6-50da-a9c0-97b6627aa4b5","place_name":"Krubong Perdana Park","place_type":"park","osm_reference":"way/506635993","protection_context":"no protected status confirmed from included OSM tags","resolution_m":50,"raster_coverage":1.0,"interpretation":"Suggested search habitats, not predicted plant locations or probabilities of presence."},"features":[{"type":"Feature","geometry":{"type":"Polygon","coordinates":[[[102.24303366600493,2.3251672567047894],[102.24251545761437,2.3253107915867144],[102.24368509999996,2.3254299974156107],[102.2437976,2.3244805974166445],[102.24303366600493,2.324090829796077],[102.24303366600493,2.3251672567047894]]]},"properties":{"place_id":"016498d6-d4d6-50da-a9c0-97b6627aa4b5","habitat":"forest_edge_opening","habitat_label":"Forest edge or opening","resolution_m":50}},{"type":"Feature","geometry":{"type":"Polygon","coordinates":[[[102.24251545761437,2.3251672567047894],[102.2435518743955,2.3251672567047894],[102.2435518743955,2.324382765146329],[102.24283706055574,2.323990519526234],[102.24251545761437,2.3251672567047894]]]},"properties":{"place_id":"016498d6-d4d6-50da-a9c0-97b6627aa4b5","habitat":"open_grassland","habitat_label":"Open grassland or shrubland","resolution_m":50}},{"type":"Feature","geometry":{"type":"Polygon","coordinates":[[[102.24368509999996,2.3254299974156107],[102.2437976,2.3244805974166445],[102.2425694,2.3239076974172805],[102.2418797,2.3252459974158435],[102.24368509999996,2.3254299974156107]],[[102.24303366600493,2.3247750108725085],[102.2435518743955,2.3247750108725085],[102.2435518743955,2.3251672567047894],[102.24303366600493,2.3251672567047894],[102.24303366600493,2.3247750108725085]]]},"properties":{"place_id":"016498d6-d4d6-50da-a9c0-97b6627aa4b5","habitat":"disturbed_built_edge","habitat_label":"Disturbed, bare or built edge","resolution_m":50}}]}