{"type":"FeatureCollection","metadata":{"schema_version":1,"place_id":"0171bc66-09fa-5622-b8d4-9fc4462f40bf","place_name":"Mount Wullersdorf Forest Reserve","place_type":"park","osm_reference":"way/1509233769","protection_context":"mapped protected boundary","resolution_m":50,"raster_coverage":1.0,"interpretation":"Suggested search habitats, not predicted plant locations or probabilities of presence."},"features":[{"type":"Feature","geometry":{"type":"MultiPolygon","coordinates":[[[[118.12262633661261,4.4272344460863],[118.12301158634521,4.426841373018181],[118.12264843535867,4.426841373018181],[118.12262633661261,4.4272344460863]]],[[[118.12301158634521,4.428020592832236],[118.12301158634521,4.427627519357643],[118.12260423786655,4.427627519357643],[118.1225821391205,4.428020592832236],[118.12301158634521,4.428020592832236]]],[[[118.12301158634521,4.428806740391229],[118.12301158634521,4.428413666510091],[118.12256004037447,4.428413666510091],[118.12253794162842,4.428806740391229],[118.12301158634521,4.428806740391229]]],[[[118.1224937441363,4.429592888763428],[118.12242744789816,4.430772112846798],[118.12249337795464,4.42998596325452],[118.12301158634521,4.42998596325452],[118.12301158634521,4.429592888763428],[118.1224937441363,4.429592888763428]]],[[[118.12229485542183,4.433130566505633],[118.12249337795464,4.432737490387177],[118.12231695416791,4.432737490387177],[118.12229485542183,4.433130566505633]]],[[[118.12197516956408,4.4335236428275895],[118.12197516956408,4.4335021625483595],[118.12194295129429,4.4335236428275895],[118.12197516956408,4.4335236428275895]]],[[[118.12145696117351,4.433847657926354],[118.12135337599322,4.4339167193530695],[118.12145696117351,4.4339167193530695],[118.12145696117351,4.433847657926354]]],[[[118.08212825778597,4.49209429925316],[118.08155929999998,4.495967795085766],[118.079626,4.498951995082648],[118.0752883,4.499140195082449],[118.07481820602308,4.499956479565703],[118.07429999763251,4.499956479565703],[118.07429999763251,4.500349590749624],[118.07379912917582,4.500349590749624],[118.07378178924195,4.500742702140183],[118.07155969999998,4.502168295079309],[118.07155899999997,4.5066262950746365],[118.08414595705317,4.506538644371035],[118.0836277486626,4.505853169029925],[118.08310954027203,4.505853169029925],[118.0836277486626,4.505066941079738],[118.08570058222483,4.505853169029925],[118.08518237383427,4.5065314271656405],[118.10488939999999,4.5063941950748925],[118.10287149999998,4.492237495089649],[118.11309159999998,4.4924887950893995],[118.11420204370566,4.492471715908351],[118.11420204370566,4.49209429925316],[118.11472025209623,4.49209429925316],[118.11506499154802,4.491701192404412],[118.11457010000001,4.488158795093902],[118.1150271,4.486875895095248],[118.1149874,4.478997395103468],[118.1309173,4.478894895103553],[118.13134279999997,4.50575889507556],[118.13377609999999,4.505558295075738],[118.13379689999998,4.504882595076472],[118.1356348,4.50214789507931],[118.1352031,4.498371295083269],[118.14119300000002,4.487465395094628],[118.14522380000001,4.4868197950953],[118.15171799999997,4.4850065950972064],[118.15362990000001,4.483273995099027],[118.14527749999999,4.475513995107125],[118.1560063,4.4698771951130105],[118.1661062,4.4715845951112],[118.1662577,4.467133595115872],[118.1641334,4.464331195118803],[118.1645518,4.46207419512114],[118.1691321331051,4.461432582979257],[118.1691321331051,4.461039492161759],[118.16965034149567,4.461039492161759],[118.16965034149567,4.461400384600631],[118.1707209,4.4613147951219325],[118.17236010000002,4.4593763951239485],[118.1727755,4.455084195128444],[118.17335489999999,4.453896895129705],[118.17388059999999,4.453458295130144],[118.1754631,4.453217595130396],[118.17552739999996,4.4521907951314565],[118.17485150000002,4.451928695131748],[118.17529680000001,4.451286895132414],[118.17957570000002,4.449191995134609],[118.17973849999997,4.446655295137249],[118.17859049999997,4.446377195137566],[118.17845988413518,4.4433506170684645],[118.17897809252575,4.442957535652985],[118.1801801,4.442921795141158],[118.17864420000001,4.441873995142257],[118.17699189999999,4.4419381951421855],[118.1759351,4.441034295143126],[118.17586884218238,4.4413852120304975],[118.1743142170107,4.4413852120304975],[118.17379600862014,4.440853581023615],[118.1675881,4.440189295144002],[118.164643,4.438643595145647],[118.16396709999997,4.437787895146514],[118.16243290000001,4.43743489514688],[118.16065579999999,4.436424295147952],[118.1585763,4.433256295151271],[118.15433259999998,4.432899495151647],[118.1541502,4.430407095154248],[118.15549559999997,4.43069449515393],[118.1562102,4.4299364951547435],[118.15565579999998,4.426687095158118],[118.15619309999998,4.421305995163747],[118.1576651,4.4204906951646015],[118.16222119999998,4.419139495166002],[118.1670811,4.418463995166716],[118.1680624,4.417671895167568],[118.1747797,4.405674795180121],[118.17201099999998,4.403531595182377],[118.17088949999997,4.402902595183014],[118.16889720000002,4.404143895181687],[118.14463379999998,4.423186795161775],[118.141116,4.422949595162027],[118.12560262829801,4.4112580938261665],[118.1251540702235,4.411511681683627],[118.12508441990745,4.412297812199227],[118.12456621151688,4.412297812199227],[118.12404800312632,4.41308394352495],[118.12330619124495,4.41308394352495],[118.12297991654943,4.4209453013712485],[118.12301158634521,4.420552231552277],[118.12352979473575,4.420552231552277],[118.12404800312632,4.421338371393153],[118.12293571905734,4.421731441618011],[118.12267053410473,4.426448300153272],[118.12352979473575,4.426055227491556],[118.12352979473575,4.425662155033009],[118.12456621151688,4.426055227491556],[118.12456621151688,4.426448300153272],[118.12352979473575,4.426841373018181],[118.12352979473575,4.4272344460863],[118.12404800312632,4.4272344460863],[118.12352979473575,4.428020592832236],[118.12456621151688,4.428413666510091],[118.12456621151688,4.430379037948973],[118.12404800312632,4.430379037948973],[118.12404800312632,4.431951338760702],[118.12352979473575,4.431951338760702],[118.12352979473575,4.432737490387177],[118.12301158634521,4.432737490387177],[118.12352979473575,4.4335236428275895],[118.12249337795464,4.4339167193530695],[118.12249337795464,4.434702873014661],[118.12197516956408,4.434702873014661],[118.12197516956408,4.435095950150812],[118.12093875278295,4.434702873014661],[118.12093875278295,4.434193153461592],[118.11933200000001,4.4352643951491695],[118.11819319999998,4.435402895149001],[118.11599849999998,4.430984695153626],[118.1148725,4.425983895158886],[118.10798354301895,4.423979826241831],[118.10746533462839,4.424089867230186],[118.10746533462839,4.424482938876226],[118.10642891784725,4.424089867230186],[118.10642891784725,4.423303724547334],[118.10591070945671,4.423303724547334],[118.10591070945671,4.422910653510482],[118.10694712623781,4.422517582676657],[118.10694712623781,4.422910653510482],[118.10746533462839,4.422995435757655],[118.11009619999997,4.41869469516648],[118.10846679999997,4.415225295170119],[118.10497999999998,4.416223095169073],[118.10268400000001,4.415377995169967],[118.10216005667068,4.4162284769320115],[118.10228325072278,4.418193816899044],[118.1017650423322,4.418193816899044],[118.1017650423322,4.418586885500794],[118.10228325072278,4.418586885500794],[118.10228325072278,4.419373023312787],[118.1017650423322,4.419373023312787],[118.1017650423322,4.421731441618011],[118.10124683394166,4.421731441618011],[118.10124683394166,4.422517582676657],[118.1017650423322,4.422517582676657],[118.10228325072278,4.423303724547334],[118.1017650423322,4.423303724547334],[118.1017650423322,4.42369679578723],[118.10094601781906,4.423303724547334],[118.1007286255511,4.425662155033009],[118.10021041716053,4.426037105245693],[118.1007286255511,4.426841373018181],[118.09969220876997,4.4272344460863],[118.09969220876997,4.428020592832236],[118.09924206150374,4.428020592832236],[118.09904617078989,4.428806740391229],[118.09969220876997,4.429592888763428],[118.0991740003794,4.429592888763428],[118.0991740003794,4.430772112846798],[118.09845849864827,4.4311651879480145],[118.09865579198886,4.433130566505633],[118.09828185158362,4.433130566505633],[118.09852489999997,4.433719995150772],[118.09761937520773,4.43666826073154],[118.09335209999998,4.4467867951371165],[118.09130439999998,4.447100695136809],[118.08911869999999,4.447958795135884],[118.08207312349093,4.458472569571142],[118.08207312349093,4.459074041145966],[118.0816700634053,4.459074041145966],[118.07982613435367,4.461825674001577],[118.08000028992866,4.462611856660761],[118.07948208153812,4.462611856660761],[118.07881309999996,4.463337395119812],[118.07897144222625,4.465363502422511],[118.07948208153812,4.465363502422511],[118.07948208153812,4.465756595494066],[118.07848815295186,4.466149688770648],[118.07353420000001,4.471376495111443],[118.07965799999998,4.4746648951079955],[118.08191299999999,4.481461095100886],[118.08474539999999,4.480263095102135],[118.0861864,4.4812654951010895],[118.0863061046652,4.481873588164448],[118.08673699900596,4.481873588164448],[118.08653825371599,4.483052893876971],[118.08725520739651,4.483445996192783],[118.08689179999999,4.484848895097359],[118.0831404,4.485989595096178],[118.0836277486626,4.486197718168296],[118.0836277486626,4.486983926300544],[118.08310954027203,4.486983926300544],[118.08283210561186,4.488163240044072],[118.08310954027203,4.48777013525685],[118.08414595705317,4.488163240044072],[118.08414595705317,4.488556345037362],[118.0836277486626,4.488556345037362],[118.08414595705317,4.489342555642228],[118.08310954027203,4.489735661253841],[118.08310954027203,4.4913080857619025],[118.08259133188146,4.4913080857619025],[118.08259133188146,4.49209429925316],[118.08212825778597,4.49209429925316]],[[118.07844566475698,4.505460054951393],[118.07844566475698,4.505066941079738],[118.07896387314756,4.505066941079738],[118.07948208153812,4.505853169029925],[118.07844566475698,4.5062462833153525],[118.07844566475698,4.505853169029925],[118.07792745636642,4.505853169029925],[118.07792745636642,4.505460054951393],[118.07844566475698,4.505460054951393]],[[118.08155491510036,4.503887600705852],[118.08155491510036,4.503494487661525],[118.08207312349093,4.503494487661525],[118.08259133188146,4.5042807139569865],[118.08155491510036,4.504673827414942],[118.08155491510036,4.5042807139569865],[118.0810367067098,4.5042807139569865],[118.0810367067098,4.503887600705852],[118.08155491510036,4.503887600705852]],[[118.07896387314756,4.50310137482398],[118.07948208153812,4.502315149769176],[118.08051849831922,4.502708262193203],[118.07948208153812,4.503887600705852],[118.07844566475698,4.503494487661525],[118.07844566475698,4.50310137482398],[118.07896387314756,4.50310137482398]],[[118.07689103958532,4.502708262193203],[118.07689103958532,4.502315149769176],[118.07740924797588,4.502315149769176],[118.07792745636642,4.50310137482398],[118.07689103958532,4.503494487661525],[118.07689103958532,4.50310137482398],[118.07637283119475,4.50310137482398],[118.07637283119475,4.502708262193203],[118.07689103958532,4.502708262193203]],[[118.08051849831922,4.501528925541293],[118.08051849831922,4.501135813737401],[118.0810367067098,4.501135813737401],[118.08155491510036,4.501922037551877],[118.08051849831922,4.502315149769176],[118.08051849831922,4.501922037551877],[118.08000028992866,4.501922037551877],[118.08000028992866,4.501528925541293],[118.08051849831922,4.501528925541293]],[[118.08259133188146,4.501528925541293],[118.08259133188146,4.501135813737401],[118.08310954027203,4.501135813737401],[118.0836277486626,4.501922037551877],[118.08259133188146,4.502315149769176],[118.08259133188146,4.501922037551877],[118.08207312349093,4.501922037551877],[118.08207312349093,4.501528925541293],[118.08259133188146,4.501528925541293]],[[118.09502833325492,4.490914979325606],[118.09502833325492,4.490521873095511],[118.09554654164549,4.490521873095511],[118.09606475003605,4.4913080857619025],[118.09502833325492,4.491701192404412],[118.09502833325492,4.4913080857619025],[118.09451012486436,4.4913080857619025],[118.09451012486436,4.490914979325606],[118.09502833325492,4.490914979325606]],[[118.08000028992866,4.474011597385632],[118.08000028992866,4.4736185000047115],[118.08051849831922,4.4736185000047115],[118.0810367067098,4.474404694971962],[118.08000028992866,4.474797792763719],[118.08000028992866,4.474404694971962],[118.07948208153812,4.474404694971962],[118.07948208153812,4.474011597385632],[118.08000028992866,4.474011597385632]],[[118.0810367067098,4.464184224437805],[118.0810367067098,4.463791132186164],[118.08155491510036,4.463791132186164],[118.08207312349093,4.464577316894398],[118.0810367067098,4.464970409555961],[118.0810367067098,4.464577316894398],[118.08051849831922,4.464577316894398],[118.08051849831922,4.464184224437805],[118.0810367067098,4.464184224437805]],[[118.09813758359829,4.438633653540107],[118.09813758359829,4.437847495805531],[118.09969220876997,4.437061338885846],[118.09969220876997,4.437454417243837],[118.10021041716053,4.437454417243837],[118.10021041716053,4.437847495805531],[118.09969220876997,4.437847495805531],[118.09969220876997,4.438633653540107],[118.10021041716053,4.438633653540107],[118.10021041716053,4.439026732713025],[118.0991740003794,4.439419812089719],[118.0991740003794,4.439026732713025],[118.09813758359829,4.438633653540107]],[[118.11212921014342,4.42998596325452],[118.11212921014342,4.429592888763428],[118.112647418534,4.429592888763428],[118.11316562692456,4.430379037948973],[118.11212921014342,4.430772112846798],[118.11212921014342,4.430379037948973],[118.11161100175286,4.430379037948973],[118.11161100175286,4.42998596325452],[118.11212921014342,4.42998596325452]],[[118.1136838353151,4.429199814475668],[118.1136838353151,4.428806740391229],[118.11472025209623,4.428806740391229],[118.1152384604868,4.429592888763428],[118.11472025209623,4.429592888763428],[118.11472025209623,4.42998596325452],[118.1136838353151,4.42998596325452],[118.1136838353151,4.429592888763428],[118.11316562692456,4.429592888763428],[118.11316562692456,4.429199814475668],[118.1136838353151,4.429199814475668]],[[118.10383787589447,4.427627519357643],[118.10383787589447,4.4272344460863],[118.10435608428502,4.4272344460863],[118.10487429267558,4.428020592832236],[118.10383787589447,4.428413666510091],[118.10383787589447,4.428020592832236],[118.1033196675039,4.428020592832236],[118.1033196675039,4.427627519357643],[118.10383787589447,4.427627519357643]],[[118.10901995980005,4.427627519357643],[118.10901995980005,4.4272344460863],[118.10953816819062,4.4272344460863],[118.11005637658118,4.428020592832236],[118.10901995980005,4.428413666510091],[118.10901995980005,4.428020592832236],[118.1085017514095,4.428020592832236],[118.1085017514095,4.427627519357643],[118.10901995980005,4.427627519357643]],[[118.1085017514095,4.426055227491556],[118.1085017514095,4.425269082777619],[118.10901995980005,4.425269082777619],[118.10901995980005,4.424876010725362],[118.11057458497176,4.425662155033009],[118.11057458497176,4.426055227491556],[118.11005637658118,4.426055227491556],[118.11005637658118,4.426448300153272],[118.10901995980005,4.426448300153272],[118.10901995980005,4.426841373018181],[118.10798354301895,4.426448300153272],[118.10798354301895,4.426055227491556],[118.1085017514095,4.426055227491556]],[[118.15565871495053,4.419766092523064],[118.15565871495053,4.419373023312787],[118.15617692334108,4.419373023312787],[118.15669513173164,4.420159161936223],[118.15565871495053,4.420552231552277],[118.15565871495053,4.420159161936223],[118.15514050655997,4.420159161936223],[118.15514050655997,4.419766092523064],[118.15565871495053,4.419766092523064]],[[118.15306767299774,4.4178007485001],[118.15306767299774,4.417407680303941],[118.15358588138827,4.417407680303941],[118.15410408977884,4.418193816899044],[118.15306767299774,4.418586885500794],[118.15306767299774,4.418193816899044],[118.15254946460716,4.418193816899044],[118.15254946460716,4.4178007485001],[118.15306767299774,4.4178007485001]]],[[[118.08310954027203,4.488949450236743],[118.08310954027203,4.488556345037362],[118.08277635048216,4.488556345037362],[118.08272059535246,4.488949450236743],[118.08310954027203,4.488949450236743]]],[[[118.08310954027203,4.489735661253841],[118.08310954027203,4.489342555642228],[118.08266484022276,4.489342555642228],[118.08260908509307,4.489735661253841],[118.08310954027203,4.489735661253841]]]]},"properties":{"place_id":"0171bc66-09fa-5622-b8d4-9fc4462f40bf","habitat":"forest_interior","habitat_label":"Forest interior","resolution_m":50}},{"type":"Feature","geometry":{"type":"MultiPolygon","coordinates":[[[[118.09399191647381,4.445316027205907],[118.09399191647381,4.445209053537522],[118.09394853574418,4.445316027205907],[118.09399191647381,4.445316027205907]]],[[[118.08207312349093,4.459074041145966],[118.08207312349093,4.458472569571142],[118.0816700634053,4.459074041145966],[118.08207312349093,4.459074041145966]]],[[[118.08155491510036,4.459467130939625],[118.08155491510036,4.4592458727667665],[118.08140664496936,4.459467130939625],[118.08155491510036,4.459467130939625]]],[[[118.07948208153812,4.463004948297659],[118.07948208153812,4.462611856660761],[118.08000028992866,4.462611856660761],[118.08000028992866,4.461825674001577],[118.07903587904583,4.463004948297659],[118.07948208153812,4.463004948297659]]],[[[118.0810367067098,4.463791132186164],[118.08051849831922,4.464577316894398],[118.08155491510036,4.464970409555961],[118.08207312349093,4.464184224437805],[118.0810367067098,4.463791132186164]]],[[[118.07891000112474,4.464577316894398],[118.07896387314756,4.4652666502714125],[118.07896387314756,4.464577316894398],[118.07891000112474,4.464577316894398]]],[[[118.07896387314756,4.466149688770648],[118.07896387314756,4.465756595494066],[118.07948208153812,4.465756595494066],[118.07948208153812,4.465363502422511],[118.07897144222625,4.465363502422511],[118.07848815295186,4.466149688770648],[118.07896387314756,4.466149688770648]]],[[[118.08000028992866,4.4736185000047115],[118.07948208153812,4.474404694971962],[118.08051849831922,4.474797792763719],[118.0810367067098,4.474011597385632],[118.08000028992866,4.4736185000047115]]],[[[118.0863061046652,4.481873588164448],[118.08638348768214,4.482266689862821],[118.08673699900596,4.482266689862821],[118.08673699900596,4.481873588164448],[118.0863061046652,4.481873588164448]]],[[[118.08725520739651,4.484232201441978],[118.08725520739651,4.483445996192783],[118.08653825371599,4.483052893876971],[118.08677040276683,4.484232201441978],[118.08725520739651,4.484232201441978]]],[[[118.08294361587126,4.487377030675679],[118.08310954027203,4.486983926300544],[118.0836277486626,4.486983926300544],[118.0836277486626,4.486197718168296],[118.0831108812604,4.486197718168296],[118.08294361587126,4.487377030675679]]],[[[118.08414595705317,4.488556345037362],[118.08414595705317,4.488163240044072],[118.08310954027203,4.48777013525685],[118.08277635048216,4.488556345037362],[118.08310954027203,4.488949450236743],[118.08266484022276,4.489342555642228],[118.08310954027203,4.489342555642228],[118.08310954027203,4.489735661253841],[118.08414595705317,4.489342555642228],[118.08414595705317,4.488949450236743],[118.0836277486626,4.488949450236743],[118.0836277486626,4.488556345037362],[118.08414595705317,4.488556345037362]]],[[[118.08260908509307,4.489735661253841],[118.08255890000001,4.490089495091913],[118.08212825778597,4.49209429925316],[118.08259133188146,4.49209429925316],[118.08259133188146,4.4913080857619025],[118.08310954027203,4.4913080857619025],[118.08310954027203,4.489735661253841],[118.08260908509307,4.489735661253841]]],[[[118.09502833325492,4.490521873095511],[118.09451012486436,4.4913080857619025],[118.09554654164549,4.491701192404412],[118.09606475003605,4.490914979325606],[118.09502833325492,4.490521873095511]]],[[[118.08207312349093,4.492487406308158],[118.08207312349093,4.492444894977182],[118.08206692309619,4.492487406308158],[118.08207312349093,4.492487406308158]]],[[[118.07429999763251,4.500349590749624],[118.07429999763251,4.499956479565703],[118.07481820602308,4.499956479565703],[118.07481820602308,4.499521970829795],[118.07379912917582,4.500349590749624],[118.07429999763251,4.500349590749624]]],[[[118.07378178924195,4.500742702140183],[118.07378178924195,4.50036367298768],[118.07331507800696,4.500742702140183],[118.07378178924195,4.500742702140183]]],[[[118.07326358085137,4.50078452442186],[118.07283102683812,4.501135813737401],[118.07326358085137,4.501135813737401],[118.07326358085137,4.50078452442186]]],[[[118.08051849831922,4.501135813737401],[118.08000028992866,4.501922037551877],[118.0810367067098,4.502315149769176],[118.08155491510036,4.501528925541293],[118.08051849831922,4.501135813737401]]],[[[118.08259133188146,4.501135813737401],[118.08207312349093,4.501922037551877],[118.08310954027203,4.502315149769176],[118.0836277486626,4.501528925541293],[118.08259133188146,4.501135813737401]]],[[[118.07689103958532,4.502315149769176],[118.07637283119475,4.50310137482398],[118.07740924797588,4.503494487661525],[118.07792745636642,4.502708262193203],[118.07689103958532,4.502315149769176]]],[[[118.08000028992866,4.502708262193203],[118.08000028992866,4.502315149769176],[118.07948208153812,4.502315149769176],[118.07844566475698,4.503494487661525],[118.07948208153812,4.503887600705852],[118.07948208153812,4.503494487661525],[118.08051849831922,4.50310137482398],[118.08051849831922,4.502708262193203],[118.08000028992866,4.502708262193203]]],[[[118.08155491510036,4.503494487661525],[118.0810367067098,4.5042807139569865],[118.08207312349093,4.504673827414942],[118.08259133188146,4.503887600705852],[118.08155491510036,4.503494487661525]]],[[[118.07844566475698,4.505066941079738],[118.07792745636642,4.505853169029925],[118.07896387314756,4.5062462833153525],[118.07948208153812,4.505460054951393],[118.07844566475698,4.505066941079738]]],[[[118.08414595705317,4.505460054951393],[118.08414595705317,4.505066941079738],[118.08310954027203,4.505460054951393],[118.08414595705317,4.506538644371035],[118.08570058222483,4.5062462833153525],[118.08518237383427,4.505460054951393],[118.08414595705317,4.505460054951393]]],[[[118.12560262829801,4.411511681683627],[118.12553620000001,4.411206095174334],[118.1251540702235,4.411511681683627],[118.12560262829801,4.411511681683627]]],[[[118.12404800312632,4.41308394352495],[118.12404800312632,4.412690877760813],[118.12508441990745,4.412297812199227],[118.12508441990745,4.411567380567366],[118.1233156,4.4129818951724795],[118.12404800312632,4.41308394352495]]],[[[118.10124683394166,4.422517582676657],[118.10124683394166,4.421731441618011],[118.1017650423322,4.421731441618011],[118.1017650423322,4.419373023312787],[118.10228325072278,4.419373023312787],[118.10228325072278,4.418586885500794],[118.1017650423322,4.418586885500794],[118.1017650423322,4.418193816899044],[118.10228325072278,4.418193816899044],[118.10228325072278,4.4162284769320115],[118.1017429,4.4179767951672595],[118.10094601781906,4.423303724547334],[118.1017650423322,4.42369679578723],[118.10228325072278,4.422910653510482],[118.10124683394166,4.422517582676657]]],[[[118.12301158634521,4.420552231552277],[118.12293571905734,4.421731441618011],[118.12352979473575,4.421731441618011],[118.12404800312632,4.4209453013712485],[118.12301158634521,4.420552231552277]]],[[[118.10694712623781,4.422910653510482],[118.10694712623781,4.422517582676657],[118.10642891784725,4.422517582676657],[118.10591070945671,4.423303724547334],[118.10642891784725,4.423303724547334],[118.10642891784725,4.424089867230186],[118.10746533462839,4.424482938876226],[118.10746533462839,4.424089867230186],[118.10798354301895,4.423979826241831],[118.10702179999997,4.423720495161218],[118.10746533462839,4.422910653510482],[118.10694712623781,4.422910653510482]]],[[[118.11212921014342,4.425269082777619],[118.11219886106505,4.425269082777619],[118.11212921014342,4.425233239081333],[118.11212921014342,4.425269082777619]]],[[[118.1007286255511,4.425662155033009],[118.1006242,4.4254549951594315],[118.10047694396742,4.425662155033009],[118.1007286255511,4.425662155033009]]],[[[118.11005637658118,4.425662155033009],[118.11005637658118,4.425269082777619],[118.10901995980005,4.424876010725362],[118.10798354301895,4.426448300153272],[118.10901995980005,4.426841373018181],[118.10901995980005,4.426448300153272],[118.11005637658118,4.426448300153272],[118.11005637658118,4.426055227491556],[118.11057458497176,4.426055227491556],[118.11057458497176,4.425662155033009],[118.11005637658118,4.425662155033009]]],[[[118.10021041716053,4.426448300153272],[118.10021041716053,4.426037105245693],[118.09924206150374,4.428020592832236],[118.09969220876997,4.428020592832236],[118.09969220876997,4.4272344460863],[118.1007286255511,4.426841373018181],[118.1007286255511,4.426448300153272],[118.10021041716053,4.426448300153272]]],[[[118.10383787589447,4.427627519357643],[118.1033196675039,4.427627519357643],[118.1033196675039,4.428020592832236],[118.10435608428502,4.428413666510091],[118.10487429267558,4.427627519357643],[118.10435608428502,4.427627519357643],[118.10435608428502,4.4272344460863],[118.10383787589447,4.4272344460863],[118.10383787589447,4.427627519357643]]],[[[118.10901995980005,4.427627519357643],[118.1085017514095,4.427627519357643],[118.1085017514095,4.428020592832236],[118.10953816819062,4.428413666510091],[118.11005637658118,4.427627519357643],[118.10953816819062,4.427627519357643],[118.10953816819062,4.4272344460863],[118.10901995980005,4.4272344460863],[118.10901995980005,4.427627519357643]]],[[[118.0991740003794,4.428413666510091],[118.0991740003794,4.428293735277988],[118.09914411614682,4.428413666510091],[118.0991740003794,4.428413666510091]]],[[[118.1136838353151,4.428806740391229],[118.11316562692456,4.429592888763428],[118.1136838353151,4.429592888763428],[118.1136838353151,4.42998596325452],[118.11472025209623,4.42998596325452],[118.1152384604868,4.429199814475668],[118.11472025209623,4.429199814475668],[118.11472025209623,4.428806740391229],[118.1136838353151,4.428806740391229]]],[[[118.0991740003794,4.429199814475668],[118.09904617078989,4.428806740391229],[118.09845849864827,4.4311651879480145],[118.0991740003794,4.430772112846798],[118.0991740003794,4.429592888763428],[118.09969220876997,4.429592888763428],[118.09969220876997,4.429199814475668],[118.0991740003794,4.429199814475668]]],[[[118.11212921014342,4.429592888763428],[118.11161100175286,4.430379037948973],[118.112647418534,4.430772112846798],[118.11316562692456,4.42998596325452],[118.11212921014342,4.429592888763428]]],[[[118.12352979473575,4.4335236428275895],[118.12301158634521,4.432737490387177],[118.12352979473575,4.432737490387177],[118.12352979473575,4.431951338760702],[118.12404800312632,4.431951338760702],[118.12404800312632,4.430379037948973],[118.12456621151688,4.430379037948973],[118.12456621151688,4.428413666510091],[118.12352979473575,4.428020592832236],[118.12352979473575,4.427627519357643],[118.12404800312632,4.427627519357643],[118.12352979473575,4.426841373018181],[118.12456621151688,4.426448300153272],[118.12404800312632,4.425662155033009],[118.12352979473575,4.425662155033009],[118.12352979473575,4.426055227491556],[118.12267053410473,4.426448300153272],[118.12301158634521,4.4272344460863],[118.12260423786655,4.427627519357643],[118.12301158634521,4.427627519357643],[118.12301158634521,4.428020592832236],[118.1225821391205,4.428020592832236],[118.12256004037447,4.428413666510091],[118.12301158634521,4.428413666510091],[118.12301158634521,4.428806740391229],[118.12253794162842,4.428806740391229],[118.1224937441363,4.429592888763428],[118.12301158634521,4.429592888763428],[118.12301158634521,4.42998596325452],[118.12249337795464,4.42998596325452],[118.12249337795464,4.433130566505633],[118.12093875278295,4.434193153461592],[118.12093875278295,4.434702873014661],[118.12197516956408,4.435095950150812],[118.12197516956408,4.434702873014661],[118.12249337795464,4.434702873014661],[118.12249337795464,4.4339167193530695],[118.12352979473575,4.4335236428275895]]],[[[118.09865579198886,4.433130566505633],[118.09865579198886,4.431951338760702],[118.0982626079344,4.431951338760702],[118.09808670000001,4.43265729515191],[118.09865579198886,4.433130566505633]]],[[[118.09761937520773,4.43666826073154],[118.09761937520773,4.436103547355841],[118.09740483785976,4.43666826073154],[118.09761937520773,4.43666826073154]]],[[[118.09710116681717,4.437847495805531],[118.09710116681717,4.437467595930513],[118.09695684125563,4.437847495805531],[118.09710116681717,4.437847495805531]]],[[[118.10021041716053,4.437847495805531],[118.10021041716053,4.437454417243837],[118.0991740003794,4.437061338885846],[118.0991740003794,4.437454417243837],[118.09813758359829,4.437847495805531],[118.09813758359829,4.438633653540107],[118.09969220876997,4.439419812089719],[118.09969220876997,4.439026732713025],[118.10021041716053,4.439026732713025],[118.10021041716053,4.438633653540107],[118.09969220876997,4.438633653540107],[118.09969220876997,4.437847495805531],[118.10021041716053,4.437847495805531]]],[[[118.09658295842662,4.439026732713025],[118.09658295842662,4.438819763259268],[118.0964990259863,4.439026732713025],[118.09658295842662,4.439026732713025]]],[[[118.13130292059417,4.48659082213142],[118.13107327864476,4.486983926300544],[118.13130292059417,4.486983926300544],[118.13130292059417,4.48659082213142]]],[[[118.11472025209623,4.491701192404412],[118.11472025209623,4.49209429925316],[118.11420204370566,4.49209429925316],[118.11420204370566,4.492471715908351],[118.1150666,4.491891995090017],[118.11472025209623,4.491701192404412]]],[[[118.10435608428502,4.502708262193203],[118.10436550889352,4.502708262193203],[118.10435608428502,4.502635933617137],[118.10435608428502,4.502708262193203]]],[[[118.17459529364845,4.406008790745584],[118.1743142170107,4.406401853068875],[118.1743782753345,4.406401853068875],[118.17459529364845,4.406008790745584]]],[[[118.17327780022957,4.408367167719535],[118.17327780022957,4.408395030369444],[118.17329318376476,4.408367167719535],[118.17327780022957,4.408367167719535]]],[[[118.17224138344847,4.410272190178422],[118.17242511050898,4.409939423082214],[118.17224138344847,4.409939423082214],[118.17224138344847,4.410272190178422]]],[[[118.1717231750579,4.411194802032143],[118.17198839074662,4.410725551978005],[118.1717231750579,4.410725551978005],[118.1717231750579,4.411194802032143]]],[[[118.17120496666733,4.411511681683627],[118.17120496666733,4.412111676661166],[118.17154407777072,4.411511681683627],[118.17120496666733,4.411511681683627]]],[[[118.16965034149567,4.414656208607352],[118.16965034149567,4.414862307160892],[118.16976682586701,4.414656208607352],[118.16965034149567,4.414656208607352]]],[[[118.13285754576586,4.417014612310554],[118.13295655490553,4.417014612310554],[118.13285754576586,4.416937109488475],[118.13285754576586,4.417014612310554]]],[[[118.1333757541564,4.417407680303941],[118.1334693535356,4.417407680303941],[118.1333757541564,4.417339844307816],[118.1333757541564,4.417407680303941]]],[[[118.13389396254696,4.4178007485001],[118.13401170464873,4.4178007485001],[118.13389396254696,4.417715415062459],[118.13389396254696,4.4178007485001]]],[[[118.15306767299774,4.417407680303941],[118.15254946460716,4.418193816899044],[118.15358588138827,4.418586885500794],[118.15410408977884,4.4178007485001],[118.15306767299774,4.417407680303941]]],[[[118.1349303793281,4.418586885500794],[118.13509640687498,4.418586885500794],[118.1349303793281,4.418466557127157],[118.1349303793281,4.418586885500794]]],[[[118.13563875798809,4.418979954305369],[118.13544858771867,4.418842128437244],[118.13544858771867,4.418979954305369],[118.13563875798809,4.418979954305369]]],[[[118.1359667961092,4.419373023312787],[118.13618110910122,4.419373023312787],[118.1359667961092,4.419217699932508],[118.1359667961092,4.419373023312787]]],[[[118.13648500449978,4.419766092523064],[118.13672346021436,4.419766092523064],[118.13648500449978,4.41959327161297],[118.13648500449978,4.419766092523064]]],[[[118.13700321289033,4.420159161936223],[118.13726581132747,4.420159161936223],[118.13700321289033,4.419968843478643],[118.13700321289033,4.420159161936223]]],[[[118.15565871495053,4.419373023312787],[118.15514050655997,4.420159161936223],[118.15617692334108,4.420552231552277],[118.15669513173164,4.419766092523064],[118.15565871495053,4.419373023312787]]],[[[118.17586884218238,4.4413852120304975],[118.17586884218238,4.4410286975680675],[118.17379600862014,4.440853581023615],[118.1743142170107,4.4413852120304975],[118.17586884218238,4.4413852120304975]]],[[[118.17897809252575,4.442957535652985],[118.17897809252575,4.443264163812747],[118.17949630091631,4.44311656211734],[118.17949630091631,4.442957535652985],[118.17897809252575,4.442957535652985]]],[[[118.18001450930689,4.442957535652985],[118.18001450930689,4.442968960450694],[118.18005462014565,4.442957535652985],[118.18001450930689,4.442957535652985]]],[[[118.17867638518922,4.4433506170684645],[118.17845988413518,4.444136780511374],[118.17865407620052,4.444136780511374],[118.17867638518922,4.4433506170684645]]],[[[118.16965034149567,4.461039492161759],[118.1691321331051,4.461039492161759],[118.1691321331051,4.461432582979257],[118.16861392471453,4.461483244511187],[118.16965034149567,4.461400384600631],[118.16965034149567,4.461039492161759]]],[[[118.14166708840538,4.487389461882754],[118.1417447025526,4.487377030675679],[118.14166708840538,4.487377030675679],[118.14166708840538,4.487389461882754]]]]},"properties":{"place_id":"0171bc66-09fa-5622-b8d4-9fc4462f40bf","habitat":"forest_edge_opening","habitat_label":"Forest edge or opening","resolution_m":50}},{"type":"Feature","geometry":{"type":"MultiPolygon","coordinates":[[[[118.07948208153812,4.462339093473447],[118.07929929748177,4.462611856660761],[118.07948208153812,4.462611856660761],[118.07948208153812,4.462339093473447]]],[[[118.0810367067098,4.464184224437805],[118.0810367067098,4.464577316894398],[118.08155491510036,4.464577316894398],[118.08155491510036,4.464184224437805],[118.0810367067098,4.464184224437805]]],[[[118.07896387314756,4.465756595494066],[118.07896387314756,4.465529286976149],[118.0787895743596,4.465756595494066],[118.07896387314756,4.465756595494066]]],[[[118.08000028992866,4.474011597385632],[118.08000028992866,4.474404694971962],[118.08051849831922,4.474404694971962],[118.08051849831922,4.474011597385632],[118.08000028992866,4.474011597385632]]],[[[118.08661563673293,4.483445996192783],[118.08673699900596,4.484062511605908],[118.08673699900596,4.483445996192783],[118.08661563673293,4.483445996192783]]],[[[118.08310954027203,4.486983926300544],[118.08310954027203,4.486207172862454],[118.082999371001,4.486983926300544],[118.08310954027203,4.486983926300544]]],[[[118.08310954027203,4.488163240044072],[118.08310954027203,4.488556345037362],[118.0836277486626,4.488556345037362],[118.0836277486626,4.488163240044072],[118.08310954027203,4.488163240044072]]],[[[118.0836277486626,4.488949450236743],[118.08310954027203,4.488949450236743],[118.08310954027203,4.489342555642228],[118.0836277486626,4.489342555642228],[118.0836277486626,4.488949450236743]]],[[[118.08259133188146,4.490914979325606],[118.08259133188146,4.489860831611265],[118.08238158161416,4.490914979325606],[118.08259133188146,4.490914979325606]]],[[[118.07429999763251,4.499956479565703],[118.07429999763251,4.499942821790334],[118.07428318034468,4.499956479565703],[118.07429999763251,4.499956479565703]]],[[[118.08051849831922,4.501528925541293],[118.08051849831922,4.501922037551877],[118.0810367067098,4.501922037551877],[118.0810367067098,4.501528925541293],[118.08051849831922,4.501528925541293]]],[[[118.08259133188146,4.501528925541293],[118.08259133188146,4.501922037551877],[118.08310954027203,4.501922037551877],[118.08310954027203,4.501528925541293],[118.08259133188146,4.501528925541293]]],[[[118.07689103958532,4.502708262193203],[118.07689103958532,4.50310137482398],[118.07740924797588,4.50310137482398],[118.07740924797588,4.502708262193203],[118.07689103958532,4.502708262193203]]],[[[118.07948208153812,4.502708262193203],[118.07948208153812,4.50310137482398],[118.08000028992866,4.50310137482398],[118.08000028992866,4.502708262193203],[118.07948208153812,4.502708262193203]]],[[[118.07948208153812,4.50310137482398],[118.07896387314756,4.50310137482398],[118.07896387314756,4.503494487661525],[118.07948208153812,4.503494487661525],[118.07948208153812,4.50310137482398]]],[[[118.08155491510036,4.503887600705852],[118.08155491510036,4.5042807139569865],[118.08207312349093,4.5042807139569865],[118.08207312349093,4.503887600705852],[118.08155491510036,4.503887600705852]]],[[[118.07844566475698,4.505460054951393],[118.07844566475698,4.505853169029925],[118.07896387314756,4.505853169029925],[118.07896387314756,4.505460054951393],[118.07844566475698,4.505460054951393]]],[[[118.0836277486626,4.505853169029925],[118.08414595705317,4.505853169029925],[118.08414595705317,4.505460054951393],[118.0836277486626,4.505460054951393],[118.0836277486626,4.505853169029925]]],[[[118.08518237383427,4.505853169029925],[118.08414595705317,4.505853169029925],[118.08414595705317,4.5062462833153525],[118.08518237383427,4.5062462833153525],[118.08518237383427,4.505853169029925]]],[[[118.1017650423322,4.418193816899044],[118.1017650423322,4.41788399577568],[118.10171043451777,4.418193816899044],[118.1017650423322,4.418193816899044]]],[[[118.10165163323327,4.418586885500794],[118.10153403066423,4.419373023312787],[118.1017650423322,4.419373023312787],[118.10165163323327,4.418586885500794]]],[[[118.10124683394166,4.421292850456568],[118.10118122295714,4.421731441618011],[118.10124683394166,4.421731441618011],[118.10124683394166,4.421292850456568]]],[[[118.10124683394166,4.422910653510482],[118.10124683394166,4.423303724547334],[118.1017650423322,4.423303724547334],[118.1017650423322,4.422910653510482],[118.10124683394166,4.422910653510482]]],[[[118.10642891784725,4.422910653510482],[118.10642891784725,4.423303724547334],[118.10694712623781,4.423303724547334],[118.10694712623781,4.422910653510482],[118.10642891784725,4.422910653510482]]],[[[118.10694712623781,4.42369679578723],[118.10694712623781,4.424089867230186],[118.10746533462839,4.424089867230186],[118.10746533462839,4.423840092914094],[118.10694712623781,4.42369679578723]]],[[[118.10901995980005,4.425269082777619],[118.10901995980005,4.425662155033009],[118.10953816819062,4.425662155033009],[118.10953816819062,4.425269082777619],[118.10901995980005,4.425269082777619]]],[[[118.10953816819062,4.425662155033009],[118.10953816819062,4.426055227491556],[118.11005637658118,4.426055227491556],[118.11005637658118,4.425662155033009],[118.10953816819062,4.425662155033009]]],[[[118.1085017514095,4.426055227491556],[118.1085017514095,4.426448300153272],[118.10901995980005,4.426448300153272],[118.10901995980005,4.426055227491556],[118.1085017514095,4.426055227491556]]],[[[118.09948039999998,4.427064095157741],[118.09969220876997,4.426841373018181],[118.10021041716053,4.426841373018181],[118.10021041716053,4.426448300153272],[118.09991812659672,4.426448300153272],[118.09948039999998,4.427064095157741]]],[[[118.10383787589447,4.427627519357643],[118.10383787589447,4.428020592832236],[118.10435608428502,4.428020592832236],[118.10435608428502,4.427627519357643],[118.10383787589447,4.427627519357643]]],[[[118.10901995980005,4.427627519357643],[118.10901995980005,4.428020592832236],[118.10953816819062,4.428020592832236],[118.10953816819062,4.427627519357643],[118.10901995980005,4.427627519357643]]],[[[118.0991740003794,4.429199814475668],[118.098850280076,4.429592888763428],[118.0991740003794,4.429592888763428],[118.0991740003794,4.429199814475668]]],[[[118.09865579198886,4.430772112846798],[118.09865579198886,4.430373408920398],[118.0985564440052,4.430772112846798],[118.09865579198886,4.430772112846798]]],[[[118.09813758359829,4.432453088255746],[118.09808670000001,4.43265729515191],[118.09813758359829,4.432780695349097],[118.09813758359829,4.432453088255746]]],[[[118.0991740003794,4.437454417243837],[118.0991740003794,4.437847495805531],[118.09969220876997,4.437847495805531],[118.09969220876997,4.437454417243837],[118.0991740003794,4.437454417243837]]],[[[118.09865579198886,4.437847495805531],[118.09865579198886,4.438633653540107],[118.0991740003794,4.438633653540107],[118.0991740003794,4.437847495805531],[118.09865579198886,4.437847495805531]]],[[[118.0991740003794,4.438633653540107],[118.0991740003794,4.439026732713025],[118.09969220876997,4.439026732713025],[118.09969220876997,4.438633653540107],[118.0991740003794,4.438633653540107]]],[[[118.09502833325492,4.490914979325606],[118.09502833325492,4.4913080857619025],[118.09554654164549,4.4913080857619025],[118.09554654164549,4.490914979325606],[118.09502833325492,4.490914979325606]]],[[[118.12456621151688,4.412297812199227],[118.12456621151688,4.411981788418252],[118.12417103054679,4.412297812199227],[118.12456621151688,4.412297812199227]]],[[[118.12404800312632,4.412690877760813],[118.12404800312632,4.412396196494244],[118.12367951070848,4.412690877760813],[118.12404800312632,4.412690877760813]]],[[[118.15306767299774,4.4178007485001],[118.15306767299774,4.418193816899044],[118.15358588138827,4.418193816899044],[118.15358588138827,4.4178007485001],[118.15306767299774,4.4178007485001]]],[[[118.15565871495053,4.419766092523064],[118.15565871495053,4.420159161936223],[118.15617692334108,4.420159161936223],[118.15617692334108,4.419766092523064],[118.15565871495053,4.419766092523064]]],[[[118.12352979473575,4.4209453013712485],[118.12301158634521,4.4209453013712485],[118.12301158634521,4.421338371393153],[118.12352979473575,4.421338371393153],[118.12352979473575,4.4209453013712485]]],[[[118.12352979473575,4.426055227491556],[118.12352979473575,4.426448300153272],[118.12404800312632,4.426448300153272],[118.12404800312632,4.426055227491556],[118.12352979473575,4.426055227491556]]],[[[118.12352979473575,4.426841373018181],[118.12352979473575,4.426448300153272],[118.12301158634521,4.426448300153272],[118.12301158634521,4.426841373018181],[118.12352979473575,4.426841373018181]]],[[[118.12301158634521,4.4272344460863],[118.12301158634521,4.427627519357643],[118.12352979473575,4.427627519357643],[118.12352979473575,4.4272344460863],[118.12301158634521,4.4272344460863]]],[[[118.12301158634521,4.428020592832236],[118.12301158634521,4.428413666510091],[118.12352979473575,4.428413666510091],[118.12352979473575,4.428020592832236],[118.12301158634521,4.428020592832236]]],[[[118.1136838353151,4.429199814475668],[118.1136838353151,4.429592888763428],[118.11472025209623,4.429592888763428],[118.11472025209623,4.429199814475668],[118.1136838353151,4.429199814475668]]],[[[118.11212921014342,4.42998596325452],[118.11212921014342,4.430379037948973],[118.112647418534,4.430379037948973],[118.112647418534,4.42998596325452],[118.11212921014342,4.42998596325452]]],[[[118.12404800312632,4.428413666510091],[118.12301158634521,4.428806740391229],[118.12301158634521,4.429592888763428],[118.12352979473575,4.429592888763428],[118.12352979473575,4.42998596325452],[118.12301158634521,4.42998596325452],[118.12301158634521,4.430772112846798],[118.12249337795464,4.430772112846798],[118.12249337795464,4.432737490387177],[118.12301158634521,4.432737490387177],[118.12301158634521,4.431951338760702],[118.12352979473575,4.431951338760702],[118.12404800312632,4.428413666510091]]],[[[118.12249337795464,4.433130566505633],[118.12249337795464,4.4335236428275895],[118.12301158634521,4.4335236428275895],[118.12301158634521,4.433130566505633],[118.12249337795464,4.433130566505633]]],[[[118.12249337795464,4.4339167193530695],[118.12249337795464,4.4335236428275895],[118.12197516956408,4.4335236428275895],[118.12197516956408,4.4339167193530695],[118.12249337795464,4.4339167193530695]]],[[[118.12145696117351,4.4339167193530695],[118.12145696117351,4.434702873014661],[118.12197516956408,4.434702873014661],[118.12197516956408,4.4339167193530695],[118.12145696117351,4.4339167193530695]]],[[[118.1743142170107,4.44099213163464],[118.17543601564762,4.44099213163464],[118.1743142170107,4.440897360155935],[118.1743142170107,4.44099213163464]]],[[[118.1691321331051,4.461432582979257],[118.1691321331051,4.461441814554771],[118.16924760221163,4.461432582979257],[118.1691321331051,4.461432582979257]]],[[[118.11472025209623,4.49209429925316],[118.11472025209623,4.492263874592181],[118.11487818512275,4.49209429925316],[118.11472025209623,4.49209429925316]]]]},"properties":{"place_id":"0171bc66-09fa-5622-b8d4-9fc4462f40bf","habitat":"open_grassland","habitat_label":"Open grassland or shrubland","resolution_m":50}},{"type":"Feature","geometry":{"type":"Polygon","coordinates":[[[118.18001450930689,4.442957535652985],[118.18001450930689,4.442968960450694],[118.18005462014565,4.442957535652985],[118.18001450930689,4.442957535652985]]]},"properties":{"place_id":"0171bc66-09fa-5622-b8d4-9fc4462f40bf","habitat":"disturbed_built_edge","habitat_label":"Disturbed, bare or built edge","resolution_m":50}},{"type":"Feature","geometry":{"type":"Polygon","coordinates":[[[118.08229714033808,4.4913080857619025],[118.08259133188146,4.490914979325606],[118.08238158161416,4.490914979325606],[118.08229714033808,4.4913080857619025]]]},"properties":{"place_id":"0171bc66-09fa-5622-b8d4-9fc4462f40bf","habitat":"cropland","habitat_label":"Cropland","resolution_m":50}},{"type":"Feature","geometry":{"type":"Polygon","coordinates":[[[118.10383787589447,4.502315149769176],[118.10383787589447,4.502708262193203],[118.10435608428502,4.502708262193203],[118.10441673251346,4.50310137482398],[118.10431428527362,4.502315149769176],[118.10383787589447,4.502315149769176]]]},"properties":{"place_id":"0171bc66-09fa-5622-b8d4-9fc4462f40bf","habitat":"water_edge","habitat_label":"Water edge","resolution_m":50}}]}