{"type":"FeatureCollection","metadata":{"schema_version":1,"place_id":"019e0729-2f5e-5f90-bf80-2d959753899f","place_name":"Pulau Parit","place_type":"wood","osm_reference":"way/724689153","protection_context":"no protected status confirmed from included OSM tags","resolution_m":50,"raster_coverage":1.0,"interpretation":"Suggested search habitats, not predicted plant locations or probabilities of presence."},"features":[{"type":"Feature","geometry":{"type":"Polygon","coordinates":[[[102.6358356260499,5.066259806882907],[102.63531741765934,5.06547295198461],[102.63479920926878,5.06547295198461],[102.63479920926878,5.065866379317199],[102.6332445840971,5.065866379317199],[102.6332445840971,5.066259806882907],[102.6358356260499,5.066259806882907]]]},"properties":{"place_id":"019e0729-2f5e-5f90-bf80-2d959753899f","habitat":"forest_interior","habitat_label":"Forest interior","resolution_m":50}},{"type":"Feature","geometry":{"type":"Polygon","coordinates":[[[102.63239709999999,5.066035394496486],[102.63537169999998,5.066857694495614],[102.63622599999998,5.066225794496274],[102.63610389999998,5.065842394496665],[102.6351196,5.065290694497251],[102.6341392,5.065847794496677],[102.63304489999999,5.065645994496871],[102.63239709999999,5.066035394496486]],[[102.6332445840971,5.065866379317199],[102.63479920926878,5.065866379317199],[102.63479920926878,5.06547295198461],[102.63531741765934,5.06547295198461],[102.6358356260499,5.066259806882907],[102.6332445840971,5.066259806882907],[102.6332445840971,5.065866379317199]]]},"properties":{"place_id":"019e0729-2f5e-5f90-bf80-2d959753899f","habitat":"forest_edge_opening","habitat_label":"Forest edge or opening","resolution_m":50}},{"type":"Feature","geometry":{"type":"MultiPolygon","coordinates":[[[[102.63479920926878,5.06547295198461],[102.63479920926878,5.065434267897361],[102.63475982041123,5.06547295198461],[102.63479920926878,5.06547295198461]]],[[[102.63531741765934,5.06547295198461],[102.63537230957586,5.06547295198461],[102.63531741765934,5.065428502923211],[102.63531741765934,5.06547295198461]]],[[[102.63376279248766,5.065722780813044],[102.63428100087822,5.065866379317199],[102.63428100087822,5.065790970723231],[102.63376279248766,5.065722780813044]]],[[[102.6358356260499,5.065866379317199],[102.63612292732849,5.065866379317199],[102.6358356260499,5.0657680147972],[102.6358356260499,5.065866379317199]]],[[[102.63272637570654,5.066055203476605],[102.6324373,5.065924594496583],[102.63239709999999,5.066035394496486],[102.63272637570654,5.066055203476605]]],[[[102.6332445840971,5.066259806882907],[102.6330127,5.06637539449614],[102.6332445840971,5.0663273103445015],[102.6332445840971,5.066259806882907]]],[[[102.6358356260499,5.066259806882907],[102.63597920000001,5.066478294496034],[102.6362160591816,5.066259806882907],[102.6358356260499,5.066259806882907]]],[[[102.63531741765934,5.066653234681751],[102.63468538673865,5.066653234681751],[102.63531741765934,5.066847464068542],[102.63531741765934,5.066653234681751]]],[[[102.63423207246234,5.066653234681751],[102.63435509999998,5.066693394495796],[102.63447371342988,5.066653234681751],[102.63423207246234,5.066653234681751]]]]},"properties":{"place_id":"019e0729-2f5e-5f90-bf80-2d959753899f","habitat":"permanent_water","habitat_label":"Permanent water","resolution_m":50}},{"type":"Feature","geometry":{"type":"MultiPolygon","coordinates":[[[[102.63479920926878,5.06547295198461],[102.63479920926878,5.065434267897361],[102.63475982041123,5.06547295198461],[102.63479920926878,5.06547295198461]]],[[[102.63272637570654,5.065866379317199],[102.6332445840971,5.065866379317199],[102.6332445840971,5.065647836373729],[102.63297919999998,5.065656694496843],[102.63272637570654,5.065866379317199]]],[[[102.63376279248766,5.065722780813044],[102.63428100087822,5.065866379317199],[102.63428100087822,5.065790970723231],[102.63376279248766,5.065722780813044]]],[[[102.63272637570654,5.066055203476605],[102.6324373,5.065924594496583],[102.63239709999999,5.066035394496486],[102.63272637570654,5.066055203476605]]],[[[102.63479920926878,5.066653234681751],[102.63537169999998,5.066857694495614],[102.63567504422092,5.066653234681751],[102.63479920926878,5.066653234681751]]]]},"properties":{"place_id":"019e0729-2f5e-5f90-bf80-2d959753899f","habitat":"seasonal_water_wetland","habitat_label":"Seasonal water or wetland","resolution_m":50}},{"type":"Feature","geometry":{"type":"Polygon","coordinates":[[[102.6332445840971,5.066259806882907],[102.63567504422092,5.066653234681751],[102.63622599999998,5.066169694496349],[102.6351196,5.065290694497251],[102.63428100087822,5.065866379317199],[102.63272637570654,5.065866379317199],[102.6332445840971,5.066259806882907]]]},"properties":{"place_id":"019e0729-2f5e-5f90-bf80-2d959753899f","habitat":"water_edge","habitat_label":"Water edge","resolution_m":50}}]}