{"type":"FeatureCollection","metadata":{"schema_version":1,"place_id":"01fe9768-1831-5d87-9fda-8cdc6e935eaa","place_name":"Jalan Permatang 31 Park","place_type":"park","osm_reference":"way/1182469106","protection_context":"no protected status confirmed from included OSM tags","resolution_m":50,"raster_coverage":1.0,"interpretation":"Suggested search habitats, not predicted plant locations or probabilities of presence."},"features":[{"type":"Feature","geometry":{"type":"Polygon","coordinates":[[[103.80461469999999,1.5590321982615791],[103.80421308716662,1.5596831987724789],[103.8045937,1.5601969982602888],[103.80520549999999,1.5597534982607604],[103.80461469999999,1.5590321982615791]]]},"properties":{"place_id":"01fe9768-1831-5d87-9fda-8cdc6e935eaa","habitat":"forest_edge_opening","habitat_label":"Forest edge or opening","resolution_m":50}},{"type":"Feature","geometry":{"type":"Polygon","coordinates":[[[103.80439554676416,1.5592911258633169],[103.80439554676416,1.5596831987724789],[103.8049137551547,1.5596831987724789],[103.80482678157999,1.5592911258633169],[103.80439554676416,1.5592911258633169]]]},"properties":{"place_id":"01fe9768-1831-5d87-9fda-8cdc6e935eaa","habitat":"open_grassland","habitat_label":"Open grassland or shrubland","resolution_m":50}},{"type":"Feature","geometry":{"type":"Polygon","coordinates":[[[103.8045937,1.5601969982602888],[103.80520549999999,1.5597534982607604],[103.80461469999999,1.5590321982615791],[103.80404730000001,1.5594593982610898],[103.8045937,1.5601969982602888]]]},"properties":{"place_id":"01fe9768-1831-5d87-9fda-8cdc6e935eaa","habitat":"disturbed_built_edge","habitat_label":"Disturbed, bare or built edge","resolution_m":50}},{"type":"Feature","geometry":{"type":"MultiPolygon","coordinates":[[[[103.80439554676416,1.5592911258633169],[103.80482678157999,1.5592911258633169],[103.80461469999999,1.5590321982615791],[103.80439554676416,1.5592911258633169]]],[[[103.80514791933805,1.5596831987724789],[103.8049137551547,1.5593973107617192],[103.8049137551547,1.5596831987724789],[103.80514791933805,1.5596831987724789]]]]},"properties":{"place_id":"01fe9768-1831-5d87-9fda-8cdc6e935eaa","habitat":"water_edge","habitat_label":"Water edge","resolution_m":50}}]}