{"type":"FeatureCollection","metadata":{"schema_version":1,"place_id":"03d906ef-041a-5f54-97c7-768356611c50","place_name":"Bukit Mentok Hiking Park","place_type":"wood","osm_reference":"way/705790025","protection_context":"no protected status confirmed from included OSM tags","resolution_m":50,"raster_coverage":1.0,"interpretation":"Suggested search habitats, not predicted plant locations or probabilities of presence."},"features":[{"type":"Feature","geometry":{"type":"MultiPolygon","coordinates":[[[[103.40433866925133,4.220505628529668],[103.40433866925133,4.220112659820514],[103.4048568776419,4.220112659820514],[103.4048568776419,4.21932672298292],[103.40433866925133,4.21932672298292],[103.40433866925133,4.218540786919498],[103.4047848,4.218356395376668],[103.40415767636789,4.216575950146963],[103.4033042,4.216553495378545],[103.40278404407965,4.215397050404557],[103.40141589999999,4.2156439953795015],[103.40122941890797,4.216968917114569],[103.40174762729853,4.216968917114569],[103.40174762729853,4.216575950146963],[103.40278404407965,4.216968917114569],[103.40278404407965,4.217754851630097],[103.4022658356891,4.217754851630097],[103.4022658356891,4.218147819178053],[103.40278404407965,4.218147819178053],[103.40382046086077,4.21932672298292],[103.40278404407965,4.219719691304938],[103.40278404407965,4.21932672298292],[103.40174762729853,4.218933754854449],[103.40122941890797,4.219849928860097],[103.4022658356891,4.220112659820514],[103.40233166455711,4.220505628529668],[103.40330225247021,4.220505628529668],[103.40330225247021,4.22089859743242],[103.40433866925133,4.220505628529668]]],[[[103.40019300212684,4.2178369065257355],[103.3999383,4.21812269537692],[103.40019300212684,4.219126324328653],[103.40019300212684,4.2178369065257355]]],[[[103.40071121051741,4.21932672298292],[103.40026549999999,4.2194119953755225],[103.40071121051741,4.219614493251214],[103.40071121051741,4.21932672298292]]],[[[103.40433866925133,4.221684535818787],[103.40433866925133,4.221291566528787],[103.40342097826189,4.221291566528787],[103.40310581760909,4.221684535818787],[103.40349490168796,4.222077505302439],[103.40433866925133,4.221684535818787]]]]},"properties":{"place_id":"03d906ef-041a-5f54-97c7-768356611c50","habitat":"forest_interior","habitat_label":"Forest interior","resolution_m":50}},{"type":"Feature","geometry":{"type":"MultiPolygon","coordinates":[[[[103.40278404407965,4.215397050404557],[103.40278404407965,4.215790016791975],[103.40304508223578,4.215790016791975],[103.4028672,4.215265895379918],[103.40236377414203,4.215397050404557],[103.40278404407965,4.215397050404557]]],[[[103.40382046086077,4.216453374033384],[103.40415767636789,4.216575950146963],[103.4040957,4.216399995378705],[103.40382046086077,4.216453374033384]]],[[[103.40433866925133,4.217754851630097],[103.40457291927805,4.217754851630097],[103.40433866925133,4.2170898004370505],[103.40433866925133,4.217754851630097]]],[[[103.40174762729853,4.21932672298292],[103.40174762729853,4.218933754854449],[103.4022658356891,4.218933754854449],[103.4022658356891,4.21932672298292],[103.40330225247021,4.219719691304938],[103.40382046086077,4.218933754854449],[103.4022658356891,4.218147819178053],[103.4022658356891,4.217754851630097],[103.40278404407965,4.217754851630097],[103.40278404407965,4.216968917114569],[103.4022658356891,4.216968917114569],[103.4022658356891,4.216575950146963],[103.40122941890797,4.216968917114569],[103.40110055251907,4.216575950146963],[103.40019300212684,4.2178369065257355],[103.40019300212684,4.219126324328653],[103.40122941890797,4.219849928860097],[103.40122941890797,4.21932672298292],[103.40174762729853,4.21932672298292]]],[[[103.4022658356891,4.220112659820514],[103.40180770588114,4.220112659820514],[103.4022658356891,4.220341470785134],[103.4022658356891,4.220112659820514]]],[[[103.40330225247021,4.221684535818787],[103.40330225247021,4.221395371581743],[103.40299839999999,4.221582395373273],[103.40330225247021,4.221684535818787]]],[[[103.40433866925133,4.221291566528787],[103.40433866925133,4.221684535818787],[103.40349490168796,4.222077505302439],[103.4037873,4.222563095372247],[103.40494039999999,4.22133629537353],[103.40431,4.221122295373759],[103.40529979999998,4.21938889537557],[103.40473804837579,4.218540786919498],[103.40433866925133,4.218540786919498],[103.40433866925133,4.21932672298292],[103.4048568776419,4.21932672298292],[103.4048568776419,4.220112659820514],[103.40433866925133,4.220112659820514],[103.40382046086077,4.22089859743242],[103.40330225247021,4.22089859743242],[103.40330225247021,4.220505628529668],[103.40233166455711,4.220505628529668],[103.4024781,4.220870795374005],[103.403036,4.220544495374357],[103.40342097826189,4.221291566528787],[103.40433866925133,4.221291566528787]]]]},"properties":{"place_id":"03d906ef-041a-5f54-97c7-768356611c50","habitat":"forest_edge_opening","habitat_label":"Forest edge or opening","resolution_m":50}},{"type":"Feature","geometry":{"type":"MultiPolygon","coordinates":[[[[103.40174762729853,4.218933754854449],[103.4022658356891,4.216968917114569],[103.40174762729853,4.216968917114569],[103.40174762729853,4.217361884275607],[103.40096657642114,4.216968917114569],[103.40071121051741,4.21932672298292],[103.40174762729853,4.218933754854449]]],[[[103.40278404407965,4.218933754854449],[103.40278404407965,4.218540786919498],[103.4022658356891,4.218540786919498],[103.4022658356891,4.218933754854449],[103.40278404407965,4.218933754854449]]],[[[103.40278404407965,4.218933754854449],[103.40278404407965,4.21932672298292],[103.40330225247021,4.21932672298292],[103.40330225247021,4.218933754854449],[103.40278404407965,4.218933754854449]]],[[[103.4048568776419,4.21932672298292],[103.40515494358417,4.21932672298292],[103.4048568776419,4.219130989349442],[103.4048568776419,4.21932672298292]]],[[[103.40433866925133,4.220505628529668],[103.40451119999999,4.2208894953739815],[103.40465470639867,4.220505628529668],[103.40433866925133,4.220505628529668]]],[[[103.40433866925133,4.221291566528787],[103.4045753266734,4.221291566528787],[103.40433866925133,4.221148643699224],[103.40433866925133,4.221291566528787]]],[[[103.40433866925133,4.222173223663713],[103.40481869999999,4.2218337953729845],[103.40485521232924,4.221684535818787],[103.40433866925133,4.221684535818787],[103.40433866925133,4.222173223663713]]]]},"properties":{"place_id":"03d906ef-041a-5f54-97c7-768356611c50","habitat":"open_grassland","habitat_label":"Open grassland or shrubland","resolution_m":50}},{"type":"Feature","geometry":{"type":"MultiPolygon","coordinates":[[[[103.40278404407965,4.215397050404557],[103.40278404407965,4.215790016791975],[103.40304508223578,4.215790016791975],[103.4028672,4.215265895379918],[103.40236377414203,4.215397050404557],[103.40278404407965,4.215397050404557]]],[[[103.40382046086077,4.216453374033384],[103.40415767636789,4.216575950146963],[103.4040957,4.216399995378705],[103.40382046086077,4.216453374033384]]],[[[103.40122941890797,4.219719691304938],[103.40094275798305,4.219719691304938],[103.40122941890797,4.219849928860097],[103.40122941890797,4.219719691304938]]],[[[103.4048568776419,4.219719691304938],[103.4048568776419,4.220112659820514],[103.40433866925133,4.220112659820514],[103.40433866925133,4.22089859743242],[103.4051871,4.220020195374888],[103.4048568776419,4.219719691304938]]],[[[103.40382046086077,4.22089859743242],[103.40330225247021,4.22089859743242],[103.40330225247021,4.220505628529668],[103.40278404407965,4.220505628529668],[103.40342097826189,4.221291566528787],[103.40382046086077,4.221291566528787],[103.40382046086077,4.22089859743242]]],[[[103.40330225247021,4.221684535818787],[103.40330225247021,4.221395371581743],[103.40299839999999,4.221582395373273],[103.40330225247021,4.221684535818787]]],[[[103.4048568776419,4.221677728151212],[103.40494039999999,4.22133629537353],[103.4048568776419,4.2213260622000925],[103.4048568776419,4.221677728151212]]],[[[103.40433866925133,4.222173223663713],[103.40447403731245,4.222077505302439],[103.40433866925133,4.222077505302439],[103.40433866925133,4.222173223663713]]],[[[103.4037873,4.222563095372247],[103.40382046086077,4.222077505302439],[103.40349490168796,4.222077505302439],[103.4037873,4.222563095372247]]]]},"properties":{"place_id":"03d906ef-041a-5f54-97c7-768356611c50","habitat":"disturbed_built_edge","habitat_label":"Disturbed, bare or built edge","resolution_m":50}}]}