{"type":"FeatureCollection","metadata":{"schema_version":1,"place_id":"04000676-54cd-519c-96e0-cd4663d0ac59","place_name":"Papar Public Park","place_type":"park","osm_reference":"way/469530313","protection_context":"no protected status confirmed from included OSM tags","resolution_m":50,"raster_coverage":1.0,"interpretation":"Suggested search habitats, not predicted plant locations or probabilities of presence."},"features":[{"type":"Feature","geometry":{"type":"Polygon","coordinates":[[[115.93237660000001,5.733982193821174],[115.9328836,5.7335684938215605],[115.9325939,5.7332602938218855],[115.93211109999999,5.733676593821477],[115.93237660000001,5.733982193821174]]]},"properties":{"place_id":"04000676-54cd-519c-96e0-cd4663d0ac59","habitat":"disturbed_built_edge","habitat_label":"Disturbed, bare or built edge","resolution_m":50}}]}