{"type":"FeatureCollection","metadata":{"schema_version":1,"place_id":"041ed284-6c95-5a9e-a4f1-b782ea526be7","place_name":"Taman Awam Beluran","place_type":"park","osm_reference":"way/1084029257","protection_context":"no protected status confirmed from included OSM tags","resolution_m":50,"raster_coverage":1.0,"interpretation":"Suggested search habitats, not predicted plant locations or probabilities of presence."},"features":[{"type":"Feature","geometry":{"type":"Polygon","coordinates":[[[117.5575376,5.8968217936592175],[117.55798689999997,5.897060393658959],[117.5579846,5.896817493659224],[117.5575376,5.8968217936592175]]]},"properties":{"place_id":"041ed284-6c95-5a9e-a4f1-b782ea526be7","habitat":"forest_edge_opening","habitat_label":"Forest edge or opening","resolution_m":50}},{"type":"Feature","geometry":{"type":"Polygon","coordinates":[[[117.5575376,5.8968217936592175],[117.55798689999997,5.897060393658959],[117.5579846,5.896817493659224],[117.5575376,5.8968217936592175]]]},"properties":{"place_id":"041ed284-6c95-5a9e-a4f1-b782ea526be7","habitat":"disturbed_built_edge","habitat_label":"Disturbed, bare or built edge","resolution_m":50}}]}