{"type":"FeatureCollection","metadata":{"schema_version":1,"place_id":"04e4a1dc-c522-5399-8cea-43fc32121bfb","place_name":"Celebration Park","place_type":"park","osm_reference":"way/1452315459","protection_context":"no protected status confirmed from included OSM tags","resolution_m":50,"raster_coverage":1.0,"interpretation":"Suggested search habitats, not predicted plant locations or probabilities of presence."},"features":[{"type":"Feature","geometry":{"type":"Polygon","coordinates":[[[101.54345233874807,3.326715280496191],[101.54332102556249,3.326574212777056],[101.5434374,3.3267196963262267],[101.54345233874807,3.326715280496191]]]},"properties":{"place_id":"04e4a1dc-c522-5399-8cea-43fc32121bfb","habitat":"forest_interior","habitat_label":"Forest interior","resolution_m":50}},{"type":"Feature","geometry":{"type":"Polygon","coordinates":[[[101.54345233874807,3.326574212777056],[101.544377,3.326273996326739],[101.54527345144982,3.326574212777056],[101.5455251723103,3.326023065305603],[101.5439328,3.3249844963281014],[101.5431436,3.32627939632674],[101.54345233874807,3.326574212777056]],[[101.54397054713864,3.3253964872868833],[101.5444887555292,3.3253964872868833],[101.5444887555292,3.3261816374615156],[101.54397054713864,3.3261816374615156],[101.54397054713864,3.3253964872868833]]]},"properties":{"place_id":"04e4a1dc-c522-5399-8cea-43fc32121bfb","habitat":"forest_edge_opening","habitat_label":"Forest edge or opening","resolution_m":50}},{"type":"Feature","geometry":{"type":"MultiPolygon","coordinates":[[[[101.54397054713864,3.3250039124277544],[101.54397054713864,3.3253964872868833],[101.5444887555292,3.3253964872868833],[101.5444887555292,3.3252074482714393],[101.54397054713864,3.3250039124277544]]],[[[101.54397054713864,3.3257890622981305],[101.54397054713864,3.3253964872868833],[101.54364279037836,3.3253964872868833],[101.54342083125574,3.3257890622981305],[101.54397054713864,3.3257890622981305]]],[[[101.54478061543624,3.3253964872868833],[101.5444887555292,3.3257890622981305],[101.54500696391975,3.3257890622981305],[101.54478061543624,3.3253964872868833]]],[[[101.54397054713864,3.326471751923604],[101.5444887555292,3.32631607784414],[101.5444887555292,3.3261816374615156],[101.54397054713864,3.3261816374615156],[101.54397054713864,3.326471751923604]]],[[[101.54500696391975,3.3261816374615156],[101.54527345144982,3.326574212777056],[101.5455251723103,3.3261816374615156],[101.54500696391975,3.3261816374615156]]]]},"properties":{"place_id":"04e4a1dc-c522-5399-8cea-43fc32121bfb","habitat":"open_grassland","habitat_label":"Open grassland or shrubland","resolution_m":50}},{"type":"Feature","geometry":{"type":"Polygon","coordinates":[[[101.54345233874807,3.326574212777056],[101.544377,3.326273996326739],[101.5452553,3.3266001963263747],[101.54556029999998,3.326067096326926],[101.54397054713864,3.3249898175106503],[101.5431436,3.32627939632674],[101.54345233874807,3.326574212777056]],[[101.5444887555292,3.3253964872868833],[101.5444887555292,3.3257890622981305],[101.54397054713864,3.3257890622981305],[101.54397054713864,3.3253964872868833],[101.5444887555292,3.3253964872868833]]]},"properties":{"place_id":"04e4a1dc-c522-5399-8cea-43fc32121bfb","habitat":"disturbed_built_edge","habitat_label":"Disturbed, bare or built edge","resolution_m":50}},{"type":"Feature","geometry":{"type":"Polygon","coordinates":[[[101.54500696391975,3.3261816374615156],[101.54500696391975,3.3257890622981305],[101.54397054713864,3.3253964872868833],[101.54397054713864,3.3261816374615156],[101.54500696391975,3.3261816374615156]]]},"properties":{"place_id":"04e4a1dc-c522-5399-8cea-43fc32121bfb","habitat":"permanent_water","habitat_label":"Permanent water","resolution_m":50}},{"type":"Feature","geometry":{"type":"Polygon","coordinates":[[[101.5455251723103,3.3261816374615156],[101.54467969999997,3.325266096327817],[101.5439328,3.3249844963281014],[101.5431271,3.3263374963266528],[101.54527345144982,3.326574212777056],[101.5455251723103,3.3261816374615156]],[[101.54397054713864,3.3253964872868833],[101.5444887555292,3.3253964872868833],[101.54500696391975,3.3261816374615156],[101.54397054713864,3.3261816374615156],[101.54397054713864,3.3253964872868833]]]},"properties":{"place_id":"04e4a1dc-c522-5399-8cea-43fc32121bfb","habitat":"water_edge","habitat_label":"Water edge","resolution_m":50}}]}