{"type":"FeatureCollection","metadata":{"schema_version":1,"place_id":"04e7e7a9-2667-58ba-9938-5aa4bc5710b8","place_name":"Setia Tropika Town Park","place_type":"park","osm_reference":"way/619100244","protection_context":"no protected status confirmed from included OSM tags","resolution_m":50,"raster_coverage":1.0,"interpretation":"Suggested search habitats, not predicted plant locations or probabilities of presence."},"features":[{"type":"Feature","geometry":{"type":"MultiPolygon","coordinates":[[[[103.71992757910276,1.5451765483332298],[103.71992757910276,1.5449783775626356],[103.71958476109569,1.5451765483332298],[103.71992757910276,1.5451765483332298]]],[[[103.72164451611313,1.5440003376710107],[103.72200041266501,1.5443924078213458],[103.72096399588389,1.5443805034789986],[103.72026300825299,1.5447844780420792],[103.72044578749332,1.5451765483332298],[103.71992757910276,1.5451765483332298],[103.71992757910276,1.5455686186948152],[103.71940937071221,1.5452779352181618],[103.71849119999999,1.5454927982765807],[103.7184954,1.5461222982758935],[103.72071040000002,1.5457377982763116],[103.722553,1.544672098277478],[103.7219736,1.5438164982784297],[103.72164451611313,1.5440003376710107]],[[103.71940937071221,1.5459606891268531],[103.71889116232164,1.5459606891268531],[103.71889116232164,1.5455686186948152],[103.71940937071221,1.5455686186948152],[103.71940937071221,1.5459606891268531]]]]},"properties":{"place_id":"04e7e7a9-2667-58ba-9938-5aa4bc5710b8","habitat":"forest_edge_opening","habitat_label":"Forest edge or opening","resolution_m":50}},{"type":"Feature","geometry":{"type":"MultiPolygon","coordinates":[[[[103.72200041266501,1.5440003376710107],[103.72096399588389,1.5443924078213458],[103.72096399588389,1.5447844780420792],[103.72200041266501,1.5447844780420792],[103.72200041266501,1.5440003376710107]]],[[[103.72044578749332,1.5451765483332298],[103.72096399588389,1.5451765483332298],[103.72096399588389,1.5447844780420792],[103.72026300825299,1.5447844780420792],[103.71940937071221,1.5455686186948152],[103.71992757910276,1.5455686186948152],[103.71992757910276,1.5459152861575376],[103.72044578749332,1.5457977934962364],[103.72044578749332,1.5451765483332298]]],[[[103.71940937071221,1.5459606891268531],[103.71940937071221,1.5455686186948152],[103.71889116232164,1.5455686186948152],[103.71889116232164,1.5459606891268531],[103.71940937071221,1.5459606891268531]]]]},"properties":{"place_id":"04e7e7a9-2667-58ba-9938-5aa4bc5710b8","habitat":"open_grassland","habitat_label":"Open grassland or shrubland","resolution_m":50}},{"type":"Feature","geometry":{"type":"Polygon","coordinates":[[[103.7184954,1.5461222982758935],[103.72071040000002,1.5457377982763116],[103.722553,1.544672098277478],[103.7219736,1.5438164982784297],[103.71849119999999,1.5454927982765807],[103.7184954,1.5461222982758935]],[[103.72148220427445,1.5451765483332298],[103.72096399588389,1.5451765483332298],[103.72096399588389,1.5455686186948152],[103.71992757910276,1.5455686186948152],[103.72044578749332,1.5447844780420792],[103.72148220427445,1.5447844780420792],[103.72148220427445,1.5451765483332298]],[[103.72148220427445,1.5443924078213458],[103.72200041266501,1.5443924078213458],[103.72200041266501,1.5447844780420792],[103.72148220427445,1.5447844780420792],[103.72148220427445,1.5443924078213458]]]},"properties":{"place_id":"04e7e7a9-2667-58ba-9938-5aa4bc5710b8","habitat":"disturbed_built_edge","habitat_label":"Disturbed, bare or built edge","resolution_m":50}}]}