{"type":"FeatureCollection","metadata":{"schema_version":1,"place_id":"05290e63-1d9c-53fe-8dd6-92f4457321a8","place_name":"Temerloh Recreational park","place_type":"park","osm_reference":"way/560138514","protection_context":"no protected status confirmed from included OSM tags","resolution_m":50,"raster_coverage":1.0,"interpretation":"Suggested search habitats, not predicted plant locations or probabilities of presence."},"features":[{"type":"Feature","geometry":{"type":"Polygon","coordinates":[[[102.41584420000001,3.447018496196874],[102.41614460000001,3.4466650961972363],[102.4160212,3.44661149619729],[102.41584420000001,3.447018496196874]]]},"properties":{"place_id":"05290e63-1d9c-53fe-8dd6-92f4457321a8","habitat":"forest_edge_opening","habitat_label":"Forest edge or opening","resolution_m":50}},{"type":"Feature","geometry":{"type":"Polygon","coordinates":[[[102.41584420000001,3.447018496196874],[102.41614460000001,3.4466650961972363],[102.4160212,3.44661149619729],[102.41584420000001,3.447018496196874]]]},"properties":{"place_id":"05290e63-1d9c-53fe-8dd6-92f4457321a8","habitat":"disturbed_built_edge","habitat_label":"Disturbed, bare or built edge","resolution_m":50}}]}