{"type":"FeatureCollection","metadata":{"schema_version":1,"place_id":"0591bdb8-e7d8-5400-9655-a7890e7a753e","place_name":"Taman In Ling Park","place_type":"park","osm_reference":"way/1380588517","protection_context":"no protected status confirmed from included OSM tags","resolution_m":50,"raster_coverage":1.0,"interpretation":"Suggested search habitats, not predicted plant locations or probabilities of presence."},"features":[{"type":"Feature","geometry":{"type":"Polygon","coordinates":[[[110.34037451489839,1.3989390615014328],[110.3403512,1.3988982984393155],[110.34028230900603,1.3989390615014328],[110.34037451489839,1.3989390615014328]]]},"properties":{"place_id":"0591bdb8-e7d8-5400-9655-a7890e7a753e","habitat":"forest_edge_opening","habitat_label":"Forest edge or opening","resolution_m":50}},{"type":"Feature","geometry":{"type":"Polygon","coordinates":[[[110.34037451489839,1.3989390615014328],[110.34005949999998,1.3990708984390943],[110.34055797690552,1.3993311068329426],[110.34037451489839,1.3989390615014328]]]},"properties":{"place_id":"0591bdb8-e7d8-5400-9655-a7890e7a753e","habitat":"open_grassland","habitat_label":"Open grassland or shrubland","resolution_m":50}},{"type":"Feature","geometry":{"type":"Polygon","coordinates":[[[110.3403512,1.3988982984393155],[110.34032269999997,1.40000269843809],[110.3407653,1.3996222984384956],[110.3403512,1.3988982984393155]]]},"properties":{"place_id":"0591bdb8-e7d8-5400-9655-a7890e7a753e","habitat":"disturbed_built_edge","habitat_label":"Disturbed, bare or built edge","resolution_m":50}}]}