{"type":"FeatureCollection","metadata":{"schema_version":1,"place_id":"05ac7bb3-7a86-5110-9506-518d39b82a51","place_name":"Taman Chong Tain Vun","place_type":"park","osm_reference":"way/1082308068","protection_context":"no protected status confirmed from included OSM tags","resolution_m":50,"raster_coverage":1.0,"interpretation":"Suggested search habitats, not predicted plant locations or probabilities of presence."},"features":[{"type":"Feature","geometry":{"type":"Polygon","coordinates":[[[118.0998411,5.842053293713561],[118.0991977,5.8420156937135905],[118.0997303,5.84228299371333],[118.0998411,5.842053293713561]]]},"properties":{"place_id":"05ac7bb3-7a86-5110-9506-518d39b82a51","habitat":"forest_interior","habitat_label":"Forest interior","resolution_m":50}},{"type":"Feature","geometry":{"type":"Polygon","coordinates":[[[118.09947695289011,5.841788347784682],[118.09915800000002,5.841533993714087],[118.09881799999997,5.841509793714097],[118.0989063,5.841814093713795],[118.09947695289011,5.841788347784682]]]},"properties":{"place_id":"05ac7bb3-7a86-5110-9506-518d39b82a51","habitat":"forest_edge_opening","habitat_label":"Forest edge or opening","resolution_m":50}},{"type":"Feature","geometry":{"type":"Polygon","coordinates":[[[118.09947695289011,5.841788347784682],[118.09915800000002,5.841533993714087],[118.09881799999997,5.841509793714097],[118.0989063,5.841814093713795],[118.09947695289011,5.841788347784682]]]},"properties":{"place_id":"05ac7bb3-7a86-5110-9506-518d39b82a51","habitat":"disturbed_built_edge","habitat_label":"Disturbed, bare or built edge","resolution_m":50}}]}