{"type":"FeatureCollection","metadata":{"schema_version":1,"place_id":"05bf1d8f-1de3-52a6-8c0c-d9b08662e272","place_name":"Dataran Shah Alam","place_type":"park","osm_reference":"relation/19348060","protection_context":"no protected status confirmed from included OSM tags","resolution_m":50,"raster_coverage":1.0,"interpretation":"Suggested search habitats, not predicted plant locations or probabilities of presence."},"features":[{"type":"Feature","geometry":{"type":"Polygon","coordinates":[[[101.5177848,3.0740352965991105],[101.51823970000001,3.0743378965987977],[101.51842519999998,3.0735955965996125],[101.51800079999998,3.0735005965997235],[101.5177848,3.0740352965991105]],[[101.51806019999998,3.0739073965992594],[101.51813779999999,3.073824096599375],[101.51813719999998,3.0739133965992536],[101.51806019999998,3.0739073965992594]],[[101.518211,3.073898596599253],[101.518304,3.0739204965992486],[101.51821609999999,3.0740209965991214],[101.518211,3.073898596599253]]]},"properties":{"place_id":"05bf1d8f-1de3-52a6-8c0c-d9b08662e272","habitat":"disturbed_built_edge","habitat_label":"Disturbed, bare or built edge","resolution_m":50}}]}