{"type":"FeatureCollection","metadata":{"schema_version":1,"place_id":"06ca18db-8aa7-53fa-87c1-2eed7e4f9bf1","place_name":"Taman Seri Pandan","place_type":"park","osm_reference":"way/591308752","protection_context":"no protected status confirmed from included OSM tags","resolution_m":50,"raster_coverage":1.0,"interpretation":"Suggested search habitats, not predicted plant locations or probabilities of presence."},"features":[{"type":"Feature","geometry":{"type":"Polygon","coordinates":[[[102.2290420394598,2.2163459393207967],[102.2291119,2.216273397535555],[102.2290420394598,2.216202705319837],[102.2290420394598,2.2163459393207967]]]},"properties":{"place_id":"06ca18db-8aa7-53fa-87c1-2eed7e4f9bf1","habitat":"forest_edge_opening","habitat_label":"Forest edge or opening","resolution_m":50}},{"type":"Feature","geometry":{"type":"MultiPolygon","coordinates":[[[[102.2294604343238,2.215342502927593],[102.2290420394598,2.2157347198546478],[102.22930247223108,2.2157347198546478],[102.2294604343238,2.215342502927593]]],[[[102.2290420394598,2.216202705319837],[102.22862920856684,2.216126936882807],[102.22852383106924,2.2165191540120897],[102.22887522703732,2.2165191540120897],[102.2290420394598,2.216202705319837]]]]},"properties":{"place_id":"06ca18db-8aa7-53fa-87c1-2eed7e4f9bf1","habitat":"open_grassland","habitat_label":"Open grassland or shrubland","resolution_m":50}},{"type":"Feature","geometry":{"type":"Polygon","coordinates":[[[102.2284501,2.2169605975348206],[102.2294972,2.2155435975363624],[102.2293869,2.2149402975370354],[102.2289828,2.2150563975368955],[102.2284501,2.2169605975348206]]]},"properties":{"place_id":"06ca18db-8aa7-53fa-87c1-2eed7e4f9bf1","habitat":"disturbed_built_edge","habitat_label":"Disturbed, bare or built edge","resolution_m":50}}]}