{"type":"FeatureCollection","metadata":{"schema_version":1,"place_id":"06cd00c9-5738-5151-bab8-10f82f2963ca","place_name":"Taman Wawasan 2","place_type":"park","osm_reference":"way/202973799","protection_context":"no protected status confirmed from included OSM tags","resolution_m":50,"raster_coverage":1.0,"interpretation":"Suggested search habitats, not predicted plant locations or probabilities of presence."},"features":[{"type":"Feature","geometry":{"type":"Polygon","coordinates":[[[101.6233366,3.02894799664798],[101.6250638,3.0296949966471485],[101.62534829999998,3.02912749664778],[101.6246106,3.0287390966481795],[101.6245355,3.0281524966488145],[101.6233366,3.02894799664798]]]},"properties":{"place_id":"06cd00c9-5738-5151-bab8-10f82f2963ca","habitat":"forest_edge_opening","habitat_label":"Forest edge or opening","resolution_m":50}},{"type":"Feature","geometry":{"type":"Polygon","coordinates":[[[101.62429284767553,3.0290444681930424],[101.62429284767553,3.0286520030170725],[101.62377463928497,3.0286520030170725],[101.62377463928497,3.0290444681930424],[101.62429284767553,3.0290444681930424]]]},"properties":{"place_id":"06cd00c9-5738-5151-bab8-10f82f2963ca","habitat":"open_grassland","habitat_label":"Open grassland or shrubland","resolution_m":50}},{"type":"Feature","geometry":{"type":"Polygon","coordinates":[[[101.6233366,3.02894799664798],[101.6250638,3.0296949966471485],[101.62534829999998,3.02912749664778],[101.6246106,3.0287390966481795],[101.6245355,3.0281524966488145],[101.6233366,3.02894799664798]]]},"properties":{"place_id":"06cd00c9-5738-5151-bab8-10f82f2963ca","habitat":"disturbed_built_edge","habitat_label":"Disturbed, bare or built edge","resolution_m":50}}]}