{"type":"FeatureCollection","metadata":{"schema_version":1,"place_id":"07860862-652c-5de7-962e-3f4375392a03","place_name":"Taman Bandar Ampang Jajar","place_type":"park","osm_reference":"way/615823557","protection_context":"no protected status confirmed from included OSM tags","resolution_m":50,"raster_coverage":1.0,"interpretation":"Suggested search habitats, not predicted plant locations or probabilities of presence."},"features":[{"type":"Feature","geometry":{"type":"MultiPolygon","coordinates":[[[[100.40494850468635,5.4157176677253505],[100.40443029629579,5.4157176677253505],[100.40443029629579,5.4168985948695445],[100.40471372661284,5.4168985948695445],[100.40494850468635,5.4157176677253505]]],[[[100.40461171292246,5.4172922377502095],[100.40443029629579,5.417550258712326],[100.4045445,5.417551594138931],[100.40461171292246,5.4172922377502095]]]]},"properties":{"place_id":"07860862-652c-5de7-962e-3f4375392a03","habitat":"forest_interior","habitat_label":"Forest interior","resolution_m":50}},{"type":"Feature","geometry":{"type":"Polygon","coordinates":[[[100.40386239999998,5.414476894142021],[100.4036209,5.417540794138944],[100.40443029629579,5.417550258712326],[100.40443029629579,5.4157176677253505],[100.40504339999998,5.415719294140812],[100.4048345,5.414435194142087],[100.40386239999998,5.414476894142021]]]},"properties":{"place_id":"07860862-652c-5de7-962e-3f4375392a03","habitat":"forest_edge_opening","habitat_label":"Forest edge or opening","resolution_m":50}},{"type":"Feature","geometry":{"type":"Polygon","coordinates":[[[100.40443029629579,5.4157176677253505],[100.40443029629579,5.415324025843158],[100.40391208790521,5.415324025843158],[100.40391208790521,5.4157176677253505],[100.40443029629579,5.4157176677253505]]]},"properties":{"place_id":"07860862-652c-5de7-962e-3f4375392a03","habitat":"open_grassland","habitat_label":"Open grassland or shrubland","resolution_m":50}},{"type":"Feature","geometry":{"type":"MultiPolygon","coordinates":[[[[100.40391208790521,5.41453674282747],[100.40391208790521,5.414930384210537],[100.40494850468635,5.415324025843158],[100.40494850468635,5.415808352515812],[100.40507299999999,5.4154326941410575],[100.4048345,5.414435194142087],[100.40391208790521,5.41453674282747]]],[[[100.40443029629579,5.417550258712326],[100.40471372661284,5.4168985948695445],[100.40391208790521,5.416504952238526],[100.40364730552744,5.4172922377502095],[100.40443029629579,5.417550258712326]]]]},"properties":{"place_id":"07860862-652c-5de7-962e-3f4375392a03","habitat":"disturbed_built_edge","habitat_label":"Disturbed, bare or built edge","resolution_m":50}},{"type":"Feature","geometry":{"type":"Polygon","coordinates":[[[100.40391208790521,5.414480046815085],[100.4038958,5.416412594140096],[100.4036209,5.417540794138944],[100.40391208790521,5.417544199107929],[100.40391208790521,5.414480046815085]]]},"properties":{"place_id":"07860862-652c-5de7-962e-3f4375392a03","habitat":"permanent_water","habitat_label":"Permanent water","resolution_m":50}},{"type":"Feature","geometry":{"type":"Polygon","coordinates":[[[100.40364730552744,5.4172922377502095],[100.40391208790521,5.4168985948695445],[100.40372690893935,5.4168985948695445],[100.40364730552744,5.4172922377502095]]]},"properties":{"place_id":"07860862-652c-5de7-962e-3f4375392a03","habitat":"seasonal_water_wetland","habitat_label":"Seasonal water or wetland","resolution_m":50}},{"type":"Feature","geometry":{"type":"Polygon","coordinates":[[[100.40391208790521,5.417544199107929],[100.4045445,5.417551594138931],[100.4048345,5.414435194142087],[100.40391208790521,5.414480046815085],[100.40391208790521,5.417544199107929]]]},"properties":{"place_id":"07860862-652c-5de7-962e-3f4375392a03","habitat":"water_edge","habitat_label":"Water edge","resolution_m":50}}]}