{"type":"FeatureCollection","metadata":{"schema_version":1,"place_id":"08395816-1f8a-5a85-afc6-14a28a0e97da","place_name":"Kolam Takungan Mesra Alam Taman Puncak Jalil (KT19)","place_type":"park","osm_reference":"way/1424611213","protection_context":"no protected status confirmed from included OSM tags","resolution_m":50,"raster_coverage":1.0,"interpretation":"Suggested search habitats, not predicted plant locations or probabilities of presence."},"features":[{"type":"Feature","geometry":{"type":"Polygon","coordinates":[[[101.6777855,3.034316396642126],[101.6766956,3.033543596642979],[101.676393,3.032776896643825],[101.6757163,3.0343636966421013],[101.6777855,3.034316396642126]]]},"properties":{"place_id":"08395816-1f8a-5a85-afc6-14a28a0e97da","habitat":"forest_edge_opening","habitat_label":"Forest edge or opening","resolution_m":50}},{"type":"Feature","geometry":{"type":"Polygon","coordinates":[[[101.676393,3.032776896643825],[101.6757163,3.0343636966421013],[101.677946,3.034297396642168],[101.6766956,3.033543596642979],[101.676393,3.032776896643825]]]},"properties":{"place_id":"08395816-1f8a-5a85-afc6-14a28a0e97da","habitat":"disturbed_built_edge","habitat_label":"Disturbed, bare or built edge","resolution_m":50}},{"type":"Feature","geometry":{"type":"Polygon","coordinates":[[[101.67663189512216,3.034146528086765],[101.67663189512216,3.033754061109452],[101.6761136867316,3.033754061109452],[101.6761136867316,3.034146528086765],[101.67663189512216,3.034146528086765]]]},"properties":{"place_id":"08395816-1f8a-5a85-afc6-14a28a0e97da","habitat":"permanent_water","habitat_label":"Permanent water","resolution_m":50}},{"type":"Feature","geometry":{"type":"Polygon","coordinates":[[[101.67629812516253,3.0329691275708277],[101.6757163,3.0343636966421013],[101.67766831190329,3.034146528086765],[101.6766956,3.033543596642979],[101.67629812516253,3.0329691275708277]],[[101.6761136867316,3.033754061109452],[101.67663189512216,3.033754061109452],[101.67663189512216,3.034146528086765],[101.6761136867316,3.034146528086765],[101.6761136867316,3.033754061109452]]]},"properties":{"place_id":"08395816-1f8a-5a85-afc6-14a28a0e97da","habitat":"water_edge","habitat_label":"Water edge","resolution_m":50}}]}