{"type":"FeatureCollection","metadata":{"schema_version":1,"place_id":"08518da7-8360-5323-b5c5-ed96cf75287a","place_name":"Taman Permainan · OSM way/781364799","place_type":"park","osm_reference":"way/781364799","protection_context":"no protected status confirmed from included OSM tags","resolution_m":50,"raster_coverage":1.0,"interpretation":"Suggested search habitats, not predicted plant locations or probabilities of presence."},"features":[{"type":"Feature","geometry":{"type":"Polygon","coordinates":[[[101.52479683668788,3.1534630035703044],[101.5248177,3.1530313965136356],[101.52356159999998,3.153103696513561],[101.52360419999998,3.1536095965130215],[101.52479683668788,3.1534630035703044]]]},"properties":{"place_id":"08518da7-8360-5323-b5c5-ed96cf75287a","habitat":"forest_edge_opening","habitat_label":"Forest edge or opening","resolution_m":50}},{"type":"Feature","geometry":{"type":"Polygon","coordinates":[[[101.52376041990676,3.1534630035703044],[101.52427862829734,3.1534630035703044],[101.52427862829734,3.153070493598131],[101.52376041990676,3.153092252616056],[101.52376041990676,3.1534630035703044]]]},"properties":{"place_id":"08518da7-8360-5323-b5c5-ed96cf75287a","habitat":"open_grassland","habitat_label":"Open grassland or shrubland","resolution_m":50}},{"type":"Feature","geometry":{"type":"Polygon","coordinates":[[[101.52376041990676,3.1534630035703044],[101.52485169999997,3.153520296513122],[101.5248177,3.1530313965136356],[101.52376041990676,3.153092252616056],[101.52376041990676,3.1534630035703044]]]},"properties":{"place_id":"08518da7-8360-5323-b5c5-ed96cf75287a","habitat":"disturbed_built_edge","habitat_label":"Disturbed, bare or built edge","resolution_m":50}}]}