{"type":"FeatureCollection","metadata":{"schema_version":1,"place_id":"08b5cd84-c552-53cc-acaf-3aba02adb6d5","place_name":"Taman Dusun Bandar","place_type":"park","osm_reference":"way/327173028","protection_context":"no protected status confirmed from included OSM tags","resolution_m":50,"raster_coverage":1.0,"interpretation":"Suggested search habitats, not predicted plant locations or probabilities of presence."},"features":[{"type":"Feature","geometry":{"type":"MultiPolygon","coordinates":[[[[101.6932145636201,3.129520158448668],[101.69373277201065,3.129520158448668],[101.69373277201065,3.129127657237789],[101.69476918879178,3.129127657237789],[101.69476918879178,3.1287351561699777],[101.6932145636201,3.1289365472162745],[101.6932145636201,3.129520158448668]]],[[[101.69528739718234,3.129520158448668],[101.69476918879178,3.129127657237789],[101.69476918879178,3.129520158448668],[101.69528739718234,3.129520158448668]]],[[[101.69528739718234,3.129912659802632],[101.6958056055729,3.129912659802632],[101.69544070697218,3.129520158448668],[101.69528739718234,3.129520158448668],[101.69528739718234,3.129912659802632]]],[[[101.6932145636201,3.1303051612996984],[101.69373277201065,3.1303051612996984],[101.69373277201065,3.129912659802632],[101.6932145636201,3.129912659802632],[101.6932145636201,3.1303051612996984]]],[[[101.6958056055729,3.1303051612996984],[101.69623547016413,3.1303051612996984],[101.69592693042834,3.129912659802632],[101.6958056055729,3.129912659802632],[101.6958056055729,3.1303051612996984]]]]},"properties":{"place_id":"08b5cd84-c552-53cc-acaf-3aba02adb6d5","habitat":"forest_interior","habitat_label":"Forest interior","resolution_m":50}},{"type":"Feature","geometry":{"type":"MultiPolygon","coordinates":[[[[101.69440536761851,3.1287351561699777],[101.69476918879178,3.129127657237789],[101.69524319694165,3.129127657237789],[101.6950384,3.1286280965400515],[101.69440536761851,3.1287351561699777]]],[[[101.69528739718234,3.129520158448668],[101.69544070697218,3.129520158448668],[101.69528739718234,3.1292354748113316],[101.69528739718234,3.129520158448668]]],[[[101.6958056055729,3.129912659802632],[101.69592693042834,3.129912659802632],[101.6958056055729,3.129814720931232],[101.6958056055729,3.129912659802632]]],[[[101.69476918879178,3.129520158448668],[101.69476918879178,3.129127657237789],[101.69373277201065,3.129127657237789],[101.69373277201065,3.129520158448668],[101.6932145636201,3.129520158448668],[101.6932145636201,3.1289365472162745],[101.6924521,3.1290654965395643],[101.6926183,3.1306283965378854],[101.69389509999999,3.1308941965375983],[101.6940123,3.129812496538756],[101.69500539999999,3.130400096538131],[101.6962819,3.1304141965381116],[101.69528739718234,3.129912659802632],[101.69528739718234,3.129520158448668],[101.69476918879178,3.129520158448668]],[[101.69373277201065,3.1303051612996984],[101.6932145636201,3.1303051612996984],[101.6932145636201,3.129912659802632],[101.69373277201065,3.129912659802632],[101.69373277201065,3.1303051612996984]]]]},"properties":{"place_id":"08b5cd84-c552-53cc-acaf-3aba02adb6d5","habitat":"forest_edge_opening","habitat_label":"Forest edge or opening","resolution_m":50}},{"type":"Feature","geometry":{"type":"MultiPolygon","coordinates":[[[[101.69440536761851,3.1287351561699777],[101.69476918879178,3.129127657237789],[101.69524319694165,3.129127657237789],[101.6950384,3.1286280965400515],[101.69440536761851,3.1287351561699777]]],[[[101.69528739718234,3.129520158448668],[101.69544070697218,3.129520158448668],[101.69528739718234,3.1292354748113316],[101.69528739718234,3.129520158448668]]],[[[101.6958056055729,3.129912659802632],[101.69592693042834,3.129912659802632],[101.6958056055729,3.129814720931232],[101.6958056055729,3.129912659802632]]],[[[101.69476918879178,3.129520158448668],[101.69476918879178,3.129127657237789],[101.69373277201065,3.129127657237789],[101.69373277201065,3.129520158448668],[101.6932145636201,3.129520158448668],[101.6932145636201,3.1289365472162745],[101.6924521,3.1290654965395643],[101.6926183,3.1306283965378854],[101.69389509999999,3.1308941965375983],[101.6940123,3.129812496538756],[101.69500539999999,3.130400096538131],[101.6962819,3.1304141965381116],[101.69528739718234,3.129912659802632],[101.69528739718234,3.129520158448668],[101.69476918879178,3.129520158448668]],[[101.69373277201065,3.1303051612996984],[101.6932145636201,3.1303051612996984],[101.6932145636201,3.129912659802632],[101.69373277201065,3.129912659802632],[101.69373277201065,3.1303051612996984]]]]},"properties":{"place_id":"08b5cd84-c552-53cc-acaf-3aba02adb6d5","habitat":"disturbed_built_edge","habitat_label":"Disturbed, bare or built edge","resolution_m":50}}]}