{"type":"FeatureCollection","metadata":{"schema_version":1,"place_id":"08baddfe-5502-5e3f-9491-0aac35e97129","place_name":"Park Taman Kemuning","place_type":"park","osm_reference":"way/589050847","protection_context":"no protected status confirmed from included OSM tags","resolution_m":50,"raster_coverage":1.0,"interpretation":"Suggested search habitats, not predicted plant locations or probabilities of presence."},"features":[{"type":"Feature","geometry":{"type":"Polygon","coordinates":[[[101.9847196,2.693837197012372],[101.98559283418946,2.6947124705922785],[101.98630417095002,2.6943201168195685],[101.98578619999999,2.6938396970123835],[101.98554280000002,2.694083497012118],[101.98511189999999,2.6932225970130537],[101.9847196,2.693837197012372]]]},"properties":{"place_id":"08baddfe-5502-5e3f-9491-0aac35e97129","habitat":"forest_edge_opening","habitat_label":"Forest edge or opening","resolution_m":50}},{"type":"Feature","geometry":{"type":"Polygon","coordinates":[[[101.98600230428686,2.6947124705922785],[101.98600230428686,2.6943201168195685],[101.9854840958963,2.6943201168195685],[101.98559283418946,2.6947124705922785],[101.98600230428686,2.6947124705922785]]]},"properties":{"place_id":"08baddfe-5502-5e3f-9491-0aac35e97129","habitat":"open_grassland","habitat_label":"Open grassland or shrubland","resolution_m":50}},{"type":"Feature","geometry":{"type":"Polygon","coordinates":[[[101.9848924,2.6939701970122694],[101.98560689999998,2.69472939701142],[101.98573609999998,2.6950341970111062],[101.9864335,2.694371397011809],[101.98578619999999,2.6938396970123835],[101.98554280000002,2.694083497012118],[101.98511189999999,2.6932225970130537],[101.9848924,2.6939701970122694]]]},"properties":{"place_id":"08baddfe-5502-5e3f-9491-0aac35e97129","habitat":"disturbed_built_edge","habitat_label":"Disturbed, bare or built edge","resolution_m":50}}]}