{"type":"FeatureCollection","metadata":{"schema_version":1,"place_id":"08dde778-2f5f-5772-8cb7-9ab216a18ff9","place_name":"Wong Nai Siong Memorial Park","place_type":"park","osm_reference":"way/553063951","protection_context":"no protected status confirmed from included OSM tags","resolution_m":50,"raster_coverage":1.0,"interpretation":"Suggested search habitats, not predicted plant locations or probabilities of presence."},"features":[{"type":"Feature","geometry":{"type":"Polygon","coordinates":[[[111.83825709999999,2.3250935974159757],[111.837913,2.3260310974149436],[111.83802599999999,2.325880197415124],[111.8381597,2.3255353974155146],[111.83865709999999,2.32517139741593],[111.8385827,2.3250139974160695],[111.83825709999999,2.3250935974159757]]]},"properties":{"place_id":"08dde778-2f5f-5772-8cb7-9ab216a18ff9","habitat":"forest_edge_opening","habitat_label":"Forest edge or opening","resolution_m":50}},{"type":"Feature","geometry":{"type":"Polygon","coordinates":[[[111.83825709999999,2.3250935974159757],[111.837913,2.3260310974149436],[111.83802599999999,2.325880197415124],[111.8381597,2.3255353974155146],[111.83865709999999,2.32517139741593],[111.8385827,2.3250139974160695],[111.83825709999999,2.3250935974159757]]]},"properties":{"place_id":"08dde778-2f5f-5772-8cb7-9ab216a18ff9","habitat":"disturbed_built_edge","habitat_label":"Disturbed, bare or built edge","resolution_m":50}},{"type":"Feature","geometry":{"type":"Polygon","coordinates":[[[111.83815017254774,2.325559502643191],[111.83865709999999,2.32517139741593],[111.8385827,2.3250139974160695],[111.83825709999999,2.3250935974159757],[111.83815017254774,2.325559502643191]]]},"properties":{"place_id":"08dde778-2f5f-5772-8cb7-9ab216a18ff9","habitat":"water_edge","habitat_label":"Water edge","resolution_m":50}}]}