{"type":"FeatureCollection","metadata":{"schema_version":1,"place_id":"092b3abe-7a02-53e0-b5f5-058168d02a95","place_name":"Taman Rekreasi Hutan Bandar","place_type":"park","osm_reference":"relation/16871612","protection_context":"no protected status confirmed from included OSM tags","resolution_m":50,"raster_coverage":1.0,"interpretation":"Suggested search habitats, not predicted plant locations or probabilities of presence."},"features":[{"type":"Feature","geometry":{"type":"Polygon","coordinates":[[[101.57039917505723,3.0545550024471058],[101.57039917505723,3.054029606322391],[101.57009209999998,3.054216796620595],[101.57039917505723,3.0545550024471058]]]},"properties":{"place_id":"092b3abe-7a02-53e0-b5f5-058168d02a95","habitat":"forest_interior","habitat_label":"Forest interior","resolution_m":50}},{"type":"Feature","geometry":{"type":"Polygon","coordinates":[[[101.5706989,3.053846896621009],[101.5698159,3.056578696618017],[101.57132240000001,3.0565665966180506],[101.5706989,3.053846896621009]]]},"properties":{"place_id":"092b3abe-7a02-53e0-b5f5-058168d02a95","habitat":"forest_edge_opening","habitat_label":"Forest edge or opening","resolution_m":50}},{"type":"Feature","geometry":{"type":"MultiPolygon","coordinates":[[[[101.57091738344779,3.0553399512924764],[101.57039917505723,3.0553399512924764],[101.57039917505723,3.0557324259246537],[101.57091738344779,3.0557324259246537],[101.57091738344779,3.0553399512924764]]],[[[101.56988096666666,3.0564417128785957],[101.56984502720583,3.0565173756080837],[101.56988096666666,3.0565173756080837],[101.56988096666666,3.0564417128785957]]]]},"properties":{"place_id":"092b3abe-7a02-53e0-b5f5-058168d02a95","habitat":"open_grassland","habitat_label":"Open grassland or shrubland","resolution_m":50}},{"type":"Feature","geometry":{"type":"Polygon","coordinates":[[[101.5706989,3.053846896621009],[101.5698159,3.056578696618017],[101.57132240000001,3.0565665966180506],[101.5706989,3.053846896621009]]]},"properties":{"place_id":"092b3abe-7a02-53e0-b5f5-058168d02a95","habitat":"disturbed_built_edge","habitat_label":"Disturbed, bare or built edge","resolution_m":50}}]}