{"type":"FeatureCollection","metadata":{"schema_version":1,"place_id":"09510e29-474d-5e8e-9bd9-5db176f9172c","place_name":"Langkawi Waterfall Park","place_type":"park","osm_reference":"relation/18134446","protection_context":"no protected status confirmed from included OSM tags","resolution_m":50,"raster_coverage":1.0,"interpretation":"Suggested search habitats, not predicted plant locations or probabilities of presence."},"features":[{"type":"Feature","geometry":{"type":"Polygon","coordinates":[[[99.7071773,6.434271993132697],[99.7077636175124,6.4349585493238886],[99.7079346,6.434090593132866],[99.7071773,6.434271993132697]]]},"properties":{"place_id":"09510e29-474d-5e8e-9bd9-5db176f9172c","habitat":"forest_interior","habitat_label":"Forest interior","resolution_m":50}},{"type":"Feature","geometry":{"type":"Polygon","coordinates":[[[99.7077636175124,6.4349585493238886],[99.70744001099173,6.434564199292247],[99.7071490787967,6.434564199292247],[99.70748529999999,6.435221593131765],[99.7077636175124,6.4349585493238886]]]},"properties":{"place_id":"09510e29-474d-5e8e-9bd9-5db176f9172c","habitat":"forest_edge_opening","habitat_label":"Forest edge or opening","resolution_m":50}},{"type":"Feature","geometry":{"type":"Polygon","coordinates":[[[99.7077636175124,6.4349585493238886],[99.70744001099173,6.434564199292247],[99.7071490787967,6.434564199292247],[99.70748529999999,6.435221593131765],[99.7077636175124,6.4349585493238886]]]},"properties":{"place_id":"09510e29-474d-5e8e-9bd9-5db176f9172c","habitat":"disturbed_built_edge","habitat_label":"Disturbed, bare or built edge","resolution_m":50}},{"type":"Feature","geometry":{"type":"Polygon","coordinates":[[[99.7071490787967,6.434564199292247],[99.7072009,6.435082793131916],[99.70748529999999,6.435221593131765],[99.70790104693546,6.434564199292247],[99.7071490787967,6.434564199292247]]]},"properties":{"place_id":"09510e29-474d-5e8e-9bd9-5db176f9172c","habitat":"water_edge","habitat_label":"Water edge","resolution_m":50}}]}