{"type":"FeatureCollection","metadata":{"schema_version":1,"place_id":"09992f2f-4467-5ce0-9b70-e30f2a285614","place_name":"Taman Metropolitan Batu","place_type":"park","osm_reference":"way/544005606","protection_context":"no protected status confirmed from included OSM tags","resolution_m":50,"raster_coverage":1.0,"interpretation":"Suggested search habitats, not predicted plant locations or probabilities of presence."},"features":[{"type":"Feature","geometry":{"type":"MultiPolygon","coordinates":[[[[101.68025935385609,3.2115560790514164],[101.68077756224665,3.2115560790514164],[101.68070639999999,3.2111881964508164],[101.68025935385609,3.2112296861302236],[101.68025935385609,3.2115560790514164]]],[[[101.67715010351272,3.2115560790514164],[101.67700189999998,3.2115560790514164],[101.67715010351272,3.2118855187669695],[101.67715010351272,3.2115560790514164]]],[[[101.67759426949506,3.212341142509888],[101.67766831190329,3.21194861070721],[101.67729057520124,3.21194861070721],[101.67759426949506,3.212341142509888]]],[[[101.67766831190329,3.2131262065559723],[101.67766831190329,3.2130252325161934],[101.67761744217346,3.2131262065559723],[101.67766831190329,3.2131262065559723]]],[[[101.68154753917396,3.214303803727188],[101.68077756224665,3.21194861070721],[101.68025935385609,3.21194861070721],[101.68077756224665,3.213911271189813],[101.68154753917396,3.214303803727188]]],[[[101.68025935385609,3.2150888692429365],[101.68077756224665,3.2150888692429365],[101.68077756224665,3.214696336411556],[101.68025935385609,3.214696336411556],[101.68025935385609,3.2150888692429365]]],[[[101.68129577063719,3.214696336411556],[101.68156314258829,3.2150888692429365],[101.68155760607785,3.214696336411556],[101.68129577063719,3.214696336411556]]],[[[101.67974114546553,3.215481402221347],[101.68025935385609,3.215481402221347],[101.68025935385609,3.2150888692429365],[101.67974114546553,3.2150888692429365],[101.67974114546553,3.215481402221347]]]]},"properties":{"place_id":"09992f2f-4467-5ce0-9b70-e30f2a285614","habitat":"forest_interior","habitat_label":"Forest interior","resolution_m":50}},{"type":"Feature","geometry":{"type":"Polygon","coordinates":[[[101.67870472868441,3.215481402221347],[101.67870472868441,3.215873935346805],[101.67922293707495,3.215873935346805],[101.67870472868441,3.2165327253476024],[101.6806823,3.216433096445161],[101.6815765,3.2160358964455886],[101.68154753917396,3.214303803727188],[101.68077756224665,3.213911271189813],[101.68077756224665,3.2127336744594692],[101.68025935385609,3.2127336744594692],[101.68025935385609,3.21194861070721],[101.68109801514966,3.212341142509888],[101.68077756224665,3.21139770365453],[101.68025935385609,3.2115560790514164],[101.68025935385609,3.2112296861302236],[101.6793675,3.2110713964509445],[101.67699839999999,3.2113461964506684],[101.67715010351272,3.2118855187669695],[101.67766831190329,3.21194861070721],[101.6777175,3.2129275964489263],[101.6770202,3.2136395964481888],[101.67694141209627,3.2150888692429365],[101.67766831190329,3.214696336411556],[101.67766831190329,3.2150888692429365],[101.67870472868441,3.215481402221347]],[[101.68025935385609,3.215481402221347],[101.67974114546553,3.215481402221347],[101.67974114546553,3.2150888692429365],[101.68025935385609,3.2150888692429365],[101.68025935385609,3.215481402221347]],[[101.68025935385609,3.214696336411556],[101.68077756224665,3.214696336411556],[101.68077756224665,3.2150888692429365],[101.68025935385609,3.2150888692429365],[101.68025935385609,3.214696336411556]]]},"properties":{"place_id":"09992f2f-4467-5ce0-9b70-e30f2a285614","habitat":"forest_edge_opening","habitat_label":"Forest edge or opening","resolution_m":50}},{"type":"Feature","geometry":{"type":"MultiPolygon","coordinates":[[[[101.67715010351272,3.2115560790514164],[101.67766831190329,3.211329128948793],[101.67715010351272,3.2113423266465113],[101.67715010351272,3.2115560790514164]]],[[[101.67766831190329,3.2115560790514164],[101.67766831190329,3.21194861070721],[101.67818652029383,3.21194861070721],[101.67818652029383,3.2115560790514164],[101.67766831190329,3.2115560790514164]]],[[[101.67766831190329,3.212341142509888],[101.67818652029383,3.2127336744594692],[101.67818652029383,3.212341142509888],[101.67766831190329,3.212341142509888]]],[[[101.67818652029383,3.2135187387994137],[101.67766831190329,3.2135187387994137],[101.67766831190329,3.214303803727188],[101.67870472868441,3.214303803727188],[101.67870472868441,3.2131262065559723],[101.67818652029383,3.2131262065559723],[101.67818652029383,3.2135187387994137]]],[[[101.68077756224665,3.215481402221347],[101.68129577063719,3.215481402221347],[101.68129577063719,3.2150888692429365],[101.68077756224665,3.2150888692429365],[101.68077756224665,3.215481402221347]]],[[[101.68077756224665,3.215481402221347],[101.68025935385609,3.215481402221347],[101.68025935385609,3.215873935346805],[101.68077756224665,3.215873935346805],[101.68077756224665,3.215481402221347]]],[[[101.67870472868441,3.216266468619329],[101.67974114546553,3.216266468619329],[101.67974114546553,3.215481402221347],[101.67870472868441,3.215481402221347],[101.67870472868441,3.216266468619329]]],[[[101.68129577063719,3.216189841773211],[101.6815765,3.2160358964455886],[101.68157421560916,3.215873935346805],[101.68129577063719,3.215873935346805],[101.68129577063719,3.216189841773211]]]]},"properties":{"place_id":"09992f2f-4467-5ce0-9b70-e30f2a285614","habitat":"open_grassland","habitat_label":"Open grassland or shrubland","resolution_m":50}},{"type":"Feature","geometry":{"type":"MultiPolygon","coordinates":[[[[101.67962153190713,3.21116354754249],[101.6793675,3.2110713964509445],[101.67927109937727,3.21116354754249],[101.67962153190713,3.21116354754249]]],[[[101.67922293707495,3.2115560790514164],[101.67922293707495,3.211232357742438],[101.67699839999999,3.2113461964506684],[101.67700189999998,3.2115560790514164],[101.67922293707495,3.2115560790514164]]],[[[101.67974114546553,3.2115560790514164],[101.68025935385609,3.2115560790514164],[101.68025935385609,3.2112296861302236],[101.67974114546553,3.211221036598967],[101.67974114546553,3.2115560790514164]]],[[[101.68077756224665,3.2115560790514164],[101.68025935385609,3.2115560790514164],[101.68025935385609,3.21194861070721],[101.68109801514966,3.212341142509888],[101.68077756224665,3.2115560790514164]]],[[[101.68129577063719,3.2150888692429365],[101.68129577063719,3.213911271189813],[101.68077756224665,3.213911271189813],[101.68025935385609,3.214696336411556],[101.68129577063719,3.2150888692429365]]],[[[101.67922293707495,3.215873935346805],[101.67922293707495,3.2150888692429365],[101.67818652029383,3.214696336411556],[101.67818652029383,3.2135187387994137],[101.67766831190329,3.2135187387994137],[101.67761744217346,3.2131262065559723],[101.6770202,3.2136395964481888],[101.6769413,3.2152152964464804],[101.6785107,3.2152219964464868],[101.67849779999997,3.216626196444964],[101.6815765,3.2160358964455886],[101.67922293707495,3.215873935346805]]]]},"properties":{"place_id":"09992f2f-4467-5ce0-9b70-e30f2a285614","habitat":"disturbed_built_edge","habitat_label":"Disturbed, bare or built edge","resolution_m":50}},{"type":"Feature","geometry":{"type":"Polygon","coordinates":[[[101.67922293707495,3.2115560790514164],[101.67870472868441,3.2115560790514164],[101.67870472868441,3.2127336744594692],[101.67922293707495,3.2127336744594692],[101.67922293707495,3.2150888692429365],[101.67974114546553,3.2150888692429365],[101.67974114546553,3.214303803727188],[101.68025935385609,3.214303803727188],[101.68025935385609,3.2127336744594692],[101.67974114546553,3.2127336744594692],[101.67974114546553,3.211221036598967],[101.67927109937727,3.21116354754249],[101.67922293707495,3.2115560790514164]]]},"properties":{"place_id":"09992f2f-4467-5ce0-9b70-e30f2a285614","habitat":"permanent_water","habitat_label":"Permanent water","resolution_m":50}},{"type":"Feature","geometry":{"type":"Polygon","coordinates":[[[101.67974114546553,3.214303803727188],[101.67974114546553,3.2131262065559723],[101.67922293707495,3.2131262065559723],[101.67922293707495,3.214303803727188],[101.67974114546553,3.214303803727188]]]},"properties":{"place_id":"09992f2f-4467-5ce0-9b70-e30f2a285614","habitat":"seasonal_water_wetland","habitat_label":"Seasonal water or wetland","resolution_m":50}},{"type":"Feature","geometry":{"type":"MultiPolygon","coordinates":[[[[101.67962153190713,3.21116354754249],[101.6793675,3.2110713964509445],[101.67927109937727,3.21116354754249],[101.67962153190713,3.21116354754249]]],[[[101.68025935385609,3.215481402221347],[101.68025935385609,3.2150888692429365],[101.68077756224665,3.2150888692429365],[101.68077756224665,3.214303803727188],[101.68129577063719,3.214303803727188],[101.68070639999999,3.2111881964508164],[101.67974114546553,3.211221036598967],[101.67974114546553,3.2127336744594692],[101.68025935385609,3.2127336744594692],[101.68025935385609,3.214303803727188],[101.67974114546553,3.214303803727188],[101.67974114546553,3.2150888692429365],[101.67922293707495,3.2150888692429365],[101.67922293707495,3.2127336744594692],[101.67870472868441,3.2127336744594692],[101.67870472868441,3.2115560790514164],[101.67922293707495,3.2115560790514164],[101.67922293707495,3.211232357742438],[101.67818652029383,3.2113159312512405],[101.67766831190329,3.2115560790514164],[101.67768204496815,3.2127336744594692],[101.67818652029383,3.2127336744594692],[101.67818652029383,3.2150888692429365],[101.67870472868441,3.2150888692429365],[101.67922293707495,3.215873935346805],[101.68025935385609,3.215481402221347]]],[[[101.68077756224665,3.216266468619329],[101.68025935385609,3.216438156197486],[101.68077756224665,3.216407100206952],[101.68077756224665,3.216266468619329]]]]},"properties":{"place_id":"09992f2f-4467-5ce0-9b70-e30f2a285614","habitat":"water_edge","habitat_label":"Water edge","resolution_m":50}}]}