{"type":"FeatureCollection","metadata":{"schema_version":1,"place_id":"09cbdc79-2592-5150-afa5-444202144b26","place_name":"Taman Poket Jalan Hijau 4","place_type":"park","osm_reference":"way/277979972","protection_context":"no protected status confirmed from included OSM tags","resolution_m":50,"raster_coverage":1.0,"interpretation":"Suggested search habitats, not predicted plant locations or probabilities of presence."},"features":[{"type":"Feature","geometry":{"type":"Polygon","coordinates":[[[100.30603533683949,5.394854991443772],[100.30603359999999,5.39483959416189],[100.30600701960746,5.394854991443772],[100.30603533683949,5.394854991443772]]]},"properties":{"place_id":"09cbdc79-2592-5150-afa5-444202144b26","habitat":"forest_edge_opening","habitat_label":"Forest edge or opening","resolution_m":50}},{"type":"Feature","geometry":{"type":"Polygon","coordinates":[[[100.30572579999999,5.3950178941617155],[100.30605509999998,5.395030194161709],[100.30603359999999,5.39483959416189],[100.30572579999999,5.3950178941617155]]]},"properties":{"place_id":"09cbdc79-2592-5150-afa5-444202144b26","habitat":"disturbed_built_edge","habitat_label":"Disturbed, bare or built edge","resolution_m":50}}]}