{"type":"FeatureCollection","metadata":{"schema_version":1,"place_id":"0a3794d7-32c9-5da1-b520-9eb30e1274d8","place_name":"Prince Philip Park","place_type":"park","osm_reference":"relation/14416085","protection_context":"no protected status confirmed from included OSM tags","resolution_m":50,"raster_coverage":1.0,"interpretation":"Suggested search habitats, not predicted plant locations or probabilities of presence."},"features":[{"type":"Feature","geometry":{"type":"MultiPolygon","coordinates":[[[[116.04706877375928,5.941065548808059],[116.04711769999999,5.940896293615571],[116.04706877375928,5.940891013805144],[116.04706877375928,5.941065548808059]]],[[[116.04758698214985,5.94697545267384],[116.04838189999997,5.945830293610708],[116.0487644,5.941766693614693],[116.04769069999999,5.942441393614062],[116.04706877375928,5.942042513860153],[116.04706877375928,5.942641517131351],[116.04758698214985,5.942641517131351],[116.04758698214985,5.944217489847337],[116.04810519054038,5.944217489847337],[116.04758698214985,5.945005477852964],[116.04810519054038,5.945005477852964],[116.04810519054038,5.945399472267753],[116.04758698214985,5.945399472267753],[116.04758698214985,5.945793466957215],[116.04655056536872,5.945399472267753],[116.04655056536872,5.947369448462188],[116.04758698214985,5.94697545267384]]],[[[116.04655056536872,5.9446114837128325],[116.04655056536872,5.945005477852964],[116.04706877375928,5.945005477852964],[116.04706877375928,5.9446114837128325],[116.04655056536872,5.9446114837128325]]]]},"properties":{"place_id":"0a3794d7-32c9-5da1-b520-9eb30e1274d8","habitat":"forest_interior","habitat_label":"Forest interior","resolution_m":50}},{"type":"Feature","geometry":{"type":"Polygon","coordinates":[[[116.0465061,5.940830293615645],[116.0458358,5.947080493609457],[116.04741800000001,5.947957093608586],[116.04805201497621,5.94658145716024],[116.04655056536872,5.947369448462188],[116.04655056536872,5.945399472267753],[116.04758698214985,5.945793466957215],[116.04758698214985,5.945399472267753],[116.04810519054038,5.945399472267753],[116.04810519054038,5.945005477852964],[116.04758698214985,5.945005477852964],[116.04810519054038,5.944217489847337],[116.04758698214985,5.944217489847337],[116.04758698214985,5.942641517131351],[116.04706877375928,5.942641517131351],[116.04706877375928,5.940891013805144],[116.0465061,5.940830293615645]],[[116.04655056536872,5.9446114837128325],[116.04706877375928,5.9446114837128325],[116.04706877375928,5.945005477852964],[116.04655056536872,5.945005477852964],[116.04655056536872,5.9446114837128325]]]},"properties":{"place_id":"0a3794d7-32c9-5da1-b520-9eb30e1274d8","habitat":"forest_edge_opening","habitat_label":"Forest edge or opening","resolution_m":50}},{"type":"Feature","geometry":{"type":"MultiPolygon","coordinates":[[[[116.04655056536872,5.941853532420693],[116.04693989349086,5.941853532420693],[116.04706877375928,5.941065548808059],[116.04655056536872,5.941065548808059],[116.04655056536872,5.941853532420693]]],[[[116.04655056536872,5.943429502940182],[116.04706877375928,5.943429502940182],[116.04706877375928,5.942641517131351],[116.04655056536872,5.942641517131351],[116.04655056536872,5.943429502940182]]],[[[116.04616946776304,5.9446114837128325],[116.04655056536872,5.944217489847337],[116.04621468793805,5.944217489847337],[116.04616946776304,5.9446114837128325]]],[[[116.04706877375928,5.9446114837128325],[116.04758698214985,5.9446114837128325],[116.04758698214985,5.944217489847337],[116.04706877375928,5.944217489847337],[116.04706877375928,5.9446114837128325]]],[[[116.04655056536872,5.945399472267753],[116.04655056536872,5.945005477852964],[116.04611420032101,5.945005477852964],[116.04605893287902,5.945399472267753],[116.04655056536872,5.945399472267753]]],[[[116.04706877375928,5.945399472267753],[116.04758698214985,5.945399472267753],[116.04758698214985,5.945005477852964],[116.04706877375928,5.945005477852964],[116.04706877375928,5.945399472267753]]],[[[116.04758698214985,5.94697545267384],[116.04769873305028,5.947369448462188],[116.04787537401326,5.94697545267384],[116.04758698214985,5.94697545267384]]],[[[116.04655056536872,5.947369448462188],[116.04635734301418,5.947369448462188],[116.04655056536872,5.947476501102244],[116.04655056536872,5.947369448462188]]]]},"properties":{"place_id":"0a3794d7-32c9-5da1-b520-9eb30e1274d8","habitat":"open_grassland","habitat_label":"Open grassland or shrubland","resolution_m":50}},{"type":"Feature","geometry":{"type":"MultiPolygon","coordinates":[[[[116.04706877375928,5.943823496256459],[116.04758698214985,5.943823496256459],[116.04758698214985,5.943429502940182],[116.04655056536872,5.943035509898484],[116.04655056536872,5.944217489847337],[116.04706877375928,5.944217489847337],[116.04706877375928,5.943823496256459]]],[[[116.04603235697815,5.94658145716024],[116.0458358,5.947080493609457],[116.04655056536872,5.947369448462188],[116.04655056536872,5.94697545267384],[116.04603235697815,5.94697545267384],[116.04603235697815,5.94658145716024]]],[[[116.04758698214985,5.947369448462188],[116.04655056536872,5.947369448462188],[116.04655056536872,5.947476501102244],[116.04741800000001,5.947957093608586],[116.04758698214985,5.947369448462188]]]]},"properties":{"place_id":"0a3794d7-32c9-5da1-b520-9eb30e1274d8","habitat":"disturbed_built_edge","habitat_label":"Disturbed, bare or built edge","resolution_m":50}},{"type":"Feature","geometry":{"type":"MultiPolygon","coordinates":[[[[116.04655056536872,5.9408350920364645],[116.04642079999998,5.941617293614846],[116.04625869999467,5.943823496256459],[116.04655056536872,5.943823496256459],[116.04655056536872,5.9408350920364645]]],[[[116.04603235697815,5.94697545267384],[116.0460171,5.945697693610843],[116.04584957198448,5.94697545267384],[116.04603235697815,5.94697545267384]]]]},"properties":{"place_id":"0a3794d7-32c9-5da1-b520-9eb30e1274d8","habitat":"permanent_water","habitat_label":"Permanent water","resolution_m":50}},{"type":"Feature","geometry":{"type":"MultiPolygon","coordinates":[[[[116.04655056536872,5.9414595404771315],[116.0465061,5.940830293615645],[116.04643819530905,5.9414595404771315],[116.04655056536872,5.9414595404771315]]],[[[116.04655056536872,5.941853532420693],[116.04633204235247,5.943035509898484],[116.04655056536872,5.943035509898484],[116.04655056536872,5.941853532420693]]],[[[116.04603235697815,5.946187461921373],[116.04603235697815,5.9455889285105625],[116.04595288603923,5.946187461921373],[116.04603235697815,5.946187461921373]]]]},"properties":{"place_id":"0a3794d7-32c9-5da1-b520-9eb30e1274d8","habitat":"seasonal_water_wetland","habitat_label":"Seasonal water or wetland","resolution_m":50}},{"type":"Feature","geometry":{"type":"Polygon","coordinates":[[[116.04603235697815,5.94697545267384],[116.04655056536872,5.947476501102244],[116.04655056536872,5.94697545267384],[116.04706877375928,5.94697545267384],[116.04706877375928,5.943823496256459],[116.04758698214985,5.943823496256459],[116.04758698214985,5.942316991447477],[116.04690469999998,5.9420264936144624],[116.04711769999999,5.940896293615571],[116.04655056536872,5.9408350920364645],[116.04603235697815,5.94697545267384]]]},"properties":{"place_id":"0a3794d7-32c9-5da1-b520-9eb30e1274d8","habitat":"water_edge","habitat_label":"Water edge","resolution_m":50}}]}