{"type":"FeatureCollection","metadata":{"schema_version":1,"place_id":"0a98aadd-f98e-5e98-aa09-262fd9112e89","place_name":"Laman Maharani","place_type":"park","osm_reference":"way/717465229","protection_context":"no protected status confirmed from included OSM tags","resolution_m":50,"raster_coverage":1.0,"interpretation":"Suggested search habitats, not predicted plant locations or probabilities of presence."},"features":[{"type":"Feature","geometry":{"type":"Polygon","coordinates":[[[102.56795032688646,2.0488720503411595],[102.56743929999999,2.048765797719981],[102.56795032688646,2.0490514055631905],[102.56795032688646,2.0488720503411595]]]},"properties":{"place_id":"0a98aadd-f98e-5e98-aa09-262fd9112e89","habitat":"open_grassland","habitat_label":"Open grassland or shrubland","resolution_m":50}},{"type":"Feature","geometry":{"type":"Polygon","coordinates":[[[102.5682133,2.0494185977192982],[102.56809109999999,2.048981197719766],[102.5675214,2.0486365977201326],[102.56743929999999,2.048765797719981],[102.5682133,2.0494185977192982]]]},"properties":{"place_id":"0a98aadd-f98e-5e98-aa09-262fd9112e89","habitat":"disturbed_built_edge","habitat_label":"Disturbed, bare or built edge","resolution_m":50}},{"type":"Feature","geometry":{"type":"Polygon","coordinates":[[[102.56795032688646,2.0490514055631905],[102.56777793433753,2.0490514055631905],[102.56795032688646,2.0491968033125523],[102.56795032688646,2.0490514055631905]]]},"properties":{"place_id":"0a98aadd-f98e-5e98-aa09-262fd9112e89","habitat":"permanent_water","habitat_label":"Permanent water","resolution_m":50}},{"type":"Feature","geometry":{"type":"Polygon","coordinates":[[[102.5675214,2.0486365977201326],[102.5682133,2.0494185977192982],[102.56809109999999,2.048981197719766],[102.5675214,2.0486365977201326]]]},"properties":{"place_id":"0a98aadd-f98e-5e98-aa09-262fd9112e89","habitat":"water_edge","habitat_label":"Water edge","resolution_m":50}}]}