{"type":"FeatureCollection","metadata":{"schema_version":1,"place_id":"0c6d4dcf-b984-5c83-942d-0e050030216f","place_name":"Hutan Simpanan Kekal Pantai","place_type":"wood","osm_reference":"relation/16368522","protection_context":"mapped protected boundary","resolution_m":50,"raster_coverage":1.0,"interpretation":"Suggested search habitats, not predicted plant locations or probabilities of presence."},"features":[{"type":"Feature","geometry":{"type":"Polygon","coordinates":[[[101.99222080497358,2.8210568861764007],[101.99170259658304,2.821841675234773],[101.99273901336414,2.8222340699573323],[101.99273901336414,2.822626464808832],[101.99232695764196,2.822626464808832],[101.9937416,2.823946996870626],[101.9972205,2.823892696870683],[101.99738949999998,2.8226013968720927],[101.99867560000001,2.8218512968728913],[101.9993314,2.820819996874023],[101.9991209,2.818242796876844],[101.9979192,2.816573796878662],[101.99633059999998,2.8165629968786465],[101.99486549999997,2.8205439968742994],[101.99207599999998,2.8201796968747157],[101.99171349863701,2.8210568861764007],[101.99222080497358,2.8210568861764007]]]},"properties":{"place_id":"0c6d4dcf-b984-5c83-942d-0e050030216f","habitat":"forest_interior","habitat_label":"Forest interior","resolution_m":50}},{"type":"Feature","geometry":{"type":"Polygon","coordinates":[[[101.99273901336414,2.822626464808832],[101.99273901336414,2.8222340699573323],[101.99170259658304,2.821841675234773],[101.99170259658304,2.8214492806411346],[101.99222080497358,2.8214492806411346],[101.99222080497358,2.8210568861764007],[101.99171349863701,2.8210568861764007],[101.9914162,2.821776296872998],[101.99273901336414,2.822626464808832]]]},"properties":{"place_id":"0c6d4dcf-b984-5c83-942d-0e050030216f","habitat":"forest_edge_opening","habitat_label":"Forest edge or opening","resolution_m":50}},{"type":"Feature","geometry":{"type":"MultiPolygon","coordinates":[[[[101.99170259658304,2.821083267232345],[101.99155134042049,2.8214492806411346],[101.99170259658304,2.8214492806411346],[101.99170259658304,2.821083267232345]]],[[[101.99170259658304,2.821841675234773],[101.99148623776507,2.821841675234773],[101.99170259658304,2.8220436403694276],[101.99170259658304,2.821841675234773]]],[[[101.99222080497358,2.8222340699573323],[101.99190659770353,2.8222340699573323],[101.99222080497358,2.822527374096663],[101.99222080497358,2.8222340699573323]]]]},"properties":{"place_id":"0c6d4dcf-b984-5c83-942d-0e050030216f","habitat":"open_grassland","habitat_label":"Open grassland or shrubland","resolution_m":50}}]}