{"type":"FeatureCollection","metadata":{"schema_version":1,"place_id":"0c80d3bf-ae16-5c89-adfd-f587ae54319c","place_name":"Taman Subang Indah Kid's Playground & Family Park","place_type":"park","osm_reference":"way/559587073","protection_context":"no protected status confirmed from included OSM tags","resolution_m":50,"raster_coverage":1.0,"interpretation":"Suggested search habitats, not predicted plant locations or probabilities of presence."},"features":[{"type":"Feature","geometry":{"type":"Polygon","coordinates":[[[101.600307665848,3.074963854370412],[101.59965359999998,3.0743688965987546],[101.5994675,3.074910196598177],[101.600307665848,3.074963854370412]]]},"properties":{"place_id":"0c80d3bf-ae16-5c89-adfd-f587ae54319c","habitat":"forest_edge_opening","habitat_label":"Forest edge or opening","resolution_m":50}},{"type":"Feature","geometry":{"type":"Polygon","coordinates":[[[101.60030859999999,3.0749901965980837],[101.600287,3.074381096598742],[101.59965359999998,3.0743688965987546],[101.5994675,3.074910196598177],[101.60030859999999,3.0749901965980837]]]},"properties":{"place_id":"0c80d3bf-ae16-5c89-adfd-f587ae54319c","habitat":"disturbed_built_edge","habitat_label":"Disturbed, bare or built edge","resolution_m":50}}]}