{"type":"FeatureCollection","metadata":{"schema_version":1,"place_id":"0c9af1a7-ebec-52fc-ab59-21a6ded95b2e","place_name":"Camellia Park","place_type":"park","osm_reference":"way/1009086296","protection_context":"no protected status confirmed from included OSM tags","resolution_m":50,"raster_coverage":1.0,"interpretation":"Suggested search habitats, not predicted plant locations or probabilities of presence."},"features":[{"type":"Feature","geometry":{"type":"MultiPolygon","coordinates":[[[[103.7486775585098,1.5879126361896496],[103.7484290405836,1.5880662359094508],[103.74868589999998,1.5879351982294978],[103.7486775585098,1.5879126361896496]]],[[[103.74707403956,1.5886967925547106],[103.7470756,1.58875669822862],[103.74719302676749,1.5886967925547106],[103.74707403956,1.5886967925547106]]]]},"properties":{"place_id":"0c9af1a7-ebec-52fc-ab59-21a6ded95b2e","habitat":"forest_interior","habitat_label":"Forest interior","resolution_m":50}},{"type":"Feature","geometry":{"type":"Polygon","coordinates":[[[103.7484290405836,1.5879126361896496],[103.74851649999998,1.5875317982299768],[103.7466678,1.5876456982298628],[103.7466315,1.5887149982286481],[103.7484290405836,1.5879126361896496]]]},"properties":{"place_id":"0c9af1a7-ebec-52fc-ab59-21a6ded95b2e","habitat":"forest_edge_opening","habitat_label":"Forest edge or opening","resolution_m":50}},{"type":"Feature","geometry":{"type":"MultiPolygon","coordinates":[[[[103.7484290405836,1.5875346342570376],[103.74739262380247,1.5876110893985185],[103.74739262380247,1.5879126361896496],[103.7484290405836,1.5879126361896496],[103.7484290405836,1.5875346342570376]]],[[[103.74687441541191,1.5879126361896496],[103.74660028898026,1.5883047143359776],[103.74687441541191,1.5883047143359776],[103.74687441541191,1.5879126361896496]]],[[[103.74791083219304,1.5883047143359776],[103.74739262380247,1.5885949674368884],[103.74791083219304,1.5883306016567105],[103.74791083219304,1.5883047143359776]]]]},"properties":{"place_id":"0c9af1a7-ebec-52fc-ab59-21a6ded95b2e","habitat":"open_grassland","habitat_label":"Open grassland or shrubland","resolution_m":50}},{"type":"Feature","geometry":{"type":"Polygon","coordinates":[[[103.74791083219304,1.5875895331504062],[103.74657046289813,1.5879126361896496],[103.7466315,1.5887149982286481],[103.74687441541191,1.5883047143359776],[103.74739262380247,1.5885949674368884],[103.7484290405836,1.5880662359094508],[103.74791083219304,1.5875895331504062]]]},"properties":{"place_id":"0c9af1a7-ebec-52fc-ab59-21a6ded95b2e","habitat":"disturbed_built_edge","habitat_label":"Disturbed, bare or built edge","resolution_m":50}},{"type":"Feature","geometry":{"type":"Polygon","coordinates":[[[103.74739262380247,1.5883047143359776],[103.74739262380247,1.5879126361896496],[103.74687441541191,1.5879126361896496],[103.74687441541191,1.5883047143359776],[103.74739262380247,1.5883047143359776]]]},"properties":{"place_id":"0c9af1a7-ebec-52fc-ab59-21a6ded95b2e","habitat":"permanent_water","habitat_label":"Permanent water","resolution_m":50}},{"type":"Feature","geometry":{"type":"Polygon","coordinates":[[[103.74665934197894,1.5886967925547106],[103.7470756,1.58875669822862],[103.7484290405836,1.5879126361896496],[103.74791083219304,1.5879126361896496],[103.74791083219304,1.5875895331504062],[103.7466678,1.5876456982298628],[103.74665934197894,1.5886967925547106]],[[103.74687441541191,1.5879126361896496],[103.74739262380247,1.5879126361896496],[103.74739262380247,1.5883047143359776],[103.74687441541191,1.5883047143359776],[103.74687441541191,1.5879126361896496]]]},"properties":{"place_id":"0c9af1a7-ebec-52fc-ab59-21a6ded95b2e","habitat":"water_edge","habitat_label":"Water edge","resolution_m":50}}]}