{"type":"FeatureCollection","metadata":{"schema_version":1,"place_id":"0cf85fae-1248-58f5-8ed7-20688fc27598","place_name":"Pontian Sultan Crown Park","place_type":"park","osm_reference":"way/563386864","protection_context":"no protected status confirmed from included OSM tags","resolution_m":50,"raster_coverage":1.0,"interpretation":"Suggested search habitats, not predicted plant locations or probabilities of presence."},"features":[{"type":"Feature","geometry":{"type":"MultiPolygon","coordinates":[[[[103.3862013755817,1.489111203096354],[103.38606219999998,1.4885198983397845],[103.38586237208663,1.489111203096354],[103.3862013755817,1.489111203096354]]],[[[103.38597853792783,1.4895032635675647],[103.38612169999999,1.4895546983386545],[103.38613919783718,1.4895032635675647],[103.38597853792783,1.4895032635675647]]]]},"properties":{"place_id":"0cf85fae-1248-58f5-8ed7-20688fc27598","habitat":"forest_edge_opening","habitat_label":"Forest edge or opening","resolution_m":50}},{"type":"Feature","geometry":{"type":"Polygon","coordinates":[[[103.38640595166211,1.4887191426930177],[103.3857568,1.4894235983387971],[103.38597853792783,1.4895032635675647],[103.38640595166211,1.4887191426930177]]]},"properties":{"place_id":"0cf85fae-1248-58f5-8ed7-20688fc27598","habitat":"open_grassland","habitat_label":"Open grassland or shrubland","resolution_m":50}},{"type":"Feature","geometry":{"type":"Polygon","coordinates":[[[103.38612169999999,1.4895546983386545],[103.38642909999999,1.4886510983396466],[103.38606219999998,1.4885198983397845],[103.3857568,1.4894235983387971],[103.38612169999999,1.4895546983386545]]]},"properties":{"place_id":"0cf85fae-1248-58f5-8ed7-20688fc27598","habitat":"disturbed_built_edge","habitat_label":"Disturbed, bare or built edge","resolution_m":50}},{"type":"Feature","geometry":{"type":"Polygon","coordinates":[[[103.38612169999999,1.4895546983386545],[103.38642909999999,1.4886510983396466],[103.38606219999998,1.4885198983397845],[103.3857568,1.4894235983387971],[103.38612169999999,1.4895546983386545]]]},"properties":{"place_id":"0cf85fae-1248-58f5-8ed7-20688fc27598","habitat":"water_edge","habitat_label":"Water edge","resolution_m":50}}]}