{"type":"FeatureCollection","metadata":{"schema_version":1,"place_id":"0cf83e10-4ff0-5f55-ac72-4fe6bf59125b","place_name":"Love Trail Park","place_type":"park","osm_reference":"way/957438953","protection_context":"no protected status confirmed from included OSM tags","resolution_m":50,"raster_coverage":1.0,"interpretation":"Suggested search habitats, not predicted plant locations or probabilities of presence."},"features":[{"type":"Feature","geometry":{"type":"MultiPolygon","coordinates":[[[[101.5035502926749,3.316367303976349],[101.50303208428434,3.3162712502247906],[101.50303208428434,3.316367303976349],[101.5035502926749,3.316367303976349]]],[[[101.50406850106546,3.316367303976349],[101.50407028670415,3.316367303976349],[101.50406850106546,3.3163620202737008],[101.50406850106546,3.316367303976349]]],[[[101.50303208428434,3.3167598754934446],[101.50303208428434,3.316367303976349],[101.5022991,3.3162631963375073],[101.50239182818423,3.3171524471622607],[101.50251387589378,3.3167598754934446],[101.50303208428434,3.3167598754934446]]]]},"properties":{"place_id":"0cf83e10-4ff0-5f55-ac72-4fe6bf59125b","habitat":"forest_edge_opening","habitat_label":"Forest edge or opening","resolution_m":50}},{"type":"Feature","geometry":{"type":"Polygon","coordinates":[[[101.50251387589378,3.316367303976349],[101.50239182818423,3.3171524471622607],[101.5035502926749,3.3171524471622607],[101.5035502926749,3.3167598754934446],[101.50406850106546,3.3167598754934446],[101.50399339999997,3.3161397963376595],[101.50251387589378,3.316367303976349]]]},"properties":{"place_id":"0cf83e10-4ff0-5f55-ac72-4fe6bf59125b","habitat":"open_grassland","habitat_label":"Open grassland or shrubland","resolution_m":50}},{"type":"Feature","geometry":{"type":"Polygon","coordinates":[[[101.5035502926749,3.3167598754934446],[101.50235089209723,3.3167598754934446],[101.50253189999998,3.317437596336225],[101.5042334,3.3170157963366815],[101.50399339999997,3.3161397963376595],[101.5035502926749,3.316258327039892],[101.5035502926749,3.3167598754934446]]]},"properties":{"place_id":"0cf83e10-4ff0-5f55-ac72-4fe6bf59125b","habitat":"disturbed_built_edge","habitat_label":"Disturbed, bare or built edge","resolution_m":50}},{"type":"Feature","geometry":{"type":"Polygon","coordinates":[[[101.50406850106546,3.316367303976349],[101.50406850106546,3.3167598754934446],[101.50419581164323,3.3167598754934446],[101.5041812,3.316695496337044],[101.50406850106546,3.316367303976349]]]},"properties":{"place_id":"0cf83e10-4ff0-5f55-ac72-4fe6bf59125b","habitat":"permanent_water","habitat_label":"Permanent water","resolution_m":50}},{"type":"Feature","geometry":{"type":"Polygon","coordinates":[[[101.50406850106546,3.3167598754934446],[101.50406850106546,3.3170523718560023],[101.5042399,3.3169663963367357],[101.50406850106546,3.3167598754934446]]]},"properties":{"place_id":"0cf83e10-4ff0-5f55-ac72-4fe6bf59125b","habitat":"seasonal_water_wetland","habitat_label":"Seasonal water or wetland","resolution_m":50}},{"type":"Feature","geometry":{"type":"Polygon","coordinates":[[[101.50399339999997,3.3161397963376595],[101.50303208428434,3.316367303976349],[101.50303208428434,3.3171524471622607],[101.50406850106546,3.3170523718560023],[101.50399339999997,3.3161397963376595]]]},"properties":{"place_id":"0cf83e10-4ff0-5f55-ac72-4fe6bf59125b","habitat":"water_edge","habitat_label":"Water edge","resolution_m":50}}]}