{"type":"FeatureCollection","metadata":{"schema_version":1,"place_id":"0d5a6d24-6970-5534-8630-2297c67557a7","place_name":"Taman Lintang Penawar","place_type":"park","osm_reference":"way/985427002","protection_context":"no protected status confirmed from included OSM tags","resolution_m":50,"raster_coverage":1.0,"interpretation":"Suggested search habitats, not predicted plant locations or probabilities of presence."},"features":[{"type":"Feature","geometry":{"type":"Polygon","coordinates":[[[100.3163609,5.398753194157928],[100.31664949999998,5.398924694157752],[100.31655999999998,5.398680794158008],[100.3163609,5.398753194157928]]]},"properties":{"place_id":"0d5a6d24-6970-5534-8630-2297c67557a7","habitat":"disturbed_built_edge","habitat_label":"Disturbed, bare or built edge","resolution_m":50}}]}