{"type":"FeatureCollection","metadata":{"schema_version":1,"place_id":"0f36e2b0-3151-5211-9a2b-bded5bf9c880","place_name":"Taman Awam Muhibbah Tawau","place_type":"park","osm_reference":"way/1287267810","protection_context":"no protected status confirmed from included OSM tags","resolution_m":50,"raster_coverage":1.0,"interpretation":"Suggested search habitats, not predicted plant locations or probabilities of presence."},"features":[{"type":"Feature","geometry":{"type":"MultiPolygon","coordinates":[[[[117.8835993099062,4.258303801234954],[117.88313094205834,4.258624516265226],[117.8835993099062,4.258624516265226],[117.8835993099062,4.258303801234954]]],[[[117.8835993099062,4.259013157306391],[117.88411751829675,4.259017504033803],[117.88411751829675,4.258624516265226],[117.8835993099062,4.258624516265226],[117.8835993099062,4.259013157306391]]],[[[117.8846357266873,4.261375434749088],[117.8846357266873,4.2609824458079],[117.88508781705451,4.2609824458079],[117.88515393507788,4.25941049199777],[117.88411751829675,4.259017504033803],[117.88387915406729,4.260589457062192],[117.88414243278724,4.261375434749088],[117.8846357266873,4.261375434749088]]]]},"properties":{"place_id":"0f36e2b0-3151-5211-9a2b-bded5bf9c880","habitat":"forest_interior","habitat_label":"Forest interior","resolution_m":50}},{"type":"Feature","geometry":{"type":"MultiPolygon","coordinates":[[[[117.8834714067472,4.258231528692018],[117.88336059999999,4.2580262953349575],[117.88334705810591,4.258231528692018],[117.8834714067472,4.258231528692018]]],[[[117.8835993099062,4.258624516265226],[117.88411751829675,4.258624516265226],[117.88411751829675,4.259017504033803],[117.88429387698834,4.259017504033803],[117.88426099999998,4.258308295334643],[117.8835993099062,4.258303801234954],[117.8835993099062,4.258624516265226]]],[[[117.8835993099062,4.258624516265226],[117.88313094205834,4.258624516265226],[117.88331729999997,4.258970195333949],[117.8835993099062,4.259013157306391],[117.8835993099062,4.258624516265226]]],[[[117.88362784258483,4.259017504033803],[117.88359259999999,4.259733995333139],[117.88411751829675,4.260589457062192],[117.88411751829675,4.259017504033803],[117.88362784258483,4.259017504033803]]],[[[117.8846357266873,4.25941049199777],[117.88515393507788,4.25941049199777],[117.88515393507788,4.260592285795005],[117.8854981,4.259322595333588],[117.88514500000001,4.259077795333817],[117.8846357266873,4.25941049199777]]],[[[117.8846357266873,4.2609824458079],[117.8846357266873,4.261375434749088],[117.88414243278724,4.261375434749088],[117.88486169999999,4.262056295330717],[117.88508781705451,4.2609824458079],[117.8846357266873,4.2609824458079]]]]},"properties":{"place_id":"0f36e2b0-3151-5211-9a2b-bded5bf9c880","habitat":"forest_edge_opening","habitat_label":"Forest edge or opening","resolution_m":50}},{"type":"Feature","geometry":{"type":"Polygon","coordinates":[[[117.8846357266873,4.261375434749088],[117.8846357266873,4.261768423885776],[117.8850696,4.2616929953310905],[117.88507774160983,4.261375434749088],[117.8846357266873,4.261375434749088]]]},"properties":{"place_id":"0f36e2b0-3151-5211-9a2b-bded5bf9c880","habitat":"open_grassland","habitat_label":"Open grassland or shrubland","resolution_m":50}},{"type":"Feature","geometry":{"type":"MultiPolygon","coordinates":[[[[117.8834714067472,4.258231528692018],[117.88336059999999,4.2580262953349575],[117.88334705810591,4.258231528692018],[117.8834714067472,4.258231528692018]]],[[[117.8835993099062,4.258624516265226],[117.88411751829675,4.258624516265226],[117.88411751829675,4.259017504033803],[117.88429387698834,4.259017504033803],[117.88426099999998,4.258308295334643],[117.8835993099062,4.258303801234954],[117.8835993099062,4.258624516265226]]],[[[117.8835993099062,4.258624516265226],[117.88313094205834,4.258624516265226],[117.88331729999997,4.258970195333949],[117.8835993099062,4.259013157306391],[117.8835993099062,4.258624516265226]]],[[[117.88362784258483,4.259017504033803],[117.88359259999999,4.259733995333139],[117.88411751829675,4.260589457062192],[117.88411751829675,4.259017504033803],[117.88362784258483,4.259017504033803]]],[[[117.8846357266873,4.25941049199777],[117.88515393507788,4.25941049199777],[117.88515393507788,4.260592285795005],[117.8854981,4.259322595333588],[117.88514500000001,4.259077795333817],[117.8846357266873,4.25941049199777]]],[[[117.8846357266873,4.261375434749088],[117.88414243278724,4.261375434749088],[117.88486169999999,4.262056295330717],[117.8846357266873,4.261768423885776],[117.8846357266873,4.261375434749088]]]]},"properties":{"place_id":"0f36e2b0-3151-5211-9a2b-bded5bf9c880","habitat":"disturbed_built_edge","habitat_label":"Disturbed, bare or built edge","resolution_m":50}}]}