{"type":"FeatureCollection","metadata":{"schema_version":1,"place_id":"0f4f33b1-3b3a-5bcd-a807-1fd4eb539bdc","place_name":"Taman Rekreasi Sungai Bekok","place_type":"park","osm_reference":"way/1539242071","protection_context":"no protected status confirmed from included OSM tags","resolution_m":50,"raster_coverage":1.0,"interpretation":"Suggested search habitats, not predicted plant locations or probabilities of presence."},"features":[{"type":"Feature","geometry":{"type":"Polygon","coordinates":[[[103.05721119999998,2.011104497761518],[103.05670109999998,2.0097600977630052],[103.056433,2.0107559977618936],[103.05721119999998,2.011104497761518]]]},"properties":{"place_id":"0f4f33b1-3b3a-5bcd-a807-1fd4eb539bdc","habitat":"forest_edge_opening","habitat_label":"Forest edge or opening","resolution_m":50}},{"type":"Feature","geometry":{"type":"Polygon","coordinates":[[[103.05662083918514,2.0102264733191473],[103.0571390475757,2.0102264733191473],[103.05709264182315,2.0098343069004443],[103.05668112261748,2.0098343069004443],[103.05662083918514,2.0102264733191473]]]},"properties":{"place_id":"0f4f33b1-3b3a-5bcd-a807-1fd4eb539bdc","habitat":"open_grassland","habitat_label":"Open grassland or shrubland","resolution_m":50}},{"type":"Feature","geometry":{"type":"Polygon","coordinates":[[[103.05662083918514,2.010840117462217],[103.05721119999998,2.011104497761518],[103.05740339999998,2.010832997761806],[103.05700949999999,2.0097624977630173],[103.05662083918514,2.010840117462217]]]},"properties":{"place_id":"0f4f33b1-3b3a-5bcd-a807-1fd4eb539bdc","habitat":"disturbed_built_edge","habitat_label":"Disturbed, bare or built edge","resolution_m":50}}]}