{"type":"FeatureCollection","metadata":{"schema_version":1,"place_id":"0f8a9c1d-213e-5dcc-ae13-aff60b28c983","place_name":"Senja Ria","place_type":"park","osm_reference":"way/1288771522","protection_context":"no protected status confirmed from included OSM tags","resolution_m":50,"raster_coverage":1.0,"interpretation":"Suggested search habitats, not predicted plant locations or probabilities of presence."},"features":[{"type":"Feature","geometry":{"type":"Polygon","coordinates":[[[118.25148289999998,4.686394094887662],[118.25173969999999,4.686559394887513],[118.25155479999997,4.6863351948877225],[118.25148289999998,4.686394094887662]]]},"properties":{"place_id":"0f8a9c1d-213e-5dcc-ae13-aff60b28c983","habitat":"disturbed_built_edge","habitat_label":"Disturbed, bare or built edge","resolution_m":50}}]}