{"type":"FeatureCollection","metadata":{"schema_version":1,"place_id":"0fbb6506-2c87-51cc-9f15-9054241efa03","place_name":"Balingian Waterfront","place_type":"park","osm_reference":"way/739484113","protection_context":"no protected status confirmed from included OSM tags","resolution_m":50,"raster_coverage":1.0,"interpretation":"Suggested search habitats, not predicted plant locations or probabilities of presence."},"features":[{"type":"Feature","geometry":{"type":"MultiPolygon","coordinates":[[[[112.5444982619599,2.9328945942526468],[112.54451377882995,2.9328945942526468],[112.5444982619599,2.9328491919089505],[112.5444982619599,2.9328945942526468]]],[[[112.5444982619599,2.9332870261853325],[112.54445219716008,2.9332870261853325],[112.5444982619599,2.9334360755118056],[112.5444982619599,2.9332870261853325]]]]},"properties":{"place_id":"0fbb6506-2c87-51cc-9f15-9054241efa03","habitat":"forest_edge_opening","habitat_label":"Forest edge or opening","resolution_m":50}},{"type":"Feature","geometry":{"type":"Polygon","coordinates":[[[112.54423079999998,2.932645496752467],[112.5445768,2.933690196751304],[112.54440919999999,2.932588596752498],[112.54423079999998,2.932645496752467]]]},"properties":{"place_id":"0fbb6506-2c87-51cc-9f15-9054241efa03","habitat":"disturbed_built_edge","habitat_label":"Disturbed, bare or built edge","resolution_m":50}},{"type":"Feature","geometry":{"type":"Polygon","coordinates":[[[112.5444982619599,2.9334360755118056],[112.54476189999998,2.933620596751366],[112.5444982619599,2.9328491919089505],[112.5444982619599,2.9334360755118056]]]},"properties":{"place_id":"0fbb6506-2c87-51cc-9f15-9054241efa03","habitat":"permanent_water","habitat_label":"Permanent water","resolution_m":50}},{"type":"Feature","geometry":{"type":"MultiPolygon","coordinates":[[[[112.5444982619599,2.9328491919089505],[112.54423079999998,2.932645496752467],[112.5444982619599,2.9334360755118056],[112.5444982619599,2.9328491919089505]]],[[[112.54457348118811,2.933679458252067],[112.5445768,2.933690196751304],[112.54460535885288,2.933679458252067],[112.54457348118811,2.933679458252067]]]]},"properties":{"place_id":"0fbb6506-2c87-51cc-9f15-9054241efa03","habitat":"water_edge","habitat_label":"Water edge","resolution_m":50}}]}