{"type":"FeatureCollection","metadata":{"schema_version":1,"place_id":"0fca1859-899d-5893-be4f-e0a340dd2955","place_name":"Laman Pinggiran Pendang","place_type":"park","osm_reference":"way/1342320883","protection_context":"no protected status confirmed from included OSM tags","resolution_m":50,"raster_coverage":1.0,"interpretation":"Suggested search habitats, not predicted plant locations or probabilities of presence."},"features":[{"type":"Feature","geometry":{"type":"MultiPolygon","coordinates":[[[[100.4771988952483,5.993468857423258],[100.47697947097427,5.993740300324284],[100.47697947097427,5.993815354399793],[100.4771988952483,5.993468857423258]]],[[[100.47690353020246,5.993862885763561],[100.4762413,5.994533393562565],[100.47626449999998,5.994560093562528],[100.47676409999998,5.994088793563011],[100.47690353020246,5.993862885763561]]]]},"properties":{"place_id":"0fca1859-899d-5893-be4f-e0a340dd2955","habitat":"forest_edge_opening","habitat_label":"Forest edge or opening","resolution_m":50}},{"type":"Feature","geometry":{"type":"Polygon","coordinates":[[[100.4762534,5.994547293562551],[100.4769443,5.993870893563238],[100.477486,5.9929676935641165],[100.4774475,5.992947893564132],[100.4762534,5.994547293562551]]]},"properties":{"place_id":"0fca1859-899d-5893-be4f-e0a340dd2955","habitat":"disturbed_built_edge","habitat_label":"Disturbed, bare or built edge","resolution_m":50}}]}