{"type":"FeatureCollection","metadata":{"schema_version":1,"place_id":"10fefbed-a338-5414-b994-831f87131e5b","place_name":"Hutan Simpanan Kekal Sungai Jeloh","place_type":"park","osm_reference":"way/1363789245","protection_context":"mapped protected boundary","resolution_m":50,"raster_coverage":1.0,"interpretation":"Suggested search habitats, not predicted plant locations or probabilities of presence."},"features":[{"type":"Feature","geometry":{"type":"Polygon","coordinates":[[[101.83261262068092,3.020802728545672],[101.83261262068092,3.0204102662731103],[101.83209441229036,3.0204102662731103],[101.83209441229036,3.019625342142146],[101.83261262068092,3.019625342142146],[101.8322942,3.017406396660496],[101.83143049999998,3.016618896661336],[101.82896019999998,3.0168893966610515],[101.82706389999998,3.0163617966616165],[101.82620020000002,3.017990296659845],[101.82723019999999,3.0192183966585326],[101.827033,3.019901396657762],[101.8262096,3.0218459966556632],[101.8250656,3.022653496654789],[101.82522389999998,3.0239900966533244],[101.82664009999999,3.0251765966520354],[101.8266293,3.0258970966512746],[101.82731599999998,3.026373896650763],[101.82749029999998,3.0281791966487943],[101.82629810000002,3.030852296645878],[101.82439769999999,3.032301296644355],[101.82399,3.0337583966427375],[101.8248269,3.034979796641434],[101.8264496,3.0343824966420794],[101.82770360000002,3.0347199966417318],[101.82884749999998,3.035386896640993],[101.8297192,3.036858696639408],[101.8309296,3.0360176966402967],[101.8319669,3.0375590966386388],[101.83289359999999,3.037548396638649],[101.8346961,3.0387362966373455],[101.83574079999998,3.037647496638553],[101.83538940000001,3.035751196640596],[101.8360734,3.035159296641208],[101.8338364,3.033348596643197],[101.83367279999999,3.031387996645324],[101.8343514,3.0307852966459636],[101.8349777,3.028996096647909],[101.83676539999999,3.0284389966485263],[101.83719459999999,3.0275336966495177],[101.8363631,3.025471296651735],[101.83360309999999,3.024839096652439],[101.8339384,3.0231382966542677],[101.83359500000002,3.021351796656223],[101.83261262068092,3.020802728545672]]]},"properties":{"place_id":"10fefbed-a338-5414-b994-831f87131e5b","habitat":"forest_interior","habitat_label":"Forest interior","resolution_m":50}},{"type":"Feature","geometry":{"type":"Polygon","coordinates":[[[101.83261262068092,3.019625342142146],[101.83209441229036,3.019625342142146],[101.83209441229036,3.0204102662731103],[101.8329492145943,3.020802728545672],[101.83261262068092,3.019625342142146]]]},"properties":{"place_id":"10fefbed-a338-5414-b994-831f87131e5b","habitat":"forest_edge_opening","habitat_label":"Forest edge or opening","resolution_m":50}},{"type":"Feature","geometry":{"type":"Polygon","coordinates":[[[101.8326381285701,3.019625342142146],[101.83261262068092,3.0204102662731103],[101.832759788824,3.0204102662731103],[101.8326381285701,3.019625342142146]]]},"properties":{"place_id":"10fefbed-a338-5414-b994-831f87131e5b","habitat":"open_grassland","habitat_label":"Open grassland or shrubland","resolution_m":50}}]}