{"type":"FeatureCollection","metadata":{"schema_version":1,"place_id":"1120c8ed-b610-598c-863c-b3e30129e840","place_name":"Taman Bukit Ampangan Playground","place_type":"park","osm_reference":"way/622913370","protection_context":"no protected status confirmed from included OSM tags","resolution_m":50,"raster_coverage":1.0,"interpretation":"Suggested search habitats, not predicted plant locations or probabilities of presence."},"features":[{"type":"Feature","geometry":{"type":"Polygon","coordinates":[[[101.99974048782991,2.7272782644961056],[101.99947572244143,2.7276706286702423],[101.99952263340087,2.7276706286702423],[101.99974048782991,2.7272782644961056]]]},"properties":{"place_id":"1120c8ed-b610-598c-863c-b3e30129e840","habitat":"open_grassland","habitat_label":"Open grassland or shrubland","resolution_m":50}},{"type":"Feature","geometry":{"type":"Polygon","coordinates":[[[101.99931539999999,2.727751196975417],[101.99972540000002,2.7275917969755716],[101.99974589999998,2.727165796976049],[101.9992425,2.727138496976078],[101.99931539999999,2.727751196975417]]]},"properties":{"place_id":"1120c8ed-b610-598c-863c-b3e30129e840","habitat":"disturbed_built_edge","habitat_label":"Disturbed, bare or built edge","resolution_m":50}}]}