{"type":"FeatureCollection","metadata":{"schema_version":1,"place_id":"1160454b-3563-5ede-ae91-0f523695d2cb","place_name":"Hen Hua Centennial Memorial Park","place_type":"park","osm_reference":"way/702095329","protection_context":"no protected status confirmed from included OSM tags","resolution_m":50,"raster_coverage":1.0,"interpretation":"Suggested search habitats, not predicted plant locations or probabilities of presence."},"features":[{"type":"Feature","geometry":{"type":"Polygon","coordinates":[[[111.84388051792193,2.3133999278175934],[111.84464269999998,2.313533597428687],[111.84485409999999,2.3128632974294234],[111.84439872631249,2.3127938323277246],[111.84388051792193,2.3133999278175934]]]},"properties":{"place_id":"1160454b-3563-5ede-ae91-0f523695d2cb","habitat":"forest_edge_opening","habitat_label":"Forest edge or opening","resolution_m":50}},{"type":"Feature","geometry":{"type":"Polygon","coordinates":[[[111.84439872631249,2.3127938323277246],[111.8448085628198,2.313007685160541],[111.84485409999999,2.3128632974294234],[111.84439872631249,2.3127938323277246]]]},"properties":{"place_id":"1160454b-3563-5ede-ae91-0f523695d2cb","habitat":"open_grassland","habitat_label":"Open grassland or shrubland","resolution_m":50}},{"type":"Feature","geometry":{"type":"Polygon","coordinates":[[[111.84380489999998,2.313462097428749],[111.84464269999998,2.313533597428687],[111.84485409999999,2.3128632974294234],[111.84426869999999,2.3127739974295025],[111.84380489999998,2.313462097428749]]]},"properties":{"place_id":"1160454b-3563-5ede-ae91-0f523695d2cb","habitat":"disturbed_built_edge","habitat_label":"Disturbed, bare or built edge","resolution_m":50}}]}