{"type":"FeatureCollection","metadata":{"schema_version":1,"place_id":"1160ffac-a0c8-5f2a-8530-14ef8dcbe8fb","place_name":"Dinosaur Park","place_type":"park","osm_reference":"way/789332766","protection_context":"no protected status confirmed from included OSM tags","resolution_m":50,"raster_coverage":1.0,"interpretation":"Suggested search habitats, not predicted plant locations or probabilities of presence."},"features":[{"type":"Feature","geometry":{"type":"Polygon","coordinates":[[[101.6455947,3.1471970965199696],[101.64517359999999,3.1474140965197086],[101.64532909999998,3.1476121965195323],[101.6455947,3.1471970965199696]]]},"properties":{"place_id":"1160ffac-a0c8-5f2a-8530-14ef8dcbe8fb","habitat":"forest_edge_opening","habitat_label":"Forest edge or opening","resolution_m":50}},{"type":"Feature","geometry":{"type":"Polygon","coordinates":[[[101.64517359999999,3.1474140965197086],[101.6455947,3.1471970965199696],[101.64546860000002,3.1470497965201063],[101.64517359999999,3.1474140965197086]]]},"properties":{"place_id":"1160ffac-a0c8-5f2a-8530-14ef8dcbe8fb","habitat":"disturbed_built_edge","habitat_label":"Disturbed, bare or built edge","resolution_m":50}}]}