{"type":"FeatureCollection","metadata":{"schema_version":1,"place_id":"1182105e-5feb-5562-bed5-90d6021a4503","place_name":"Pulau Leban Cin","place_type":"wood","osm_reference":"way/724580689","protection_context":"no protected status confirmed from included OSM tags","resolution_m":50,"raster_coverage":1.0,"interpretation":"Suggested search habitats, not predicted plant locations or probabilities of presence."},"features":[{"type":"Feature","geometry":{"type":"Polygon","coordinates":[[[102.69491138257382,5.004101130948023],[102.6933892,5.005272794558734],[102.69366679999997,5.005978194558021],[102.69498909999999,5.004548594559486],[102.69491138257382,5.004101130948023]]]},"properties":{"place_id":"1182105e-5feb-5562-bed5-90d6021a4503","habitat":"forest_edge_opening","habitat_label":"Forest edge or opening","resolution_m":50}},{"type":"Feature","geometry":{"type":"MultiPolygon","coordinates":[[[[102.69491138257382,5.004101130948023],[102.69491138257382,5.004602088054351],[102.6951628,5.004012194560052],[102.69449168593765,5.004101130948023],[102.69491138257382,5.004101130948023]]],[[[102.69439317418326,5.004887913563116],[102.69439317418326,5.004494511866369],[102.6939579223414,5.004887913563116],[102.69439317418326,5.004887913563116]]],[[[102.69439317418326,5.004887913563116],[102.69439317418326,5.00501659403728],[102.69442575377846,5.004887913563116],[102.69439317418326,5.004887913563116]]],[[[102.69387496579269,5.005674697099228],[102.69387496579269,5.005925712608441],[102.69406201133701,5.005674697099228],[102.69387496579269,5.005674697099228]]]]},"properties":{"place_id":"1182105e-5feb-5562-bed5-90d6021a4503","habitat":"permanent_water","habitat_label":"Permanent water","resolution_m":50}},{"type":"Feature","geometry":{"type":"Polygon","coordinates":[[[102.69439317418326,5.004887913563116],[102.69439317418326,5.004494522140452],[102.69439316543188,5.004494522140452],[102.6939579223414,5.004887913563116],[102.69439317418326,5.004887913563116]]]},"properties":{"place_id":"1182105e-5feb-5562-bed5-90d6021a4503","habitat":"seasonal_water_wetland","habitat_label":"Seasonal water or wetland","resolution_m":50}},{"type":"Feature","geometry":{"type":"MultiPolygon","coordinates":[[[[102.69491138257382,5.004101130948023],[102.69444059999998,5.004154494559903],[102.69439317418326,5.004887913563116],[102.69491138257382,5.004602088054351],[102.69491138257382,5.004101130948023]]],[[[102.69366679999997,5.005978194558021],[102.6941684,5.0055425945584675],[102.69439317418326,5.004887913563116],[102.6933892,5.005272794558734],[102.69366679999997,5.005978194558021]]]]},"properties":{"place_id":"1182105e-5feb-5562-bed5-90d6021a4503","habitat":"water_edge","habitat_label":"Water edge","resolution_m":50}}]}