{"type":"FeatureCollection","metadata":{"schema_version":1,"place_id":"11939637-4390-53ba-ba80-9aded8f82a41","place_name":"Taman Awam Nabawan","place_type":"park","osm_reference":"way/953949721","protection_context":"no protected status confirmed from included OSM tags","resolution_m":50,"raster_coverage":1.0,"interpretation":"Suggested search habitats, not predicted plant locations or probabilities of presence."},"features":[{"type":"Feature","geometry":{"type":"Polygon","coordinates":[[[116.4335199,5.0427665945202955],[116.43362770000002,5.042398294520676],[116.4332518,5.042293894520783],[116.43314089999998,5.042662194520436],[116.4335199,5.0427665945202955]]]},"properties":{"place_id":"11939637-4390-53ba-ba80-9aded8f82a41","habitat":"open_grassland","habitat_label":"Open grassland or shrubland","resolution_m":50}},{"type":"Feature","geometry":{"type":"Polygon","coordinates":[[[116.4335199,5.0427665945202955],[116.43362770000002,5.042398294520676],[116.4332518,5.042293894520783],[116.43314089999998,5.042662194520436],[116.4335199,5.0427665945202955]]]},"properties":{"place_id":"11939637-4390-53ba-ba80-9aded8f82a41","habitat":"disturbed_built_edge","habitat_label":"Disturbed, bare or built edge","resolution_m":50}}]}