{"type":"FeatureCollection","metadata":{"schema_version":1,"place_id":"11b7f03a-168a-58c5-9b60-855bad8eef0f","place_name":"Taman Eko Rimba Gunung Datuk","place_type":"park","osm_reference":"way/1390930366","protection_context":"mapped protected boundary","resolution_m":50,"raster_coverage":1.0,"interpretation":"Suggested search habitats, not predicted plant locations or probabilities of presence."},"features":[{"type":"Feature","geometry":{"type":"Polygon","coordinates":[[[102.16892986615477,2.543272886924464],[102.16892986615477,2.542880579314101],[102.16944807454533,2.542880579314101],[102.16996628293589,2.5436651946509503],[102.16944807454533,2.5436651946509503],[102.16944807454533,2.5440575024935788],[102.16892986615477,2.5440575024935788],[102.16882562834336,2.5436651946509503],[102.16891350000002,2.5452982971746803],[102.1694103,2.5450831971748986],[102.17042419999997,2.5426420971775645],[102.16922519999999,2.542267597177994],[102.16932429999997,2.5427130971774825],[102.1688348,2.5428394971773742],[102.16892986615477,2.543272886924464]]]},"properties":{"place_id":"11b7f03a-168a-58c5-9b60-855bad8eef0f","habitat":"forest_interior","habitat_label":"Forest interior","resolution_m":50}},{"type":"Feature","geometry":{"type":"Polygon","coordinates":[[[102.16892986615477,2.542880579314101],[102.16892986615477,2.5440575024935788],[102.16944807454533,2.5440575024935788],[102.16996628293589,2.543272886924464],[102.16892986615477,2.542880579314101]]]},"properties":{"place_id":"11b7f03a-168a-58c5-9b60-855bad8eef0f","habitat":"forest_edge_opening","habitat_label":"Forest edge or opening","resolution_m":50}},{"type":"Feature","geometry":{"type":"Polygon","coordinates":[[[102.16892986615477,2.542880579314101],[102.16892986615477,2.5440575024935788],[102.16944807454533,2.5440575024935788],[102.16996628293589,2.543272886924464],[102.16892986615477,2.542880579314101]]]},"properties":{"place_id":"11b7f03a-168a-58c5-9b60-855bad8eef0f","habitat":"disturbed_built_edge","habitat_label":"Disturbed, bare or built edge","resolution_m":50}}]}