{"type":"FeatureCollection","metadata":{"schema_version":1,"place_id":"13329f3e-efc3-53d4-a98a-0b5fbfef360b","place_name":"MPS Public Park","place_type":"park","osm_reference":"way/544952969","protection_context":"no protected status confirmed from included OSM tags","resolution_m":50,"raster_coverage":1.0,"interpretation":"Suggested search habitats, not predicted plant locations or probabilities of presence."},"features":[{"type":"Feature","geometry":{"type":"MultiPolygon","coordinates":[[[[101.95024592533817,2.71982336883614],[101.95053359232227,2.71982336883614],[101.95024592533817,2.719774276659037],[101.95024592533817,2.71982336883614]]],[[[101.9497277169476,2.720215730646441],[101.94929199849386,2.720215730646441],[101.94937602761745,2.720608092580992],[101.95075189999999,2.721073296982667],[101.95113520193127,2.720608092580992],[101.95076413372874,2.720215730646441],[101.95024592533817,2.720215730646441],[101.95024592533817,2.71982336883614],[101.9497277169476,2.7198245696481687],[101.9497277169476,2.720215730646441]]]]},"properties":{"place_id":"13329f3e-efc3-53d4-a98a-0b5fbfef360b","habitat":"forest_interior","habitat_label":"Forest interior","resolution_m":50}},{"type":"Feature","geometry":{"type":"MultiPolygon","coordinates":[[[[101.95024592533817,2.71982336883614],[101.9500808,2.71974609698413],[101.94973311992925,2.71982336883614],[101.95024592533817,2.71982336883614]]],[[[101.9497277169476,2.720215730646441],[101.9497277169476,2.7198245696481687],[101.94929199849386,2.720215730646441],[101.9497277169476,2.720215730646441]]],[[[101.95024592533817,2.71982336883614],[101.95024592533817,2.720215730646441],[101.95113520193127,2.720608092580992],[101.95131250000001,2.7199564969839103],[101.95053359232227,2.71982336883614],[101.95024592533817,2.71982336883614]]],[[[101.9497277169476,2.720608092580992],[101.9494662,2.720868096982901],[101.9495038,2.7209879969827626],[101.9497277169476,2.720608092580992]]]]},"properties":{"place_id":"13329f3e-efc3-53d4-a98a-0b5fbfef360b","habitat":"forest_edge_opening","habitat_label":"Forest edge or opening","resolution_m":50}},{"type":"Feature","geometry":{"type":"MultiPolygon","coordinates":[[[[101.95024592533817,2.71982336883614],[101.9500808,2.71974609698413],[101.94973311992925,2.71982336883614],[101.95024592533817,2.71982336883614]]],[[[101.9497277169476,2.720215730646441],[101.9497277169476,2.7198245696481687],[101.94929199849386,2.720215730646441],[101.9497277169476,2.720215730646441]]],[[[101.95024592533817,2.71982336883614],[101.95024592533817,2.720215730646441],[101.95113520193127,2.720608092580992],[101.95131250000001,2.7199564969839103],[101.95053359232227,2.71982336883614],[101.95024592533817,2.71982336883614]]],[[[101.9497277169476,2.720608092580992],[101.9494662,2.720868096982901],[101.9495038,2.7209879969827626],[101.9497277169476,2.720608092580992]]]]},"properties":{"place_id":"13329f3e-efc3-53d4-a98a-0b5fbfef360b","habitat":"disturbed_built_edge","habitat_label":"Disturbed, bare or built edge","resolution_m":50}}]}