{"type":"FeatureCollection","metadata":{"schema_version":1,"place_id":"13a20428-005d-51c8-a122-ead65e2cee4a","place_name":"Taman Komuniti Taman Tunku","place_type":"park","osm_reference":"way/1263787450","protection_context":"no protected status confirmed from included OSM tags","resolution_m":50,"raster_coverage":1.0,"interpretation":"Suggested search habitats, not predicted plant locations or probabilities of presence."},"features":[{"type":"Feature","geometry":{"type":"MultiPolygon","coordinates":[[[[113.99087430926748,4.310107584389329],[113.99029967162409,4.310364452820616],[113.99029967162409,4.3105005979097335],[113.99133515036962,4.3105005979097335],[113.99087430926748,4.310107584389329]]],[[[113.98999510296575,4.3105005979097335],[113.9899082,4.3108772952794405],[113.99029967162409,4.3105005979097335],[113.98999510296575,4.3105005979097335]]]]},"properties":{"place_id":"13a20428-005d-51c8-a122-ead65e2cee4a","habitat":"open_grassland","habitat_label":"Open grassland or shrubland","resolution_m":50}},{"type":"Feature","geometry":{"type":"Polygon","coordinates":[[[113.9899082,4.3108772952794405],[113.9911145,4.310280695280052],[113.9917184,4.311553295278714],[113.99131859999999,4.311726695278568],[113.99320189999997,4.315793195274269],[113.99182999999998,4.312488995277759],[113.9921782,4.312323695277917],[113.99110559999998,4.3100041952803645],[113.9897714,4.3106005952797295],[113.9899082,4.3108772952794405]]]},"properties":{"place_id":"13a20428-005d-51c8-a122-ead65e2cee4a","habitat":"disturbed_built_edge","habitat_label":"Disturbed, bare or built edge","resolution_m":50}}]}