{"type":"FeatureCollection","metadata":{"schema_version":1,"place_id":"13bf1d86-e0d7-56d4-8670-ef8f80df9f85","place_name":"G+P","place_type":"park","osm_reference":"way/975344648","protection_context":"no protected status confirmed from included OSM tags","resolution_m":50,"raster_coverage":1.0,"interpretation":"Suggested search habitats, not predicted plant locations or probabilities of presence."},"features":[{"type":"Feature","geometry":{"type":"Polygon","coordinates":[[[100.34113949999998,5.41825219413822],[100.341311,5.418472294138023],[100.3411515,5.418618194137836],[100.34159219999998,5.41821949413827],[100.34113949999998,5.41825219413822]]]},"properties":{"place_id":"13bf1d86-e0d7-56d4-8670-ef8f80df9f85","habitat":"disturbed_built_edge","habitat_label":"Disturbed, bare or built edge","resolution_m":50}}]}