{"type":"FeatureCollection","metadata":{"schema_version":1,"place_id":"1409593d-9797-580f-8213-fff010f1128b","place_name":"Taman Istana Besar","place_type":"park","osm_reference":"way/106590698","protection_context":"no protected status confirmed from included OSM tags","resolution_m":50,"raster_coverage":1.0,"interpretation":"Suggested search habitats, not predicted plant locations or probabilities of presence."},"features":[{"type":"Feature","geometry":{"type":"MultiPolygon","coordinates":[[[[103.75412933287977,1.4550021999596618],[103.75309291609865,1.455394254592772],[103.75412933287977,1.455394254592772],[103.75412933287977,1.4550021999596618]]],[[[103.75412933287977,1.4561783640580148],[103.75309291609865,1.455786309292217],[103.75309291609865,1.4561783640580148],[103.75257470770808,1.4561783640580148],[103.75257470770808,1.4569624737887397],[103.75361112448921,1.457354528753703],[103.75361112448921,1.4569624737887397],[103.75412933287977,1.4569624737887397],[103.75412933287977,1.4561783640580148]]],[[[103.75672037483257,1.458530694047211],[103.75723858322313,1.458530694047211],[103.75723858322313,1.4581386388829207],[103.75672037483257,1.4581386388829207],[103.75672037483257,1.458530694047211]]],[[[103.75775679161369,1.459314804575243],[103.75775679161369,1.4597068599390213],[103.75827500000426,1.4597068599390213],[103.75827500000426,1.459314804575243],[103.75775679161369,1.459314804575243]]],[[[103.75723858322313,1.460490970866191],[103.75775679161369,1.460490970866191],[103.75775679161369,1.4597068599390213],[103.75672037483257,1.4597068599390213],[103.75672037483257,1.4600989153693311],[103.75568395805145,1.4597068599390213],[103.75568395805145,1.4589227492779788],[103.75620216644202,1.4589227492779788],[103.75620216644202,1.4581386388829207],[103.75568395805145,1.4581386388829207],[103.75568395805145,1.4577465837850907],[103.75516574966089,1.4577465837850907],[103.75516574966089,1.458530694047211],[103.75464754127032,1.458530694047211],[103.75464754127032,1.4589227492779788],[103.75412933287977,1.4589227492779788],[103.75412933287977,1.458530694047211],[103.75309291609865,1.458530694047211],[103.75309291609865,1.459314804575243],[103.75257470770808,1.459314804575243],[103.75274518015627,1.4600989153693311],[103.75309291609865,1.4597068599390213],[103.75361112448921,1.4597068599390213],[103.75361112448921,1.4600989153693311],[103.75412933287977,1.4600989153693311],[103.75412933287977,1.4597068599390213],[103.75516574966089,1.4600989153693311],[103.75464754127032,1.4608830264296173],[103.75361112448921,1.460490970866191],[103.75361112448921,1.4615720791475795],[103.75453144892245,1.4624512493493595],[103.75516574966089,1.4624512493493595],[103.75516574966089,1.4628433052458931],[103.75608081360679,1.4624512493493595],[103.75464754127032,1.461667137756246],[103.75464754127032,1.4612750820596299],[103.75568395805145,1.4608830264296173],[103.75568395805145,1.4612750820596299],[103.75672037483257,1.461667137756246],[103.75723858322313,1.460490970866191]]],[[[103.75620216644202,1.461667137756246],[103.75568395805145,1.461667137756246],[103.75568395805145,1.462059193519483],[103.75620216644202,1.462059193519483],[103.75620216644202,1.461667137756246]]]]},"properties":{"place_id":"1409593d-9797-580f-8213-fff010f1128b","habitat":"forest_interior","habitat_label":"Forest interior","resolution_m":50}},{"type":"Feature","geometry":{"type":"MultiPolygon","coordinates":[[[[103.75931141678537,1.4549043020793189],[103.75948580552763,1.4550021999596618],[103.75949720000001,1.4549424983770516],[103.75931141678537,1.4549043020793189]]],[[[103.7587932083948,1.458530694047211],[103.75827500000426,1.458530694047211],[103.75827500000426,1.4577465837850907],[103.7587932083948,1.4577465837850907],[103.7588871942276,1.4581386388829207],[103.7591116734651,1.4569624737887397],[103.75827500000426,1.457354528753703],[103.75827500000426,1.456570418890183],[103.7587932083948,1.456570418890183],[103.7587932083948,1.4561783640580148],[103.75827500000426,1.4561783640580148],[103.75827500000426,1.455394254592772],[103.75775679161369,1.455394254592772],[103.75827500000426,1.4546912188797418],[103.7564137,1.454483798377565],[103.7553931,1.4545938983774425],[103.75359510372427,1.4550021999596618],[103.75412933287977,1.4550021999596618],[103.75412933287977,1.455394254592772],[103.75309291609865,1.4551494873696713],[103.75194759999998,1.4555697983763616],[103.75257470770808,1.4596416486339585],[103.75257470770808,1.459314804575243],[103.75309291609865,1.459314804575243],[103.75309291609865,1.458530694047211],[103.75412933287977,1.458530694047211],[103.75412933287977,1.4589227492779788],[103.75464754127032,1.4589227492779788],[103.75464754127032,1.458530694047211],[103.75516574966089,1.458530694047211],[103.75516574966089,1.4577465837850907],[103.75568395805145,1.4577465837850907],[103.75568395805145,1.4581386388829207],[103.75620216644202,1.4581386388829207],[103.75568395805145,1.4597068599390213],[103.75620216644202,1.4597068599390213],[103.75620216644202,1.4600989153693311],[103.75672037483257,1.4600989153693311],[103.75672037483257,1.4597068599390213],[103.75775679161369,1.4597068599390213],[103.75723858322313,1.4611588410827663],[103.75857619999998,1.4596353983718602],[103.7587932083948,1.458530694047211]],[[103.75775679161369,1.459314804575243],[103.75827500000426,1.459314804575243],[103.75827500000426,1.4597068599390213],[103.75775679161369,1.4597068599390213],[103.75775679161369,1.459314804575243]],[[103.75672037483257,1.458530694047211],[103.75672037483257,1.4581386388829207],[103.75723858322313,1.4581386388829207],[103.75723858322313,1.458530694047211],[103.75672037483257,1.458530694047211]],[[103.75309291609865,1.4561783640580148],[103.75309291609865,1.455786309292217],[103.75412933287977,1.4561783640580148],[103.75412933287977,1.4569624737887397],[103.75361112448921,1.4569624737887397],[103.75361112448921,1.457354528753703],[103.75257470770808,1.4569624737887397],[103.75257470770808,1.4561783640580148],[103.75309291609865,1.4561783640580148]],[[103.75516574966089,1.4569624737887397],[103.75516574966089,1.457354528753703],[103.75464754127032,1.457354528753703],[103.75464754127032,1.4569624737887397],[103.75516574966089,1.4569624737887397]],[[103.75516574966089,1.4561783640580148],[103.75568395805145,1.4561783640580148],[103.75568395805145,1.4569624737887397],[103.75516574966089,1.4569624737887397],[103.75516574966089,1.4561783640580148]],[[103.75568395805145,1.455786309292217],[103.75620216644202,1.455786309292217],[103.75620216644202,1.4561783640580148],[103.75568395805145,1.4561783640580148],[103.75568395805145,1.455786309292217]],[[103.75620216644202,1.4550021999596618],[103.75672037483257,1.4550021999596618],[103.75672037483257,1.4546101453928693],[103.75723858322313,1.4546101453928693],[103.75723858322313,1.455394254592772],[103.75672037483257,1.455394254592772],[103.75672037483257,1.455786309292217],[103.75620216644202,1.455786309292217],[103.75620216644202,1.4550021999596618]]],[[[103.75412933287977,1.4608830264296173],[103.75464754127032,1.4608830264296173],[103.75516574966089,1.4600989153693311],[103.75464754127032,1.4600989153693311],[103.75464754127032,1.4597068599390213],[103.75412933287977,1.4597068599390213],[103.75412933287977,1.4600989153693311],[103.75309291609865,1.4597068599390213],[103.75288789999999,1.4607409983706332],[103.75361112448921,1.4615720791475795],[103.75361112448921,1.460490970866191],[103.75412933287977,1.460490970866191],[103.75412933287977,1.4608830264296173]]],[[[103.75516574966089,1.4608830264296173],[103.75464754127032,1.461667137756246],[103.75568395805145,1.462059193519483],[103.75620216644202,1.4612750820596299],[103.75516574966089,1.4608830264296173]]],[[[103.75672037483257,1.4612750820596299],[103.75672037483257,1.461667137756246],[103.75620216644202,1.461667137756246],[103.75568395805145,1.4624512493493595],[103.75608081360679,1.4624512493493595],[103.75713445180509,1.4612750820596299],[103.75672037483257,1.4612750820596299]]],[[[103.75412933287977,1.462059193519483],[103.75412104088018,1.462059193519483],[103.75412933287977,1.4620671147251398],[103.75412933287977,1.462059193519483]]],[[[103.75516574966089,1.4628433052458931],[103.75516574966089,1.4624512493493595],[103.75453144892245,1.4624512493493595],[103.7552896,1.463175498367923],[103.75572960087399,1.4628433052458931],[103.75516574966089,1.4628433052458931]]]]},"properties":{"place_id":"1409593d-9797-580f-8213-fff010f1128b","habitat":"forest_edge_opening","habitat_label":"Forest edge or opening","resolution_m":50}},{"type":"Feature","geometry":{"type":"MultiPolygon","coordinates":[[[[103.75568395805145,1.4546101453928693],[103.75464754127032,1.4547208921109425],[103.75464754127032,1.455394254592772],[103.75516574966089,1.455394254592772],[103.75568395805145,1.4546101453928693]]],[[[103.75309291609865,1.455786309292217],[103.75309291609865,1.455394254592772],[103.75257470770808,1.455394254592772],[103.75257470770808,1.455786309292217],[103.75309291609865,1.455786309292217]]],[[[103.75205649931752,1.455786309292217],[103.75208035900643,1.4561783640580148],[103.75257470770808,1.4561783640580148],[103.75257470770808,1.455786309292217],[103.75205649931752,1.455786309292217]]],[[[103.75412933287977,1.458530694047211],[103.75464754127032,1.458530694047211],[103.75464754127032,1.4581386388829207],[103.75412933287977,1.4581386388829207],[103.75412933287977,1.458530694047211]]],[[[103.75361112448921,1.460490970866191],[103.75361112448921,1.4600989153693311],[103.75309291609865,1.4600989153693311],[103.75309291609865,1.460490970866191],[103.75361112448921,1.460490970866191]]],[[[103.75464754127032,1.460490970866191],[103.75464754127032,1.4600989153693311],[103.75412933287977,1.4600989153693311],[103.75412933287977,1.460490970866191],[103.75464754127032,1.460490970866191]]],[[[103.75516574966089,1.4628433052458931],[103.75494185696472,1.4628433052458931],[103.75516574966089,1.4630571861990302],[103.75516574966089,1.4628433052458931]]],[[[103.75723858322313,1.4550021999596618],[103.75723858322313,1.455394254592772],[103.75775679161369,1.455394254592772],[103.75775679161369,1.4550021999596618],[103.75723858322313,1.4550021999596618]]],[[[103.7587932083948,1.457354528753703],[103.75948580552763,1.4550021999596618],[103.75775679161369,1.4546101453928693],[103.75827500000426,1.455394254592772],[103.75775679161369,1.455394254592772],[103.75775679161369,1.455786309292217],[103.75672037483257,1.455786309292217],[103.75672037483257,1.4561783640580148],[103.7587932083948,1.4561783640580148],[103.7587932083948,1.457354528753703]]],[[[103.75672037483257,1.457354528753703],[103.75620216644202,1.455394254592772],[103.75568395805145,1.455394254592772],[103.75568395805145,1.455786309292217],[103.75464754127032,1.455786309292217],[103.75464754127032,1.455394254592772],[103.75412933287977,1.455394254592772],[103.75412933287977,1.4561783640580148],[103.75464754127032,1.4561783640580148],[103.75412933287977,1.4577465837850907],[103.75516574966089,1.4577465837850907],[103.75516574966089,1.457354528753703],[103.75620216644202,1.4569624737887397],[103.75620216644202,1.4581386388829207],[103.75672037483257,1.4581386388829207],[103.75672037483257,1.4577465837850907],[103.75723858322313,1.4577465837850907],[103.75723858322313,1.457354528753703],[103.75672037483257,1.457354528753703]]],[[[103.75775679161369,1.4569624737887397],[103.75775679161369,1.456570418890183],[103.75723858322313,1.456570418890183],[103.75723858322313,1.4569624737887397],[103.75775679161369,1.4569624737887397]]],[[[103.75827500000426,1.457354528753703],[103.75827500000426,1.4569624737887397],[103.75775679161369,1.4569624737887397],[103.75775679161369,1.458530694047211],[103.7587932083948,1.4581386388829207],[103.7587932083948,1.457354528753703],[103.75827500000426,1.457354528753703]]],[[[103.75620216644202,1.4589227492779788],[103.75620216644202,1.4597068599390213],[103.75672037483257,1.4597068599390213],[103.75723858322313,1.4589227492779788],[103.75620216644202,1.4589227492779788]]]]},"properties":{"place_id":"1409593d-9797-580f-8213-fff010f1128b","habitat":"open_grassland","habitat_label":"Open grassland or shrubland","resolution_m":50}},{"type":"Feature","geometry":{"type":"MultiPolygon","coordinates":[[[[103.75257470770808,1.4553014735452054],[103.75194759999998,1.4555697983763616],[103.75205649931752,1.4560963473722865],[103.75205649931752,1.455786309292217],[103.75257470770808,1.455786309292217],[103.75257470770808,1.4553014735452054]]],[[[103.75568395805145,1.4546101453928693],[103.75516574966089,1.455394254592772],[103.75568395805145,1.455394254592772],[103.75568395805145,1.4561783640580148],[103.75672037483257,1.456570418890183],[103.75620216644202,1.457354528753703],[103.75672037483257,1.457354528753703],[103.75672037483257,1.4577465837850907],[103.75723858322313,1.4577465837850907],[103.75723858322313,1.457354528753703],[103.75827500000426,1.457354528753703],[103.75827500000426,1.4581386388829207],[103.75672037483257,1.4589227492779788],[103.75672037483257,1.459314804575243],[103.75775679161369,1.4597068599390213],[103.75723858322313,1.4611588410827663],[103.75857619999998,1.4596353983718602],[103.75949720000001,1.4549424983770516],[103.75745289999999,1.4545221983775354],[103.75529771651817,1.4546101453928693],[103.75568395805145,1.4546101453928693]],[[103.75672037483257,1.4561783640580148],[103.75723858322313,1.4561783640580148],[103.75723858322313,1.455786309292217],[103.75827500000426,1.455786309292217],[103.75775679161369,1.456570418890183],[103.75672037483257,1.456570418890183],[103.75672037483257,1.4561783640580148]],[[103.75827500000426,1.455394254592772],[103.7587932083948,1.455394254592772],[103.7587932083948,1.455786309292217],[103.75827500000426,1.455786309292217],[103.75827500000426,1.455394254592772]],[[103.75775679161369,1.459314804575243],[103.75827500000426,1.459314804575243],[103.75827500000426,1.4597068599390213],[103.75775679161369,1.4597068599390213],[103.75775679161369,1.459314804575243]]],[[[103.75309291609865,1.458530694047211],[103.75361112448921,1.458530694047211],[103.75412933287977,1.4577465837850907],[103.75361112448921,1.4577465837850907],[103.75361112448921,1.457354528753703],[103.75219441269307,1.456570418890183],[103.75257470770808,1.4596416486339585],[103.75257470770808,1.459314804575243],[103.75309291609865,1.459314804575243],[103.75309291609865,1.458530694047211]]],[[[103.75309291609865,1.460490970866191],[103.75288789999999,1.4607409983706332],[103.75361112448921,1.4615720791475795],[103.75361112448921,1.4608830264296173],[103.75309291609865,1.4608830264296173],[103.75309291609865,1.460490970866191]]],[[[103.75516574966089,1.4608830264296173],[103.75464754127032,1.461667137756246],[103.75568395805145,1.462059193519483],[103.75620216644202,1.4612750820596299],[103.75516574966089,1.4608830264296173]]],[[[103.75620216644202,1.461667137756246],[103.75620216644202,1.462059193519483],[103.75568395805145,1.462059193519483],[103.75568395805145,1.4624512493493595],[103.75672037483257,1.461737312563353],[103.75620216644202,1.461667137756246]]],[[[103.75412933287977,1.462059193519483],[103.75412104088018,1.462059193519483],[103.75412933287977,1.4620671147251398],[103.75412933287977,1.462059193519483]]],[[[103.75464754127032,1.4624512493493595],[103.75453144892245,1.4624512493493595],[103.75464754127032,1.4625621504089443],[103.75464754127032,1.4624512493493595]]],[[[103.75516574966089,1.4628433052458931],[103.7552896,1.463175498367923],[103.75572960087399,1.4628433052458931],[103.75516574966089,1.4628433052458931]]]]},"properties":{"place_id":"1409593d-9797-580f-8213-fff010f1128b","habitat":"disturbed_built_edge","habitat_label":"Disturbed, bare or built edge","resolution_m":50}},{"type":"Feature","geometry":{"type":"Polygon","coordinates":[[[103.7589620206401,1.4577465837850907],[103.7587932083948,1.4581386388829207],[103.7588871942276,1.4581386388829207],[103.7589620206401,1.4577465837850907]]]},"properties":{"place_id":"1409593d-9797-580f-8213-fff010f1128b","habitat":"permanent_water","habitat_label":"Permanent water","resolution_m":50}},{"type":"Feature","geometry":{"type":"MultiPolygon","coordinates":[[[[103.75931141678537,1.4549043020793189],[103.75948580552763,1.4550021999596618],[103.75949720000001,1.4549424983770516],[103.75931141678537,1.4549043020793189]]],[[[103.75516574966089,1.455394254592772],[103.75516574966089,1.4550021999596618],[103.75672037483257,1.4550021999596618],[103.75672037483257,1.4546101453928693],[103.75775679161369,1.4550021999596618],[103.75788066611122,1.4546101453928693],[103.7564137,1.454483798377565],[103.75442499999998,1.4547587983772878],[103.75193979999999,1.4556951983762199],[103.75516574966089,1.455394254592772]]],[[[103.7587932083948,1.4586310803975333],[103.7587932083948,1.4577465837850907],[103.7591116734651,1.4569624737887397],[103.75827500000426,1.457354528753703],[103.75827500000426,1.4577465837850907],[103.75775679161369,1.4577465837850907],[103.75827500000426,1.458530694047211],[103.7587932083948,1.4586310803975333]]]]},"properties":{"place_id":"1409593d-9797-580f-8213-fff010f1128b","habitat":"water_edge","habitat_label":"Water edge","resolution_m":50}}]}