{"type":"FeatureCollection","metadata":{"schema_version":1,"place_id":"142a423d-7e0c-58c9-8230-eeba913c2ab9","place_name":"Dataran Pemuda Merdeka","place_type":"park","osm_reference":"way/282453488","protection_context":"no protected status confirmed from included OSM tags","resolution_m":50,"raster_coverage":1.0,"interpretation":"Suggested search habitats, not predicted plant locations or probabilities of presence."},"features":[{"type":"Feature","geometry":{"type":"Polygon","coordinates":[[[100.36971033412823,5.409050073245875],[100.36964318014678,5.40902578965719],[100.36965769999999,5.409069894147513],[100.36971033412823,5.409050073245875]]]},"properties":{"place_id":"142a423d-7e0c-58c9-8230-eeba913c2ab9","habitat":"forest_edge_opening","habitat_label":"Forest edge or opening","resolution_m":50}},{"type":"Feature","geometry":{"type":"Polygon","coordinates":[[[100.36919212573765,5.407499401157068],[100.36977481886203,5.40902578965719],[100.37022854251877,5.408650719839008],[100.36971033412823,5.407474872351965],[100.36919212573765,5.407499401157068]]]},"properties":{"place_id":"142a423d-7e0c-58c9-8230-eeba913c2ab9","habitat":"open_grassland","habitat_label":"Open grassland or shrubland","resolution_m":50}},{"type":"Feature","geometry":{"type":"Polygon","coordinates":[[[100.3691529,5.407508794149109],[100.36965769999999,5.409069894147513],[100.370299,5.408828394147767],[100.36964119999999,5.407440594149169],[100.3691529,5.407508794149109]]]},"properties":{"place_id":"142a423d-7e0c-58c9-8230-eeba913c2ab9","habitat":"disturbed_built_edge","habitat_label":"Disturbed, bare or built edge","resolution_m":50}}]}