{"type":"FeatureCollection","metadata":{"schema_version":1,"place_id":"153cd4a9-ff5f-51c7-8415-8835dea4279c","place_name":"Dusun Humpery","place_type":"park","osm_reference":"way/638940211","protection_context":"no protected status confirmed from included OSM tags","resolution_m":50,"raster_coverage":1.0,"interpretation":"Suggested search habitats, not predicted plant locations or probabilities of presence."},"features":[{"type":"Feature","geometry":{"type":"MultiPolygon","coordinates":[[[[101.7129064824614,3.0003948730390393],[101.7129064824614,3.000002417921572],[101.71187006568027,3.0001397238823504],[101.71238827407083,3.000787328293644],[101.7129064824614,3.000787328293644],[101.7129064824614,3.0011797836854037],[101.71342469085197,3.0011797836854037],[101.71342469085197,3.0003948730390393],[101.7129064824614,3.0003948730390393]]],[[[101.71342469085197,3.0015722392143367],[101.71394289924253,3.0015722392143367],[101.71394289924253,3.0011797836854037],[101.71342469085197,3.0011797836854037],[101.71342469085197,3.0015722392143367]]],[[[101.71394289924253,3.0015722392143367],[101.71394289924253,3.001582434809279],[101.71417746824424,3.0015722392143367],[101.71394289924253,3.0015722392143367]]]]},"properties":{"place_id":"153cd4a9-ff5f-51c7-8415-8835dea4279c","habitat":"forest_interior","habitat_label":"Forest interior","resolution_m":50}},{"type":"Feature","geometry":{"type":"MultiPolygon","coordinates":[[[[101.71394289924253,3.0015722392143367],[101.71468919999997,3.001549996677658],[101.715167,3.00028719667903],[101.71375839999999,2.9999757966793688],[101.71273221434421,3.000002417921572],[101.71342469085197,3.0003948730390393],[101.71342469085197,3.0011797836854037],[101.71394289924253,3.0011797836854037],[101.71394289924253,3.0015722392143367]]],[[[101.7129064824614,3.000787328293644],[101.71195988553441,3.0003948730390393],[101.71174959999999,3.0008215966784633],[101.71268759999998,3.0016369966775653],[101.71394289924253,3.001582434809279],[101.7129064824614,3.0011797836854037],[101.7129064824614,3.000787328293644]]],[[[101.71187006568027,3.0001397238823504],[101.7118389,3.0001410966791746],[101.71187006568027,3.00020646905835],[101.71187006568027,3.0001397238823504]]]]},"properties":{"place_id":"153cd4a9-ff5f-51c7-8415-8835dea4279c","habitat":"forest_edge_opening","habitat_label":"Forest edge or opening","resolution_m":50}},{"type":"Feature","geometry":{"type":"Polygon","coordinates":[[[101.71342469085197,3.000002417921572],[101.71342469085197,3.0003948730390393],[101.71394289924253,3.0003948730390393],[101.71394289924253,3.0011797836854037],[101.71446110763307,3.0011797836854037],[101.71497931602364,3.0003948730390393],[101.71342469085197,3.000002417921572]]]},"properties":{"place_id":"153cd4a9-ff5f-51c7-8415-8835dea4279c","habitat":"open_grassland","habitat_label":"Open grassland or shrubland","resolution_m":50}},{"type":"Feature","geometry":{"type":"MultiPolygon","coordinates":[[[[101.71388228447891,3.000002417921572],[101.71311559999997,2.999905396679439],[101.71273221434421,3.000002417921572],[101.7129064824614,3.0003948730390393],[101.71388228447891,3.000002417921572]]],[[[101.71446110763307,3.000787328293644],[101.71516479999998,3.000671396678609],[101.715167,3.00028719667903],[101.71446110763307,3.000128181590858],[101.71446110763307,3.000787328293644]]],[[[101.71342469085197,3.0015722392143367],[101.71342469085197,3.0011797836854037],[101.71195988553441,3.0003948730390393],[101.71174959999999,3.0008215966784633],[101.71268759999998,3.0016369966775653],[101.71394289924253,3.001582434809279],[101.71342469085197,3.0015722392143367]]],[[[101.71187006568027,3.0001397238823504],[101.7118389,3.0001410966791746],[101.71187006568027,3.00020646905835],[101.71187006568027,3.0001397238823504]]],[[[101.71468564595584,3.0011797836854037],[101.71446110763307,3.001559910763998],[101.71468919999997,3.001549996677658],[101.71468564595584,3.0011797836854037]]]]},"properties":{"place_id":"153cd4a9-ff5f-51c7-8415-8835dea4279c","habitat":"disturbed_built_edge","habitat_label":"Disturbed, bare or built edge","resolution_m":50}}]}