{"type":"FeatureCollection","metadata":{"schema_version":1,"place_id":"15701b14-4904-5d0c-98de-ab36ac3f71f7","place_name":"BK5 Damai Playground","place_type":"park","osm_reference":"way/232976087","protection_context":"no protected status confirmed from included OSM tags","resolution_m":50,"raster_coverage":1.0,"interpretation":"Suggested search habitats, not predicted plant locations or probabilities of presence."},"features":[{"type":"Feature","geometry":{"type":"Polygon","coordinates":[[[101.64243014134514,3.035461996640897],[101.6418224,3.035303996641078],[101.6417661,3.035421796640929],[101.64243014134514,3.035461996640897]]]},"properties":{"place_id":"15701b14-4904-5d0c-98de-ab36ac3f71f7","habitat":"forest_edge_opening","habitat_label":"Forest edge or opening","resolution_m":50}},{"type":"Feature","geometry":{"type":"Polygon","coordinates":[[[101.6424312,3.0353065966410995],[101.6418385,3.035461996640897],[101.6426619,3.035461996640897],[101.6424312,3.0353065966410995]]]},"properties":{"place_id":"15701b14-4904-5d0c-98de-ab36ac3f71f7","habitat":"disturbed_built_edge","habitat_label":"Disturbed, bare or built edge","resolution_m":50}}]}