{"type":"FeatureCollection","metadata":{"schema_version":1,"place_id":"15add48a-5f7d-5f3f-8529-a5e0867e2709","place_name":"Dahlia Park","place_type":"park","osm_reference":"way/454422709","protection_context":"no protected status confirmed from included OSM tags","resolution_m":50,"raster_coverage":1.0,"interpretation":"Suggested search habitats, not predicted plant locations or probabilities of presence."},"features":[{"type":"Feature","geometry":{"type":"Polygon","coordinates":[[[101.52731080000001,3.102410196568399],[101.52765539999999,3.1017782965691096],[101.52672869999998,3.101269296569651],[101.52668579999998,3.1021075965687364],[101.52731080000001,3.102410196568399]]]},"properties":{"place_id":"15add48a-5f7d-5f3f-8529-a5e0867e2709","habitat":"forest_edge_opening","habitat_label":"Forest edge or opening","resolution_m":50}},{"type":"Feature","geometry":{"type":"Polygon","coordinates":[[[101.52731080000001,3.102410196568399],[101.52765539999999,3.1017782965691096],[101.52672869999998,3.101269296569651],[101.52668579999998,3.1021075965687364],[101.52731080000001,3.102410196568399]]]},"properties":{"place_id":"15add48a-5f7d-5f3f-8529-a5e0867e2709","habitat":"disturbed_built_edge","habitat_label":"Disturbed, bare or built edge","resolution_m":50}}]}