{"type":"FeatureCollection","metadata":{"schema_version":1,"place_id":"1623547d-d98a-56df-b524-d7f2c170269d","place_name":"Taman Bunga Miri","place_type":"park","osm_reference":"way/397914676","protection_context":"no protected status confirmed from included OSM tags","resolution_m":50,"raster_coverage":1.0,"interpretation":"Suggested search habitats, not predicted plant locations or probabilities of presence."},"features":[{"type":"Feature","geometry":{"type":"Polygon","coordinates":[[[113.99133608840522,4.398499135309141],[113.9918542967958,4.39854064500733],[113.99169347841817,4.398147586725312],[113.99133608840522,4.398164852523497],[113.99133608840522,4.398499135309141]]]},"properties":{"place_id":"1623547d-d98a-56df-b524-d7f2c170269d","habitat":"open_grassland","habitat_label":"Open grassland or shrubland","resolution_m":50}},{"type":"Feature","geometry":{"type":"Polygon","coordinates":[[[113.9916254,4.399072095187021],[113.9920054,4.398746395187364],[113.99157350000002,4.398045695188115],[113.99120139999998,4.398232395187884],[113.9916254,4.399072095187021]]]},"properties":{"place_id":"1623547d-d98a-56df-b524-d7f2c170269d","habitat":"disturbed_built_edge","habitat_label":"Disturbed, bare or built edge","resolution_m":50}}]}