{"type":"FeatureCollection","metadata":{"schema_version":1,"place_id":"168ed746-4e2c-5371-a2b8-8f25b9bcd726","place_name":"Irrawaddy Road Pocket Park","place_type":"park","osm_reference":"way/269782700","protection_context":"no protected status confirmed from included OSM tags","resolution_m":50,"raster_coverage":1.0,"interpretation":"Suggested search habitats, not predicted plant locations or probabilities of presence."},"features":[{"type":"Feature","geometry":{"type":"Polygon","coordinates":[[[100.3222286,5.425282694131118],[100.322544,5.4253360941310875],[100.3223513,5.425195594131231],[100.3222286,5.425282694131118]]]},"properties":{"place_id":"168ed746-4e2c-5371-a2b8-8f25b9bcd726","habitat":"disturbed_built_edge","habitat_label":"Disturbed, bare or built edge","resolution_m":50}}]}