{"type":"FeatureCollection","metadata":{"schema_version":1,"place_id":"16cf64dc-5903-5408-8a47-7736d32b6c0b","place_name":"Pulau Besar","place_type":"wood","osm_reference":"way/411612272","protection_context":"no protected status confirmed from included OSM tags","resolution_m":50,"raster_coverage":1.0,"interpretation":"Suggested search habitats, not predicted plant locations or probabilities of presence."},"features":[{"type":"Feature","geometry":{"type":"MultiPolygon","coordinates":[[[[102.72652209439802,5.669191420811178],[102.72652209439802,5.66838776642697],[102.72608842887918,5.669275704907968],[102.72652209439802,5.669191420811178]]],[[[102.72600388600746,5.669334106332172],[102.72496746922633,5.669854582586843],[102.72548567761689,5.670304727527248],[102.72600388600746,5.669334106332172]]]]},"properties":{"place_id":"16cf64dc-5903-5408-8a47-7736d32b6c0b","habitat":"forest_edge_opening","habitat_label":"Forest edge or opening","resolution_m":50}},{"type":"Feature","geometry":{"type":"MultiPolygon","coordinates":[[[[102.7268918,5.668171493886922],[102.72600388600746,5.669334106332172],[102.72600388600746,5.6696992764437235],[102.7266803,5.669085093885991],[102.7268918,5.668171493886922]]],[[[102.72548567761689,5.67006331863086],[102.72548567761689,5.670304727527248],[102.72564037367633,5.67006331863086],[102.72548567761689,5.67006331863086]]],[[[102.72496746922633,5.670457125884717],[102.72496746922633,5.670799358023793],[102.7253650328056,5.670457125884717],[102.72496746922633,5.670457125884717]]],[[[102.72407467587367,5.670850933400203],[102.7237439,5.671244093883872],[102.72374779999998,5.671783193883287],[102.72400019999999,5.671128993883977],[102.72491090329113,5.670850933400203],[102.72407467587367,5.670850933400203]]]]},"properties":{"place_id":"16cf64dc-5903-5408-8a47-7736d32b6c0b","habitat":"permanent_water","habitat_label":"Permanent water","resolution_m":50}},{"type":"Feature","geometry":{"type":"MultiPolygon","coordinates":[[[[102.7268329035757,5.668488092231377],[102.72652209439802,5.668881898438894],[102.72677225111767,5.668881898438894],[102.7268329035757,5.668488092231377]]],[[[102.72548567761689,5.67006331863086],[102.72548567761689,5.670304727527248],[102.72564037367633,5.67006331863086],[102.72548567761689,5.67006331863086]]],[[[102.72444926083577,5.670850933400203],[102.7244773,5.671086893883982],[102.72491090329113,5.670850933400203],[102.72444926083577,5.670850933400203]]],[[[102.72393105244521,5.671075194272484],[102.72363649999998,5.671589093883495],[102.72374779999998,5.671783193883287],[102.72393105244521,5.671790306316404],[102.72393105244521,5.671075194272484]]]]},"properties":{"place_id":"16cf64dc-5903-5408-8a47-7736d32b6c0b","habitat":"seasonal_water_wetland","habitat_label":"Seasonal water or wetland","resolution_m":50}},{"type":"Feature","geometry":{"type":"MultiPolygon","coordinates":[[[[102.72652209439802,5.66838776642697],[102.7263505,5.66862439388645],[102.72636431731804,5.668881898438894],[102.72652209439802,5.668881898438894],[102.72652209439802,5.66838776642697]]],[[[102.72491090329113,5.670850933400203],[102.72541630000002,5.670412993884694],[102.72600388600746,5.669334106332172],[102.72463490450376,5.67006331863086],[102.72407467587367,5.670850933400203],[102.72491090329113,5.670850933400203]]]]},"properties":{"place_id":"16cf64dc-5903-5408-8a47-7736d32b6c0b","habitat":"water_edge","habitat_label":"Water edge","resolution_m":50}},{"type":"Feature","geometry":{"type":"MultiPolygon","coordinates":[[[[102.72652209439802,5.668488092231377],[102.72648159999997,5.668389793886685],[102.72642666856571,5.668488092231377],[102.72652209439802,5.668488092231377]]],[[[102.72491090329113,5.670850933400203],[102.72541630000002,5.670412993884694],[102.72600388600746,5.669334106332172],[102.7246397,5.670058993885011],[102.72407467587367,5.670850933400203],[102.72491090329113,5.670850933400203]]]]},"properties":{"place_id":"16cf64dc-5903-5408-8a47-7736d32b6c0b","habitat":"mangrove","habitat_label":"Mangrove","resolution_m":50}}]}