{"type":"FeatureCollection","metadata":{"schema_version":1,"place_id":"16de8e14-e3fe-5aa4-9de3-91c78584431e","place_name":"Taman Panorama","place_type":"park","osm_reference":"way/841622808","protection_context":"no protected status confirmed from included OSM tags","resolution_m":50,"raster_coverage":1.0,"interpretation":"Suggested search habitats, not predicted plant locations or probabilities of presence."},"features":[{"type":"Feature","geometry":{"type":"Polygon","coordinates":[[[103.13694313972204,5.322431480488334],[103.13746134811261,5.322431480488334],[103.13746134811261,5.322825063986476],[103.13658725417729,5.323218647729823],[103.13649788457138,5.324005815952223],[103.13746134811261,5.324005815952223],[103.13746134811261,5.323218647729823],[103.13849776489371,5.322687928147292],[103.13797955650317,5.322431480488334],[103.13849776489371,5.321450730740311],[103.1372771,5.321363594236313],[103.13694313972204,5.322431480488334]]]},"properties":{"place_id":"16de8e14-e3fe-5aa4-9de3-91c78584431e","habitat":"forest_interior","habitat_label":"Forest interior","resolution_m":50}},{"type":"Feature","geometry":{"type":"MultiPolygon","coordinates":[[[[103.13849776489371,5.322037897235387],[103.13797955650317,5.322037897235387],[103.13797955650317,5.322431480488334],[103.13849776489371,5.322431480488334],[103.1386359,5.322820394234812],[103.13849776489371,5.321450730740311],[103.13849776489371,5.322037897235387]]],[[[103.13746134811261,5.322825063986476],[103.13746134811261,5.322431480488334],[103.13694313972204,5.322431480488334],[103.13665619999999,5.321944694235698],[103.13658725417729,5.323218647729823],[103.13746134811261,5.322825063986476]]],[[[103.13831702309093,5.322825063986476],[103.13797955650317,5.323218647729823],[103.13746134811261,5.323218647729823],[103.13746134811261,5.324005815952223],[103.13649788457138,5.324005815952223],[103.1366014,5.324534994233095],[103.13752309999997,5.324138194233499],[103.13831702309093,5.322825063986476]]]]},"properties":{"place_id":"16de8e14-e3fe-5aa4-9de3-91c78584431e","habitat":"forest_edge_opening","habitat_label":"Forest edge or opening","resolution_m":50}},{"type":"Feature","geometry":{"type":"Polygon","coordinates":[[[103.13876799999997,5.322085994235572],[103.13849776489371,5.322431480488334],[103.13875726983206,5.322431480488334],[103.13876799999997,5.322085994235572]]]},"properties":{"place_id":"16de8e14-e3fe-5aa4-9de3-91c78584431e","habitat":"open_grassland","habitat_label":"Open grassland or shrubland","resolution_m":50}},{"type":"Feature","geometry":{"type":"MultiPolygon","coordinates":[[[[103.13849776489371,5.322687928147292],[103.13883039999999,5.321723894235956],[103.13849776489371,5.321450730740311],[103.13849776489371,5.322687928147292]]],[[[103.13746134811261,5.322825063986476],[103.13746134811261,5.322431480488334],[103.13694313972204,5.322431480488334],[103.13665619999999,5.321944694235698],[103.13658725417729,5.323218647729823],[103.13746134811261,5.322825063986476]]],[[[103.13831702309093,5.322825063986476],[103.13797955650317,5.323218647729823],[103.13746134811261,5.323218647729823],[103.13746134811261,5.324005815952223],[103.13649788457138,5.324005815952223],[103.1366014,5.324534994233095],[103.13752309999997,5.324138194233499],[103.13831702309093,5.322825063986476]]]]},"properties":{"place_id":"16de8e14-e3fe-5aa4-9de3-91c78584431e","habitat":"disturbed_built_edge","habitat_label":"Disturbed, bare or built edge","resolution_m":50}}]}