{"type":"FeatureCollection","metadata":{"schema_version":1,"place_id":"173cc2e7-0e2a-5884-8b05-a68c4709f4b7","place_name":"Taman Tasik Tampin","place_type":"park","osm_reference":"way/962471713","protection_context":"no protected status confirmed from included OSM tags","resolution_m":50,"raster_coverage":1.0,"interpretation":"Suggested search habitats, not predicted plant locations or probabilities of presence."},"features":[{"type":"Feature","geometry":{"type":"Polygon","coordinates":[[[102.2145322045241,2.4785436888936334],[102.2145322045241,2.4789491892235707],[102.21475310000001,2.4787086972475487],[102.2145322045241,2.4785436888936334]]]},"properties":{"place_id":"173cc2e7-0e2a-5884-8b05-a68c4709f4b7","habitat":"forest_interior","habitat_label":"Forest interior","resolution_m":50}},{"type":"Feature","geometry":{"type":"Polygon","coordinates":[[[102.21401399613353,2.4781514001971736],[102.2134224,2.4783825972478994],[102.213843,2.479210397246997],[102.2145322045241,2.4789491892235707],[102.21401399613353,2.4781514001971736]]]},"properties":{"place_id":"173cc2e7-0e2a-5884-8b05-a68c4709f4b7","habitat":"forest_edge_opening","habitat_label":"Forest edge or opening","resolution_m":50}},{"type":"Feature","geometry":{"type":"Polygon","coordinates":[[[102.2145322045241,2.478935977703247],[102.21401399613353,2.478935977703247],[102.21401399613353,2.4785436888936334],[102.21455716158776,2.4785436888936334],[102.21393399999998,2.4780188972483144],[102.2134224,2.4783825972478994],[102.213843,2.479210397246997],[102.2145322045241,2.478935977703247]]]},"properties":{"place_id":"173cc2e7-0e2a-5884-8b05-a68c4709f4b7","habitat":"disturbed_built_edge","habitat_label":"Disturbed, bare or built edge","resolution_m":50}},{"type":"Feature","geometry":{"type":"Polygon","coordinates":[[[102.21409134008083,2.4781514001971736],[102.21401399613353,2.4785436888936334],[102.2145322045241,2.4785436888936334],[102.21409134008083,2.4781514001971736]]]},"properties":{"place_id":"173cc2e7-0e2a-5884-8b05-a68c4709f4b7","habitat":"cropland","habitat_label":"Cropland","resolution_m":50}}]}