{"type":"FeatureCollection","metadata":{"schema_version":1,"place_id":"17562a3a-3443-52c9-bbfa-a7e3f2578cdd","place_name":"Sakura Recreation Park","place_type":"park","osm_reference":"way/652084177","protection_context":"no protected status confirmed from included OSM tags","resolution_m":50,"raster_coverage":1.0,"interpretation":"Suggested search habitats, not predicted plant locations or probabilities of presence."},"features":[{"type":"Feature","geometry":{"type":"Polygon","coordinates":[[[101.96418499999999,2.7187873969851815],[101.96422689999999,2.7195461969843673],[101.96460399999997,2.7190132969849277],[101.96418499999999,2.7187873969851815]]]},"properties":{"place_id":"17562a3a-3443-52c9-bbfa-a7e3f2578cdd","habitat":"disturbed_built_edge","habitat_label":"Disturbed, bare or built edge","resolution_m":50}}]}