{"type":"FeatureCollection","metadata":{"schema_version":1,"place_id":"1768b41e-942d-5999-aea4-434e8178703b","place_name":"Taman Kejiranan Lengkok Nipah","place_type":"park","osm_reference":"way/573767559","protection_context":"no protected status confirmed from included OSM tags","resolution_m":50,"raster_coverage":1.0,"interpretation":"Suggested search habitats, not predicted plant locations or probabilities of presence."},"features":[{"type":"Feature","geometry":{"type":"Polygon","coordinates":[[[100.2927881,5.34165379421576],[100.29327569999998,5.341764494215617],[100.2933477,5.341418994215987],[100.292738,5.340947194216434],[100.2927881,5.34165379421576]]]},"properties":{"place_id":"1768b41e-942d-5999-aea4-434e8178703b","habitat":"disturbed_built_edge","habitat_label":"Disturbed, bare or built edge","resolution_m":50}}]}