{"type":"FeatureCollection","metadata":{"schema_version":1,"place_id":"177a1230-2836-5352-a6d9-a9183a01b4c4","place_name":"Dataran Sri Kemang Recreation Park","place_type":"park","osm_reference":"way/553968503","protection_context":"no protected status confirmed from included OSM tags","resolution_m":50,"raster_coverage":1.0,"interpretation":"Suggested search habitats, not predicted plant locations or probabilities of presence."},"features":[{"type":"Feature","geometry":{"type":"Polygon","coordinates":[[[101.85541378986557,2.454222002971889],[101.85593199825614,2.454222002971889],[101.85593199825614,2.4546142848000128],[101.8564502066467,2.4546142848000128],[101.8568498,2.4551365972733867],[101.85741569999999,2.4535152972751404],[101.85593199825614,2.45318436802097],[101.85541378986557,2.454222002971889]]]},"properties":{"place_id":"177a1230-2836-5352-a6d9-a9183a01b4c4","habitat":"forest_edge_opening","habitat_label":"Forest edge or opening","resolution_m":50}},{"type":"Feature","geometry":{"type":"MultiPolygon","coordinates":[[[[101.85593199825614,2.4538297212558033],[101.85562669999999,2.4531173972755966],[101.85545503127825,2.4538297212558033],[101.85593199825614,2.4538297212558033]]],[[[101.85535449999998,2.455766297272663],[101.85505282579909,2.4553988487924454],[101.85497089999998,2.455672497272794],[101.85535449999998,2.455766297272663]]]]},"properties":{"place_id":"177a1230-2836-5352-a6d9-a9183a01b4c4","habitat":"open_grassland","habitat_label":"Open grassland or shrubland","resolution_m":50}},{"type":"Feature","geometry":{"type":"Polygon","coordinates":[[[101.85509829999998,2.4557193972727127],[101.8556656,2.454835097273695],[101.8568498,2.4551365972733867],[101.85741569999999,2.4535152972751404],[101.85562669999999,2.4531173972755966],[101.85509829999998,2.4557193972727127]]]},"properties":{"place_id":"177a1230-2836-5352-a6d9-a9183a01b4c4","habitat":"disturbed_built_edge","habitat_label":"Disturbed, bare or built edge","resolution_m":50}},{"type":"Feature","geometry":{"type":"Polygon","coordinates":[[[101.8564502066467,2.453298043103473],[101.85696841503727,2.4534374396517378],[101.85696841503727,2.453411718195382],[101.8564502066467,2.453298043103473]]]},"properties":{"place_id":"177a1230-2836-5352-a6d9-a9183a01b4c4","habitat":"cropland","habitat_label":"Cropland","resolution_m":50}},{"type":"Feature","geometry":{"type":"Polygon","coordinates":[[[101.85541378986557,2.455006566740192],[101.85541378986557,2.4540008488576435],[101.8551623088188,2.455006566740192],[101.85541378986557,2.455006566740192]]]},"properties":{"place_id":"177a1230-2836-5352-a6d9-a9183a01b4c4","habitat":"permanent_water","habitat_label":"Permanent water","resolution_m":50}},{"type":"Feature","geometry":{"type":"Polygon","coordinates":[[[101.85562669999999,2.4531173972755966],[101.85497089999998,2.455672497272794],[101.85535449999998,2.455766297272663],[101.8556656,2.454835097273695],[101.8564502066467,2.455006566740192],[101.8564502066467,2.453298043103473],[101.85562669999999,2.4531173972755966]]]},"properties":{"place_id":"177a1230-2836-5352-a6d9-a9183a01b4c4","habitat":"water_edge","habitat_label":"Water edge","resolution_m":50}}]}