{"type":"FeatureCollection","metadata":{"schema_version":1,"place_id":"17a8d94f-4be1-53d8-bbdb-de048497b09d","place_name":"Taman Rekreasi Batu Buruk","place_type":"park","osm_reference":"way/1446691964","protection_context":"no protected status confirmed from included OSM tags","resolution_m":50,"raster_coverage":1.0,"interpretation":"Suggested search habitats, not predicted plant locations or probabilities of presence."},"features":[{"type":"Feature","geometry":{"type":"MultiPolygon","coordinates":[[[[103.15611685017278,5.317551317287172],[103.15508043339167,5.316949049150519],[103.1547355089893,5.317314917318141],[103.15456222500111,5.318102078187319],[103.15508043339167,5.318102078187319],[103.15508043339167,5.318495658989378],[103.15456222500111,5.318495658989378],[103.15456222500111,5.3188892400364445],[103.15508043339167,5.3188892400364445],[103.15508043339167,5.3192828213285335],[103.15557776653858,5.3192828213285335],[103.15611685017278,5.317551317287172]]],[[[103.15456222500111,5.319549498883001],[103.15418747157048,5.3192828213285335],[103.15418409999998,5.319292594238431],[103.15456222500111,5.319549498883001]]],[[[103.15508043339167,5.319676402865665],[103.15479901828901,5.319676402865665],[103.15508043339167,5.319827220929263],[103.15508043339167,5.319676402865665]]]]},"properties":{"place_id":"17a8d94f-4be1-53d8-bbdb-de048497b09d","habitat":"forest_edge_opening","habitat_label":"Forest edge or opening","resolution_m":50}},{"type":"Feature","geometry":{"type":"MultiPolygon","coordinates":[[[[103.15508043339167,5.317314917318141],[103.15544864260602,5.317314917318141],[103.15508043339167,5.316949049150519],[103.15508043339167,5.317314917318141]]],[[[103.15508043339167,5.318102078187319],[103.15508043339167,5.317708497630247],[103.15404401661054,5.317597522556941],[103.15458259999998,5.318137494239573],[103.15456222500111,5.319549498883001],[103.15508043339167,5.319827220929263],[103.15559864178222,5.3192412504372655],[103.15508043339167,5.318495658989378],[103.15597304830452,5.318495658989378],[103.15611685017278,5.317551317287172],[103.15559864178222,5.31736798435484],[103.15559864178222,5.318102078187319],[103.15508043339167,5.318102078187319]]]]},"properties":{"place_id":"17a8d94f-4be1-53d8-bbdb-de048497b09d","habitat":"open_grassland","habitat_label":"Open grassland or shrubland","resolution_m":50}},{"type":"Feature","geometry":{"type":"Polygon","coordinates":[[[103.15458259999998,5.318137494239573],[103.15418409999998,5.319292594238431],[103.1552569,5.31992179423778],[103.1563958,5.317653794240064],[103.15491499999999,5.316864994240875],[103.154625,5.317893294239825],[103.1539978,5.317573994240162],[103.15389879999998,5.3178674942398585],[103.15458259999998,5.318137494239573]],[[103.15508043339167,5.317708497630247],[103.15559864178222,5.317708497630247],[103.15559864178222,5.3188892400364445],[103.15508043339167,5.3188892400364445],[103.15508043339167,5.317708497630247]]]},"properties":{"place_id":"17a8d94f-4be1-53d8-bbdb-de048497b09d","habitat":"disturbed_built_edge","habitat_label":"Disturbed, bare or built edge","resolution_m":50}}]}