{"type":"FeatureCollection","metadata":{"schema_version":1,"place_id":"187585af-4af8-531f-baf3-844b01a6c497","place_name":"Taman Seri Alam","place_type":"park","osm_reference":"way/287215858","protection_context":"no protected status confirmed from included OSM tags","resolution_m":50,"raster_coverage":1.0,"interpretation":"Suggested search habitats, not predicted plant locations or probabilities of presence."},"features":[{"type":"Feature","geometry":{"type":"Polygon","coordinates":[[[103.87020801236534,1.51028256613965],[103.87020801236534,1.5106746303026635],[103.8707070168153,1.5106746303026635],[103.87060908261901,1.51028256613965],[103.87020801236534,1.51028256613965]]]},"properties":{"place_id":"187585af-4af8-531f-baf3-844b01a6c497","habitat":"forest_interior","habitat_label":"Forest interior","resolution_m":50}},{"type":"Feature","geometry":{"type":"Polygon","coordinates":[[[103.8688566,1.5113030983145022],[103.8684712,1.5136783983118485],[103.87046049999998,1.512663898313015],[103.87021029287878,1.5118508232049286],[103.8696898039748,1.5118508232049286],[103.8696898039748,1.5110666945345355],[103.8703917844482,1.5114587588352846],[103.87071,1.510687798315205],[103.87020801236534,1.5106746303026635],[103.87020801236534,1.51028256613965],[103.8705504,1.5100683983158776],[103.869959,1.510388798315528],[103.8688566,1.5113030983145022]]]},"properties":{"place_id":"187585af-4af8-531f-baf3-844b01a6c497","habitat":"forest_edge_opening","habitat_label":"Forest edge or opening","resolution_m":50}},{"type":"Feature","geometry":{"type":"MultiPolygon","coordinates":[[[[103.8696898039748,1.5110666945345355],[103.86963958684538,1.5106746303026635],[103.86917159558422,1.5110666945345355],[103.8696898039748,1.5110666945345355]]],[[[103.87020801236534,1.5110666945345355],[103.87020801236534,1.511629354794665],[103.87060436745357,1.5110666945345355],[103.87020801236534,1.5110666945345355]]],[[[103.87020801236534,1.5118508232049286],[103.87021029287878,1.5118508232049286],[103.87020801236534,1.5118401108396708],[103.87020801236534,1.5118508232049286]]],[[[103.86917159558422,1.5114587588352846],[103.86917159558422,1.5118508232049286],[103.8696898039748,1.5118508232049286],[103.8696898039748,1.5114587588352846],[103.86917159558422,1.5114587588352846]]]]},"properties":{"place_id":"187585af-4af8-531f-baf3-844b01a6c497","habitat":"open_grassland","habitat_label":"Open grassland or shrubland","resolution_m":50}},{"type":"Feature","geometry":{"type":"MultiPolygon","coordinates":[[[[103.8696898039748,1.5106746303026635],[103.87020801236534,1.5106746303026635],[103.8705504,1.5100683983158776],[103.869959,1.510388798315528],[103.86915792961469,1.5110666945345355],[103.8696898039748,1.5110666945345355],[103.8696898039748,1.5106746303026635]]],[[[103.87020801236534,1.5114587588352846],[103.87020801236534,1.511629354794665],[103.8703917844482,1.5114587588352846],[103.87020801236534,1.5114587588352846]]],[[[103.87020801236534,1.5118508232049286],[103.8696898039748,1.5118508232049286],[103.87020801236534,1.512634952150973],[103.86917159558422,1.512634952150973],[103.86917159558422,1.5118508232049286],[103.86871611371342,1.5118508232049286],[103.8683329,1.5136564983118916],[103.87046049999998,1.512663898313015],[103.87020801236534,1.5118508232049286]]]]},"properties":{"place_id":"187585af-4af8-531f-baf3-844b01a6c497","habitat":"disturbed_built_edge","habitat_label":"Disturbed, bare or built edge","resolution_m":50}},{"type":"Feature","geometry":{"type":"Polygon","coordinates":[[[103.87020801236534,1.5106746303026635],[103.86917159558422,1.5110666945345355],[103.8696898039748,1.5118508232049286],[103.86917159558422,1.5118508232049286],[103.86865338719366,1.512634952150973],[103.8696898039748,1.512634952150973],[103.8696898039748,1.5122428876434852],[103.87020801236534,1.5122428876434852],[103.87020801236534,1.5106746303026635]]]},"properties":{"place_id":"187585af-4af8-531f-baf3-844b01a6c497","habitat":"permanent_water","habitat_label":"Permanent water","resolution_m":50}},{"type":"Feature","geometry":{"type":"Polygon","coordinates":[[[103.87020801236534,1.5122428876434852],[103.87020801236534,1.5118508232049286],[103.8696898039748,1.5118508232049286],[103.8696898039748,1.5122428876434852],[103.87020801236534,1.5122428876434852]]]},"properties":{"place_id":"187585af-4af8-531f-baf3-844b01a6c497","habitat":"seasonal_water_wetland","habitat_label":"Seasonal water or wetland","resolution_m":50}},{"type":"Feature","geometry":{"type":"Polygon","coordinates":[[[103.86845022727088,1.5130270167274087],[103.86895051426247,1.513419081372811],[103.8704493994258,1.512634952150973],[103.87020801236534,1.5118401108396708],[103.8696898039748,1.512634952150973],[103.86865338719366,1.512634952150973],[103.86865338719366,1.5122428876434852],[103.8696898039748,1.5118508232049286],[103.8696898039748,1.5114587588352846],[103.86917159558422,1.5114587588352846],[103.8696898039748,1.5106746303026635],[103.87020801236534,1.5106746303026635],[103.8703342,1.511554098314212],[103.87060908261901,1.51028256613965],[103.869959,1.510388798315528],[103.8688566,1.5113030983145022],[103.86845022727088,1.5130270167274087]]]},"properties":{"place_id":"187585af-4af8-531f-baf3-844b01a6c497","habitat":"water_edge","habitat_label":"Water edge","resolution_m":50}}]}