{"type":"FeatureCollection","metadata":{"schema_version":1,"place_id":"187bfbbf-0597-5d12-a95f-a31018200521","place_name":"Taman Reakrasi Bandar IOI","place_type":"park","osm_reference":"way/641558074","protection_context":"no protected status confirmed from included OSM tags","resolution_m":50,"raster_coverage":1.0,"interpretation":"Suggested search habitats, not predicted plant locations or probabilities of presence."},"features":[{"type":"Feature","geometry":{"type":"Polygon","coordinates":[[[102.86954761019274,2.49815826836229],[102.86954761019274,2.4985505628525333],[102.8690294018022,2.4985505628525333],[102.8690294018022,2.4989428574568473],[102.86976699999997,2.498987197225347],[102.86954761019274,2.49815826836229]]]},"properties":{"place_id":"187bfbbf-0597-5d12-a95f-a31018200521","habitat":"forest_edge_opening","habitat_label":"Forest edge or opening","resolution_m":50}},{"type":"Feature","geometry":{"type":"Polygon","coordinates":[[[102.86976699999997,2.498987197225347],[102.86954761019274,2.4973736797239474],[102.8690294018022,2.4973736797239474],[102.86854149999999,2.4989383972254218],[102.86976699999997,2.498987197225347]]]},"properties":{"place_id":"187bfbbf-0597-5d12-a95f-a31018200521","habitat":"open_grassland","habitat_label":"Open grassland or shrubland","resolution_m":50}},{"type":"Feature","geometry":{"type":"Polygon","coordinates":[[[102.86976699999997,2.498987197225347],[102.86983699999998,2.497230897227286],[102.8686119,2.4971820972273338],[102.86854149999999,2.4989383972254218],[102.86976699999997,2.498987197225347]],[[102.8690294018022,2.49815826836229],[102.86954761019274,2.49815826836229],[102.86954761019274,2.4989428574568473],[102.8690294018022,2.4989428574568473],[102.8690294018022,2.49815826836229]]]},"properties":{"place_id":"187bfbbf-0597-5d12-a95f-a31018200521","habitat":"disturbed_built_edge","habitat_label":"Disturbed, bare or built edge","resolution_m":50}}]}