{"type":"FeatureCollection","metadata":{"schema_version":1,"place_id":"18c55656-b389-5e51-9f3b-20fcdfb93da9","place_name":"Taman Rekreasi Bintangor","place_type":"park","osm_reference":"way/1290123431","protection_context":"no protected status confirmed from included OSM tags","resolution_m":50,"raster_coverage":1.0,"interpretation":"Suggested search habitats, not predicted plant locations or probabilities of presence."},"features":[{"type":"Feature","geometry":{"type":"Polygon","coordinates":[[[111.64385207916551,2.1608253256001264],[111.64281566238441,2.1612175286484296],[111.64281478084777,2.162001935040875],[111.64410339999999,2.162600097594639],[111.64462939999999,2.162037197595248],[111.64385207916551,2.1608253256001264]]]},"properties":{"place_id":"18c55656-b389-5e51-9f3b-20fcdfb93da9","habitat":"forest_edge_opening","habitat_label":"Forest edge or opening","resolution_m":50}},{"type":"Feature","geometry":{"type":"MultiPolygon","coordinates":[[[[111.64333387077495,2.1612175286484296],[111.64385207916551,2.1612175286484296],[111.64374170000002,2.1605262975968786],[111.64252174420183,2.1612175286484296],[111.64281566238441,2.162001935040875],[111.64333387077495,2.162001935040875],[111.64333387077495,2.1612175286484296]]],[[[111.64281566238441,2.162001935040875],[111.64281478084777,2.162001935040875],[111.64281566238441,2.162004294601869],[111.64281566238441,2.162001935040875]]]]},"properties":{"place_id":"18c55656-b389-5e51-9f3b-20fcdfb93da9","habitat":"open_grassland","habitat_label":"Open grassland or shrubland","resolution_m":50}},{"type":"Feature","geometry":{"type":"Polygon","coordinates":[[[111.64374170000002,2.1605262975968786],[111.64251269999998,2.16119329759617],[111.64289609999999,2.16221959759504],[111.64410339999999,2.162600097594639],[111.64462939999999,2.162037197595248],[111.64374170000002,2.1605262975968786]],[[111.64333387077495,2.1616097317953393],[111.64281566238441,2.1616097317953393],[111.64281566238441,2.1612175286484296],[111.64385207916551,2.1612175286484296],[111.64385207916551,2.162001935040875],[111.64333387077495,2.162001935040875],[111.64333387077495,2.1616097317953393]]]},"properties":{"place_id":"18c55656-b389-5e51-9f3b-20fcdfb93da9","habitat":"disturbed_built_edge","habitat_label":"Disturbed, bare or built edge","resolution_m":50}}]}