{"type":"FeatureCollection","metadata":{"schema_version":1,"place_id":"18e421f6-0d7a-5d71-855e-e55b997b4470","place_name":"Taman Komuniti SP9","place_type":"park","osm_reference":"way/1485678039","protection_context":"no protected status confirmed from included OSM tags","resolution_m":50,"raster_coverage":1.0,"interpretation":"Suggested search habitats, not predicted plant locations or probabilities of presence."},"features":[{"type":"Feature","geometry":{"type":"Polygon","coordinates":[[[101.58024513447788,2.9340544204182355],[101.58134815183244,2.934856755256738],[101.58164189999998,2.9343329967506255],[101.58024513447788,2.9340544204182355]]]},"properties":{"place_id":"18e421f6-0d7a-5d71-855e-e55b997b4470","habitat":"forest_edge_opening","habitat_label":"Forest edge or opening","resolution_m":50}},{"type":"Feature","geometry":{"type":"MultiPolygon","coordinates":[[[[101.58010299005875,2.9340718904528673],[101.5799709,2.934747796750168],[101.57973578371023,2.934856755256738],[101.57998064121743,2.934856755256738],[101.5802103,2.9343626967505996],[101.58076334286845,2.934464322787751],[101.58076334286845,2.9340718904528673],[101.58010299005875,2.9340718904528673]]],[[[101.581281551259,2.934856755256738],[101.581281551259,2.934464322787751],[101.58076334286845,2.934464322787751],[101.58076334286845,2.9346605587629893],[101.581281551259,2.934856755256738]]]]},"properties":{"place_id":"18e421f6-0d7a-5d71-855e-e55b997b4470","habitat":"open_grassland","habitat_label":"Open grassland or shrubland","resolution_m":50}},{"type":"Feature","geometry":{"type":"Polygon","coordinates":[[[101.581281551259,2.934464322787751],[101.58076334286845,2.934464322787751],[101.5809532,2.933967396750992],[101.5799158,2.9340948967508775],[101.57964719999998,2.9351990967496904],[101.5802103,2.9343626967505996],[101.5813027,2.934937796749955],[101.58164189999998,2.9343329967506255],[101.581281551259,2.9341417037208997],[101.581281551259,2.934464322787751]]]},"properties":{"place_id":"18e421f6-0d7a-5d71-855e-e55b997b4470","habitat":"disturbed_built_edge","habitat_label":"Disturbed, bare or built edge","resolution_m":50}}]}