{"type":"FeatureCollection","metadata":{"schema_version":1,"place_id":"18eee496-1390-500e-bc3c-05d377b108d6","place_name":"Taman Awam Metropolitan Relau","place_type":"park","osm_reference":"way/476057111","protection_context":"no protected status confirmed from included OSM tags","resolution_m":50,"raster_coverage":1.0,"interpretation":"Suggested search habitats, not predicted plant locations or probabilities of presence."},"features":[{"type":"Feature","geometry":{"type":"MultiPolygon","coordinates":[[[[100.27021432314058,5.344839771469122],[100.27006149999997,5.345444294211898],[100.27021432314058,5.345709046444817],[100.27021432314058,5.344839771469122]]],[[[100.27088030000002,5.34734729420996],[100.27210629999999,5.346411894210931],[100.27176894831227,5.345824533178202],[100.2712507399217,5.346440523275773],[100.27043980873026,5.34604692503223],[100.2701498,5.347635094209682],[100.2707432,5.348597094208711],[100.27021109999998,5.34972099420758],[100.2709003,5.3496066942076945],[100.2712748,5.348389394208915],[100.27088030000002,5.34734729420996]]]]},"properties":{"place_id":"18eee496-1390-500e-bc3c-05d377b108d6","habitat":"forest_interior","habitat_label":"Forest interior","resolution_m":50}},{"type":"Feature","geometry":{"type":"MultiPolygon","coordinates":[[[[100.2712507399217,5.346440523275773],[100.27176894831227,5.345824533178202],[100.2713236,5.345579694211751],[100.2709225,5.346070294211254],[100.2702216,5.344831794212501],[100.27073253153114,5.346440523275773],[100.2712507399217,5.346440523275773]]],[[[100.27209678829935,5.346440523275773],[100.27176894831227,5.346834121765638],[100.27197524829799,5.346834121765638],[100.27209678829935,5.346440523275773]]]]},"properties":{"place_id":"18eee496-1390-500e-bc3c-05d377b108d6","habitat":"forest_edge_opening","habitat_label":"Forest edge or opening","resolution_m":50}},{"type":"Feature","geometry":{"type":"MultiPolygon","coordinates":[[[[100.2712507399217,5.346440523275773],[100.27176894831227,5.345824533178202],[100.2713236,5.345579694211751],[100.2709225,5.346070294211254],[100.2702216,5.344831794212501],[100.27073253153114,5.346440523275773],[100.2712507399217,5.346440523275773]]],[[[100.27209678829935,5.346440523275773],[100.27176894831227,5.346834121765638],[100.27197524829799,5.346834121765638],[100.27209678829935,5.346440523275773]]]]},"properties":{"place_id":"18eee496-1390-500e-bc3c-05d377b108d6","habitat":"disturbed_built_edge","habitat_label":"Disturbed, bare or built edge","resolution_m":50}}]}