{"type":"FeatureCollection","metadata":{"schema_version":1,"place_id":"197154b4-1cc3-5005-8940-bb3e818ef37d","place_name":"Laman Pekan Lama","place_type":"park","osm_reference":"way/1416751329","protection_context":"no protected status confirmed from included OSM tags","resolution_m":50,"raster_coverage":1.0,"interpretation":"Suggested search habitats, not predicted plant locations or probabilities of presence."},"features":[{"type":"Feature","geometry":{"type":"Polygon","coordinates":[[[103.3886671,3.492548796148031],[103.38848079999998,3.4929189961476244],[103.38864909999998,3.493319396147198],[103.3889728,3.4930296961474836],[103.3886671,3.492548796148031]]]},"properties":{"place_id":"197154b4-1cc3-5005-8940-bb3e818ef37d","habitat":"forest_edge_opening","habitat_label":"Forest edge or opening","resolution_m":50}},{"type":"Feature","geometry":{"type":"Polygon","coordinates":[[[103.3886671,3.492548796148031],[103.38848079999998,3.4929189961476244],[103.38864909999998,3.493319396147198],[103.3889728,3.4930296961474836],[103.3886671,3.492548796148031]]]},"properties":{"place_id":"197154b4-1cc3-5005-8940-bb3e818ef37d","habitat":"disturbed_built_edge","habitat_label":"Disturbed, bare or built edge","resolution_m":50}}]}