{"type":"FeatureCollection","metadata":{"schema_version":1,"place_id":"19b63685-730f-5bf9-9c3c-ee5e16315ff4","place_name":"Taman Bukit Indah","place_type":"park","osm_reference":"way/604113900","protection_context":"no protected status confirmed from included OSM tags","resolution_m":50,"raster_coverage":1.0,"interpretation":"Suggested search habitats, not predicted plant locations or probabilities of presence."},"features":[{"type":"Feature","geometry":{"type":"Polygon","coordinates":[[[101.77813294988142,3.1534630035703044],[101.7770272,3.153748896512888],[101.7781162,3.1544880965120754],[101.77813294988142,3.1534630035703044]]]},"properties":{"place_id":"19b63685-730f-5bf9-9c3c-ee5e16315ff4","habitat":"forest_interior","habitat_label":"Forest interior","resolution_m":50}},{"type":"Feature","geometry":{"type":"Polygon","coordinates":[[[101.77768253128149,3.153242325036965],[101.77813294988142,3.1534630035703044],[101.77813969999998,3.1530498965136293],[101.77768253128149,3.153242325036965]]]},"properties":{"place_id":"19b63685-730f-5bf9-9c3c-ee5e16315ff4","habitat":"forest_edge_opening","habitat_label":"Forest edge or opening","resolution_m":50}},{"type":"Feature","geometry":{"type":"Polygon","coordinates":[[[101.77768253128149,3.153242325036965],[101.77813294988142,3.1534630035703044],[101.77813969999998,3.1530498965136293],[101.77768253128149,3.153242325036965]]]},"properties":{"place_id":"19b63685-730f-5bf9-9c3c-ee5e16315ff4","habitat":"disturbed_built_edge","habitat_label":"Disturbed, bare or built edge","resolution_m":50}}]}