{"type":"FeatureCollection","metadata":{"schema_version":1,"place_id":"19dad730-52e9-5db7-b3b2-f9ef2afdadac","place_name":"Ehsan Jaya 6 Park","place_type":"park","osm_reference":"way/1529450987","protection_context":"no protected status confirmed from included OSM tags","resolution_m":50,"raster_coverage":1.0,"interpretation":"Suggested search habitats, not predicted plant locations or probabilities of presence."},"features":[{"type":"Feature","geometry":{"type":"MultiPolygon","coordinates":[[[[103.81527792296592,1.5511204584507006],[103.81506279999999,1.5512256982702302],[103.81527792296592,1.5513773087326372],[103.81527792296592,1.5511204584507006]]],[[[103.81562979999997,1.551625298269774],[103.81574488295342,1.5514496825829382],[103.81538061559203,1.5514496825829382],[103.81562979999997,1.551625298269774]]]]},"properties":{"place_id":"19dad730-52e9-5db7-b3b2-f9ef2afdadac","habitat":"forest_edge_opening","habitat_label":"Forest edge or opening","resolution_m":50}},{"type":"Feature","geometry":{"type":"Polygon","coordinates":[[[103.81506279999999,1.5512256982702302],[103.81580319999998,1.5514907982699315],[103.81518379999999,1.5510540982704055],[103.81506279999999,1.5512256982702302]]]},"properties":{"place_id":"19dad730-52e9-5db7-b3b2-f9ef2afdadac","habitat":"disturbed_built_edge","habitat_label":"Disturbed, bare or built edge","resolution_m":50}}]}