{"type":"FeatureCollection","metadata":{"schema_version":1,"place_id":"19dc93c8-0cca-5136-804f-4e2ec472865d","place_name":"The East Park","place_type":"park","osm_reference":"way/764515203","protection_context":"no protected status confirmed from included OSM tags","resolution_m":50,"raster_coverage":1.0,"interpretation":"Suggested search habitats, not predicted plant locations or probabilities of presence."},"features":[{"type":"Feature","geometry":{"type":"Polygon","coordinates":[[[101.63490161833231,3.182901663692755],[101.63480308181303,3.1832941846748297],[101.63514273548398,3.1832941846748297],[101.63490161833231,3.182901663692755]]]},"properties":{"place_id":"19dc93c8-0cca-5136-804f-4e2ec472865d","habitat":"forest_interior","habitat_label":"Forest interior","resolution_m":50}},{"type":"Feature","geometry":{"type":"MultiPolygon","coordinates":[[[[101.63465701548674,3.182990439298891],[101.63468539999998,3.1827160964815895],[101.6345319,3.1826568964816424],[101.63465701548674,3.182990439298891]]],[[[101.63480308181303,3.1832941846748297],[101.63529669999997,3.1842259964799267],[101.6353432,3.1842168964799487],[101.63514273548398,3.1832941846748297],[101.63480308181303,3.1832941846748297]]]]},"properties":{"place_id":"19dc93c8-0cca-5136-804f-4e2ec472865d","habitat":"forest_edge_opening","habitat_label":"Forest edge or opening","resolution_m":50}},{"type":"Feature","geometry":{"type":"MultiPolygon","coordinates":[[[[101.63465701548674,3.182990439298891],[101.63468539999998,3.1827160964815895],[101.6345319,3.1826568964816424],[101.63465701548674,3.182990439298891]]],[[[101.63480308181303,3.1832941846748297],[101.63529669999997,3.1842259964799267],[101.6353432,3.1842168964799487],[101.63514273548398,3.1832941846748297],[101.63480308181303,3.1832941846748297]]]]},"properties":{"place_id":"19dc93c8-0cca-5136-804f-4e2ec472865d","habitat":"disturbed_built_edge","habitat_label":"Disturbed, bare or built edge","resolution_m":50}}]}