{"type":"FeatureCollection","metadata":{"schema_version":1,"place_id":"19dc8f1d-2bf1-5635-ade0-af8bc21efe9e","place_name":"Alam Nusantara Park","place_type":"park","osm_reference":"way/552320452","protection_context":"no protected status confirmed from included OSM tags","resolution_m":50,"raster_coverage":1.0,"interpretation":"Suggested search habitats, not predicted plant locations or probabilities of presence."},"features":[{"type":"Feature","geometry":{"type":"Polygon","coordinates":[[[101.4670337978505,3.1126427353471575],[101.4685431,3.113632796556262],[101.46878439999999,3.1130981965568543],[101.4681666,3.1129821965569504],[101.4680691,3.112335996557683],[101.46727570533567,3.1122502402718264],[101.4670337978505,3.1126427353471575]]]},"properties":{"place_id":"19dc8f1d-2bf1-5635-ade0-af8bc21efe9e","habitat":"forest_edge_opening","habitat_label":"Forest edge or opening","resolution_m":50}},{"type":"Feature","geometry":{"type":"Polygon","coordinates":[[[101.46713799999998,3.1122411965577736],[101.4676783,3.113582596556294],[101.46879699999998,3.113499796556401],[101.4680691,3.112335996557683],[101.46713799999998,3.1122411965577736]]]},"properties":{"place_id":"19dc8f1d-2bf1-5635-ade0-af8bc21efe9e","habitat":"disturbed_built_edge","habitat_label":"Disturbed, bare or built edge","resolution_m":50}}]}