{"type":"FeatureCollection","metadata":{"schema_version":1,"place_id":"19f524d8-971b-5db8-8952-0f9d9ac7b221","place_name":"Geotapak Bukit Jernih","place_type":"park","osm_reference":"relation/13669266","protection_context":"mapped protected boundary","resolution_m":50,"raster_coverage":1.0,"interpretation":"Suggested search habitats, not predicted plant locations or probabilities of presence."},"features":[{"type":"Feature","geometry":{"type":"MultiPolygon","coordinates":[[[[100.27021432314058,6.546564002789613],[100.27019726982249,6.5465716561950025],[100.27021432314058,6.5465716561950025],[100.27021432314058,6.546564002789613]]],[[[100.2686596979689,6.545388351722533],[100.26790501527094,6.545782786243344],[100.2680701,6.546387993024462],[100.26868626793387,6.546966091625887],[100.26969611475002,6.546966091625887],[100.26905719999998,6.545873693024968],[100.26892569999998,6.544237593026519],[100.2686596979689,6.545388351722533]]],[[[100.27021432314058,6.546966091625887],[100.26969611475002,6.546966091625887],[100.26969611475002,6.547360527360167],[100.27021432314058,6.547360527360167],[100.27021432314058,6.546966091625887]]],[[[100.26911487112703,6.548543836383573],[100.26917790635946,6.548613659536654],[100.26917790635946,6.548543836383573],[100.26911487112703,6.548543836383573]]],[[[100.27021432314058,6.548543836383573],[100.26969611475002,6.548543836383573],[100.27021432314058,6.549332097506518],[100.27021432314058,6.548543836383573]]],[[[100.27021470731313,6.549332710583167],[100.27046187382649,6.549727148138218],[100.27073253153114,6.549727148138218],[100.27073253153114,6.549332710583167],[100.27021470731313,6.549332710583167]]]]},"properties":{"place_id":"19f524d8-971b-5db8-8952-0f9d9ac7b221","habitat":"forest_interior","habitat_label":"Forest interior","resolution_m":50}},{"type":"Feature","geometry":{"type":"MultiPolygon","coordinates":[[[[100.26790501527094,6.545782786243344],[100.2686596979689,6.545388351722533],[100.2686596979689,6.544268207428317],[100.26854750000001,6.5448237930259765],[100.2679199,6.544898393025889],[100.26790501527094,6.545782786243344]]],[[[100.26917790635946,6.548543836383573],[100.27021432314058,6.548543836383573],[100.2705861,6.549925393021053],[100.2713236,6.549630993021335],[100.2704947,6.548897893022052],[100.27022659999999,6.546558493024292],[100.26969611475002,6.546966091625887],[100.26868626793387,6.546966091625887],[100.2685663,6.547936193022954],[100.26917790635946,6.548543836383573]],[[100.27021432314058,6.546966091625887],[100.27021432314058,6.547360527360167],[100.26969611475002,6.547360527360167],[100.26969611475002,6.546966091625887],[100.27021432314058,6.546966091625887]]]]},"properties":{"place_id":"19f524d8-971b-5db8-8952-0f9d9ac7b221","habitat":"forest_edge_opening","habitat_label":"Forest edge or opening","resolution_m":50}},{"type":"Feature","geometry":{"type":"MultiPolygon","coordinates":[[[[100.26791165377522,6.545388351722533],[100.26814148957834,6.544872053664348],[100.2679199,6.544898393025889],[100.26791165377522,6.545388351722533]]],[[[100.27023107694903,6.5465716561950025],[100.27021432314058,6.546966091625887],[100.27036522902087,6.546966091625887],[100.27023107694903,6.5465716561950025]]],[[[100.26969611475002,6.547360527360167],[100.26875146171722,6.547360527360167],[100.26875877983453,6.548149399738991],[100.26969611475002,6.547754963397863],[100.26969611475002,6.547360527360167]]],[[[100.26917790635946,6.548543836383573],[100.26969611475002,6.548543836383573],[100.26969611475002,6.548149399738991],[100.26917790635946,6.548149399738991],[100.26917790635946,6.548543836383573]]],[[[100.27073253153114,6.549727148138218],[100.2709092,6.549966693021],[100.27103084201397,6.549727148138218],[100.27073253153114,6.549727148138218]]]]},"properties":{"place_id":"19f524d8-971b-5db8-8952-0f9d9ac7b221","habitat":"open_grassland","habitat_label":"Open grassland or shrubland","resolution_m":50}},{"type":"Feature","geometry":{"type":"MultiPolygon","coordinates":[[[[100.26969611475002,6.547754963397863],[100.26917790635946,6.547754963397863],[100.26917790635946,6.548149399738991],[100.26969611475002,6.548149399738991],[100.26969611475002,6.547754963397863]]],[[[100.27073253153114,6.549332710583167],[100.2708180381664,6.549332710583167],[100.27073253153114,6.549217723235358],[100.27073253153114,6.549332710583167]]]]},"properties":{"place_id":"19f524d8-971b-5db8-8952-0f9d9ac7b221","habitat":"cropland","habitat_label":"Cropland","resolution_m":50}}]}