{"type":"FeatureCollection","metadata":{"schema_version":1,"place_id":"1a03c9a3-9adb-57cf-b4a8-cd6a35fe6921","place_name":"Taman Millenium","place_type":"park","osm_reference":"way/1226005954","protection_context":"no protected status confirmed from included OSM tags","resolution_m":50,"raster_coverage":1.0,"interpretation":"Suggested search habitats, not predicted plant locations or probabilities of presence."},"features":[{"type":"Feature","geometry":{"type":"Polygon","coordinates":[[[111.480314,2.129166597631412],[111.4805362,2.1313748976289966],[111.4809818,2.1313299976290394],[111.4807495,2.1290248976315844],[111.480314,2.129166597631412]]]},"properties":{"place_id":"1a03c9a3-9adb-57cf-b4a8-cd6a35fe6921","habitat":"forest_edge_opening","habitat_label":"Forest edge or opening","resolution_m":50}},{"type":"Feature","geometry":{"type":"MultiPolygon","coordinates":[[[[111.48075275577806,2.129057204513058],[111.4806164361389,2.129449399633796],[111.48079227986804,2.129449399633796],[111.48075275577806,2.129057204513058]]],[[[111.48087132804801,2.130233790166749],[111.4806164361389,2.1306259855789995],[111.48091085213801,2.1306259855789995],[111.48087132804801,2.130233790166749]]]]},"properties":{"place_id":"1a03c9a3-9adb-57cf-b4a8-cd6a35fe6921","habitat":"open_grassland","habitat_label":"Open grassland or shrubland","resolution_m":50}},{"type":"Feature","geometry":{"type":"Polygon","coordinates":[[[111.4805362,2.1313748976289966],[111.4809818,2.1313299976290394],[111.4807495,2.1290248976315844],[111.480314,2.129166597631412],[111.4805362,2.1313748976289966]]]},"properties":{"place_id":"1a03c9a3-9adb-57cf-b4a8-cd6a35fe6921","habitat":"disturbed_built_edge","habitat_label":"Disturbed, bare or built edge","resolution_m":50}}]}