{"type":"FeatureCollection","metadata":{"schema_version":1,"place_id":"1a1d219f-5c25-58f7-8157-9e4323628c90","place_name":"Bukit Indah Park","place_type":"park","osm_reference":"way/670882310","protection_context":"no protected status confirmed from included OSM tags","resolution_m":50,"raster_coverage":1.0,"interpretation":"Suggested search habitats, not predicted plant locations or probabilities of presence."},"features":[{"type":"Feature","geometry":{"type":"Polygon","coordinates":[[[101.9093074624839,3.5122797155333303],[101.9090744432273,3.512672365011458],[101.90945189999998,3.5131444961259524],[101.9098952,3.5127289961263775],[101.9093074624839,3.5122797155333303]]]},"properties":{"place_id":"1a1d219f-5c25-58f7-8157-9e4323628c90","habitat":"forest_edge_opening","habitat_label":"Forest edge or opening","resolution_m":50}},{"type":"Feature","geometry":{"type":"Polygon","coordinates":[[[101.90950340317865,3.5122797155333303],[101.9093074624839,3.512672365011458],[101.90982567087445,3.512672365011458],[101.90950340317865,3.5122797155333303]]]},"properties":{"place_id":"1a1d219f-5c25-58f7-8157-9e4323628c90","habitat":"open_grassland","habitat_label":"Open grassland or shrubland","resolution_m":50}},{"type":"Feature","geometry":{"type":"Polygon","coordinates":[[[101.90945189999998,3.5131444961259524],[101.9098952,3.5127289961263775],[101.90924769999998,3.511986496127188],[101.90881280000002,3.5123450961267904],[101.90945189999998,3.5131444961259524]]]},"properties":{"place_id":"1a1d219f-5c25-58f7-8157-9e4323628c90","habitat":"disturbed_built_edge","habitat_label":"Disturbed, bare or built edge","resolution_m":50}}]}