{"type":"FeatureCollection","metadata":{"schema_version":1,"place_id":"1ac30346-b132-5938-8a34-005e040d7710","place_name":"Bakawali D/5 Recreation Ground","place_type":"park","osm_reference":"way/745731916","protection_context":"no protected status confirmed from included OSM tags","resolution_m":50,"raster_coverage":1.0,"interpretation":"Suggested search habitats, not predicted plant locations or probabilities of presence."},"features":[{"type":"Feature","geometry":{"type":"Polygon","coordinates":[[[101.7806007,2.783749596914388],[101.7814938,2.7833124969148493],[101.7813765,2.783051196915133],[101.78047430000001,2.7835152969146537],[101.7806007,2.783749596914388]]]},"properties":{"place_id":"1ac30346-b132-5938-8a34-005e040d7710","habitat":"disturbed_built_edge","habitat_label":"Disturbed, bare or built edge","resolution_m":50}}]}