{"type":"FeatureCollection","metadata":{"schema_version":1,"place_id":"1ae12bdf-01b8-5270-8771-467e46966dc1","place_name":"Jalan Pantai Jerjak 10 Neighbourhood Park","place_type":"park","osm_reference":"way/574266349","protection_context":"no protected status confirmed from included OSM tags","resolution_m":50,"raster_coverage":1.0,"interpretation":"Suggested search habitats, not predicted plant locations or probabilities of presence."},"features":[{"type":"Feature","geometry":{"type":"Polygon","coordinates":[[[100.3035651,5.342078494215309],[100.3043542,5.341818494215569],[100.3043351,5.341670794215728],[100.3035651,5.342078494215309]]]},"properties":{"place_id":"1ae12bdf-01b8-5270-8771-467e46966dc1","habitat":"forest_edge_opening","habitat_label":"Forest edge or opening","resolution_m":50}},{"type":"Feature","geometry":{"type":"Polygon","coordinates":[[[100.3035651,5.342078494215309],[100.3043542,5.341818494215569],[100.3043351,5.341670794215728],[100.3035651,5.342078494215309]]]},"properties":{"place_id":"1ae12bdf-01b8-5270-8771-467e46966dc1","habitat":"disturbed_built_edge","habitat_label":"Disturbed, bare or built edge","resolution_m":50}}]}