{"type":"FeatureCollection","metadata":{"schema_version":1,"place_id":"1b3acd43-3dc6-5b6f-9c06-ad20c69d6456","place_name":"Pulau Hulu Belimbing","place_type":"wood","osm_reference":"way/724768821","protection_context":"no protected status confirmed from included OSM tags","resolution_m":50,"raster_coverage":1.0,"interpretation":"Suggested search habitats, not predicted plant locations or probabilities of presence."},"features":[{"type":"Feature","geometry":{"type":"MultiPolygon","coordinates":[[[[102.58505120377497,5.0638992449850635],[102.58608762055607,5.064292671385367],[102.58555622076348,5.06271896718224],[102.5845329953844,5.06271896718224],[102.5845329953844,5.0638992449850635],[102.58401478699383,5.064292671385367],[102.5849787748553,5.064292671385367],[102.58505120377497,5.0638992449850635]]],[[[102.58401478699383,5.064292671385367],[102.5839648637,5.064292671385367],[102.58401478699383,5.06455763618095],[102.58401478699383,5.064292671385367]]]]},"properties":{"place_id":"1b3acd43-3dc6-5b6f-9c06-ad20c69d6456","habitat":"forest_interior","habitat_label":"Forest interior","resolution_m":50}},{"type":"Feature","geometry":{"type":"MultiPolygon","coordinates":[[[[102.5845329953844,5.0638992449850635],[102.58462751720673,5.06271896718224],[102.5844003,5.06258559450002],[102.58388329999998,5.063116294499445],[102.5845329953844,5.0638992449850635]]],[[[102.58555622076348,5.06271896718224],[102.58517150000002,5.062393194500222],[102.58477262038355,5.06271896718224],[102.58555622076348,5.06271896718224]]],[[[102.58401478699383,5.064292671385367],[102.58401478699383,5.064124875006444],[102.5839645,5.064288794498279],[102.58401478699383,5.064292671385367]]],[[[102.58660582894663,5.065079524885119],[102.58645359999998,5.063838594498744],[102.58556941216553,5.062749652575377],[102.58608762055607,5.064292671385367],[102.58556941216553,5.064292671385367],[102.58556941216553,5.0638992449850635],[102.58505120377497,5.0638992449850635],[102.58505120377497,5.064229506108052],[102.58660582894663,5.065079524885119]]],[[[102.58401478699383,5.064292671385367],[102.5841616,5.064700194497838],[102.58493009999998,5.0646080944979275],[102.5849787748553,5.064292671385367],[102.58401478699383,5.064292671385367]]]]},"properties":{"place_id":"1b3acd43-3dc6-5b6f-9c06-ad20c69d6456","habitat":"forest_edge_opening","habitat_label":"Forest edge or opening","resolution_m":50}},{"type":"Feature","geometry":{"type":"MultiPolygon","coordinates":[[[[102.58556941216553,5.06311239288352],[102.58579709152744,5.06311239288352],[102.58556941216553,5.062749652575377],[102.58556941216553,5.06311239288352]]],[[[102.58401478699383,5.062968925912762],[102.58388,5.063077194499493],[102.58401478699383,5.06335966779029],[102.58401478699383,5.062968925912762]]],[[[102.58608762055607,5.0638992449850635],[102.58646277153699,5.0638992449850635],[102.58608762055607,5.063362643735205],[102.58608762055607,5.0638992449850635]]],[[[102.58556941216553,5.064292671385367],[102.58548779677463,5.064292671385367],[102.58556941216553,5.064349607466618],[102.58556941216553,5.064292671385367]]],[[[102.58412118466104,5.0646860980187105],[102.5841616,5.064700194497838],[102.58425629464301,5.0646860980187105],[102.58412118466104,5.0646860980187105]]],[[[102.58577322956087,5.0646860980187105],[102.58579909999999,5.064702894497834],[102.58587567385982,5.0646860980187105],[102.58577322956087,5.0646860980187105]]],[[[102.58660582894663,5.065079524885119],[102.58638263713631,5.065079524885119],[102.58660582894663,5.064437197509218],[102.58660582894663,5.065079524885119]]]]},"properties":{"place_id":"1b3acd43-3dc6-5b6f-9c06-ad20c69d6456","habitat":"permanent_water","habitat_label":"Permanent water","resolution_m":50}},{"type":"Feature","geometry":{"type":"Polygon","coordinates":[[[102.58401478699383,5.064124875006444],[102.5839645,5.064288794498279],[102.58401478699383,5.06455763618095],[102.58401478699383,5.064124875006444]]]},"properties":{"place_id":"1b3acd43-3dc6-5b6f-9c06-ad20c69d6456","habitat":"seasonal_water_wetland","habitat_label":"Seasonal water or wetland","resolution_m":50}},{"type":"Feature","geometry":{"type":"Polygon","coordinates":[[[102.5852935,5.064184594498361],[102.58660582894663,5.065079524885119],[102.58646277153699,5.0638992449850635],[102.58608762055607,5.0638992449850635],[102.5854531,5.06249199450012],[102.58433859999997,5.062590894500004],[102.5840664,5.064649494497877],[102.5848496,5.0646614944978845],[102.5852935,5.064184594498361]]]},"properties":{"place_id":"1b3acd43-3dc6-5b6f-9c06-ad20c69d6456","habitat":"water_edge","habitat_label":"Water edge","resolution_m":50}}]}