{"type":"FeatureCollection","metadata":{"schema_version":1,"place_id":"1b606da6-6ebf-5f23-9bd5-2690ef49fb93","place_name":"Taman Permainan 1, Jalan Kasawari","place_type":"park","osm_reference":"way/259684670","protection_context":"no protected status confirmed from included OSM tags","resolution_m":50,"raster_coverage":1.0,"interpretation":"Suggested search habitats, not predicted plant locations or probabilities of presence."},"features":[{"type":"Feature","geometry":{"type":"Polygon","coordinates":[[[103.64146829999999,1.667155098141715],[103.64231769999999,1.666497098142452],[103.64187169999998,1.6661291981428739],[103.64097279999999,1.6667518981421952],[103.64146829999999,1.667155098141715]]]},"properties":{"place_id":"1b606da6-6ebf-5f23-9bd5-2690ef49fb93","habitat":"forest_edge_opening","habitat_label":"Forest edge or opening","resolution_m":50}},{"type":"Feature","geometry":{"type":"Polygon","coordinates":[[[103.64146829999999,1.667155098141715],[103.64231769999999,1.666497098142452],[103.64187169999998,1.6661291981428739],[103.64097279999999,1.6667518981421952],[103.64146829999999,1.667155098141715]]]},"properties":{"place_id":"1b606da6-6ebf-5f23-9bd5-2690ef49fb93","habitat":"disturbed_built_edge","habitat_label":"Disturbed, bare or built edge","resolution_m":50}}]}