{"type":"FeatureCollection","metadata":{"schema_version":1,"place_id":"1bb2478c-01c3-517c-84f3-b7590d1bf4c7","place_name":"Taman Kanak-Kanak","place_type":"park","osm_reference":"way/422767372","protection_context":"no protected status confirmed from included OSM tags","resolution_m":50,"raster_coverage":1.0,"interpretation":"Suggested search habitats, not predicted plant locations or probabilities of presence."},"features":[{"type":"Feature","geometry":{"type":"Polygon","coordinates":[[[113.7842817,2.705719796999447],[113.784676,2.7055563969996412],[113.7844346,2.7049374970002846],[113.78406979999998,2.7052107970000043],[113.7842817,2.705719796999447]]]},"properties":{"place_id":"1bb2478c-01c3-517c-84f3-b7590d1bf4c7","habitat":"disturbed_built_edge","habitat_label":"Disturbed, bare or built edge","resolution_m":50}},{"type":"Feature","geometry":{"type":"Polygon","coordinates":[[[113.78433326964857,2.705698426263843],[113.784676,2.7055563969996412],[113.7844346,2.7049374970002846],[113.78406979999998,2.7052107970000043],[113.78433326964857,2.705698426263843]]]},"properties":{"place_id":"1bb2478c-01c3-517c-84f3-b7590d1bf4c7","habitat":"water_edge","habitat_label":"Water edge","resolution_m":50}}]}