{"type":"FeatureCollection","metadata":{"schema_version":1,"place_id":"1bdb2df4-7dc9-52dc-bb8a-81e729765cc0","place_name":"Edible Park","place_type":"park","osm_reference":"way/536540864","protection_context":"no protected status confirmed from included OSM tags","resolution_m":50,"raster_coverage":1.0,"interpretation":"Suggested search habitats, not predicted plant locations or probabilities of presence."},"features":[{"type":"Feature","geometry":{"type":"Polygon","coordinates":[[[103.6245919,1.4125334984241276],[103.6256907015745,1.4130527337420815],[103.6268986,1.412380598424312],[103.6252034,1.4119113984248477],[103.6245919,1.4125334984241276]]]},"properties":{"place_id":"1bdb2df4-7dc9-52dc-bb8a-81e729765cc0","habitat":"open_grassland","habitat_label":"Open grassland or shrubland","resolution_m":50}},{"type":"Feature","geometry":{"type":"Polygon","coordinates":[[[103.62550109999998,1.4132466984233518],[103.62599459999998,1.4128069984238305],[103.62669739999998,1.4128417984238029],[103.62677790000001,1.4122518984244805],[103.62508,1.4119515984247983],[103.6245919,1.4125334984241276],[103.62550109999998,1.4132466984233518]],[[103.62509544363016,1.412268638657869],[103.62561365202072,1.412268638657869],[103.62561365202072,1.412660686167783],[103.62509544363016,1.412660686167783],[103.62509544363016,1.412268638657869]]]},"properties":{"place_id":"1bdb2df4-7dc9-52dc-bb8a-81e729765cc0","habitat":"disturbed_built_edge","habitat_label":"Disturbed, bare or built edge","resolution_m":50}}]}