{"type":"FeatureCollection","metadata":{"schema_version":1,"place_id":"1bdfe9b5-b561-571d-8e18-996694def8bc","place_name":"Glory Beach Resort Recreation Park & Pool","place_type":"park","osm_reference":"way/554954090","protection_context":"no protected status confirmed from included OSM tags","resolution_m":50,"raster_coverage":1.0,"interpretation":"Suggested search habitats, not predicted plant locations or probabilities of presence."},"features":[{"type":"Feature","geometry":{"type":"Polygon","coordinates":[[[101.79737445012279,2.5499421340823],[101.7974625,2.5499822971695356],[101.79748656832055,2.5499421340823],[101.79737445012279,2.5499421340823]]]},"properties":{"place_id":"1bdfe9b5-b561-571d-8e18-996694def8bc","habitat":"forest_edge_opening","habitat_label":"Forest edge or opening","resolution_m":50}},{"type":"Feature","geometry":{"type":"Polygon","coordinates":[[[101.79708726143015,2.54954982449538],[101.79737445012279,2.5491575150248718],[101.79726546521853,2.5491575150248718],[101.79708726143015,2.54954982449538]]]},"properties":{"place_id":"1bdfe9b5-b561-571d-8e18-996694def8bc","habitat":"open_grassland","habitat_label":"Open grassland or shrubland","resolution_m":50}},{"type":"Feature","geometry":{"type":"Polygon","coordinates":[[[101.79697979999999,2.5497863971697656],[101.7979483,2.5489134971707172],[101.79747120000002,2.5487045971709517],[101.79697979999999,2.5497863971697656]]]},"properties":{"place_id":"1bdfe9b5-b561-571d-8e18-996694def8bc","habitat":"disturbed_built_edge","habitat_label":"Disturbed, bare or built edge","resolution_m":50}},{"type":"Feature","geometry":{"type":"Polygon","coordinates":[[[101.79737445012279,2.5491575150248718],[101.79737445012279,2.54891758858868],[101.79726546521853,2.5491575150248718],[101.79737445012279,2.5491575150248718]]]},"properties":{"place_id":"1bdfe9b5-b561-571d-8e18-996694def8bc","habitat":"permanent_water","habitat_label":"Permanent water","resolution_m":50}},{"type":"Feature","geometry":{"type":"Polygon","coordinates":[[[101.79737445012279,2.5491575150248718],[101.79737445012279,2.54891758858868],[101.79726546521853,2.5491575150248718],[101.79737445012279,2.5491575150248718]]]},"properties":{"place_id":"1bdfe9b5-b561-571d-8e18-996694def8bc","habitat":"seasonal_water_wetland","habitat_label":"Seasonal water or wetland","resolution_m":50}},{"type":"Feature","geometry":{"type":"Polygon","coordinates":[[[101.79747120000002,2.5487045971709517],[101.79697979999999,2.5497863971697656],[101.7973712323881,2.5499421340823],[101.7979483,2.5489134971707172],[101.79747120000002,2.5487045971709517]]]},"properties":{"place_id":"1bdfe9b5-b561-571d-8e18-996694def8bc","habitat":"water_edge","habitat_label":"Water edge","resolution_m":50}}]}