{"type":"FeatureCollection","metadata":{"schema_version":1,"place_id":"1c3b883b-c013-5c58-a7de-e246bf98218c","place_name":"SFERA@UMS Forest","place_type":"forest","osm_reference":"relation/17974688","protection_context":"no protected status confirmed from included OSM tags","resolution_m":50,"raster_coverage":1.0,"interpretation":"Suggested search habitats, not predicted plant locations or probabilities of presence."},"features":[{"type":"Feature","geometry":{"type":"MultiPolygon","coordinates":[[[[116.1165086980944,6.040507625129421],[116.11702690648498,6.039966118567576],[116.11754511487553,6.039966118567576],[116.11754511487553,6.040360179720791],[116.11806332326609,6.040360179720791],[116.11754511487553,6.041072791903124],[116.11939489999997,6.041768793515984],[116.120379,6.041568393516199],[116.12211029999997,6.0409578935167945],[116.1223292,6.03919899351851],[116.12095009999999,6.039353893518358],[116.11909974004722,6.03864458893969],[116.11858153165664,6.038783936782881],[116.11757069999997,6.03730539352037],[116.1168891,6.0373312935203405],[116.11605999999999,6.039071693518622],[116.1165086980944,6.040507625129421]]],[[[116.11702690648498,6.040754241153201],[116.11658576024118,6.040754241153201],[116.11669780000001,6.041112793516646],[116.11702690648498,6.04109725644644],[116.11702690648498,6.040754241153201]]]]},"properties":{"place_id":"1c3b883b-c013-5c58-a7de-e246bf98218c","habitat":"forest_interior","habitat_label":"Forest interior","resolution_m":50}},{"type":"Feature","geometry":{"type":"MultiPolygon","coordinates":[[[[116.11909974004722,6.03864458893969],[116.11828364189576,6.037995816988696],[116.11806332326609,6.037995816988696],[116.11858153165664,6.038783936782881],[116.11909974004722,6.03864458893969]]],[[[116.12220899039059,6.039966118567576],[116.12220899039059,6.04016489818308],[116.12223372906752,6.039966118567576],[116.12220899039059,6.039966118567576]]],[[[116.11806332326609,6.040754241153201],[116.11754511487553,6.039966118567576],[116.1165086980944,6.040360179720791],[116.11702690648498,6.04109725644644],[116.11806332326609,6.040754241153201]]]]},"properties":{"place_id":"1c3b883b-c013-5c58-a7de-e246bf98218c","habitat":"forest_edge_opening","habitat_label":"Forest edge or opening","resolution_m":50}},{"type":"Feature","geometry":{"type":"MultiPolygon","coordinates":[[[[116.11909974004722,6.03864458893969],[116.11828364189576,6.037995816988696],[116.11806332326609,6.037995816988696],[116.11858153165664,6.038783936782881],[116.11909974004722,6.03864458893969]]],[[[116.11754511487553,6.040754241153201],[116.11806332326609,6.040754241153201],[116.11806332326609,6.040360179720791],[116.11702690648498,6.039966118567576],[116.11658576024118,6.040754241153201],[116.11702690648498,6.040754241153201],[116.11702690648498,6.04109725644644],[116.11754511487553,6.041072791903124],[116.11754511487553,6.040754241153201]]]]},"properties":{"place_id":"1c3b883b-c013-5c58-a7de-e246bf98218c","habitat":"disturbed_built_edge","habitat_label":"Disturbed, bare or built edge","resolution_m":50}}]}