{"type":"FeatureCollection","metadata":{"schema_version":1,"place_id":"1c5287c3-4ad9-5457-a191-1eba1e73ef0c","place_name":"Bukit Residen","place_type":"park","osm_reference":"way/682341628","protection_context":"no protected status confirmed from included OSM tags","resolution_m":50,"raster_coverage":1.0,"interpretation":"Suggested search habitats, not predicted plant locations or probabilities of presence."},"features":[{"type":"Feature","geometry":{"type":"MultiPolygon","coordinates":[[[[102.04922372793524,4.18592512113627],[102.04974193632582,4.18592512113627],[102.04990503018902,4.186318073072491],[102.05077835310695,4.18592512113627],[102.05077835310695,4.186318073072491],[102.05181476988805,4.18671102520072],[102.05181476988805,4.18592512113627],[102.05233297827861,4.18592512113627],[102.05181476988805,4.1851392178397715],[102.05233297827861,4.1851392178397715],[102.05233297827861,4.184746266479457],[102.05285118666919,4.184746266479457],[102.05285118666919,4.183960364334612],[102.05440581184085,4.183174462957352],[102.0538712,4.182414895414511],[102.05336939505975,4.182388562347532],[102.05336939505975,4.183174462957352],[102.05285118666919,4.183174462957352],[102.05181476988805,4.1843533153110775],[102.05077835310695,4.183960364334612],[102.05077835310695,4.183174462957352],[102.0512965614975,4.183174462957352],[102.0512965614975,4.182388562347532],[102.05077835310695,4.182388562347532],[102.05077835310695,4.181995612330365],[102.0512965614975,4.181995612330365],[102.0512965614975,4.18120971287143],[102.05077835310695,4.18120971287143],[102.05077835310695,4.180816763429627],[102.0512965614975,4.180816763429627],[102.0512965614975,4.17885201909649],[102.05181476988805,4.17885201909649],[102.05181476988805,4.178459070804911],[102.05026014471638,4.178459070804911],[102.04974193632582,4.1776171545064855],[102.04915069999998,4.177705195419456],[102.047150894373,4.178580529685001],[102.04663268598246,4.17963791625464],[102.04559626920134,4.17963791625464],[102.04559626920134,4.179244967579726],[102.0445598524202,4.17963791625464],[102.04404164402965,4.178698662816541],[102.04306483908285,4.17885201909649],[102.04404164402965,4.18120971287143],[102.0445598524202,4.18120971287143],[102.04507806081077,4.181602662505006],[102.04507806081077,4.182388562347532],[102.04663268598246,4.183174462957352],[102.0461144775919,4.183960364334612],[102.04663268598246,4.183960364334612],[102.04638681517382,4.1843533153110775],[102.04690939793002,4.1851392178397715],[102.04766910276358,4.1851392178397715],[102.04818731115414,4.18592512113627],[102.04922372793524,4.186287765114414],[102.04922372793524,4.18592512113627]],[[102.04818731115414,4.183567413550043],[102.0487055195447,4.182781512556521],[102.04974193632582,4.183174462957352],[102.04922372793524,4.183960364334612],[102.04818731115414,4.183567413550043]]],[[[102.04821998144084,4.186318073072491],[102.04824929999997,4.18635749541032],[102.04827282587459,4.186318073072491],[102.04821998144084,4.186318073072491]]]]},"properties":{"place_id":"1c5287c3-4ad9-5457-a191-1eba1e73ef0c","habitat":"forest_interior","habitat_label":"Forest interior","resolution_m":50}},{"type":"Feature","geometry":{"type":"MultiPolygon","coordinates":[[[[102.04766910276358,4.178459070804911],[102.04766910276358,4.178370535515695],[102.04751783826964,4.178459070804911],[102.04766910276358,4.178459070804911]]],[[[102.0435234356391,4.17885201909649],[102.0435234356391,4.178677369407619],[102.04306483908285,4.17885201909649],[102.0435234356391,4.17885201909649]]],[[[102.04300522724853,4.179244967579726],[102.04300522724853,4.178951909199195],[102.0429341,4.179071095418009],[102.04300522724853,4.179244967579726]]],[[[102.04559626920134,4.17963791625464],[102.04663268598246,4.17963791625464],[102.047150894373,4.178580529685001],[102.0468199,4.178462295418664],[102.04669019999999,4.179220795417864],[102.04531439999998,4.178990395418084],[102.0445598524202,4.179419667122103],[102.04507806081077,4.17963791625464],[102.04507806081077,4.179244967579726],[102.04559626920134,4.179244967579726],[102.04559626920134,4.17963791625464]]],[[[102.04404164402965,4.179244967579726],[102.04441390095087,4.179244967579726],[102.04404164402965,4.178698662816541],[102.04404164402965,4.179244967579726]]],[[[102.04507806081077,4.181602662505006],[102.04449369999999,4.181884795415052],[102.0450013,4.183088395413785],[102.04559626920134,4.1826197766239295],[102.04507806081077,4.182388562347532],[102.04507806081077,4.181602662505006]]],[[[102.0445598524202,4.18120971287143],[102.04404164402965,4.18120971287143],[102.04404164402965,4.180423814179573],[102.04324010905712,4.18003086512125],[102.044356,4.181713595415224],[102.0445598524202,4.18120971287143]]],[[[102.0461144775919,4.182781512556521],[102.0458701570376,4.182781512556521],[102.0461144775919,4.183145198681788],[102.0461144775919,4.182781512556521]]],[[[102.04642966222093,4.183567413550043],[102.04663268598246,4.183174462957352],[102.04613774495485,4.183174462957352],[102.04642966222093,4.183567413550043]]],[[[102.04663268598246,4.183960364334612],[102.04600469999998,4.184002895412812],[102.04638681517382,4.1843533153110775],[102.04663268598246,4.1843533153110775],[102.04663268598246,4.183960364334612]]],[[[102.05181476988805,4.180816763429627],[102.05233297827861,4.180816763429627],[102.05233297827861,4.180423814179573],[102.05285118666919,4.180423814179573],[102.05300133107961,4.180816763429627],[102.0533532,4.179691095417373],[102.05298179999998,4.179436095417639],[102.05225169999999,4.1797795954172825],[102.05184959999997,4.178969195418117],[102.0526568,4.178623295418462],[102.04974193632582,4.1776171545064855],[102.05026014471638,4.178459070804911],[102.05181476988805,4.178459070804911],[102.05181476988805,4.17885201909649],[102.0512965614975,4.17885201909649],[102.0512965614975,4.180816763429627],[102.05077835310695,4.180816763429627],[102.05077835310695,4.18120971287143],[102.0512965614975,4.18120971287143],[102.0512965614975,4.181995612330365],[102.05077835310695,4.181995612330365],[102.05077835310695,4.182388562347532],[102.0512965614975,4.182388562347532],[102.0512965614975,4.183174462957352],[102.05077835310695,4.183174462957352],[102.05077835310695,4.183960364334612],[102.0512965614975,4.183960364334612],[102.0512965614975,4.1843533153110775],[102.05336939505975,4.183174462957352],[102.05336939505975,4.182388562347532],[102.05379741739354,4.182388562347532],[102.05337659999999,4.181980595414948],[102.0522833,4.181899295415029],[102.05183609999999,4.181480295415469],[102.05233297827861,4.18120971287143],[102.05181476988805,4.18120971287143],[102.05181476988805,4.180816763429627]]],[[[102.0538876034503,4.182781512556521],[102.05406549922832,4.182781512556521],[102.0538876034503,4.182537737393181],[102.0538876034503,4.182781512556521]]],[[[102.04922372793524,4.183174462957352],[102.04922372793524,4.182781512556521],[102.0487055195447,4.182781512556521],[102.04818731115414,4.183567413550043],[102.04922372793524,4.183960364334612],[102.04922372793524,4.183567413550043],[102.04974193632582,4.183567413550043],[102.04974193632582,4.183174462957352],[102.04922372793524,4.183174462957352]]],[[[102.05195379999999,4.187040895409613],[102.0538876034503,4.18582944354568],[102.05336429999998,4.185608395411134],[102.05349049999998,4.184863595411894],[102.05299459999999,4.184482495412296],[102.0535292,4.1841681954126315],[102.05336939505975,4.183955523228997],[102.05285118666919,4.183960364334612],[102.05285118666919,4.184746266479457],[102.05181476988805,4.1851392178397715],[102.05181476988805,4.185532169392034],[102.05233297827861,4.185532169392034],[102.05233297827861,4.18592512113627],[102.05181476988805,4.18592512113627],[102.05181476988805,4.18671102520072],[102.0512965614975,4.18671102520072],[102.05077835310695,4.18592512113627],[102.04990503018902,4.186318073072491],[102.05195379999999,4.187040895409613]]],[[[102.05440581184085,4.183174462957352],[102.0538876034503,4.183174462957352],[102.05336939505975,4.183903455574511],[102.05462769999998,4.184101195412712],[102.0547722,4.18456389541222],[102.05440581184085,4.183174462957352]]],[[[102.04766910276358,4.185532169392034],[102.04811159999998,4.1855944954111415],[102.04821998144084,4.186318073072491],[102.0487055195447,4.186090909231215],[102.04818731115414,4.185532169392034],[102.04766910276358,4.185532169392034]]],[[[102.04766910276358,4.1851392178397715],[102.04729288591108,4.1851392178397715],[102.04766910276358,4.185272196968162],[102.04766910276358,4.1851392178397715]]],[[[102.04690939793002,4.1851392178397715],[102.046921,4.185178695411569],[102.04698450032085,4.1851392178397715],[102.04690939793002,4.1851392178397715]]],[[[102.04974193632582,4.18592512113627],[102.04922372793524,4.18592512113627],[102.04922372793524,4.186287765114414],[102.04974193632582,4.1862369370286],[102.04974193632582,4.18592512113627]]]]},"properties":{"place_id":"1c5287c3-4ad9-5457-a191-1eba1e73ef0c","habitat":"forest_edge_opening","habitat_label":"Forest edge or opening","resolution_m":50}},{"type":"Feature","geometry":{"type":"MultiPolygon","coordinates":[[[[102.05300133107961,4.180816763429627],[102.05285118666919,4.18120971287143],[102.05292359255807,4.18120971287143],[102.05300133107961,4.180816763429627]]],[[[102.05181476988805,4.183174462957352],[102.0512965614975,4.183174462957352],[102.0512965614975,4.183960364334612],[102.05181476988805,4.183960364334612],[102.05181476988805,4.183174462957352]]]]},"properties":{"place_id":"1c5287c3-4ad9-5457-a191-1eba1e73ef0c","habitat":"open_grassland","habitat_label":"Open grassland or shrubland","resolution_m":50}},{"type":"Feature","geometry":{"type":"MultiPolygon","coordinates":[[[[102.04766910276358,4.178459070804911],[102.04766910276358,4.178370535515695],[102.04751783826964,4.178459070804911],[102.04766910276358,4.178459070804911]]],[[[102.0435234356391,4.17885201909649],[102.0435234356391,4.178677369407619],[102.04306483908285,4.17885201909649],[102.0435234356391,4.17885201909649]]],[[[102.04300522724853,4.179244967579726],[102.04300522724853,4.178951909199195],[102.0429341,4.179071095418009],[102.04300522724853,4.179244967579726]]],[[[102.04663268598246,4.17963791625464],[102.04663268598246,4.179244967579726],[102.047150894373,4.179244967579726],[102.0468199,4.178462295418664],[102.04669019999999,4.179220795417864],[102.04531439999998,4.178990395418084],[102.0445598524202,4.179419667122103],[102.04507806081077,4.17963791625464],[102.04507806081077,4.179244967579726],[102.04559626920134,4.179244967579726],[102.04559626920134,4.17963791625464],[102.04663268598246,4.17963791625464]]],[[[102.04404164402965,4.179244967579726],[102.04441390095087,4.179244967579726],[102.04404164402965,4.178698662816541],[102.04404164402965,4.179244967579726]]],[[[102.04507806081077,4.182388562347532],[102.04507806081077,4.181602662505006],[102.0448386526472,4.181602662505006],[102.04449369999999,4.181884795415052],[102.04523689999999,4.18308109541379],[102.04559626920134,4.182388562347532],[102.04507806081077,4.182388562347532]]],[[[102.0445598524202,4.18120971287143],[102.04404164402965,4.18120971287143],[102.04404164402965,4.180423814179573],[102.04324010905712,4.18003086512125],[102.044356,4.181713595415224],[102.0445598524202,4.18120971287143]]],[[[102.0461144775919,4.182781512556521],[102.0458701570376,4.182781512556521],[102.0461144775919,4.183145198681788],[102.0461144775919,4.182781512556521]]],[[[102.04642966222093,4.183567413550043],[102.04663268598246,4.183174462957352],[102.04613774495485,4.183174462957352],[102.04642966222093,4.183567413550043]]],[[[102.0461144775919,4.183960364334612],[102.04638681517382,4.1843533153110775],[102.04663268598246,4.1843533153110775],[102.04663268598246,4.183960364334612],[102.0461144775919,4.183960364334612]]],[[[102.04974193632582,4.177673174796659],[102.05026014471638,4.178459070804911],[102.05181476988805,4.178459070804911],[102.05181476988805,4.17885201909649],[102.0512965614975,4.17885201909649],[102.0512965614975,4.180816763429627],[102.05077835310695,4.180816763429627],[102.05077835310695,4.18120971287143],[102.0512965614975,4.18120971287143],[102.0512965614975,4.181995612330365],[102.05077835310695,4.181995612330365],[102.05077835310695,4.182388562347532],[102.05285118666919,4.183567413550043],[102.05375679999999,4.182159895414766],[102.0522833,4.181899295415029],[102.05186479999999,4.181250795415707],[102.05287209999999,4.181469995415464],[102.0533532,4.179691095417373],[102.05298179999998,4.179436095417639],[102.05225169999999,4.1797795954172825],[102.05184959999997,4.178969195418117],[102.0525254,4.178998795418093],[102.0526568,4.178623295418462],[102.04974193632582,4.177673174796659]]],[[[102.0538876034503,4.182781512556521],[102.0540438,4.182666095414215],[102.0538876034503,4.182537737393181],[102.0538876034503,4.182781512556521]]],[[[102.04922372793524,4.183174462957352],[102.04922372793524,4.182781512556521],[102.0487055195447,4.182781512556521],[102.04818731115414,4.183567413550043],[102.04922372793524,4.183960364334612],[102.04922372793524,4.183567413550043],[102.04974193632582,4.183567413550043],[102.04974193632582,4.183174462957352],[102.04922372793524,4.183174462957352]]],[[[102.05440581184085,4.183174462957352],[102.0538876034503,4.183174462957352],[102.05336939505975,4.183903455574511],[102.05462769999998,4.184101195412712],[102.0547722,4.18456389541222],[102.05440581184085,4.183174462957352]]],[[[102.05336939505975,4.183960364334612],[102.05285118666919,4.183960364334612],[102.05285118666919,4.184746266479457],[102.05181476988805,4.1851392178397715],[102.05181476988805,4.185532169392034],[102.05233297827861,4.185532169392034],[102.05233297827861,4.18592512113627],[102.05181476988805,4.18592512113627],[102.05181476988805,4.187008037890323],[102.05255139999997,4.18694359540974],[102.05391340000001,4.185820495410913],[102.05336429999998,4.185608395411134],[102.05349049999998,4.184863595411894],[102.05299459999999,4.184482495412296],[102.05336939505975,4.183960364334612]]],[[[102.04766910276358,4.185532169392034],[102.04811159999998,4.1855944954111415],[102.04821998144084,4.186318073072491],[102.0487055195447,4.186090909231215],[102.04818731115414,4.185532169392034],[102.04766910276358,4.185532169392034]]],[[[102.04766910276358,4.1851392178397715],[102.04729288591108,4.1851392178397715],[102.04766910276358,4.185272196968162],[102.04766910276358,4.1851392178397715]]],[[[102.04690939793002,4.1851392178397715],[102.046921,4.185178695411569],[102.04698450032085,4.1851392178397715],[102.04690939793002,4.1851392178397715]]],[[[102.04974193632582,4.18592512113627],[102.04922372793524,4.18592512113627],[102.04922372793524,4.186287765114414],[102.04974193632582,4.1862369370286],[102.04974193632582,4.18592512113627]]],[[[102.0512965614975,4.186318073072491],[102.05077835310695,4.186318073072491],[102.05077835310695,4.18592512113627],[102.04990503018902,4.186318073072491],[102.0512965614975,4.186863565020554],[102.0512965614975,4.186318073072491]]]]},"properties":{"place_id":"1c5287c3-4ad9-5457-a191-1eba1e73ef0c","habitat":"disturbed_built_edge","habitat_label":"Disturbed, bare or built edge","resolution_m":50}},{"type":"Feature","geometry":{"type":"Polygon","coordinates":[[[102.05233297827861,4.18671102520072],[102.05181476988805,4.18671102520072],[102.05181476988805,4.187008037890323],[102.05233297827861,4.1870083667435996],[102.05233297827861,4.18671102520072]]]},"properties":{"place_id":"1c5287c3-4ad9-5457-a191-1eba1e73ef0c","habitat":"cropland","habitat_label":"Cropland","resolution_m":50}},{"type":"Feature","geometry":{"type":"Polygon","coordinates":[[[102.04936573360284,4.177673174796659],[102.04974193632582,4.1780661227049745],[102.05077835310695,4.1780661227049745],[102.0499982,4.177651695419482],[102.04936573360284,4.177673174796659]]]},"properties":{"place_id":"1c5287c3-4ad9-5457-a191-1eba1e73ef0c","habitat":"water_edge","habitat_label":"Water edge","resolution_m":50}}]}