{"type":"FeatureCollection","metadata":{"schema_version":1,"place_id":"1cdb91eb-53cc-5858-97f9-ef209fde78be","place_name":"WoodHaven","place_type":"park","osm_reference":"way/611864300","protection_context":"no protected status confirmed from included OSM tags","resolution_m":50,"raster_coverage":1.0,"interpretation":"Suggested search habitats, not predicted plant locations or probabilities of presence."},"features":[{"type":"Feature","geometry":{"type":"MultiPolygon","coordinates":[[[[100.44794891471491,5.3543125398990625],[100.44752839999998,5.354038194203203],[100.4474045,5.353980594203242],[100.44728124718941,5.3543125398990625],[100.44794891471491,5.3543125398990625]]],[[[100.4459447,5.355589594201616],[100.44692338432176,5.355493350899862],[100.44640517593119,5.354934625985047],[100.4459447,5.355589594201616]]]]},"properties":{"place_id":"1cdb91eb-53cc-5858-97f9-ef209fde78be","habitat":"forest_edge_opening","habitat_label":"Forest edge or opening","resolution_m":50}},{"type":"Feature","geometry":{"type":"MultiPolygon","coordinates":[[[[100.44640517593119,5.355493350899862],[100.44795980110288,5.35563979620029],[100.4484516,5.354640494202588],[100.44744159271232,5.353997838272328],[100.44640517593119,5.354934625985047],[100.44640517593119,5.355493350899862]]],[[[100.44640517593119,5.355651612608442],[100.44600002994326,5.355493350899862],[100.4459447,5.355589594201616],[100.44640517593119,5.355651612608442]]]]},"properties":{"place_id":"1cdb91eb-53cc-5858-97f9-ef209fde78be","habitat":"open_grassland","habitat_label":"Open grassland or shrubland","resolution_m":50}},{"type":"Feature","geometry":{"type":"MultiPolygon","coordinates":[[[[100.44744159271232,5.3543125398990625],[100.44794891471491,5.3543125398990625],[100.44744159271232,5.353997838272328],[100.44744159271232,5.3543125398990625]]],[[[100.44744159271232,5.3550997469862045],[100.44744159271232,5.355493350899862],[100.44640517593119,5.3550997469862045],[100.4459447,5.355589594201616],[100.4480638,5.355637294201575],[100.4484516,5.354640494202588],[100.44795980110288,5.354319642229227],[100.44795980110288,5.3550997469862045],[100.44744159271232,5.3550997469862045]]]]},"properties":{"place_id":"1cdb91eb-53cc-5858-97f9-ef209fde78be","habitat":"disturbed_built_edge","habitat_label":"Disturbed, bare or built edge","resolution_m":50}},{"type":"Feature","geometry":{"type":"MultiPolygon","coordinates":[[[[100.44744159271232,5.3543125398990625],[100.4474045,5.353980594203242],[100.44728124718941,5.3543125398990625],[100.44744159271232,5.3543125398990625]]],[[[100.44640517593119,5.3550997469862045],[100.4463822,5.354944594202252],[100.4462528658804,5.3550997469862045],[100.44640517593119,5.3550997469862045]]]]},"properties":{"place_id":"1cdb91eb-53cc-5858-97f9-ef209fde78be","habitat":"cropland","habitat_label":"Cropland","resolution_m":50}}]}