{"type":"FeatureCollection","metadata":{"schema_version":1,"place_id":"1d4dda5c-cc5b-54db-a7b3-0271f3828ff5","place_name":"Hutan Rizab Bukit Hantu","place_type":"wood","osm_reference":"relation/16767045","protection_context":"mapped protected boundary","resolution_m":50,"raster_coverage":1.0,"interpretation":"Suggested search habitats, not predicted plant locations or probabilities of presence."},"features":[{"type":"Feature","geometry":{"type":"MultiPolygon","coordinates":[[[[103.4520138411829,1.7388682437242053],[103.45469379999999,1.7387956980624133],[103.456153,1.7391280980620358],[103.45978696704132,1.7388682437242053],[103.45978696704132,1.738476136457172],[103.46030517543188,1.738476136457172],[103.46030517543188,1.7388682437242053],[103.461341592213,1.7388682437242053],[103.461341592213,1.738476136457172],[103.4769574,1.7385656980626694],[103.4689403,1.7283234980740023],[103.46859650968085,1.7286734804963333],[103.46911471807141,1.7286734804963333],[103.46911471807141,1.7290655857870818],[103.46859650968085,1.7290655857870818],[103.46859650968085,1.7294576911566666],[103.46769966747148,1.7294576911566666],[103.46552049999997,1.7306560980714232],[103.4628962173847,1.7302419021324171],[103.4628962173847,1.7298497966051056],[103.46082338382244,1.7302419021324171],[103.46030517543188,1.7294576911566666],[103.45771413347909,1.7302419021324171],[103.45771413347909,1.7298497966051056],[103.45650970265429,1.7294576911566666],[103.45621077287562,1.7298497966051056],[103.45667771669795,1.7298497966051056],[103.45667771669795,1.7302419021324171],[103.45564129991685,1.7305967730894238],[103.45411826442498,1.7325945369536053],[103.45460488313572,1.7325945369536053],[103.45460488313572,1.7329866430335232],[103.45356846635458,1.7333787491924575],[103.45305025796404,1.7345550681435324],[103.45256425284406,1.7345550681435324],[103.45045921601124,1.7371532652949895],[103.45045921601124,1.7378171848924904],[103.4510353,1.7377447980635718],[103.45025637765451,1.7388682437242053],[103.4520138411829,1.7391184951550447],[103.4520138411829,1.7388682437242053]]],[[[103.44763742728554,1.7412208889920082],[103.44752699999997,1.7411656980597927],[103.44748522390216,1.7412208889920082],[103.44763742728554,1.7412208889920082]]],[[[103.4744639490087,1.7584737085367397],[103.47170576002422,1.7623775841695972],[103.47170576002422,1.763179049834457],[103.4707103,1.7637067980348435],[103.4709892,1.7677927980303172],[103.48051530266375,1.7586456920747193],[103.48051530266375,1.7580815972835306],[103.4810335110543,1.7580815972835306],[103.4810335110543,1.7576894861104848],[103.48265764838571,1.756513153072142],[103.48258813622598,1.7541604891574278],[103.48310634461656,1.7541604891574278],[103.48310634461656,1.7537683787850216],[103.48414276139768,1.7537683787850216],[103.48470719999999,1.7544996980450358],[103.4941932,1.747520298052757],[103.4903343,1.7422992980585055],[103.4836245530071,1.7450233011004543],[103.48310634461656,1.7463182968823148],[103.48258813622598,1.7463182968823148],[103.48103310000002,1.7484042980517678],[103.4810335110543,1.7494551699623342],[103.48022816443893,1.7498472794561057],[103.47947888588263,1.7518078281221157],[103.4784797,1.752404298047349],[103.47896067749207,1.7529841582800885],[103.4784424691015,1.7529841582800885],[103.47768358813165,1.7537683787850216],[103.47792426071095,1.7541604891574278],[103.47740605232039,1.7541604891574278],[103.47740605232039,1.7553368207546178],[103.47636963553926,1.7557289314470645],[103.47636963553926,1.756513153072142],[103.4758514271487,1.756513153072142],[103.4758514271487,1.7572973750175827],[103.47533321875814,1.7572973750175827],[103.47533321875814,1.7580815972835306],[103.4744639490087,1.7584737085367397]]],[[[103.48811009999999,1.7395707980615474],[103.48414276139768,1.744197262615242],[103.48569738656936,1.743561407490204],[103.48621559495992,1.7427893207581426],[103.48673380335048,1.7427893207581426],[103.48673380335048,1.7431375041896593],[103.49005599999997,1.7417786980591157],[103.48811009999999,1.7395707980615474]]],[[[103.48155171944487,1.7463182968823148],[103.48155171944487,1.7454428812327711],[103.48051530266375,1.7443577537956954],[103.47999709427319,1.7443577537956954],[103.4800286331429,1.7435735371179202],[103.4768703,1.7395409980615708],[103.46030517543188,1.740044566001085],[103.4559062,1.739878798061203],[103.45149563279234,1.7401601145564276],[103.45149563279234,1.7404366735853638],[103.45012339999998,1.7400503980610107],[103.44890459083953,1.7405011631524787],[103.4482565,1.7415302980593574],[103.44734996566787,1.7416129968144087],[103.44734996566787,1.7419394618867776],[103.44907180000001,1.7418067980590868],[103.4683427,1.7399631980610881],[103.46953682753265,1.7506314986830256],[103.46963292646197,1.7510236084162096],[103.47015113485254,1.7510236084162096],[103.46984405488982,1.7533762684925813],[103.47042330000001,1.761555698037233],[103.47118755163365,1.7615115813655993],[103.47118755163365,1.7608263777404127],[103.47209436965883,1.7604342660058518],[103.47222396841478,1.7596500427775217],[103.4726372494685,1.7596500427775217],[103.47344171010177,1.7584737085367397],[103.4732603851959,1.7580815972835306],[103.47377859358646,1.757970136885181],[103.47377859358646,1.7572973750175827],[103.47429680197702,1.7571955219812483],[103.47429680197702,1.756513153072142],[103.47481501036758,1.7564209073899995],[103.47481501036758,1.7557289314470645],[103.47527793461498,1.7557289314470645],[103.47582318683551,1.7549447101422075],[103.47533321875814,1.7549447101422075],[103.47533321875814,1.754552599609817],[103.4758514271487,1.754552599609817],[103.4758514271487,1.7541604891574278],[103.47667193067946,1.7537683787850216],[103.47723775990873,1.7529841582800885],[103.47688784392983,1.7525920481475248],[103.47780358913805,1.7521999380948732],[103.47792426071095,1.7514157182292336],[103.47842599999997,1.751337298048538],[103.4784424691015,1.750239389029664],[103.47896067749207,1.750239389029664],[103.47896067749207,1.7494551699623342],[103.47947888588263,1.7494551699623342],[103.47947888588263,1.7486709512140775],[103.48040104186401,1.7482788419595572],[103.48155171944487,1.7463182968823148]]]]},"properties":{"place_id":"1d4dda5c-cc5b-54db-a7b3-0271f3828ff5","habitat":"forest_interior","habitat_label":"Forest interior","resolution_m":50}},{"type":"Feature","geometry":{"type":"MultiPolygon","coordinates":[[[[103.4566707667931,1.7294576911566666],[103.4565607,1.7293907980727996],[103.45650970265429,1.7294576911566666],[103.4566707667931,1.7294576911566666]]],[[[103.45771413347909,1.7298497966051056],[103.45771413347909,1.7302419021324171],[103.45823234186965,1.7302419021324171],[103.45823234186965,1.7298497966051056],[103.45978696704132,1.7298497966051056],[103.45978696704132,1.7296047518115114],[103.45719592508851,1.7297302473526952],[103.45771413347909,1.7298497966051056]]],[[[103.4561595083074,1.7306340077386186],[103.4561595083074,1.7302419021324171],[103.45667771669795,1.7302419021324171],[103.45667771669795,1.7298497966051056],[103.45621077287562,1.7298497966051056],[103.45564129991685,1.7305967730894238],[103.4561595083074,1.7306340077386186]]],[[[103.45460488313572,1.7325945369536053],[103.45411826442498,1.7325945369536053],[103.45321226264733,1.7337708554304252],[103.45460488313572,1.7329866430335232],[103.45460488313572,1.7325945369536053]]],[[[103.45305025796404,1.7345550681435324],[103.45305025796404,1.7339669112807714],[103.45256425284406,1.7345550681435324],[103.45305025796404,1.7345550681435324]]],[[[103.45253204957348,1.7349471746187084],[103.45253204957348,1.734594040114979],[103.45224024794244,1.7349471746187084],[103.45253204957348,1.7349471746187084]]],[[[103.4509774244018,1.7369077081815223],[103.4507778,1.7365221980649181],[103.45058318149889,1.7369077081815223],[103.4509774244018,1.7369077081815223]]],[[[103.45045921601124,1.7371532652949895],[103.45018769999997,1.7376910980636227],[103.45045921601124,1.7378171848924904],[103.45045921601124,1.7371532652949895]]],[[[103.45045921601124,1.7388682437242053],[103.45018769999997,1.7389672980622013],[103.45045921601124,1.7389801106845981],[103.45045921601124,1.7388682437242053]]],[[[103.4520138411829,1.7388682437242053],[103.45240859999998,1.7391924980619777],[103.45305025796404,1.739040374087599],[103.45305025796404,1.7388682437242053],[103.4520138411829,1.7388682437242053]]],[[[103.45564129991685,1.7388682437242053],[103.4551445,1.739010198062165],[103.45564129991685,1.7390682770995747],[103.45564129991685,1.7388682437242053]]],[[[103.45512309152627,1.7400014634457897],[103.45564129991685,1.740044566001085],[103.45564129991685,1.73992029176353],[103.45512309152627,1.7400014634457897]]],[[[103.45875055026019,1.7398505454293276],[103.45926875865075,1.740044566001085],[103.45926875865075,1.7398453981199502],[103.45875055026019,1.7398505454293276]]],[[[103.46030517543188,1.740044566001085],[103.45978696704132,1.7398402508105861],[103.45978696704132,1.740044566001085],[103.46030517543188,1.740044566001085]]],[[[103.4494227992301,1.7404366735853638],[103.4494227992301,1.7401462700038914],[103.4489987573018,1.7404366735853638],[103.4494227992301,1.7404366735853638]]],[[[103.4509774244018,1.7401583634339033],[103.45149563279234,1.7404366735853638],[103.45149563279234,1.7401601145564276],[103.4509774244018,1.7401583634339033]]],[[[103.44890459083953,1.7408287812489993],[103.4488895,1.7405114980605254],[103.44873419490781,1.7408287812489993],[103.44890459083953,1.7408287812489993]]],[[[103.446916,1.7419728980588773],[103.44786817405843,1.7413362149279532],[103.44748522390216,1.7412208889920082],[103.446916,1.7419728980588773]]],[[[103.46859650968085,1.7294576911566666],[103.46859650968085,1.7290655857870818],[103.46911471807141,1.7290655857870818],[103.46911471807141,1.7286734804963333],[103.46859650968085,1.7286377930090007],[103.46769966747148,1.7294576911566666],[103.46859650968085,1.7294576911566666]]],[[[103.46030517543188,1.7294576911566666],[103.46082338382244,1.7302419021324171],[103.46185980060356,1.7302419021324171],[103.4606054,1.7291870980730204],[103.46030517543188,1.7294576911566666]]],[[[103.4633725010733,1.7302419021324171],[103.4629825,1.729759298072395],[103.4626202604923,1.7298497966051056],[103.4628962173847,1.7302419021324171],[103.4633725010733,1.7302419021324171]]],[[[103.46704188450917,1.738476136457172],[103.46652367611861,1.7387401809133411],[103.46704188450917,1.7387221886550077],[103.46704188450917,1.738476136457172]]],[[[103.46859650968085,1.738476136457172],[103.46807830129029,1.7386820504222975],[103.46859650968085,1.738661981306254],[103.46859650968085,1.738476136457172]]],[[[103.47015113485254,1.738476136457172],[103.47031499999999,1.7387420980624562],[103.47274217680534,1.7386567426882973],[103.47274217680534,1.738476136457172],[103.47015113485254,1.738476136457172]]],[[[103.46030517543188,1.7388682437242053],[103.46030517543188,1.738476136457172],[103.45978696704132,1.738476136457172],[103.45978696704132,1.7388682437242053],[103.45875055026019,1.7390236395595808],[103.4622791,1.7389136980622866],[103.46341442577524,1.738476136457172],[103.461341592213,1.738476136457172],[103.461341592213,1.7388682437242053],[103.46030517543188,1.7388682437242053]]],[[[103.47274217680534,1.7396524584961444],[103.47274217680534,1.7396445535650333],[103.47242705566315,1.7396524584961444],[103.47274217680534,1.7396524584961444]]],[[[103.47015113485254,1.7533762684925813],[103.47015113485254,1.7510236084162096],[103.46963292646197,1.7510236084162096],[103.46953682753265,1.7506314986830256],[103.47015113485254,1.7533762684925813]]],[[[103.47015113485254,1.7537683787850216],[103.46997572375719,1.754552599609817],[103.47015113485254,1.754552599609817],[103.47015113485254,1.7537683787850216]]],[[[103.4732603851959,1.7580815972835306],[103.4732603851959,1.7584737085367397],[103.47344171010177,1.7584737085367397],[103.47370402788935,1.7580815972835306],[103.4732603851959,1.7580815972835306]]],[[[103.47274217680534,1.7592579312837173],[103.47274217680534,1.7594984688319282],[103.47290868937333,1.7592579312837173],[103.47274217680534,1.7592579312837173]]],[[[103.47222396841478,1.7596500427775217],[103.47222396841478,1.760042154351561],[103.47236580956367,1.760042154351561],[103.4726372494685,1.7596500427775217],[103.47222396841478,1.7596500427775217]]],[[[103.47363341978954,1.7596500427775217],[103.47334119242527,1.760042154351561],[103.47377859358646,1.760042154351561],[103.47363341978954,1.7596500427775217]]],[[[103.4732603851959,1.7601605645606637],[103.47307934481167,1.7604342660058518],[103.4732603851959,1.7604342660058518],[103.4732603851959,1.7601605645606637]]],[[[103.47118755163365,1.7608263777404127],[103.47135529999997,1.7615018980372759],[103.47209436965883,1.7604342660058518],[103.47170576002422,1.7608263777404127],[103.47118755163365,1.7608263777404127]]],[[[103.47274217680534,1.7616106014504174],[103.47274217680534,1.760944005254769],[103.47228016048335,1.7616106014504174],[103.47274217680534,1.7616106014504174]]],[[[103.47222396841478,1.7616856333155269],[103.47198650416598,1.7620027134258966],[103.47222396841478,1.7620027134258966],[103.47222396841478,1.7616856333155269]]],[[[103.47081187889644,1.7635711621314116],[103.47118755163365,1.763179049834457],[103.47170576002422,1.763179049834457],[103.47170576002422,1.7623775841695972],[103.47081187889644,1.7635711621314116]]],[[[103.4758514271487,1.738476136457172],[103.47533321875814,1.738633520132085],[103.4758514271487,1.7386118809424747],[103.4758514271487,1.738476136457172]]],[[[103.47533321875814,1.7395795563147256],[103.4758514271487,1.7396524584961444],[103.4758514271487,1.7395665568649257],[103.47533321875814,1.7395795563147256]]],[[[103.48621559495992,1.7427893207581426],[103.48621559495992,1.7431814288982908],[103.48569738656936,1.7431814288982908],[103.48569738656936,1.743561407490204],[103.48673380335048,1.7431375041896593],[103.48673380335048,1.7427893207581426],[103.48621559495992,1.7427893207581426]]],[[[103.48673380335048,1.743965645417049],[103.48673380335048,1.743761016456425],[103.48622976264686,1.743965645417049],[103.48673380335048,1.743965645417049]]],[[[103.48725201174105,1.7435735371179202],[103.48725201174105,1.7435506357625452],[103.48719560126501,1.7435735371179202],[103.48725201174105,1.7435735371179202]]],[[[103.48051530266375,1.7443577537956954],[103.48051530266375,1.744749862253877],[103.4809499439129,1.744749862253877],[103.47999709427319,1.7435735371179202],[103.47999709427319,1.7443577537956954],[103.48051530266375,1.7443577537956954]]],[[[103.4837153,1.7443720980562234],[103.48466096978824,1.743965645417049],[103.48466096978824,1.7435735371179202],[103.48444625036468,1.7435735371179202],[103.4837153,1.7443720980562234]]],[[[103.4810335110543,1.7451419707916116],[103.48125704750294,1.7451419707916116],[103.4810335110543,1.7448565604112998],[103.4810335110543,1.7451419707916116]]],[[[103.4836245530071,1.7455340794089176],[103.4836245530071,1.7450233011004543],[103.48316603425565,1.7455340794089176],[103.4836245530071,1.7455340794089176]]],[[[103.48155171944487,1.7463182968823148],[103.4819665,1.7459752980544492],[103.48155171944487,1.7454428812327711],[103.48155171944487,1.7463182968823148]]],[[[103.48229187512801,1.7467104057384417],[103.48258813622598,1.7463182968823148],[103.48310634461656,1.7463182968823148],[103.48310634461656,1.7456144017117072],[103.48229187512801,1.7467104057384417]]],[[[103.48051530266375,1.7498472794561057],[103.48051530266375,1.7494735444827407],[103.48022816443893,1.7498472794561057],[103.48051530266375,1.7498472794561057]]],[[[103.4810335110543,1.7494551699623342],[103.4810335110543,1.7486709512140775],[103.48103310000002,1.7486709512140775],[103.48053245952539,1.7494551699623342],[103.4810335110543,1.7494551699623342]]],[[[103.47999709427319,1.7482788419595572],[103.47999709427319,1.7486709512140775],[103.47947888588263,1.7486709512140775],[103.47947888588263,1.7494551699623342],[103.47896067749207,1.7494551699623342],[103.47896067749207,1.750239389029664],[103.4784424691015,1.750239389029664],[103.4784424691015,1.7512513552434847],[103.48040104186401,1.7482788419595572],[103.47999709427319,1.7482788419595572]]],[[[103.47947888588263,1.7518078281221157],[103.47947888588263,1.7513540343323437],[103.47904716153364,1.7518078281221157],[103.47947888588263,1.7518078281221157]]],[[[103.47999709427319,1.7510236084162096],[103.47999709427319,1.7502958113261475],[103.47962371129744,1.7510236084162096],[103.47999709427319,1.7510236084162096]]],[[[103.4780865037527,1.7518078281221157],[103.47836941836734,1.7514157182292336],[103.47792426071095,1.7514157182292336],[103.4780865037527,1.7518078281221157]]],[[[103.47896067749207,1.7518987331790725],[103.4786741212027,1.7521999380948732],[103.47896067749207,1.7521999380948732],[103.47896067749207,1.7518987331790725]]],[[[103.47740605232039,1.7521999380948732],[103.47740605232039,1.7525920481475248],[103.47688784392983,1.7525920481475248],[103.47688784392983,1.7529841582800885],[103.47723775990873,1.7529841582800885],[103.47780358913805,1.7521999380948732],[103.47740605232039,1.7521999380948732]]],[[[103.4784424691015,1.7533762684925813],[103.4784424691015,1.7529841582800885],[103.47896067749207,1.7529841582800885],[103.47896067749207,1.7525920481475248],[103.4784424691015,1.752477226176388],[103.47798349469487,1.7533762684925813],[103.4784424691015,1.7533762684925813]]],[[[103.48310634461656,1.7537683787850216],[103.48310634461656,1.7541604891574278],[103.48258813622598,1.7541604891574278],[103.48258813622598,1.7549447101422075],[103.4835222,1.7537983980457972],[103.48466096978824,1.754472338337728],[103.48414276139768,1.7537683787850216],[103.48310634461656,1.7537683787850216]]],[[[103.47533321875814,1.7580815972835306],[103.47533321875814,1.7572973750175827],[103.4758514271487,1.7572973750175827],[103.47636963553926,1.7557289314470645],[103.47740605232039,1.7553368207546178],[103.47740605232039,1.7541604891574278],[103.47792426071095,1.7541604891574278],[103.47792426071095,1.7537683787850216],[103.47768358813165,1.7537683787850216],[103.47700980000002,1.75458119804494],[103.4744639490087,1.7584737085367397],[103.47533321875814,1.7580815972835306]]],[[[103.47688784392983,1.7533762684925813],[103.47688784392983,1.7534691301587413],[103.4769548452941,1.7533762684925813],[103.47688784392983,1.7533762684925813]]],[[[103.47667193067946,1.7537683787850216],[103.47636963553926,1.7541604891574278],[103.4758514271487,1.7541604891574278],[103.47533321875814,1.7549447101422075],[103.47582318683551,1.7549447101422075],[103.47667193067946,1.7537683787850216]]],[[[103.47533321875814,1.7553368207546178],[103.47533321875814,1.755646293111297],[103.47554027222087,1.7553368207546178],[103.47533321875814,1.7553368207546178]]],[[[103.47481501036758,1.7557289314470645],[103.47481501036758,1.7564209073899995],[103.47527793461498,1.7557289314470645],[103.47481501036758,1.7557289314470645]]],[[[103.47429680197702,1.756513153072142],[103.47429680197702,1.7571955219812483],[103.47475329903975,1.756513153072142],[103.47429680197702,1.756513153072142]]],[[[103.47377859358646,1.7572973750175827],[103.47377859358646,1.757970136885181],[103.47422866346456,1.7572973750175827],[103.47377859358646,1.7572973750175827]]],[[[103.48258813622598,1.7561210422195666],[103.48258813622598,1.756513153072142],[103.48265764838571,1.756513153072142],[103.48296269999999,1.7562094980431417],[103.48258813622598,1.7561210422195666]]],[[[103.48051530266375,1.7580815972835306],[103.48051530266375,1.7586456920747193],[103.4814759055537,1.7576894861104848],[103.4810335110543,1.7576894861104848],[103.4810335110543,1.7580815972835306],[103.48051530266375,1.7580815972835306]]],[[[103.47429680197702,1.7588658198701295],[103.47429680197702,1.7587266087024138],[103.47420479440154,1.7588658198701295],[103.47429680197702,1.7588658198701295]]]]},"properties":{"place_id":"1d4dda5c-cc5b-54db-a7b3-0271f3828ff5","habitat":"forest_edge_opening","habitat_label":"Forest edge or opening","resolution_m":50}},{"type":"Feature","geometry":{"type":"MultiPolygon","coordinates":[[[[103.46082338382244,1.7298497966051056],[103.46137343864919,1.7298497966051056],[103.46082338382244,1.7294422929697337],[103.46082338382244,1.7298497966051056]]],[[[103.45823234186965,1.7298497966051056],[103.45771413347909,1.729771111712994],[103.45771413347909,1.7298497966051056],[103.45823234186965,1.7298497966051056]]],[[[103.4628962173847,1.7298497966051056],[103.46305563350916,1.7298497966051056],[103.4629825,1.729759298072395],[103.4628962173847,1.7298497966051056]]],[[[103.4561595083074,1.7299170402198785],[103.45591184309696,1.7302419021324171],[103.4561595083074,1.7302419021324171],[103.4561595083074,1.7299170402198785]]],[[[103.45408667474514,1.7326359731212004],[103.45381933464633,1.7329866430335232],[103.45408667474514,1.7329866430335232],[103.45408667474514,1.7326359731212004]]],[[[103.45356846635458,1.7333157069398168],[103.45352040486767,1.7333787491924575],[103.45356846635458,1.7333787491924575],[103.45356846635458,1.7333157069398168]]],[[[103.46030517543188,1.7389752010127497],[103.45978696704132,1.7388682437242053],[103.45978696704132,1.7389913471948923],[103.46030517543188,1.7389752010127497]]],[[[103.4622791,1.7388682437242053],[103.461341592213,1.7389429086488681],[103.4622791,1.7389136980622866],[103.4622791,1.7388682437242053]]],[[[103.44734996566787,1.7413995803700484],[103.44718842273937,1.7416129968144087],[103.44734996566787,1.7416129968144087],[103.44734996566787,1.7413995803700484]]],[[[103.46963292646197,1.7510236084162096],[103.4695807171551,1.7510236084162096],[103.46963292646197,1.7514900462848337],[103.46963292646197,1.7510236084162096]]],[[[103.47533321875814,1.7572973750175827],[103.4752718,1.7572513980419966],[103.47524141283009,1.7572973750175827],[103.47533321875814,1.7572973750175827]]],[[[103.47481501036758,1.7579425387230068],[103.47472310361583,1.7580815972835306],[103.47481501036758,1.7580815972835306],[103.47481501036758,1.7579425387230068]]],[[[103.47170576002422,1.7608263777404127],[103.47170576002422,1.7609956366883275],[103.47182292975398,1.7608263777404127],[103.47170576002422,1.7608263777404127]]],[[[103.47118755163365,1.763069535273912],[103.47110553521382,1.763179049834457],[103.47118755163365,1.763179049834457],[103.47118755163365,1.763069535273912]]],[[[103.48621559495992,1.7431814288982908],[103.48621559495992,1.7433494558283185],[103.48662641020316,1.7431814288982908],[103.48621559495992,1.7431814288982908]]],[[[103.48414276139768,1.7439050978047992],[103.48408734007916,1.743965645417049],[103.48414276139768,1.743965645417049],[103.48414276139768,1.7439050978047992]]],[[[103.48051530266375,1.7443577537956954],[103.4806428403229,1.7443577537956954],[103.48051530266375,1.7441949143195652],[103.48051530266375,1.7443577537956954]]],[[[103.48258813622598,1.7463117371332428],[103.4825832615039,1.7463182968823148],[103.48258813622598,1.7463182968823148],[103.48258813622598,1.7463117371332428]]],[[[103.47999709427319,1.7486709512140775],[103.47999709427319,1.7488732441273604],[103.48013456975877,1.7486709512140775],[103.47999709427319,1.7486709512140775]]],[[[103.47947888588263,1.7494551699623342],[103.47947888588263,1.7496357794317263],[103.47960162554831,1.7494551699623342],[103.47947888588263,1.7494551699623342]]],[[[103.47896067749207,1.750239389029664],[103.47896067749207,1.750353268004304],[103.47906462560665,1.750239389029664],[103.47896067749207,1.750239389029664]]],[[[103.47818367273449,1.7529841582800885],[103.4784424691015,1.7525920481475248],[103.47838385077412,1.7525920481475248],[103.47818367273449,1.7529841582800885]]],[[[103.47740605232039,1.7525920481475248],[103.47740605232039,1.7527509106529138],[103.4775206745234,1.7525920481475248],[103.47740605232039,1.7525920481475248]]],[[[103.47740605232039,1.7541031819880972],[103.47735854742807,1.7541604891574278],[103.47740605232039,1.7541604891574278],[103.47740605232039,1.7541031819880972]]],[[[103.48414276139768,1.7541604891574278],[103.4841340323194,1.7541604891574278],[103.48414276139768,1.7541656551512035],[103.48414276139768,1.7541604891574278]]],[[[103.48310634461656,1.7541604891574278],[103.48310634461656,1.7542904316000747],[103.48321616895426,1.7541604891574278],[103.48310634461656,1.7541604891574278]]],[[[103.4758514271487,1.7549055699752307],[103.47610610145016,1.754552599609817],[103.4758514271487,1.754552599609817],[103.4758514271487,1.7549055699752307]]],[[[103.47688784392983,1.7553368207546178],[103.47688784392983,1.7547725349183432],[103.47652817426295,1.7553368207546178],[103.47688784392983,1.7553368207546178]]],[[[103.47636963553926,1.7541604891574278],[103.47636963553926,1.7541873499328102],[103.4763890160648,1.7541604891574278],[103.47636963553926,1.7541604891574278]]],[[[103.47636963553926,1.7557289314470645],[103.47636963553926,1.7555855522531036],[103.47627824722605,1.7557289314470645],[103.47636963553926,1.7557289314470645]]],[[[103.4758514271487,1.7563788325389273],[103.4757622007899,1.756513153072142],[103.4758514271487,1.756513153072142],[103.4758514271487,1.7563788325389273]]],[[[103.4810335110543,1.7580815972835306],[103.4810335110543,1.7581298555975964],[103.48108199127633,1.7580815972835306],[103.4810335110543,1.7580815972835306]]]]},"properties":{"place_id":"1d4dda5c-cc5b-54db-a7b3-0271f3828ff5","habitat":"open_grassland","habitat_label":"Open grassland or shrubland","resolution_m":50}},{"type":"Feature","geometry":{"type":"MultiPolygon","coordinates":[[[[103.46082338382244,1.7294576911566666],[103.4606054,1.7291870980730204],[103.46008478975712,1.7294576911566666],[103.46082338382244,1.7294576911566666]]],[[[103.45719592508851,1.7297302473526952],[103.45823234186965,1.7298497966051056],[103.45823234186965,1.7297251701552645],[103.45719592508851,1.7297302473526952]]],[[[103.4528882577457,1.7341629617474443],[103.45256425284406,1.7345550681435324],[103.45305025796404,1.7345550681435324],[103.4528882577457,1.7341629617474443]]],[[[103.45253204957348,1.7349471746187084],[103.45253204957348,1.734594040114979],[103.45224024794244,1.7349471746187084],[103.45253204957348,1.7349471746187084]]]]},"properties":{"place_id":"1d4dda5c-cc5b-54db-a7b3-0271f3828ff5","habitat":"disturbed_built_edge","habitat_label":"Disturbed, bare or built edge","resolution_m":50}},{"type":"Feature","geometry":{"type":"Polygon","coordinates":[[[103.46859650968085,1.7290655857870818],[103.46859650968085,1.7286734804963333],[103.46855747306209,1.7286734804963333],[103.46812857026679,1.7290655857870818],[103.46859650968085,1.7290655857870818]]]},"properties":{"place_id":"1d4dda5c-cc5b-54db-a7b3-0271f3828ff5","habitat":"permanent_water","habitat_label":"Permanent water","resolution_m":50}},{"type":"Feature","geometry":{"type":"Polygon","coordinates":[[[103.46807830129029,1.7294576911566666],[103.46859650968085,1.7294576911566666],[103.46859650968085,1.7290655857870818],[103.46812857026679,1.7290655857870818],[103.46807830129029,1.7294576911566666]]]},"properties":{"place_id":"1d4dda5c-cc5b-54db-a7b3-0271f3828ff5","habitat":"seasonal_water_wetland","habitat_label":"Seasonal water or wetland","resolution_m":50}},{"type":"Feature","geometry":{"type":"MultiPolygon","coordinates":[[[[103.46030517543188,1.7293431431958317],[103.46008478975712,1.7294576911566666],[103.46030517543188,1.7294576911566666],[103.46030517543188,1.7293431431958317]]],[[[103.46807830129029,1.7302419021324171],[103.46963292646197,1.7292294996882407],[103.4689403,1.7283234980740023],[103.46859650968085,1.7294576911566666],[103.46807830129029,1.7294576911566666],[103.46807830129029,1.7291115419665932],[103.46756009289973,1.7298497966051056],[103.46807830129029,1.7298497966051056],[103.46807830129029,1.7302419021324171]]],[[[103.4628962173847,1.7298497966051056],[103.46305563350916,1.7298497966051056],[103.4629825,1.729759298072395],[103.4628962173847,1.7298497966051056]]]]},"properties":{"place_id":"1d4dda5c-cc5b-54db-a7b3-0271f3828ff5","habitat":"water_edge","habitat_label":"Water edge","resolution_m":50}}]}