{"type":"FeatureCollection","metadata":{"schema_version":1,"place_id":"1d5c6c4a-6881-530a-8a67-27e83970c331","place_name":"Alam Damai Recreational Park","place_type":"park","osm_reference":"way/189349946","protection_context":"no protected status confirmed from included OSM tags","resolution_m":50,"raster_coverage":1.0,"interpretation":"Suggested search habitats, not predicted plant locations or probabilities of presence."},"features":[{"type":"Feature","geometry":{"type":"MultiPolygon","coordinates":[[[[101.74088973555169,3.0663292938537863],[101.7419261523328,3.0647593810545226],[101.74244436072337,3.064728959851814],[101.74244436072337,3.064366903205005],[101.74037152716112,3.064127326816215],[101.74037152716112,3.0647593810545226],[101.74088973555169,3.0647593810545226],[101.74037152716112,3.0663292938537863],[101.74088973555169,3.0663292938537863]]],[[[101.74037152716112,3.0678992088958283],[101.74037152716112,3.0686841672582514],[101.7405117,3.0686841672582514],[101.74088973555169,3.0678992088958283],[101.74037152716112,3.0678992088958283]]],[[[101.74037152716112,3.0714315259465708],[101.74037152716112,3.072216486835211],[101.74083438820162,3.072216486835211],[101.74078529999998,3.071770096601578],[101.74037152716112,3.0714315259465708]]]]},"properties":{"place_id":"1d5c6c4a-6881-530a-8a67-27e83970c331","habitat":"forest_interior","habitat_label":"Forest interior","resolution_m":50}},{"type":"Feature","geometry":{"type":"MultiPolygon","coordinates":[[[[101.74088973555169,3.064366903205005],[101.74244436072337,3.064366903205005],[101.74244436072337,3.064728959851814],[101.74269499999998,3.0643456966096143],[101.74221219999998,3.0640403966099448],[101.74088973555169,3.064366903205005]]],[[[101.7419261523328,3.0647593810545226],[101.7420137,3.0651009966088005],[101.74240914587172,3.0647593810545226],[101.7419261523328,3.0647593810545226]]],[[[101.74140794394224,3.065544337173879],[101.74140794394224,3.0655450026458686],[101.74140862587781,3.065544337173879],[101.74140794394224,3.065544337173879]]],[[[101.74037152716112,3.072216486835211],[101.74037152716112,3.0678992088958283],[101.74088973555169,3.0678992088958283],[101.74088973555169,3.068268955810216],[101.74113929999999,3.0680793966055715],[101.74108545849646,3.065936815443755],[101.74037152716112,3.0663292938537863],[101.74088973555169,3.0647593810545226],[101.74037152716112,3.0647593810545226],[101.74016649999997,3.064030496609966],[101.74092019999999,3.0634706966105485],[101.7403776,3.0634888966105396],[101.73995909999998,3.0640885966098987],[101.74028989999998,3.065330296608535],[101.7399144,3.066165896607619],[101.7393476,3.066199096607607],[101.7393476,3.066643796607138],[101.73829869359888,3.0674113309024826],[101.73968899999998,3.0677675966059046],[101.7400448,3.0722935966010114],[101.74069489999997,3.0723188966009607],[101.74037152716112,3.072216486835211]]],[[[101.74088973555169,3.072175851794275],[101.7409462,3.07213439660119],[101.74088973555169,3.072006553215749],[101.74088973555169,3.072175851794275]]]]},"properties":{"place_id":"1d5c6c4a-6881-530a-8a67-27e83970c331","habitat":"forest_edge_opening","habitat_label":"Forest edge or opening","resolution_m":50}},{"type":"Feature","geometry":{"type":"Polygon","coordinates":[[[101.74037152716112,3.0667217724039917],[101.74037152716112,3.0663292938537863],[101.73985331877056,3.0663292938537863],[101.73985331877056,3.0667217724039917],[101.74037152716112,3.0667217724039917]]]},"properties":{"place_id":"1d5c6c4a-6881-530a-8a67-27e83970c331","habitat":"open_grassland","habitat_label":"Open grassland or shrubland","resolution_m":50}},{"type":"Feature","geometry":{"type":"MultiPolygon","coordinates":[[[[101.74140794394224,3.064366903205005],[101.74244436072337,3.064366903205005],[101.74244436072337,3.064728959851814],[101.74269499999998,3.0643456966096143],[101.74221219999998,3.0640403966099448],[101.74140794394224,3.064366903205005]]],[[[101.7419261523328,3.0647593810545226],[101.7420137,3.0651009966088005],[101.74240914587172,3.0647593810545226],[101.7419261523328,3.0647593810545226]]],[[[101.74140794394224,3.065544337173879],[101.74140794394224,3.0655450026458686],[101.74140862587781,3.065544337173879],[101.74140794394224,3.065544337173879]]],[[[101.74037152716112,3.072216486835211],[101.74037152716112,3.0678992088958283],[101.74088973555169,3.0678992088958283],[101.74088973555169,3.068268955810216],[101.74113929999999,3.0680793966055715],[101.74108545849646,3.065936815443755],[101.74037152716112,3.0663292938537863],[101.74088973555169,3.0647593810545226],[101.74037152716112,3.0647593810545226],[101.74016649999997,3.064030496609966],[101.74092019999999,3.0634706966105485],[101.7403776,3.0634888966105396],[101.73995909999998,3.0640885966098987],[101.74028989999998,3.065330296608535],[101.7399144,3.066165896607619],[101.7393476,3.066199096607607],[101.73844099999998,3.067361596606346],[101.73777449999997,3.067436596606271],[101.7377705,3.067694996606005],[101.73968899999998,3.0677675966059046],[101.7400448,3.0722935966010114],[101.74069489999997,3.0723188966009607],[101.74037152716112,3.072216486835211]]],[[[101.74088973555169,3.072175851794275],[101.7409462,3.07213439660119],[101.74088973555169,3.072006553215749],[101.74088973555169,3.072175851794275]]]]},"properties":{"place_id":"1d5c6c4a-6881-530a-8a67-27e83970c331","habitat":"disturbed_built_edge","habitat_label":"Disturbed, bare or built edge","resolution_m":50}}]}