{"type":"FeatureCollection","metadata":{"schema_version":1,"place_id":"1da09dca-0e51-5434-80ed-4e18eace67ac","place_name":"KKHS Shanghai Garden","place_type":"park","osm_reference":"way/235447272","protection_context":"no protected status confirmed from included OSM tags","resolution_m":50,"raster_coverage":1.0,"interpretation":"Suggested search habitats, not predicted plant locations or probabilities of presence."},"features":[{"type":"Feature","geometry":{"type":"Polygon","coordinates":[[[116.07063717570018,5.94658145716024],[116.07098629999999,5.946390093610125],[116.07062250000001,5.946557393609971],[116.07063717570018,5.94658145716024]]]},"properties":{"place_id":"1da09dca-0e51-5434-80ed-4e18eace67ac","habitat":"forest_edge_opening","habitat_label":"Forest edge or opening","resolution_m":50}},{"type":"Feature","geometry":{"type":"Polygon","coordinates":[[[116.07098629999999,5.946390093610125],[116.0708575,5.946829593609685],[116.0711366,5.946706793609804],[116.07098629999999,5.946390093610125]]]},"properties":{"place_id":"1da09dca-0e51-5434-80ed-4e18eace67ac","habitat":"disturbed_built_edge","habitat_label":"Disturbed, bare or built edge","resolution_m":50}}]}