{"type":"FeatureCollection","metadata":{"schema_version":1,"place_id":"1db5bf83-f0f4-55cc-9fdb-72a923570f43","place_name":"Taman Linear Padang Tembak","place_type":"park","osm_reference":"way/262030904","protection_context":"no protected status confirmed from included OSM tags","resolution_m":50,"raster_coverage":1.0,"interpretation":"Suggested search habitats, not predicted plant locations or probabilities of presence."},"features":[{"type":"Feature","geometry":{"type":"Polygon","coordinates":[[[100.2920722,5.409719594146864],[100.2925155,5.410275094146296],[100.292316,5.4096275941469365],[100.2920722,5.409719594146864]]]},"properties":{"place_id":"1db5bf83-f0f4-55cc-9fdb-72a923570f43","habitat":"disturbed_built_edge","habitat_label":"Disturbed, bare or built edge","resolution_m":50}}]}