{"type":"FeatureCollection","metadata":{"schema_version":1,"place_id":"1dbea795-f2e7-5c9a-b7ed-cbe159137552","place_name":"Kluang Lake Park","place_type":"park","osm_reference":"way/542620838","protection_context":"no protected status confirmed from included OSM tags","resolution_m":50,"raster_coverage":1.0,"interpretation":"Suggested search habitats, not predicted plant locations or probabilities of presence."},"features":[{"type":"Feature","geometry":{"type":"Polygon","coordinates":[[[103.31468861768434,2.021991508599087],[103.31676145124659,2.021991508599087],[103.31676145124659,2.0216535397511954],[103.31468861768434,2.02167148694186],[103.31468861768434,2.021991508599087]]]},"properties":{"place_id":"1dbea795-f2e7-5c9a-b7ed-cbe159137552","habitat":"forest_interior","habitat_label":"Forest interior","resolution_m":50}},{"type":"Feature","geometry":{"type":"Polygon","coordinates":[[[103.3177978680277,2.022775847230526],[103.3177978680277,2.022383677868681],[103.31831607641827,2.022383677868681],[103.31818114153711,2.02316801668464],[103.31859049999998,2.0232586977481346],[103.3189653,2.0216528977499113],[103.31763489999999,2.0214276977501457],[103.31676145124659,2.0216535397511954],[103.31676145124659,2.021991508599087],[103.3137403,2.021679697749874],[103.31374569999998,2.022044297749466],[103.3177978680277,2.022775847230526]]]},"properties":{"place_id":"1dbea795-f2e7-5c9a-b7ed-cbe159137552","habitat":"forest_edge_opening","habitat_label":"Forest edge or opening","resolution_m":50}},{"type":"Feature","geometry":{"type":"MultiPolygon","coordinates":[[[[103.31831607641827,2.022383677868681],[103.31831607641827,2.022775847230526],[103.3187031991613,2.022775847230526],[103.31879473301736,2.022383677868681],[103.31831607641827,2.022383677868681]]],[[[103.3177978680277,2.022775847230526],[103.31831607641827,2.02316801668464],[103.31831607641827,2.022775847230526],[103.3177978680277,2.022775847230526]]]]},"properties":{"place_id":"1dbea795-f2e7-5c9a-b7ed-cbe159137552","habitat":"open_grassland","habitat_label":"Open grassland or shrubland","resolution_m":50}},{"type":"Feature","geometry":{"type":"Polygon","coordinates":[[[103.31727965963715,2.0215993394217273],[103.31727965963715,2.022383677868681],[103.31468861768434,2.021991508599087],[103.31468861768434,2.02167148694186],[103.3137403,2.021679697749874],[103.31374569999998,2.022044297749466],[103.31859049999998,2.0232586977481346],[103.3189653,2.0216528977499113],[103.31727965963715,2.0215993394217273]]]},"properties":{"place_id":"1dbea795-f2e7-5c9a-b7ed-cbe159137552","habitat":"disturbed_built_edge","habitat_label":"Disturbed, bare or built edge","resolution_m":50}},{"type":"Feature","geometry":{"type":"Polygon","coordinates":[[[103.31727965963715,2.022383677868681],[103.31727965963715,2.021991508599087],[103.31676145124659,2.021991508599087],[103.31676145124659,2.022383677868681],[103.31727965963715,2.022383677868681]]]},"properties":{"place_id":"1dbea795-f2e7-5c9a-b7ed-cbe159137552","habitat":"permanent_water","habitat_label":"Permanent water","resolution_m":50}},{"type":"Feature","geometry":{"type":"Polygon","coordinates":[[[103.31572503446546,2.0223376394649204],[103.3177978680277,2.022775847230526],[103.31831607641827,2.021991508599087],[103.3177978680277,2.021991508599087],[103.3177978680277,2.0215993394217273],[103.31624324285603,2.021658026548843],[103.31624324285603,2.021991508599087],[103.31572503446546,2.021991508599087],[103.31572503446546,2.0223376394649204]],[[103.31676145124659,2.021991508599087],[103.31727965963715,2.021991508599087],[103.31727965963715,2.022383677868681],[103.31676145124659,2.022383677868681],[103.31676145124659,2.021991508599087]]]},"properties":{"place_id":"1dbea795-f2e7-5c9a-b7ed-cbe159137552","habitat":"water_edge","habitat_label":"Water edge","resolution_m":50}}]}