{"type":"FeatureCollection","metadata":{"schema_version":1,"place_id":"1de112c1-9b18-5b27-89c1-62bd2b288654","place_name":"Peak 1500","place_type":"park","osm_reference":"relation/19336461","protection_context":"no protected status confirmed from included OSM tags","resolution_m":50,"raster_coverage":1.0,"interpretation":"Suggested search habitats, not predicted plant locations or probabilities of presence."},"features":[{"type":"Feature","geometry":{"type":"Polygon","coordinates":[[[101.3748885,4.485684095096493],[101.37444699999999,4.486299995095851],[101.37462129999999,4.4867364950953865],[101.3748885,4.485684095096493]]]},"properties":{"place_id":"1de112c1-9b18-5b27-89c1-62bd2b288654","habitat":"forest_edge_opening","habitat_label":"Forest edge or opening","resolution_m":50}},{"type":"Feature","geometry":{"type":"Polygon","coordinates":[[[101.3745164034253,4.486197718168296],[101.3745164034253,4.485804614411149],[101.37451425579891,4.485804614411149],[101.37435159999997,4.485856995096324],[101.3745164034253,4.486197718168296]]]},"properties":{"place_id":"1de112c1-9b18-5b27-89c1-62bd2b288654","habitat":"open_grassland","habitat_label":"Open grassland or shrubland","resolution_m":50}},{"type":"Feature","geometry":{"type":"Polygon","coordinates":[[[101.3748885,4.485684095096493],[101.37435159999997,4.485856995096324],[101.37462129999999,4.4867364950953865],[101.3748885,4.485684095096493]]]},"properties":{"place_id":"1de112c1-9b18-5b27-89c1-62bd2b288654","habitat":"disturbed_built_edge","habitat_label":"Disturbed, bare or built edge","resolution_m":50}}]}