{"type":"FeatureCollection","metadata":{"schema_version":1,"place_id":"1e090059-f8ce-5d5f-a6ba-1722bdd9ae44","place_name":"Summer Pavilion","place_type":"park","osm_reference":"way/1070321348","protection_context":"no protected status confirmed from included OSM tags","resolution_m":50,"raster_coverage":1.0,"interpretation":"Suggested search habitats, not predicted plant locations or probabilities of presence."},"features":[{"type":"Feature","geometry":{"type":"MultiPolygon","coordinates":[[[[103.75516574966089,1.5953621333684336],[103.75566416653044,1.5953621333684336],[103.755513,1.5950079982216687],[103.75516574966089,1.5950056499698209],[103.75516574966089,1.5953621333684336]]],[[[103.75568395805145,1.595467329358776],[103.75570910000002,1.5954673982211744],[103.75568395805145,1.595408498617676],[103.75568395805145,1.595467329358776]]]]},"properties":{"place_id":"1e090059-f8ce-5d5f-a6ba-1722bdd9ae44","habitat":"forest_edge_opening","habitat_label":"Forest edge or opening","resolution_m":50}},{"type":"Feature","geometry":{"type":"MultiPolygon","coordinates":[[[[103.75412933287977,1.594998641286626],[103.75205649931752,1.5949700779705767],[103.75205649931752,1.5953621333684336],[103.75412933287977,1.5953621333684336],[103.75412933287977,1.594998641286626]]],[[[103.75464754127032,1.5953621333684336],[103.75516574966089,1.5953621333684336],[103.75516574966089,1.5950056499698209],[103.75464754127032,1.5950021456282206],[103.75464754127032,1.5953621333684336]]],[[[103.75568395805145,1.595467329358776],[103.75570910000002,1.5954673982211744],[103.75568395805145,1.595408498617676],[103.75568395805145,1.595467329358776]]],[[[103.75395442277615,1.5957542128935123],[103.75361112448921,1.5961163582604083],[103.75395169999999,1.5961188982204166],[103.75395442277615,1.5957542128935123]]]]},"properties":{"place_id":"1e090059-f8ce-5d5f-a6ba-1722bdd9ae44","habitat":"open_grassland","habitat_label":"Open grassland or shrubland","resolution_m":50}},{"type":"Feature","geometry":{"type":"Polygon","coordinates":[[[103.7533397,1.595459398221157],[103.75333489999998,1.596114298220467],[103.75395169999999,1.5961188982204166],[103.75395660000001,1.5954625982211823],[103.75570910000002,1.5954673982211744],[103.755513,1.5950079982216687],[103.75384200000002,1.5949966982216757],[103.75384639999999,1.5943505982223989],[103.7533682,1.5943472982223879],[103.7533638,1.5949791982216937],[103.7520164,1.5949697982217408],[103.75201299999999,1.5954498982211904],[103.7533397,1.595459398221157]]]},"properties":{"place_id":"1e090059-f8ce-5d5f-a6ba-1722bdd9ae44","habitat":"disturbed_built_edge","habitat_label":"Disturbed, bare or built edge","resolution_m":50}}]}