{"type":"FeatureCollection","metadata":{"schema_version":1,"place_id":"1e1f1328-b963-59e9-a686-6bc0a1bfd478","place_name":"Nipah","place_type":"forest","osm_reference":"way/401449340","protection_context":"no protected status confirmed from included OSM tags","resolution_m":50,"raster_coverage":1.0,"interpretation":"Suggested search habitats, not predicted plant locations or probabilities of presence."},"features":[{"type":"Feature","geometry":{"type":"Polygon","coordinates":[[[118.5579161,5.5067854940489305],[118.55940939999998,5.507736894047974],[118.5592832,5.5070223940486835],[118.558331,5.506595194049105],[118.5579161,5.5067854940489305]]]},"properties":{"place_id":"1e1f1328-b963-59e9-a686-6bc0a1bfd478","habitat":"forest_edge_opening","habitat_label":"Forest edge or opening","resolution_m":50}},{"type":"Feature","geometry":{"type":"MultiPolygon","coordinates":[[[[118.55830663441616,5.50665566870491],[118.5579161,5.5067854940489305],[118.55830663441616,5.50728995454358],[118.55830663441616,5.50665566870491]]],[[[118.5588248428067,5.507443069529001],[118.55846385522969,5.507443069529001],[118.5588248428067,5.507691929234882],[118.5588248428067,5.507443069529001]]],[[[118.55911018110464,5.507836770321917],[118.55917139999997,5.507916394047774],[118.55927654561371,5.507836770321917],[118.55911018110464,5.507836770321917]]]]},"properties":{"place_id":"1e1f1328-b963-59e9-a686-6bc0a1bfd478","habitat":"permanent_water","habitat_label":"Permanent water","resolution_m":50}},{"type":"Feature","geometry":{"type":"Polygon","coordinates":[[[118.55830663441616,5.507049368990003],[118.55810254178614,5.507049368990003],[118.55830663441616,5.50728995454358],[118.55830663441616,5.507049368990003]]]},"properties":{"place_id":"1e1f1328-b963-59e9-a686-6bc0a1bfd478","habitat":"seasonal_water_wetland","habitat_label":"Seasonal water or wetland","resolution_m":50}},{"type":"Feature","geometry":{"type":"Polygon","coordinates":[[[118.55830663441616,5.50728995454358],[118.55940939999998,5.507736894047974],[118.5592832,5.5070223940486835],[118.558331,5.506595194049105],[118.55830663441616,5.50728995454358]]]},"properties":{"place_id":"1e1f1328-b963-59e9-a686-6bc0a1bfd478","habitat":"water_edge","habitat_label":"Water edge","resolution_m":50}},{"type":"Feature","geometry":{"type":"Polygon","coordinates":[[[118.55830663441616,5.507049368990003],[118.55927654561371,5.507836770321917],[118.5592832,5.507049368990003],[118.55830663441616,5.507049368990003]]]},"properties":{"place_id":"1e1f1328-b963-59e9-a686-6bc0a1bfd478","habitat":"mangrove","habitat_label":"Mangrove","resolution_m":50}}]}