{"type":"FeatureCollection","metadata":{"schema_version":1,"place_id":"1e77bc38-dfc6-5510-8699-93485017c05d","place_name":"Playground BSP 8","place_type":"park","osm_reference":"way/467064377","protection_context":"no protected status confirmed from included OSM tags","resolution_m":50,"raster_coverage":1.0,"interpretation":"Suggested search habitats, not predicted plant locations or probabilities of presence."},"features":[{"type":"Feature","geometry":{"type":"Polygon","coordinates":[[[101.77507125674494,2.8861961461670225],[101.77425300000002,2.8863970968027024],[101.77488149999999,2.8866616968024106],[101.77507125674494,2.8861961461670225]]]},"properties":{"place_id":"1e77bc38-dfc6-5510-8699-93485017c05d","habitat":"forest_edge_opening","habitat_label":"Forest edge or opening","resolution_m":50}},{"type":"Feature","geometry":{"type":"Polygon","coordinates":[[[101.77457328093813,2.8861961461670225],[101.77457328093813,2.8865319358344004],[101.77491130936147,2.8865885622768985],[101.77507125674494,2.8861961461670225],[101.77457328093813,2.8861961461670225]]]},"properties":{"place_id":"1e77bc38-dfc6-5510-8699-93485017c05d","habitat":"open_grassland","habitat_label":"Open grassland or shrubland","resolution_m":50}},{"type":"Feature","geometry":{"type":"Polygon","coordinates":[[[101.77488149999999,2.8866616968024106],[101.7750972,2.886132496802974],[101.7744687,2.8858677968032738],[101.77425300000002,2.8863970968027024],[101.77488149999999,2.8866616968024106]]]},"properties":{"place_id":"1e77bc38-dfc6-5510-8699-93485017c05d","habitat":"disturbed_built_edge","habitat_label":"Disturbed, bare or built edge","resolution_m":50}}]}