{"type":"FeatureCollection","metadata":{"schema_version":1,"place_id":"1e7fee02-0e00-553b-9adc-ad840cd2e4e4","place_name":"Taman Permainan · OSM way/562623151","place_type":"park","osm_reference":"way/562623151","protection_context":"no protected status confirmed from included OSM tags","resolution_m":50,"raster_coverage":1.0,"interpretation":"Suggested search habitats, not predicted plant locations or probabilities of presence."},"features":[{"type":"Feature","geometry":{"type":"Polygon","coordinates":[[[101.07482572376675,4.658790419742935],[101.07463184678151,4.6591836159034905],[101.07482463079609,4.6591836159034905],[101.07482572376675,4.658790419742935]]]},"properties":{"place_id":"1e7fee02-0e00-553b-9adc-ad840cd2e4e4","habitat":"open_grassland","habitat_label":"Open grassland or shrubland","resolution_m":50}},{"type":"Feature","geometry":{"type":"Polygon","coordinates":[[[101.0747818,4.658528294916587],[101.0746184,4.65948479491561],[101.0748238,4.6594824949156095],[101.0747818,4.658528294916587]]]},"properties":{"place_id":"1e7fee02-0e00-553b-9adc-ad840cd2e4e4","habitat":"disturbed_built_edge","habitat_label":"Disturbed, bare or built edge","resolution_m":50}}]}