{"type":"FeatureCollection","metadata":{"schema_version":1,"place_id":"1eafdda1-d524-56dc-9f25-c068f03cd3b2","place_name":"Park Sakeh Baru","place_type":"park","osm_reference":"way/730851972","protection_context":"no protected status confirmed from included OSM tags","resolution_m":50,"raster_coverage":1.0,"interpretation":"Suggested search habitats, not predicted plant locations or probabilities of presence."},"features":[{"type":"Feature","geometry":{"type":"MultiPolygon","coordinates":[[[[102.59075149607114,2.0537472154983467],[102.59078609999999,2.0537250977145436],[102.59075149607114,2.0535970631663885],[102.59075149607114,2.0537472154983467]]],[[[102.59027691015356,2.053757519862042],[102.59032090000001,2.053955997714273],[102.5907353745886,2.053757519862042],[102.59027691015356,2.053757519862042]]]]},"properties":{"place_id":"1eafdda1-d524-56dc-9f25-c068f03cd3b2","habitat":"forest_edge_opening","habitat_label":"Forest edge or opening","resolution_m":50}},{"type":"Feature","geometry":{"type":"Polygon","coordinates":[[[102.59023328768058,2.054149696662152],[102.59075149607114,2.0537472154983467],[102.59023328768058,2.053171557805025],[102.5902963,2.053820597714416],[102.59023328768058,2.054149696662152]]]},"properties":{"place_id":"1eafdda1-d524-56dc-9f25-c068f03cd3b2","habitat":"open_grassland","habitat_label":"Open grassland or shrubland","resolution_m":50}},{"type":"Feature","geometry":{"type":"Polygon","coordinates":[[[102.59020070000001,2.0535095977147697],[102.5898711,2.0542115977140036],[102.59015449999998,2.0542639977139596],[102.59078609999999,2.0537250977145436],[102.59067210000002,2.0533032977149968],[102.5898279,2.053100097715227],[102.5897324,2.0534479977148457],[102.59020070000001,2.0535095977147697]]]},"properties":{"place_id":"1eafdda1-d524-56dc-9f25-c068f03cd3b2","habitat":"disturbed_built_edge","habitat_label":"Disturbed, bare or built edge","resolution_m":50}}]}