{"type":"FeatureCollection","metadata":{"schema_version":1,"place_id":"1f373f7f-b1ac-5928-978b-2f17b4aab504","place_name":"Taman Rekreasi Bukit Tinggi","place_type":"park","osm_reference":"way/1085482204","protection_context":"no protected status confirmed from included OSM tags","resolution_m":50,"raster_coverage":1.0,"interpretation":"Suggested search habitats, not predicted plant locations or probabilities of presence."},"features":[{"type":"Feature","geometry":{"type":"MultiPolygon","coordinates":[[[[101.81602995218296,3.3559259988489307],[101.81603559999999,3.355922696294823],[101.81602995218296,3.3559144205126707],[101.81602995218296,3.3559259988489307]]],[[[101.8157185142541,3.3560177964105105],[101.8157589,3.3560844962946543],[101.8158729658658,3.3560177964105105],[101.8157185142541,3.3560177964105105]]]]},"properties":{"place_id":"1f373f7f-b1ac-5928-978b-2f17b4aab504","habitat":"forest_edge_opening","habitat_label":"Forest edge or opening","resolution_m":50}},{"type":"Feature","geometry":{"type":"Polygon","coordinates":[[[101.81556460000002,3.3557635962949846],[101.81603559999999,3.355922696294823],[101.8158151,3.3555995962951712],[101.81556460000002,3.3557635962949846]]]},"properties":{"place_id":"1f373f7f-b1ac-5928-978b-2f17b4aab504","habitat":"disturbed_built_edge","habitat_label":"Disturbed, bare or built edge","resolution_m":50}}]}