{"type":"FeatureCollection","metadata":{"schema_version":1,"place_id":"2054ea9a-475a-5d25-a522-90e857ec31b1","place_name":"Taman Kejiranan Solok Van Praagh","place_type":"park","osm_reference":"way/261379795","protection_context":"no protected status confirmed from included OSM tags","resolution_m":50,"raster_coverage":1.0,"interpretation":"Suggested search habitats, not predicted plant locations or probabilities of presence."},"features":[{"type":"Feature","geometry":{"type":"Polygon","coordinates":[[[100.30975303667614,5.399184923341223],[100.30959816082317,5.399532624400436],[100.30965059999998,5.399542894157139],[100.30975303667614,5.399184923341223]]]},"properties":{"place_id":"2054ea9a-475a-5d25-a522-90e857ec31b1","habitat":"forest_edge_opening","habitat_label":"Forest edge or opening","resolution_m":50}},{"type":"Feature","geometry":{"type":"Polygon","coordinates":[[[100.30959816082317,5.399532624400436],[100.30924739315373,5.399184923341223],[100.3091406,5.399426894157259],[100.30959816082317,5.399532624400436]]]},"properties":{"place_id":"2054ea9a-475a-5d25-a522-90e857ec31b1","habitat":"open_grassland","habitat_label":"Open grassland or shrubland","resolution_m":50}},{"type":"Feature","geometry":{"type":"Polygon","coordinates":[[[100.3091258,5.399271694157391],[100.30968519999999,5.399537894157129],[100.3097948,5.398833894157863],[100.3091258,5.399271694157391]]]},"properties":{"place_id":"2054ea9a-475a-5d25-a522-90e857ec31b1","habitat":"disturbed_built_edge","habitat_label":"Disturbed, bare or built edge","resolution_m":50}}]}