{"type":"FeatureCollection","metadata":{"schema_version":1,"place_id":"211b56b5-2b96-53c7-89df-0e0e609688a2","place_name":"Hiew Piow Park","place_type":"park","osm_reference":"way/863725515","protection_context":"no protected status confirmed from included OSM tags","resolution_m":50,"raster_coverage":1.0,"interpretation":"Suggested search habitats, not predicted plant locations or probabilities of presence."},"features":[{"type":"Feature","geometry":{"type":"Polygon","coordinates":[[[101.84302229999999,2.9591850967236133],[101.84348760000002,2.958790496724052],[101.8431891,2.9584970967243795],[101.84275119999997,2.958786596724055],[101.84302229999999,2.9591850967236133]]]},"properties":{"place_id":"211b56b5-2b96-53c7-89df-0e0e609688a2","habitat":"forest_edge_opening","habitat_label":"Forest edge or opening","resolution_m":50}},{"type":"Feature","geometry":{"type":"Polygon","coordinates":[[[101.84302229999999,2.9591850967236133],[101.84348760000002,2.958790496724052],[101.8431891,2.9584970967243795],[101.84275119999997,2.958786596724055],[101.84302229999999,2.9591850967236133]]]},"properties":{"place_id":"211b56b5-2b96-53c7-89df-0e0e609688a2","habitat":"disturbed_built_edge","habitat_label":"Disturbed, bare or built edge","resolution_m":50}}]}