{"type":"FeatureCollection","metadata":{"schema_version":1,"place_id":"212b3f33-c02e-5ded-834a-94857dd3f206","place_name":"Adventure Park","place_type":"park","osm_reference":"way/1516440930","protection_context":"no protected status confirmed from included OSM tags","resolution_m":50,"raster_coverage":1.0,"interpretation":"Suggested search habitats, not predicted plant locations or probabilities of presence."},"features":[{"type":"Feature","geometry":{"type":"Polygon","coordinates":[[[101.8391051,3.409409696237306],[101.83995049999997,3.4092332962374554],[101.84001889999998,3.4086375962381066],[101.8391051,3.409409696237306]]]},"properties":{"place_id":"212b3f33-c02e-5ded-834a-94857dd3f206","habitat":"forest_interior","habitat_label":"Forest interior","resolution_m":50}}]}