{"type":"FeatureCollection","metadata":{"schema_version":1,"place_id":"2166c746-f0a3-58f0-84b1-1b98ea62ea76","place_name":"Pulau Maidan Dalam","place_type":"wood","osm_reference":"way/1322887999","protection_context":"no protected status confirmed from included OSM tags","resolution_m":50,"raster_coverage":1.0,"interpretation":"Suggested search habitats, not predicted plant locations or probabilities of presence."},"features":[{"type":"Feature","geometry":{"type":"Polygon","coordinates":[[[117.35865421026826,6.5627421271214645],[117.3584622,6.5637616930077645],[117.35865421026826,6.564261888114551],[117.35865421026826,6.5627421271214645]]]},"properties":{"place_id":"2166c746-f0a3-58f0-84b1-1b98ea62ea76","habitat":"forest_edge_opening","habitat_label":"Forest edge or opening","resolution_m":50}},{"type":"Feature","geometry":{"type":"MultiPolygon","coordinates":[[[[117.36279987739273,6.56308276042109],[117.3628879,6.5627783930086805],[117.36279987739273,6.562542577322673],[117.36279987739273,6.56308276042109]]],[[[117.36228166900219,6.563532653922822],[117.36230849999998,6.563841593007656],[117.3625085515238,6.563532653922822],[117.36228166900219,6.563532653922822]]],[[[117.35865421026826,6.563532653922822],[117.3584622,6.5637616930077645],[117.35865421026826,6.564261888114551],[117.35865421026826,6.563532653922822]]],[[[117.35869541335138,6.564321551214998],[117.35886449999998,6.564566393006967],[117.35917241865882,6.564971975513703],[117.35917241865882,6.564321551214998],[117.35869541335138,6.564321551214998]]],[[[117.36176346061163,6.564927085714163],[117.36190079999997,6.564662293006883],[117.36207007057813,6.564321551214998],[117.36176346061163,6.564321551214998],[117.36176346061163,6.564927085714163]]],[[[117.35969062704937,6.565110449724085],[117.35929786569825,6.565110449724085],[117.35969062704937,6.565483592167198],[117.35969062704937,6.565110449724085]]],[[[117.36124525222105,6.56548060798013],[117.36155750000002,6.565339093006247],[117.36166835568902,6.565110449724085],[117.36124525222105,6.565110449724085],[117.36124525222105,6.56548060798013]]],[[[117.36020883543995,6.5655048994350205],[117.35972937223774,6.5655048994350205],[117.36020883543995,6.565768572271126],[117.36020883543995,6.5655048994350205]]],[[[117.3607270438305,6.5655048994350205],[117.3607270438305,6.565815404807713],[117.36120602139998,6.5655048994350205],[117.3607270438305,6.5655048994350205]]]]},"properties":{"place_id":"2166c746-f0a3-58f0-84b1-1b98ea62ea76","habitat":"permanent_water","habitat_label":"Permanent water","resolution_m":50}},{"type":"Feature","geometry":{"type":"MultiPolygon","coordinates":[[[[117.35865421026826,6.563532653922822],[117.35850317035167,6.563927102416804],[117.35865421026826,6.563927102416804],[117.35865421026826,6.563532653922822]]],[[[117.36228166900219,6.563532653922822],[117.36228166900219,6.563895603759112],[117.3625085515238,6.563532653922822],[117.36228166900219,6.563532653922822]]],[[[117.36124525222105,6.565110449724085],[117.36124525222105,6.56548060798013],[117.36166835568902,6.565110449724085],[117.36124525222105,6.565110449724085]]],[[[117.3607270438305,6.5655048994350205],[117.3607270438305,6.565815404807713],[117.36120602139998,6.5655048994350205],[117.3607270438305,6.5655048994350205]]]]},"properties":{"place_id":"2166c746-f0a3-58f0-84b1-1b98ea62ea76","habitat":"seasonal_water_wetland","habitat_label":"Seasonal water or wetland","resolution_m":50}},{"type":"Feature","geometry":{"type":"MultiPolygon","coordinates":[[[[117.35969062704937,6.565483592167198],[117.3607045,6.565829393005738],[117.36166835568902,6.565110449724085],[117.36176346061163,6.564321551214998],[117.36279987739273,6.56308276042109],[117.3625258,6.562272093009179],[117.36176346061163,6.5624180748759215],[117.36176346061163,6.563532653922822],[117.36124525222105,6.563532653922822],[117.3607270438305,6.565110449724085],[117.36020883543995,6.565110449724085],[117.35969062704937,6.563532653922822],[117.35917241865882,6.563532653922822],[117.35865326640534,6.562743757847406],[117.35865421026826,6.564261888114551],[117.35917241865882,6.564321551214998],[117.35969062704937,6.565483592167198]]],[[[117.35969062704937,6.5623493102659385],[117.36020883543995,6.5623493102659385],[117.36020883543995,6.562743757847406],[117.36124525222105,6.562743757847406],[117.36149556698037,6.5623493102659385],[117.36084130000002,6.562040293009421],[117.35969062704937,6.5623493102659385]]]]},"properties":{"place_id":"2166c746-f0a3-58f0-84b1-1b98ea62ea76","habitat":"water_edge","habitat_label":"Water edge","resolution_m":50}},{"type":"Feature","geometry":{"type":"Polygon","coordinates":[[[117.35969062704937,6.565483592167198],[117.3607045,6.565829393005738],[117.36166835568902,6.565110449724085],[117.36176346061163,6.564321551214998],[117.36279987739273,6.56308276042109],[117.3625258,6.562272093009179],[117.35960479999997,6.5621308930093045],[117.35873039999998,6.56261049300886],[117.35865421026826,6.564261888114551],[117.35917241865882,6.564321551214998],[117.35969062704937,6.565483592167198]]]},"properties":{"place_id":"2166c746-f0a3-58f0-84b1-1b98ea62ea76","habitat":"mangrove","habitat_label":"Mangrove","resolution_m":50}}]}