{"type":"FeatureCollection","metadata":{"schema_version":1,"place_id":"21d10f5e-14a1-50db-b6bd-ae55f07e601e","place_name":"Urban Park with Greek Architecture","place_type":"park","osm_reference":"way/745723199","protection_context":"no protected status confirmed from included OSM tags","resolution_m":50,"raster_coverage":1.0,"interpretation":"Suggested search habitats, not predicted plant locations or probabilities of presence."},"features":[{"type":"Feature","geometry":{"type":"Polygon","coordinates":[[[101.80731669999999,2.82623849686814],[101.8064119,2.8267440968675874],[101.8066448,2.826960396867348],[101.80731669999999,2.82623849686814]]]},"properties":{"place_id":"21d10f5e-14a1-50db-b6bd-ae55f07e601e","habitat":"forest_edge_opening","habitat_label":"Forest edge or opening","resolution_m":50}},{"type":"Feature","geometry":{"type":"Polygon","coordinates":[[[101.8066448,2.826960396867348],[101.80731669999999,2.82623849686814],[101.80709229999998,2.826013396868347],[101.8064119,2.8267440968675874],[101.8066448,2.826960396867348]]]},"properties":{"place_id":"21d10f5e-14a1-50db-b6bd-ae55f07e601e","habitat":"disturbed_built_edge","habitat_label":"Disturbed, bare or built edge","resolution_m":50}}]}