{"type":"FeatureCollection","metadata":{"schema_version":1,"place_id":"22344125-4fc0-5581-897c-646a64f3a2af","place_name":"Dataran Bandar Sibu Phase 2","place_type":"park","osm_reference":"way/402322777","protection_context":"no protected status confirmed from included OSM tags","resolution_m":50,"raster_coverage":1.0,"interpretation":"Suggested search habitats, not predicted plant locations or probabilities of presence."},"features":[{"type":"Feature","geometry":{"type":"Polygon","coordinates":[[[111.82367039069005,2.2919526592495925],[111.82263397390894,2.2918267379680914],[111.82211576551839,2.2924786791160847],[111.82367039069005,2.2919526592495925]]]},"properties":{"place_id":"22344125-4fc0-5581-897c-646a64f3a2af","habitat":"forest_edge_opening","habitat_label":"Forest edge or opening","resolution_m":50}},{"type":"Feature","geometry":{"type":"MultiPolygon","coordinates":[[[[111.82263397390894,2.2918267379680914],[111.82226019999997,2.2915329974528595],[111.82211576551839,2.2918267379680914],[111.82263397390894,2.2918267379680914]]],[[[111.82072199999999,2.2928949974513446],[111.82211576551839,2.2924786791160847],[111.82211576551839,2.2918267379680914],[111.82081279999998,2.2919739974523674],[111.82072199999999,2.2928949974513446]]]]},"properties":{"place_id":"22344125-4fc0-5581-897c-646a64f3a2af","habitat":"open_grassland","habitat_label":"Open grassland or shrubland","resolution_m":50}},{"type":"Feature","geometry":{"type":"Polygon","coordinates":[[[111.82159755712782,2.292218974950506],[111.82159755712782,2.2926112120375306],[111.82074997796961,2.2926112120375306],[111.82072199999999,2.2928949974513446],[111.8237808,2.2919150974524256],[111.82345859999998,2.2911731974532503],[111.82081279999998,2.2919739974523674],[111.82159755712782,2.292218974950506]]]},"properties":{"place_id":"22344125-4fc0-5581-897c-646a64f3a2af","habitat":"disturbed_built_edge","habitat_label":"Disturbed, bare or built edge","resolution_m":50}},{"type":"Feature","geometry":{"type":"Polygon","coordinates":[[[111.82159755712782,2.2926530856058855],[111.82107934873726,2.2926112120375306],[111.82107934873726,2.2928274921163734],[111.82159755712782,2.2926530856058855]]]},"properties":{"place_id":"22344125-4fc0-5581-897c-646a64f3a2af","habitat":"permanent_water","habitat_label":"Permanent water","resolution_m":50}},{"type":"Feature","geometry":{"type":"Polygon","coordinates":[[[111.82159755712782,2.291885855821976],[111.82072199999999,2.2928949974513446],[111.82211576551839,2.2924786791160847],[111.82159755712782,2.291885855821976]]]},"properties":{"place_id":"22344125-4fc0-5581-897c-646a64f3a2af","habitat":"water_edge","habitat_label":"Water edge","resolution_m":50}}]}