{"type":"FeatureCollection","metadata":{"schema_version":1,"place_id":"22a51c45-6f94-5e1e-b88d-a99beae67762","place_name":"Pulau Panjang","place_type":"wood","osm_reference":"way/724296726","protection_context":"no protected status confirmed from included OSM tags","resolution_m":50,"raster_coverage":1.0,"interpretation":"Suggested search habitats, not predicted plant locations or probabilities of presence."},"features":[{"type":"Feature","geometry":{"type":"MultiPolygon","coordinates":[[[[103.11880584605242,5.329909608901771],[103.11876210000001,5.329977694227562],[103.11880584605242,5.33013396899656],[103.11880584605242,5.329909608901771]]],[[[103.11886342978464,5.3303031970620625],[103.1190598,5.330690694226847],[103.11932405444297,5.330988194362847],[103.11932405444297,5.3303031970620625],[103.11886342978464,5.3303031970620625]]],[[[103.11984226283354,5.33148396301638],[103.12025339999998,5.332389294225111],[103.1203604712241,5.332545758964485],[103.1203604712241,5.33148396301638],[103.11984226283354,5.33148396301638]]]]},"properties":{"place_id":"22a51c45-6f94-5e1e-b88d-a99beae67762","habitat":"forest_interior","habitat_label":"Forest interior","resolution_m":50}},{"type":"Feature","geometry":{"type":"Polygon","coordinates":[[[103.11984226283354,5.33148396301638],[103.1203604712241,5.33148396301638],[103.1203604712241,5.332545758964485],[103.12087867961466,5.33288314323944],[103.1206959,5.331932594225583],[103.1197652,5.330380994227183],[103.11876739999998,5.329558394227997],[103.11984226283354,5.33148396301638]]]},"properties":{"place_id":"22a51c45-6f94-5e1e-b88d-a99beae67762","habitat":"forest_edge_opening","habitat_label":"Forest edge or opening","resolution_m":50}},{"type":"Feature","geometry":{"type":"MultiPolygon","coordinates":[[[[103.11984226283354,5.33148396301638],[103.12066993482132,5.33187755215903],[103.11970719271419,5.3303031970620625],[103.11932405444297,5.3303031970620625],[103.11984226283354,5.33148396301638]]],[[[103.12087867961466,5.33288314323944],[103.121042,5.332739094224773],[103.12087867961466,5.332358842619387],[103.12087867961466,5.33288314323944]]]]},"properties":{"place_id":"22a51c45-6f94-5e1e-b88d-a99beae67762","habitat":"disturbed_built_edge","habitat_label":"Disturbed, bare or built edge","resolution_m":50}},{"type":"Feature","geometry":{"type":"MultiPolygon","coordinates":[[[[103.11880584605242,5.329909608901771],[103.11927508540252,5.329909608901771],[103.11885059999999,5.329553094228001],[103.11880584605242,5.329555945140519],[103.11880584605242,5.329909608901771]]],[[[103.1203604712241,5.33148396301638],[103.12045724269092,5.33148396301638],[103.1203604712241,5.331329783963183],[103.1203604712241,5.33148396301638]]],[[[103.12087867961466,5.332358842619387],[103.12046740484426,5.332664731181255],[103.12098029999999,5.33285659422466],[103.12087867961466,5.332358842619387]]]]},"properties":{"place_id":"22a51c45-6f94-5e1e-b88d-a99beae67762","habitat":"permanent_water","habitat_label":"Permanent water","resolution_m":50}},{"type":"Feature","geometry":{"type":"Polygon","coordinates":[[[103.11880584605242,5.329909608901771],[103.11927508540252,5.329909608901771],[103.11885059999999,5.329553094228001],[103.11880584605242,5.329555945140519],[103.11880584605242,5.329909608901771]]]},"properties":{"place_id":"22a51c45-6f94-5e1e-b88d-a99beae67762","habitat":"seasonal_water_wetland","habitat_label":"Seasonal water or wetland","resolution_m":50}},{"type":"Feature","geometry":{"type":"Polygon","coordinates":[[[103.1203604712241,5.33187755215903],[103.1203365,5.332517394224997],[103.12087867961466,5.332664731181255],[103.1197652,5.330380994227183],[103.11876739999998,5.329558394227997],[103.1190598,5.330690694226847],[103.1203604712241,5.33187755215903]]]},"properties":{"place_id":"22a51c45-6f94-5e1e-b88d-a99beae67762","habitat":"water_edge","habitat_label":"Water edge","resolution_m":50}}]}