{"type":"FeatureCollection","metadata":{"schema_version":1,"place_id":"22affe14-c4de-5dc4-91ae-061075b4bd05","place_name":"Playground at Pegoh · OSM way/489733896","place_type":"park","osm_reference":"way/489733896","protection_context":"no protected status confirmed from included OSM tags","resolution_m":50,"raster_coverage":1.0,"interpretation":"Suggested search habitats, not predicted plant locations or probabilities of presence."},"features":[{"type":"Feature","geometry":{"type":"Polygon","coordinates":[[[101.078292,4.559516095019542],[101.07913762080574,4.5585323342827495],[101.0781114,4.558678395020397],[101.078292,4.559516095019542]]]},"properties":{"place_id":"22affe14-c4de-5dc4-91ae-061075b4bd05","habitat":"forest_edge_opening","habitat_label":"Forest edge or opening","resolution_m":50}},{"type":"Feature","geometry":{"type":"Polygon","coordinates":[[[101.07861941241518,4.558925476458188],[101.07913762080574,4.558925476458188],[101.07913762080574,4.5585323342827495],[101.07861941241518,4.558577086765986],[101.07861941241518,4.558925476458188]]]},"properties":{"place_id":"22affe14-c4de-5dc4-91ae-061075b4bd05","habitat":"open_grassland","habitat_label":"Open grassland or shrubland","resolution_m":50}},{"type":"Feature","geometry":{"type":"Polygon","coordinates":[[[101.078292,4.559516095019542],[101.07945829999998,4.558686195020374],[101.07923449999998,4.558376995020713],[101.0781114,4.558678395020397],[101.078292,4.559516095019542]]]},"properties":{"place_id":"22affe14-c4de-5dc4-91ae-061075b4bd05","habitat":"disturbed_built_edge","habitat_label":"Disturbed, bare or built edge","resolution_m":50}}]}