{"type":"FeatureCollection","metadata":{"schema_version":1,"place_id":"22bbaa7b-6b03-5226-909b-6b1b80013f7e","place_name":"Taman Kejiranan Jalan Nibong","place_type":"park","osm_reference":"way/1018472479","protection_context":"no protected status confirmed from included OSM tags","resolution_m":50,"raster_coverage":1.0,"interpretation":"Suggested search habitats, not predicted plant locations or probabilities of presence."},"features":[{"type":"Feature","geometry":{"type":"Polygon","coordinates":[[[100.29042445037244,5.324792985155685],[100.29042445037244,5.325186570125358],[100.29093694003521,5.325186570125358],[100.2906273,5.324478794233148],[100.28991340695862,5.324792985155685],[100.29042445037244,5.324792985155685]]]},"properties":{"place_id":"22bbaa7b-6b03-5226-909b-6b1b80013f7e","habitat":"forest_edge_opening","habitat_label":"Forest edge or opening","resolution_m":50}},{"type":"Feature","geometry":{"type":"Polygon","coordinates":[[[100.28990624198187,5.324796138528925],[100.29042445037244,5.3255801553403534],[100.290942658763,5.3255801553403534],[100.29076475328104,5.324792985155685],[100.28990624198187,5.324796138528925]]]},"properties":{"place_id":"22bbaa7b-6b03-5226-909b-6b1b80013f7e","habitat":"open_grassland","habitat_label":"Open grassland or shrubland","resolution_m":50}},{"type":"Feature","geometry":{"type":"Polygon","coordinates":[[[100.2902772,5.325752594231857],[100.2911105,5.325583294232023],[100.2906273,5.324478794233148],[100.2898584,5.3248171942328195],[100.2902772,5.325752594231857]]]},"properties":{"place_id":"22bbaa7b-6b03-5226-909b-6b1b80013f7e","habitat":"disturbed_built_edge","habitat_label":"Disturbed, bare or built edge","resolution_m":50}}]}