{"type":"FeatureCollection","metadata":{"schema_version":1,"place_id":"235151c3-b2d1-5ebe-9a9e-f25ed8862c1d","place_name":"TTDI Grove Lake Park","place_type":"park","osm_reference":"way/586000913","protection_context":"no protected status confirmed from included OSM tags","resolution_m":50,"raster_coverage":1.0,"interpretation":"Suggested search habitats, not predicted plant locations or probabilities of presence."},"features":[{"type":"Feature","geometry":{"type":"Polygon","coordinates":[[[101.8094,2.9980704966814433],[101.8097744,2.9976315966819396],[101.8085686,2.9961609966835137],[101.80813489999998,2.996527896683131],[101.8094,2.9980704966814433]]]},"properties":{"place_id":"235151c3-b2d1-5ebe-9a9e-f25ed8862c1d","habitat":"forest_edge_opening","habitat_label":"Forest edge or opening","resolution_m":50}},{"type":"Feature","geometry":{"type":"Polygon","coordinates":[[[101.8094,2.9980704966814433],[101.8097744,2.9976315966819396],[101.8085686,2.9961609966835137],[101.80813489999998,2.996527896683131],[101.8094,2.9980704966814433]]]},"properties":{"place_id":"235151c3-b2d1-5ebe-9a9e-f25ed8862c1d","habitat":"disturbed_built_edge","habitat_label":"Disturbed, bare or built edge","resolution_m":50}}]}