{"type":"FeatureCollection","metadata":{"schema_version":1,"place_id":"255b3bc9-7bfd-5dee-8f8b-58048f8d44e5","place_name":"Pulau Kuala Leban","place_type":"wood","osm_reference":"way/724553379","protection_context":"no protected status confirmed from included OSM tags","resolution_m":50,"raster_coverage":1.0,"interpretation":"Suggested search habitats, not predicted plant locations or probabilities of presence."},"features":[{"type":"Feature","geometry":{"type":"MultiPolygon","coordinates":[[[[102.70579375877558,5.004494522140452],[102.70579375877558,5.004887913563116],[102.70631196716614,5.004887913563116],[102.70631196716614,5.004494522140452],[102.70579375877558,5.004494522140452]]],[[[102.70475734199448,5.0050298370721364],[102.70527555038502,5.005281305216036],[102.70527555038502,5.004916961281078],[102.70475734199448,5.0050298370721364]]],[[[102.70631196716614,5.005281305216036],[102.70683017555672,5.005281305216036],[102.70683017555672,5.005159846124842],[102.70631196716614,5.004887913563116],[102.70631196716614,5.005281305216036]]],[[[102.70683017555672,5.006068089212711],[102.70786659233782,5.006461481556506],[102.70770141299496,5.005281305216036],[102.70683017555672,5.005281305216036],[102.70683017555672,5.006068089212711]]],[[[102.70993942590007,5.012362394363161],[102.71045763429062,5.012362394363161],[102.71045763429062,5.011182207652927],[102.7109758426812,5.011182207652927],[102.7109758426812,5.010002023017643],[102.71149405107175,5.010002023017643],[102.71149405107175,5.008428446730769],[102.71201010708003,5.008428446730769],[102.71201225946233,5.00803505323515],[102.71149405107175,5.00803505323515],[102.71149405107175,5.007641659969931],[102.71045763429062,5.007641659969931],[102.71045763429062,5.00803505323515],[102.70993942590007,5.00803505323515],[102.70943049999997,5.008638394555317],[102.70917317959815,5.00803505323515],[102.70786659233782,5.007641659969931],[102.7078178416588,5.006854874130626],[102.70734838394728,5.006854874130626],[102.70734838394728,5.008821840456811],[102.70631196716614,5.009215234413292],[102.70579375877558,5.011182207652927],[102.70631196716614,5.011182207652927],[102.70631196716614,5.011575602992431],[102.70734838394728,5.011575602992431],[102.70739646463221,5.011968998562502],[102.70786659233782,5.011968998562502],[102.70734838394728,5.012755790394426],[102.70838480072838,5.012755790394426],[102.70838480072838,5.013149186656315],[102.70981289384989,5.012755790394426],[102.70993942590007,5.012362394363161]]]]},"properties":{"place_id":"255b3bc9-7bfd-5dee-8f8b-58048f8d44e5","habitat":"forest_interior","habitat_label":"Forest interior","resolution_m":50}},{"type":"Feature","geometry":{"type":"MultiPolygon","coordinates":[[[[102.70683017555672,5.005281305216036],[102.70770141299496,5.005281305216036],[102.70730049999999,5.005056294558956],[102.70683017555672,5.005281305216036]]],[[[102.70527555038502,5.005281305216036],[102.70475734199448,5.0050298370721364],[102.70432559999998,5.005272394558742],[102.70504069999998,5.006618094557377],[102.70561609999997,5.006020894557971],[102.7071503,5.00632479455766],[102.70691338532703,5.008821840456811],[102.70734838394728,5.008821840456811],[102.70734838394728,5.006854874130626],[102.7078178416588,5.006854874130626],[102.70841360000001,5.005546994558458],[102.70786659233782,5.005471214679831],[102.70786659233782,5.006461481556506],[102.70734838394728,5.006461481556506],[102.70734838394728,5.006068089212711],[102.70683017555672,5.006068089212711],[102.70683017555672,5.005281305216036],[102.70631196716614,5.005281305216036],[102.70640929999999,5.004435794559611],[102.70616149999998,5.004418594559644],[102.70573269999997,5.004481794559552],[102.7054779,5.004572694559472],[102.70527555038502,5.005281305216036]],[[102.70579375877558,5.004887913563116],[102.70579375877558,5.004494522140452],[102.70631196716614,5.004494522140452],[102.70631196716614,5.004887913563116],[102.70579375877558,5.004887913563116]]],[[[102.70786659233782,5.007641659969931],[102.70838480072838,5.007641659969931],[102.70838480072838,5.00803505323515],[102.70917317959815,5.00803505323515],[102.7085175,5.007925194556048],[102.7084612,5.00746579455648],[102.70786659233782,5.006912968332731],[102.70786659233782,5.007641659969931]]],[[[102.70993942590007,5.008428446730769],[102.71045763429062,5.007641659969931],[102.71149405107175,5.007641659969931],[102.71149405107175,5.00803505323515],[102.71201225946233,5.00803505323515],[102.71201225946233,5.0084262929342716],[102.7121808,5.008050894555885],[102.71095939999998,5.007250294556713],[102.70995449999998,5.007475094556477],[102.70993942590007,5.008428446730769]]],[[[102.71149405107175,5.008428446730769],[102.71149405107175,5.010002023017643],[102.7109758426812,5.010002023017643],[102.7109758426812,5.011182207652927],[102.71045763429062,5.011182207652927],[102.71045763429062,5.012362394363161],[102.70993942590007,5.012362394363161],[102.7103019,5.012544494551269],[102.7109154,5.01202679455181],[102.71197959999999,5.009376894554519],[102.71201010708003,5.008428446730769],[102.71149405107175,5.008428446730769]]],[[[102.70838480072838,5.013149186656315],[102.70838480072838,5.012755790394426],[102.70734838394728,5.012755790394426],[102.70734838394728,5.012362394363161],[102.70786659233782,5.012362394363161],[102.70786659233782,5.011968998562502],[102.70739646463221,5.011968998562502],[102.70704839999999,5.012743594551078],[102.70784229999998,5.013327394550457],[102.70841360000001,5.013149694550661],[102.70890239999999,5.013535794550286],[102.70981289384989,5.012755790394426],[102.70838480072838,5.013149186656315]]],[[[102.70734838394728,5.011575602992431],[102.70631196716614,5.011575602992431],[102.70631196716614,5.011182207652927],[102.70579375877558,5.011182207652927],[102.70579375877558,5.010002023017643],[102.70631196716614,5.010002023017643],[102.70631196716614,5.009215234413292],[102.70683017555672,5.009215234413292],[102.7060338,5.008777694555141],[102.70505749999998,5.010945994552937],[102.7062625,5.011768294552075],[102.70702219999998,5.011591294552282],[102.70734838394728,5.011906268206355],[102.70734838394728,5.011575602992431]]]]},"properties":{"place_id":"255b3bc9-7bfd-5dee-8f8b-58048f8d44e5","habitat":"forest_edge_opening","habitat_label":"Forest edge or opening","resolution_m":50}},{"type":"Feature","geometry":{"type":"Polygon","coordinates":[[[102.70579375877558,5.006068089212711],[102.70579375877558,5.005674697099228],[102.70631196716614,5.005674697099228],[102.70631196716614,5.005281305216036],[102.70527555038502,5.005281305216036],[102.70527555038502,5.006068089212711],[102.70579375877558,5.006068089212711]]]},"properties":{"place_id":"255b3bc9-7bfd-5dee-8f8b-58048f8d44e5","habitat":"open_grassland","habitat_label":"Open grassland or shrubland","resolution_m":50}},{"type":"Feature","geometry":{"type":"MultiPolygon","coordinates":[[[[102.70579375877558,5.004494522140452],[102.70579375877558,5.004472795224736],[102.70568461450004,5.004494522140452],[102.70579375877558,5.004494522140452]]],[[[102.70631196716614,5.004405073002071],[102.70644490208781,5.004494522140452],[102.70644389999997,5.004479194559541],[102.70631196716614,5.004405073002071]]],[[[102.70475734199448,5.005674697099228],[102.70466865504818,5.005674697099228],[102.70475734199448,5.0058127052336205],[102.70475734199448,5.005674697099228]]],[[[102.70683017555672,5.006068089212711],[102.70682435392393,5.006068089212711],[102.70683017555672,5.006071899478287],[102.70683017555672,5.006068089212711]]],[[[102.70630944709796,5.006068089212711],[102.7060878,5.006170894557822],[102.70613439999998,5.006213994557775],[102.70630944709796,5.006068089212711]]],[[[102.70574327458556,5.006068089212711],[102.7058008,5.006090994557908],[102.70586050623595,5.006068089212711],[102.70574327458556,5.006068089212711]]],[[[102.70527555038502,5.006068089212711],[102.70527555038502,5.006443286583947],[102.70550686030886,5.006068089212711],[102.70527555038502,5.006068089212711]]],[[[102.70483048392883,5.006461481556506],[102.705081,5.006625394557353],[102.70526587642152,5.006461481556506],[102.70483048392883,5.006461481556506]]],[[[102.70629067753069,5.008821840456811],[102.7060734,5.008771694555166],[102.7059549015431,5.008821840456811],[102.70629067753069,5.008821840456811]]],[[[102.70579375877558,5.010395417665552],[102.70579375877558,5.009905826592356],[102.70562764435107,5.010395417665552],[102.70579375877558,5.010395417665552]]],[[[102.70527555038502,5.010745384906932],[102.70504809999998,5.010902594552951],[102.70527555038502,5.011153141344358],[102.70527555038502,5.010745384906932]]],[[[102.70683017555672,5.011575602992431],[102.70580483054327,5.011575602992431],[102.7063724,5.011781694552087],[102.70683017555672,5.011575602992431]]],[[[102.70734838394728,5.012362394363161],[102.70734838394728,5.0122362768042255],[102.70730722203302,5.012362394363161],[102.70734838394728,5.012362394363161]]],[[[102.70734838394728,5.012755790394426],[102.7070899,5.012806394551008],[102.70734838394728,5.013009830106521],[102.70734838394728,5.012755790394426]]],[[[102.70838480072838,5.013149186656315],[102.70756512876063,5.013149186656315],[102.7079563,5.0133607945504535],[102.70838480072838,5.013149186656315]]],[[[102.70838480072838,5.00586104301103],[102.7084475,5.005762694558231],[102.70838480072838,5.0055230063610585],[102.70838480072838,5.00586104301103]]],[[[102.70786659233782,5.006461481556506],[102.70786659233782,5.006643346979664],[102.70807606022358,5.006461481556506],[102.70786659233782,5.006461481556506]]],[[[102.7109758426812,5.007248266935098],[102.71101446828386,5.007248266935098],[102.71098419999998,5.007246694556693],[102.7109758426812,5.007248266935098]]],[[[102.70838480072838,5.007641659969931],[102.70847430000002,5.007490494556475],[102.70838480072838,5.007432752376528],[102.70838480072838,5.007641659969931]]],[[[102.71149405107175,5.007641659969931],[102.71157079685977,5.007641659969931],[102.71149405107175,5.0074546562931],[102.71149405107175,5.007641659969931]]],[[[102.70974799999999,5.008340194555588],[102.70993942590007,5.007641659969931],[102.71045763429062,5.007495902919567],[102.70995449999998,5.007475094556477],[102.70974799999999,5.008340194555588]]],[[[102.71201225946233,5.00803505323515],[102.7120929,5.008013194555944],[102.71201225946233,5.008014570950635],[102.71201225946233,5.00803505323515]]],[[[102.71149405107175,5.010002023017643],[102.71149405107175,5.010098841244489],[102.71161330599956,5.010002023017643],[102.71149405107175,5.010002023017643]]],[[[102.7109758426812,5.011182207652927],[102.7109758426812,5.011255753061532],[102.71107316438436,5.011182207652927],[102.7109758426812,5.011182207652927]]],[[[102.7109758426812,5.011568658878716],[102.71100459999998,5.011484394552364],[102.7109758426812,5.011431563921175],[102.7109758426812,5.011568658878716]]],[[[102.71045763429062,5.012362394363161],[102.71045763429062,5.012489428222409],[102.71058607176842,5.012362394363161],[102.71045763429062,5.012362394363161]]],[[[102.70890300911896,5.013149186656315],[102.70890300911896,5.013535399990947],[102.70910390656412,5.013149186656315],[102.70890300911896,5.013149186656315]]],[[[102.70883805001094,5.013542583148845],[102.7088407,5.013543094550243],[102.70884502239264,5.013542583148845],[102.70883805001094,5.013542583148845]]]]},"properties":{"place_id":"255b3bc9-7bfd-5dee-8f8b-58048f8d44e5","habitat":"permanent_water","habitat_label":"Permanent water","resolution_m":50}},{"type":"Feature","geometry":{"type":"MultiPolygon","coordinates":[[[[102.70579375877558,5.005674697099228],[102.70574327458556,5.006068089212711],[102.70615019999998,5.006212994557773],[102.70631196716614,5.005674697099228],[102.70579375877558,5.005674697099228]]],[[[102.70527555038502,5.006068089212711],[102.70527555038502,5.006443286583947],[102.70550686030886,5.006068089212711],[102.70527555038502,5.006068089212711]]],[[[102.71045763429062,5.007495902919567],[102.7109758426812,5.007641659969931],[102.7109758426812,5.007248266935098],[102.71045763429062,5.007495902919567]]],[[[102.71201225946233,5.00803505323515],[102.71217154009756,5.00803505323515],[102.7120929,5.008013194555944],[102.71201225946233,5.00803505323515]]],[[[102.70629067753069,5.008821840456811],[102.7060734,5.008771694555166],[102.7059549015431,5.008821840456811],[102.70629067753069,5.008821840456811]]],[[[102.70562764435107,5.010395417665552],[102.70579375877558,5.010002023017643],[102.70576098409005,5.010002023017643],[102.70562764435107,5.010395417665552]]],[[[102.70527555038502,5.010788812543974],[102.70527555038502,5.010745384906932],[102.70519360980815,5.010788812543974],[102.70527555038502,5.010788812543974]]],[[[102.70683017555672,5.011575602992431],[102.7070537,5.011602594552236],[102.70734838394728,5.011906268206355],[102.70734838394728,5.011575602992431],[102.70683017555672,5.011575602992431]]],[[[102.70734838394728,5.012362394363161],[102.70734838394728,5.0122362768042255],[102.70730722203302,5.012362394363161],[102.70734838394728,5.012362394363161]]]]},"properties":{"place_id":"255b3bc9-7bfd-5dee-8f8b-58048f8d44e5","habitat":"seasonal_water_wetland","habitat_label":"Seasonal water or wetland","resolution_m":50}},{"type":"Feature","geometry":{"type":"Polygon","coordinates":[[[102.70704839999999,5.012743594551078],[102.70890239999999,5.013535794550286],[102.7098955,5.0124469945513805],[102.71080549999999,5.012208494551637],[102.7121808,5.008050894555885],[102.7109758426812,5.007248266935098],[102.7109758426812,5.007641659969931],[102.70993942590007,5.007641659969931],[102.70993942590007,5.008428446730769],[102.7094107,5.0086323945553],[102.7078185,5.0068568945571235],[102.70838480072838,5.0055230063610585],[102.70740909999998,5.005065694558953],[102.7066185,5.005189894558826],[102.70644490208781,5.004494522140452],[102.70579375877558,5.004472795224736],[102.70432559999998,5.005347594558681],[102.70483048392883,5.006461481556506],[102.70579375877558,5.006068089212711],[102.70579375877558,5.005674697099228],[102.70709259999998,5.0062399945577685],[102.70725289999999,5.008221294555694],[102.7068187,5.009058894554888],[102.70595399999999,5.008822494555112],[102.70527555038502,5.011153141344358],[102.70580483054327,5.011575602992431],[102.70734838394728,5.011575602992431],[102.70704839999999,5.012743594551078]],[[102.7109758426812,5.010002023017643],[102.71045763429062,5.010002023017643],[102.70993942590007,5.012362394363161],[102.70890300911896,5.012362394363161],[102.70890300911896,5.012755790394426],[102.70838480072838,5.012755790394426],[102.70838480072838,5.011575602992431],[102.70786659233782,5.011575602992431],[102.70734838394728,5.010788812543974],[102.70631196716614,5.010788812543974],[102.70631196716614,5.010395417665552],[102.70683017555672,5.010395417665552],[102.70683017555672,5.009215234413292],[102.70786659233782,5.008821840456811],[102.70786659233782,5.00803505323515],[102.70838480072838,5.00803505323515],[102.70942121750952,5.009215234413292],[102.7109758426812,5.008428446730769],[102.7109758426812,5.010002023017643]],[[102.7109758426812,5.00803505323515],[102.71149405107175,5.00803505323515],[102.71149405107175,5.008428446730769],[102.7109758426812,5.008428446730769],[102.7109758426812,5.00803505323515]]]},"properties":{"place_id":"255b3bc9-7bfd-5dee-8f8b-58048f8d44e5","habitat":"water_edge","habitat_label":"Water edge","resolution_m":50}}]}