{"type":"FeatureCollection","metadata":{"schema_version":1,"place_id":"255dd43d-7151-57b6-8c59-d617d0a3b029","place_name":"Townsquare Park","place_type":"park","osm_reference":"relation/18653890","protection_context":"no protected status confirmed from included OSM tags","resolution_m":50,"raster_coverage":1.0,"interpretation":"Suggested search habitats, not predicted plant locations or probabilities of presence."},"features":[{"type":"Feature","geometry":{"type":"Polygon","coordinates":[[[101.61620134111489,2.8877658113979976],[101.61651972181713,2.8873733948923683],[101.61636388093285,2.8873733948923683],[101.61620134111489,2.8877658113979976]]]},"properties":{"place_id":"255dd43d-7151-57b6-8c59-d617d0a3b029","habitat":"forest_edge_opening","habitat_label":"Forest edge or opening","resolution_m":50}},{"type":"Feature","geometry":{"type":"Polygon","coordinates":[[[101.61703793020769,2.8870929322898973],[101.61755613859823,2.8873733948923683],[101.61755613859823,2.887754188353127],[101.61774189999997,2.8872722968017306],[101.61703793020769,2.8870929322898973]]]},"properties":{"place_id":"255dd43d-7151-57b6-8c59-d617d0a3b029","habitat":"open_grassland","habitat_label":"Open grassland or shrubland","resolution_m":50}},{"type":"Feature","geometry":{"type":"Polygon","coordinates":[[[101.61590839999998,2.8884732968004334],[101.61715449999998,2.8887960968000845],[101.61774189999997,2.8872722968017306],[101.61677689999999,2.8870313968020085],[101.61590839999998,2.8884732968004334]]]},"properties":{"place_id":"255dd43d-7151-57b6-8c59-d617d0a3b029","habitat":"disturbed_built_edge","habitat_label":"Disturbed, bare or built edge","resolution_m":50}},{"type":"Feature","geometry":{"type":"Polygon","coordinates":[[[101.61740038789237,2.88815822803558],[101.61703793020769,2.888550644805135],[101.61724911768145,2.888550644805135],[101.61740038789237,2.88815822803558]]]},"properties":{"place_id":"255dd43d-7151-57b6-8c59-d617d0a3b029","habitat":"cropland","habitat_label":"Cropland","resolution_m":50}},{"type":"Feature","geometry":{"type":"MultiPolygon","coordinates":[[[[101.61651972181713,2.8871318670264934],[101.6163637,2.887373696801643],[101.6160388572213,2.88815822803558],[101.61651972181713,2.88815822803558],[101.61651972181713,2.8871318670264934]]],[[[101.61600151342657,2.888248417463455],[101.61590839999998,2.8884732968004334],[101.61600151342657,2.8885117483336846],[101.61600151342657,2.888248417463455]]]]},"properties":{"place_id":"255dd43d-7151-57b6-8c59-d617d0a3b029","habitat":"water_edge","habitat_label":"Water edge","resolution_m":50}}]}