{"type":"FeatureCollection","metadata":{"schema_version":1,"place_id":"25a5a5a8-9336-5e6d-9860-893b75bf4715","place_name":"Taman Poket Air Raja","place_type":"park","osm_reference":"way/1026731442","protection_context":"no protected status confirmed from included OSM tags","resolution_m":50,"raster_coverage":1.0,"interpretation":"Suggested search habitats, not predicted plant locations or probabilities of presence."},"features":[{"type":"Feature","geometry":{"type":"Polygon","coordinates":[[[100.30186250000001,5.427984994128407],[100.3018891,5.42822069412814],[100.30195359999999,5.428188094128193],[100.30186250000001,5.427984994128407]]]},"properties":{"place_id":"25a5a5a8-9336-5e6d-9860-893b75bf4715","habitat":"disturbed_built_edge","habitat_label":"Disturbed, bare or built edge","resolution_m":50}}]}