{"type":"FeatureCollection","metadata":{"schema_version":1,"place_id":"262ed76f-0315-53d7-af8a-b66a9f245f1b","place_name":"Taman Kejiranan Taman Bunga Raya","place_type":"park","osm_reference":"way/1029956630","protection_context":"no protected status confirmed from included OSM tags","resolution_m":50,"raster_coverage":1.0,"interpretation":"Suggested search habitats, not predicted plant locations or probabilities of presence."},"features":[{"type":"Feature","geometry":{"type":"Polygon","coordinates":[[[100.3062293,5.378875594178043],[100.3063927,5.378686894178224],[100.30609879999999,5.3783873941785405],[100.3062293,5.378875594178043]]]},"properties":{"place_id":"262ed76f-0315-53d7-af8a-b66a9f245f1b","habitat":"forest_edge_opening","habitat_label":"Forest edge or opening","resolution_m":50}},{"type":"Feature","geometry":{"type":"Polygon","coordinates":[[[100.30609879999999,5.3783873941785405],[100.3062293,5.378875594178043],[100.3064951,5.378897094178038],[100.30609879999999,5.3783873941785405]]]},"properties":{"place_id":"262ed76f-0315-53d7-af8a-b66a9f245f1b","habitat":"disturbed_built_edge","habitat_label":"Disturbed, bare or built edge","resolution_m":50}}]}