{"type":"FeatureCollection","metadata":{"schema_version":1,"place_id":"266864e9-0bab-52ed-b550-2ca89b73cb57","place_name":"Taman Intanova","place_type":"park","osm_reference":"way/333373789","protection_context":"no protected status confirmed from included OSM tags","resolution_m":50,"raster_coverage":1.0,"interpretation":"Suggested search habitats, not predicted plant locations or probabilities of presence."},"features":[{"type":"Feature","geometry":{"type":"Polygon","coordinates":[[[101.0404742,4.013214495593125],[101.0402285,4.01401579559232],[101.04043949999999,4.014339495591954],[101.0412586,4.013776995592544],[101.0404742,4.013214495593125]]]},"properties":{"place_id":"266864e9-0bab-52ed-b550-2ca89b73cb57","habitat":"forest_edge_opening","habitat_label":"Forest edge or opening","resolution_m":50}},{"type":"Feature","geometry":{"type":"MultiPolygon","coordinates":[[[[101.04079019990425,4.013624926694001],[101.0412586,4.013776995592544],[101.04103809999997,4.013443895592885],[101.04079019990425,4.013624926694001]]],[[[101.04036372324403,4.01422324469664],[101.04043949999999,4.014339495591954],[101.04060878192556,4.01422324469664],[101.04036372324403,4.01422324469664]]]]},"properties":{"place_id":"266864e9-0bab-52ed-b550-2ca89b73cb57","habitat":"open_grassland","habitat_label":"Open grassland or shrubland","resolution_m":50}},{"type":"Feature","geometry":{"type":"Polygon","coordinates":[[[101.04036372324403,4.01422324469664],[101.04118929999997,4.013572695592779],[101.0404742,4.013214495593125],[101.04036372324403,4.01422324469664]]]},"properties":{"place_id":"266864e9-0bab-52ed-b550-2ca89b73cb57","habitat":"disturbed_built_edge","habitat_label":"Disturbed, bare or built edge","resolution_m":50}},{"type":"Feature","geometry":{"type":"Polygon","coordinates":[[[101.04103809999997,4.013443895592885],[101.04043949999999,4.014339495591954],[101.0412586,4.013776995592544],[101.04103809999997,4.013443895592885]]]},"properties":{"place_id":"266864e9-0bab-52ed-b550-2ca89b73cb57","habitat":"water_edge","habitat_label":"Water edge","resolution_m":50}}]}