{"type":"FeatureCollection","metadata":{"schema_version":1,"place_id":"26b11165-b954-57ef-b792-3479f611cab9","place_name":"Padang B","place_type":"park","osm_reference":"way/468953233","protection_context":"no protected status confirmed from included OSM tags","resolution_m":50,"raster_coverage":1.0,"interpretation":"Suggested search habitats, not predicted plant locations or probabilities of presence."},"features":[{"type":"Feature","geometry":{"type":"Polygon","coordinates":[[[101.5228878,3.0761692965967913],[101.524139,3.077522596595339],[101.52439579999997,3.077029396595886],[101.52345439999999,3.0758463965971563],[101.5228878,3.0761692965967913]]]},"properties":{"place_id":"26b11165-b954-57ef-b792-3479f611cab9","habitat":"forest_edge_opening","habitat_label":"Forest edge or opening","resolution_m":50}},{"type":"Feature","geometry":{"type":"Polygon","coordinates":[[[101.52376041990676,3.076926263969477],[101.52376041990676,3.0773187463112044],[101.52424514100993,3.0773187463112044],[101.52412230541447,3.0765337817684135],[101.5232422115162,3.0761412997079933],[101.52333739921549,3.076926263969477],[101.52376041990676,3.076926263969477]]]},"properties":{"place_id":"26b11165-b954-57ef-b792-3479f611cab9","habitat":"open_grassland","habitat_label":"Open grassland or shrubland","resolution_m":50}},{"type":"Feature","geometry":{"type":"MultiPolygon","coordinates":[[[[101.52362919178007,3.0761412997079933],[101.52345439999999,3.0758463965971563],[101.5228878,3.0761692965967913],[101.5232422115162,3.0767660012292835],[101.5232422115162,3.0761412997079933],[101.52362919178007,3.0761412997079933]]],[[[101.52398695471871,3.0761412997079933],[101.5237156,3.0759553965970388],[101.52380690836134,3.0761412997079933],[101.52398695471871,3.0761412997079933]]],[[[101.52427862829734,3.076926263969477],[101.52333739921549,3.076926263969477],[101.52388609999998,3.077534096595328],[101.52427862829734,3.076926263969477]]]]},"properties":{"place_id":"26b11165-b954-57ef-b792-3479f611cab9","habitat":"disturbed_built_edge","habitat_label":"Disturbed, bare or built edge","resolution_m":50}}]}