{"type":"FeatureCollection","metadata":{"schema_version":1,"place_id":"26b2eb29-8c0f-551d-bbbe-cc0b24e7918a","place_name":"Recreation Park · OSM way/477390069","place_type":"park","osm_reference":"way/477390069","protection_context":"no protected status confirmed from included OSM tags","resolution_m":50,"raster_coverage":1.0,"interpretation":"Suggested search habitats, not predicted plant locations or probabilities of presence."},"features":[{"type":"Feature","geometry":{"type":"Polygon","coordinates":[[[103.6332902,1.5696691982497695],[103.6333439,1.5695189982499287],[103.63324729999998,1.569556598249892],[103.6332902,1.5696691982497695]]]},"properties":{"place_id":"26b2eb29-8c0f-551d-bbbe-cc0b24e7918a","habitat":"forest_interior","habitat_label":"Forest interior","resolution_m":50}}]}