{"type":"FeatureCollection","metadata":{"schema_version":1,"place_id":"26cc99b9-2c50-55b9-896e-5cc74ae8009f","place_name":"Taman Rimba Komuniti Kota Damansara","place_type":"wood","osm_reference":"relation/11275861","protection_context":"no protected status confirmed from included OSM tags","resolution_m":50,"raster_coverage":1.0,"interpretation":"Suggested search habitats, not predicted plant locations or probabilities of presence."},"features":[{"type":"Feature","geometry":{"type":"MultiPolygon","coordinates":[[[[101.57972692608732,3.1703410690157816],[101.57957369999998,3.1704201964948693],[101.57972692608732,3.170435576539358],[101.57972692608732,3.1703410690157816]]],[[[101.57948038036238,3.1703410690157816],[101.57910299999999,3.1705152964947714],[101.5793283,3.1706116964946376],[101.57948038036238,3.1703410690157816]]],[[[101.58231796804012,3.173873721239039],[101.58179975964957,3.174266238878141],[101.58231796804012,3.174266238878141],[101.58231796804012,3.173873721239039]]],[[[101.58132217032156,3.174266238878141],[101.581281551259,3.17465875666239],[101.58179975964957,3.17465875666239],[101.58179975964957,3.174266238878141],[101.58132217032156,3.174266238878141]]],[[[101.58231796804012,3.190752111011985],[101.58283617643069,3.190752111011985],[101.58335438482125,3.1895745401969937],[101.58439080160235,3.1891820168837284],[101.58439080160235,3.1880044478188685],[101.58490900999293,3.1880044478188685],[101.58594542677405,3.1868268800660373],[101.58746189999997,3.186646996477307],[101.5880182603363,3.187051934579613],[101.58853646872684,3.1864343577732375],[101.5906093022891,3.186041835626147],[101.59112751067966,3.185256791769018],[101.5932003442419,3.1848371383355367],[101.59371855263245,3.1840792270756872],[101.59475496941357,3.1840792270756872],[101.59475496941357,3.1836867058024674],[101.59630959458526,3.182901663692755],[101.59630959458526,3.182116622165227],[101.59734601136638,3.181724101619736],[101.59786421975694,3.1801540208925045],[101.59890063653806,3.1797615010742897],[101.59934683732696,3.1789764618740444],[101.59890063653806,3.1789764618740444],[101.59890063653806,3.178583942491977],[101.59941884492862,3.178583942491977],[101.59941884492862,3.175581326132032],[101.5989078,3.1753325964895516],[101.59941884492862,3.175102858209752],[101.59941884492862,3.173873721239039],[101.59890063653806,3.173873721239039],[101.5983824281475,3.1715186184515174],[101.59786421975694,3.1715186184515174],[101.59734601136638,3.1696717052526684],[101.59682780297581,3.169556036783489],[101.59682780297581,3.1683784895219818],[101.59630959458526,3.1683784895219818],[101.59630959458526,3.16445334139783],[101.59527317780415,3.16445334139783],[101.59527317780415,3.164060827381538],[101.59423676102303,3.163668313509922],[101.59423676102303,3.1628832862006497],[101.59371855263245,3.1628832862006497],[101.59268213585133,3.164060827381538],[101.5932003442419,3.164060827381538],[101.5932003442419,3.1656308843149534],[101.59371855263245,3.1656308843149534],[101.59423676102303,3.1672009435643607],[101.59527317780415,3.167593458738722],[101.59527317780415,3.1687710051309175],[101.59371855263245,3.169556036783489],[101.59268213585133,3.169556036783489],[101.59268213585133,3.1691635208847466],[101.59216392746077,3.1691635208847466],[101.59216392746077,3.1687710051309175],[101.59164571907021,3.1687710051309175],[101.5906093022891,3.167685868635965],[101.5893209,3.167360496498137],[101.5880182603363,3.167593458738722],[101.58757609999999,3.167343096498184],[101.58673189999999,3.167930896497536],[101.58718179999998,3.1672546964982775],[101.58490900999293,3.1672009435643607],[101.58439080160235,3.166415913650086],[101.58387259321181,3.166415913650086],[101.58387259321181,3.1656308843149534],[101.58283617643069,3.1656308843149534],[101.58283617643069,3.1652383698645203],[101.58179975964957,3.1652383698645203],[101.58179975964957,3.1656308843149534],[101.581281551259,3.1656579760662855],[101.581281551259,3.166415913650086],[101.58179975964957,3.166415913650086],[101.58179975964957,3.1668084285348206],[101.58140506624397,3.1668084285348206],[101.5820167,3.166958896498585],[101.5822211,3.1672080964983134],[101.58076334286845,3.1672087787452923],[101.58076334286845,3.167593458738722],[101.581281551259,3.167593458738722],[101.581281551259,3.167985974057922],[101.58076334286845,3.167985974057922],[101.581281551259,3.169556036783489],[101.58076334286845,3.1695845893979318],[101.58076334286845,3.1703410690157816],[101.58024513447788,3.170496618889753],[101.5807688,3.1714383964937545],[101.58018539999999,3.171804996493337],[101.57930250000001,3.1712626964939554],[101.5788527,3.1715834964935916],[101.57969979999999,3.1717726964933886],[101.58074064575506,3.1730886863962073],[101.58076334286845,3.1726961691924394],[101.58179975964957,3.1726961691924394],[101.58179975964957,3.1730886863962073],[101.58231796804012,3.1730886863962073],[101.58231796804012,3.173873721239039],[101.58283617643069,3.173873721239039],[101.58387259321181,3.1726961691924394],[101.58490900999293,3.1726961691924394],[101.58490900999293,3.1723036521337478],[101.58542721838349,3.1723036521337478],[101.58542721838349,3.1726961691924394],[101.58698184355517,3.1734812037450677],[101.58707895574715,3.174266238878141],[101.58750005194572,3.174266238878141],[101.58762979999999,3.1761590964886586],[101.5884331,3.1763334964884398],[101.58957288550796,3.1750512745918043],[101.59112751067966,3.1750512745918043],[101.59112751067966,3.175443792666403],[101.59164571907021,3.175443792666403],[101.59164571907021,3.1758363108862038],[101.59116298858207,3.1758363108862038],[101.59164571907021,3.1766213477614813],[101.59216392746077,3.1766213477614813],[101.59127912930107,3.1781914232552575],[101.59164571907021,3.1781914232552575],[101.59164571907021,3.1789764618740444],[101.59112751067966,3.1789764618740444],[101.590648,3.179745896484776],[101.59009109389854,3.179368981401476],[101.58970449999997,3.1801791964843087],[101.58915450089344,3.1801540208925045],[101.5893937,3.180973196483446],[101.5885912,3.1808279964836257],[101.58905467711742,3.1813315812197365],[101.58853646872684,3.1813315812197365],[101.58853646872684,3.181724101619736],[101.5869465,3.1818408964825173],[101.58698184355517,3.1809390609652093],[101.58856720000001,3.1803907964840605],[101.5875983,3.1798842964846155],[101.58594542677405,3.1805465408561395],[101.58594542677405,3.1809390609652093],[101.5850508,3.1809665964834757],[101.58555759999997,3.181411296482997],[101.58490900999293,3.181724101619736],[101.58490900999293,3.1825091428562278],[101.58542721838349,3.1825091428562278],[101.5855817,3.183501296480705],[101.58712249999999,3.1827563964815138],[101.5879832,3.1830767964811826],[101.5862049,3.183581096480625],[101.5860865,3.1845479964795977],[101.58542721838349,3.1845442828170993],[101.58542721838349,3.1856493136247463],[101.58490900999293,3.1856493136247463],[101.58490900999293,3.186041835626147],[101.58339932471837,3.1868268800660373],[101.5824199,3.1882634964755936],[101.5819326460131,3.187219402504564],[101.581281551259,3.187219402504564],[101.581281551259,3.187611925088835],[101.58179975964957,3.187611925088835],[101.58179975964957,3.1891820168837284],[101.581281551259,3.1891820168837284],[101.581281551259,3.1911446349087735],[101.58067221264314,3.1915371589514874],[101.58231796804012,3.191219613029257],[101.58231796804012,3.190752111011985]]]]},"properties":{"place_id":"26cc99b9-2c50-55b9-896e-5cc74ae8009f","habitat":"forest_interior","habitat_label":"Forest interior","resolution_m":50}},{"type":"Feature","geometry":{"type":"MultiPolygon","coordinates":[[[[101.58387259321181,3.166415913650086],[101.58473628462195,3.1668084285348206],[101.5837006,3.16536869650029],[101.5818585,3.165037396500674],[101.58130673827503,3.1656308843149534],[101.58179975964957,3.1656308843149534],[101.58179975964957,3.1652383698645203],[101.58283617643069,3.1652383698645203],[101.58283617643069,3.1656308843149534],[101.58387259321181,3.1656308843149534],[101.58387259321181,3.166415913650086]]],[[[101.58179975964957,3.166415913650086],[101.581281551259,3.166415913650086],[101.581281551259,3.1656579760662855],[101.5812653,3.166730396498834],[101.58179975964957,3.1668084285348206],[101.58179975964957,3.166415913650086]]],[[[101.581281551259,3.1672009435643607],[101.581281551259,3.1670932026558947],[101.58078428188088,3.1672009435643607],[101.581281551259,3.1672009435643607]]],[[[101.58490900999293,3.1672009435643607],[101.58706899358145,3.1672009435643607],[101.58662639999999,3.166798496498779],[101.58490900999293,3.166895989491839],[101.58490900999293,3.1672009435643607]]],[[[101.581281551259,3.167593458738722],[101.58076334286845,3.167593458738722],[101.58068819999998,3.167236896498302],[101.58059769999998,3.1677379964977534],[101.58081969999999,3.1691228964962415],[101.58101858803283,3.169556036783489],[101.581281551259,3.1687710051309175],[101.58076334286845,3.1687710051309175],[101.58076334286845,3.167985974057922],[101.581281551259,3.167985974057922],[101.581281551259,3.167593458738722]]],[[[101.5787999,3.1702742964950126],[101.58037041025624,3.1703410690157816],[101.5785035,3.1700814964952118],[101.5787999,3.1702742964950126]]],[[[101.58076334286845,3.1703410690157816],[101.58076334286845,3.1695845893979318],[101.58053799999999,3.1700883964951987],[101.58076334286845,3.1703410690157816]]],[[[101.58179975964957,3.1726961691924394],[101.58076334286845,3.1726961691924394],[101.58074064575506,3.1730886863962073],[101.5814886,3.1730091964920475],[101.58231796804012,3.173873721239039],[101.58231796804012,3.1730886863962073],[101.58179975964957,3.1730886863962073],[101.58179975964957,3.1726961691924394]]],[[[101.58179975964957,3.174266238878141],[101.58179975964957,3.1739926745662284],[101.58132217032156,3.174266238878141],[101.58179975964957,3.174266238878141]]],[[[101.5864636351646,3.1730886863962073],[101.58490900999293,3.1723036521337478],[101.58490900999293,3.1726961691924394],[101.58387259321181,3.1726961691924394],[101.58387259321181,3.1730886863962073],[101.58335438482125,3.1730886863962073],[101.58335438482125,3.1734812037450677],[101.58283617643069,3.1734812037450677],[101.58283617643069,3.173873721239039],[101.58231796804012,3.173873721239039],[101.58231796804012,3.174266238878141],[101.58179975964957,3.174266238878141],[101.58179975964957,3.17465875666239],[101.58081830000002,3.1742900964906777],[101.5805957,3.174702496490248],[101.58131699999998,3.1750505964898634],[101.5833091,3.1735115964915113],[101.58506109999998,3.1728087964922773],[101.58648329999998,3.1735533964914917],[101.58606599999999,3.174577996490371],[101.58698184355517,3.1741152025593298],[101.5864636351646,3.1730886863962073]]],[[[101.58750005194572,3.174266238878141],[101.58707895574715,3.174266238878141],[101.58750005194572,3.175097283496715],[101.58750005194572,3.174266238878141]]],[[[101.58594542677405,3.1809390609652093],[101.58594542677405,3.1805465408561395],[101.5864636351646,3.1805465408561395],[101.5864636351646,3.1803796023498148],[101.58585819999999,3.180527396483914],[101.58566769999999,3.180797796483626],[101.58536729999999,3.1805165964839515],[101.58507016664399,3.1809390609652093],[101.58594542677405,3.1809390609652093]]],[[[101.58542721838349,3.1825091428562278],[101.58490900999293,3.1825091428562278],[101.58490900999293,3.181724101619736],[101.58542721838349,3.1814676918565805],[101.5834667,3.182315696481992],[101.58330819999999,3.183838096480367],[101.58370070000001,3.1839058964802813],[101.5837222,3.182490496481816],[101.5844641,3.1822940964820177],[101.58542721838349,3.183292375880327],[101.58542721838349,3.1825091428562278]]],[[[101.58490900999293,3.1856493136247463],[101.58542721838349,3.1856493136247463],[101.5853751,3.184521096479625],[101.58339932471837,3.1868268800660373],[101.58490900999293,3.186041835626147],[101.58490900999293,3.1856493136247463]]],[[[101.58594542677405,3.1868268800660373],[101.5859841,3.187329896476586],[101.58687106749407,3.1868268800660373],[101.58594542677405,3.1868268800660373]]],[[[101.58542721838349,3.187219402504564],[101.58542721838349,3.1874201070145713],[101.58576709215151,3.187219402504564],[101.58542721838349,3.187219402504564]]],[[[101.581281551259,3.187219402504564],[101.5819326460131,3.187219402504564],[101.58107089999999,3.1859913964780526],[101.58114129407838,3.190359587261104],[101.581281551259,3.1891820168837284],[101.58179975964957,3.1891820168837284],[101.58179975964957,3.187611925088835],[101.581281551259,3.187611925088835],[101.581281551259,3.187219402504564]]],[[[101.58518279884079,3.187611925088835],[101.58490900999293,3.1880044478188685],[101.58439080160235,3.1880044478188685],[101.58439080160235,3.1891820168837284],[101.58335438482125,3.1895745401969937],[101.58335438482125,3.1902636748605957],[101.58446199999999,3.189281696474462],[101.58518279884079,3.187611925088835]]],[[[101.581281551259,3.1911446349087735],[101.58113322041571,3.190752111011985],[101.58112514675304,3.1911446349087735],[101.581281551259,3.1911446349087735]]],[[[101.58283617643069,3.190752111011985],[101.58231796804012,3.190752111011985],[101.58231796804012,3.191219613029257],[101.5827093,3.191270396472339],[101.58327458404604,3.190359587261104],[101.58283617643069,3.190359587261104],[101.58283617643069,3.190752111011985]]],[[[101.58076334286845,3.1915371589514874],[101.5806654,3.1912275964723706],[101.58067221264314,3.1915371589514874],[101.58076334286845,3.1915371589514874]]],[[[101.59423676102303,3.163668313509922],[101.59475496941357,3.163668313509922],[101.59527317780415,3.16445334139783],[101.59630959458526,3.16445334139783],[101.59630959458526,3.1683784895219818],[101.59682780297581,3.1683784895219818],[101.59682780297581,3.169556036783489],[101.59728347483676,3.169556036783489],[101.59663009999998,3.1668493964986975],[101.59723969999999,3.161132496504885],[101.59674599999998,3.161394296504627],[101.5965645,3.1642760965014904],[101.5953582,3.164018496501745],[101.59411109999999,3.1624475965034726],[101.5927310403445,3.163668313509922],[101.59423676102303,3.1628832862006497],[101.59423676102303,3.163668313509922]]],[[[101.59475496941357,3.1691635208847466],[101.59475496941357,3.168880294120031],[101.59455030714872,3.1691635208847466],[101.59475496941357,3.1691635208847466]]],[[[101.59527317780415,3.1687710051309175],[101.59527317780415,3.167593458738722],[101.59423676102303,3.1672009435643607],[101.59423676102303,3.166415913650086],[101.59371855263245,3.166415913650086],[101.59371855263245,3.1656308843149534],[101.5932003442419,3.1656308843149534],[101.5932003442419,3.164060827381538],[101.59268213585133,3.164060827381538],[101.59268213585133,3.1637115714819175],[101.59249149999998,3.1638801965019208],[101.5928699,3.165442596500247],[101.59479323111543,3.1687710051309175],[101.59527317780415,3.1687710051309175]]],[[[101.58853646872684,3.167295478708323],[101.5880182603363,3.1674560175836466],[101.5880182603363,3.167593458738722],[101.58853646872684,3.167593458738722],[101.58853646872684,3.167295478708323]]],[[[101.59009109389854,3.1675550006697097],[101.58957288550796,3.167424132719554],[101.58957288550796,3.167593458738722],[101.59009109389854,3.1675550006697097]]],[[[101.5906093022891,3.167985974057922],[101.59106847369016,3.167985974057922],[101.5906093022891,3.167685868635965],[101.5906093022891,3.167985974057922]]],[[[101.59268213585133,3.1691635208847466],[101.59268213585133,3.169556036783489],[101.59371855263245,3.169556036783489],[101.59112751067966,3.1680251513028175],[101.59216392746077,3.1691635208847466],[101.59268213585133,3.1691635208847466]]],[[[101.59734601136638,3.1707335853493697],[101.59786421975694,3.1707335853493697],[101.59786421975694,3.1715186184515174],[101.5983824281475,3.1715186184515174],[101.5983824281475,3.1726961691924394],[101.59890063653806,3.1726961691924394],[101.59890063653806,3.173873721239039],[101.59941884492862,3.173873721239039],[101.59941884492862,3.175102858209752],[101.6000534,3.174817596490099],[101.5977198,3.170014996495298],[101.59734601136638,3.1696717052526684],[101.59734601136638,3.1707335853493697]]],[[[101.59941884492862,3.178583942491977],[101.59890063653806,3.178583942491977],[101.59890063653806,3.1789764618740444],[101.59934683732696,3.1789764618740444],[101.5997954,3.1780746964865934],[101.59981059999998,3.1757719964890954],[101.59941884492862,3.175581326132032],[101.59941884492862,3.178583942491977]]],[[[101.59164571907021,3.175443792666403],[101.59112751067966,3.175443792666403],[101.59112751067966,3.1750512745918043],[101.58957288550796,3.1750512745918043],[101.58905467711742,3.1757894530538113],[101.59017940000001,3.1752919964895843],[101.59164571907021,3.1758363108862038],[101.59164571907021,3.175443792666403]]],[[[101.59216392746077,3.177013866416996],[101.59154214695879,3.1762288292512233],[101.59153489111851,3.1774063852177847],[101.59164571907021,3.177013866416996],[101.59216392746077,3.177013866416996]]],[[[101.59164571907021,3.1781914232552575],[101.59127912930107,3.1781914232552575],[101.59080110419794,3.179368981401476],[101.59164571907021,3.1789764618740444],[101.59164571907021,3.1781914232552575]]],[[[101.59009109389854,3.1797615010742897],[101.59036892933673,3.179368981401476],[101.58993039999999,3.1792414964853193],[101.589801,3.1793409964852044],[101.59009109389854,3.1797615010742897]]],[[[101.58750005194572,3.1799271838867966],[101.58698040537173,3.1801540208925045],[101.58750005194572,3.1801540208925045],[101.58750005194572,3.1799271838867966]]],[[[101.58957288550796,3.1801241406389593],[101.58909289999998,3.1797881964847443],[101.5884934,3.1800037964844874],[101.5889856,3.1799528964845707],[101.58957288550796,3.1801241406389593]]],[[[101.5880182603363,3.1801540208925045],[101.5882541083252,3.1801540208925045],[101.5880182603363,3.180013719791131],[101.5880182603363,3.1801540208925045]]],[[[101.58698184355517,3.181180372776941],[101.58746636308848,3.1809390609652093],[101.58698184355517,3.1809390609652093],[101.58698184355517,3.181180372776941]]],[[[101.58905467711742,3.1809390609652093],[101.58855099388973,3.1809390609652093],[101.58826680386484,3.181724101619736],[101.58905467711742,3.1813315812197365],[101.58905467711742,3.1809390609652093]]],[[[101.58750005194572,3.1805465408561395],[101.58750005194572,3.180922282450353],[101.58825448744759,3.1805465408561395],[101.58750005194572,3.1805465408561395]]],[[[101.59890063653806,3.179368981401476],[101.59890063653806,3.1797615010742897],[101.59786421975694,3.1801540208925045],[101.59734601136638,3.181724101619736],[101.59630959458526,3.182116622165227],[101.59630959458526,3.182901663692755],[101.59579138619469,3.182901663692755],[101.59475496941357,3.1840792270756872],[101.59371855263245,3.1840792270756872],[101.5932003442419,3.1848371383355367],[101.59481979999998,3.184049496480111],[101.5958279,3.183303196480922],[101.5970322,3.182302396482044],[101.5990414,3.179590496484961],[101.59890063653806,3.179368981401476]]],[[[101.5906093022891,3.186041835626147],[101.58853646872684,3.1864343577732375],[101.5880182603363,3.187051934579613],[101.58913639999997,3.1868850964770488],[101.59314455923189,3.1848642700589442],[101.59112751067966,3.185256791769018],[101.5906093022891,3.186041835626147]]]]},"properties":{"place_id":"26cc99b9-2c50-55b9-896e-5cc74ae8009f","habitat":"forest_edge_opening","habitat_label":"Forest edge or opening","resolution_m":50}},{"type":"Feature","geometry":{"type":"MultiPolygon","coordinates":[[[[101.59657661379678,3.1624907727629563],[101.59682780297581,3.161705746321367],[101.59673554914365,3.161705746321367],[101.59657661379678,3.1624907727629563]]],[[[101.58663860046417,3.1668084285348206],[101.58662639999999,3.166798496498779],[101.58658059344616,3.1668084285348206],[101.58663860046417,3.1668084285348206]]],[[[101.58076334286845,3.1730886863962073],[101.5808688,3.1733108964917367],[101.58132529921177,3.1730886863962073],[101.58076334286845,3.1730886863962073]]],[[[101.58179975964957,3.1730886863962073],[101.58153238202247,3.1730886863962073],[101.58179975964957,3.173574132851157],[101.58179975964957,3.1730886863962073]]],[[[101.59959476857401,3.173873721239039],[101.59941884492862,3.173511666082322],[101.59941884492862,3.173873721239039],[101.59959476857401,3.173873721239039]]],[[[101.59112751067966,3.178583942491977],[101.59112751067966,3.1785654276166877],[101.59111998986693,3.178583942491977],[101.59112751067966,3.178583942491977]]],[[[101.58853646872684,3.1813315812197365],[101.58853646872684,3.180979184960957],[101.58840889887728,3.1813315812197365],[101.58853646872684,3.1813315812197365]]],[[[101.58490900999293,3.1825091428562278],[101.58469578287904,3.1825091428562278],[101.58490900999293,3.182707058761188],[101.58490900999293,3.1825091428562278]]],[[[101.58490900999293,3.1856493136247463],[101.58490900999293,3.1854370272459915],[101.58468677429505,3.1856493136247463],[101.58490900999293,3.1856493136247463]]],[[[101.58439080160235,3.186041835626147],[101.58439080160235,3.185932035916643],[101.58427456359077,3.186041835626147],[101.58439080160235,3.186041835626147]]],[[[101.58387259321181,3.1864343577732375],[101.58387259321181,3.186289352143865],[101.58372812990594,3.1864343577732375],[101.58387259321181,3.1864343577732375]]]]},"properties":{"place_id":"26cc99b9-2c50-55b9-896e-5cc74ae8009f","habitat":"open_grassland","habitat_label":"Open grassland or shrubland","resolution_m":50}},{"type":"Feature","geometry":{"type":"MultiPolygon","coordinates":[[[[101.581281551259,3.166023398910135],[101.581281551259,3.1656579760662855],[101.58102609999999,3.166023296499603],[101.581281551259,3.166023398910135]]],[[[101.58387259321181,3.166415913650086],[101.58473628462195,3.1668084285348206],[101.5837006,3.16536869650029],[101.5818585,3.165037396500674],[101.58130673827503,3.1656308843149534],[101.58179975964957,3.1656308843149534],[101.58179975964957,3.1652383698645203],[101.58283617643069,3.1652383698645203],[101.58283617643069,3.1656308843149534],[101.58387259321181,3.1656308843149534],[101.58387259321181,3.166415913650086]]],[[[101.581281551259,3.1672009435643607],[101.5809044,3.1671559964984053],[101.58078428188088,3.1672009435643607],[101.581281551259,3.1672009435643607]]],[[[101.581281551259,3.166415913650086],[101.58114605311812,3.166415913650086],[101.581281551259,3.16673946963946],[101.581281551259,3.166415913650086]]],[[[101.58076334286845,3.167593458738722],[101.58076334286845,3.1672087787452923],[101.58059769999998,3.1677379964977534],[101.58081969999999,3.1691228964962415],[101.581281551259,3.169556036783489],[101.581281551259,3.1687710051309175],[101.58076334286845,3.1687710051309175],[101.58076334286845,3.167985974057922],[101.581281551259,3.167985974057922],[101.581281551259,3.167593458738722],[101.58076334286845,3.167593458738722]]],[[[101.5801142,3.170505896494761],[101.58022149999998,3.170224696495073],[101.5785035,3.1700814964952118],[101.5801142,3.170505896494761]]],[[[101.58076334286845,3.1703410690157816],[101.58076334286845,3.1695845893979318],[101.58053799999999,3.1700883964951987],[101.58076334286845,3.1703410690157816]]],[[[101.58747673891612,3.1750512745918043],[101.58750005194572,3.174266238878141],[101.58707895574715,3.174266238878141],[101.58747673891612,3.1750512745918043]]],[[[101.58698184355517,3.1734812037450677],[101.58490900999293,3.1723036521337478],[101.58490900999293,3.1726961691924394],[101.58387259321181,3.1726961691924394],[101.58387259321181,3.1730886863962073],[101.58335438482125,3.1730886863962073],[101.58179975964957,3.17465875666239],[101.58081830000002,3.1742900964906777],[101.5805957,3.174702496490248],[101.58131699999998,3.1750505964898634],[101.5833091,3.1735115964915113],[101.58506109999998,3.1728087964922773],[101.58648329999998,3.1735533964914917],[101.5859118,3.1745551964903633],[101.58698184355517,3.1741152025593298],[101.58698184355517,3.1734812037450677]]],[[[101.58387259321181,3.182140130961557],[101.5834667,3.182315696481992],[101.58339357745731,3.1832941846748297],[101.58370999193079,3.1832941846748297],[101.58387259321181,3.182140130961557]]],[[[101.58370070000001,3.1839058964802813],[101.58335438482125,3.183543868082526],[101.58330819999999,3.183838096480367],[101.58370070000001,3.1839058964802813]]],[[[101.58439080160235,3.186041835626147],[101.58439080160235,3.185932035916643],[101.58427456359077,3.186041835626147],[101.58439080160235,3.186041835626147]]],[[[101.58387259321181,3.1864343577732375],[101.58387259321181,3.186289352143865],[101.58372812990594,3.1864343577732375],[101.58387259321181,3.1864343577732375]]],[[[101.581281551259,3.187611925088835],[101.58179975964957,3.1869346521125306],[101.58107089999999,3.1859913964780526],[101.58114129407838,3.190359587261104],[101.581281551259,3.1891820168837284],[101.58179975964957,3.1891820168837284],[101.58179975964957,3.187611925088835],[101.581281551259,3.187611925088835]]],[[[101.581281551259,3.1911446349087735],[101.58113322041571,3.190752111011985],[101.58112514675304,3.1911446349087735],[101.581281551259,3.1911446349087735]]],[[[101.58283617643069,3.190752111011985],[101.58231796804012,3.190752111011985],[101.58231796804012,3.191219613029257],[101.5827093,3.191270396472339],[101.58327458404604,3.190359587261104],[101.58283617643069,3.190359587261104],[101.58283617643069,3.190752111011985]]],[[[101.58067079999998,3.1915368964720385],[101.58076334286845,3.19122697644548],[101.5806654,3.1912275964723706],[101.58067079999998,3.1915368964720385]]],[[[101.58663860046417,3.1668084285348206],[101.58662639999999,3.166798496498779],[101.58658059344616,3.1668084285348206],[101.58663860046417,3.1668084285348206]]],[[[101.5864636351646,3.1668337880912563],[101.58490900999293,3.166895989491839],[101.58490900999293,3.1672009435643607],[101.5864636351646,3.1672009435643607],[101.5864636351646,3.1668337880912563]]],[[[101.58698184355517,3.1672009435643607],[101.58706899358145,3.1672009435643607],[101.58698184355517,3.167159416056844],[101.58698184355517,3.1672009435643607]]],[[[101.5880182603363,3.1674560175836466],[101.58853646872684,3.167593458738722],[101.58853646872684,3.167295478708323],[101.5880182603363,3.1674560175836466]]],[[[101.59009109389854,3.1675550006697097],[101.58957288550796,3.167424132719554],[101.58957288550796,3.167593458738722],[101.59009109389854,3.1675550006697097]]],[[[101.59009109389854,3.175323485984764],[101.58957288550796,3.1750512745918043],[101.58905467711742,3.1757894530538113],[101.59009109389854,3.175323485984764]]],[[[101.58698184355517,3.1801540208925045],[101.58698184355517,3.1801533930941566],[101.58698040537173,3.1801540208925045],[101.58698184355517,3.1801540208925045]]],[[[101.58957288550796,3.1801241406389593],[101.58909289999998,3.1797881964847443],[101.5884934,3.1800037964844874],[101.5889856,3.1799528964845707],[101.58957288550796,3.1801241406389593]]],[[[101.5880182603363,3.1801540208925045],[101.5882541083252,3.1801540208925045],[101.5880182603363,3.180013719791131],[101.5880182603363,3.1801540208925045]]],[[[101.58594542677405,3.1809390609652093],[101.58594542677405,3.1805465408561395],[101.5864636351646,3.1805465408561395],[101.5864636351646,3.1803796023498148],[101.58585819999999,3.180527396483914],[101.58566769999999,3.180797796483626],[101.58536729999999,3.1805165964839515],[101.58507016664399,3.1809390609652093],[101.58594542677405,3.1809390609652093]]],[[[101.58490900999293,3.182116622165227],[101.58490900999293,3.181724101619736],[101.58542721838349,3.1814676918565805],[101.58392694364304,3.182116622165227],[101.58490900999293,3.182116622165227]]],[[[101.58490900999293,3.1825091428562278],[101.58469578287904,3.1825091428562278],[101.58490900999293,3.182707058761188],[101.58490900999293,3.1825091428562278]]],[[[101.58542721838349,3.182901663692755],[101.58511866995038,3.182901663692755],[101.58542721838349,3.183292375880327],[101.58542721838349,3.182901663692755]]],[[[101.58594542677405,3.1868268800660373],[101.5859841,3.187329896476586],[101.58687106749407,3.1868268800660373],[101.58594542677405,3.1868268800660373]]],[[[101.58542721838349,3.187219402504564],[101.58542721838349,3.1874201070145713],[101.58576709215151,3.187219402504564],[101.58542721838349,3.187219402504564]]],[[[101.58387259321181,3.1895745401969937],[101.58335438482125,3.1895745401969937],[101.58335438482125,3.1902636748605957],[101.58446199999999,3.189281696474462],[101.58518279884079,3.187611925088835],[101.58439080160235,3.1880044478188685],[101.58439080160235,3.1891820168837284],[101.58387259321181,3.1891820168837284],[101.58387259321181,3.1895745401969937]]],[[[101.59268213585133,3.164060827381538],[101.59249149999998,3.1638801965019208],[101.5927253744815,3.164845855558818],[101.5932003442419,3.164845855558818],[101.5932003442419,3.164060827381538],[101.59268213585133,3.164060827381538]]],[[[101.59723969999999,3.161132496504885],[101.5965645,3.1642760965014904],[101.5953582,3.164018496501745],[101.59411109999999,3.1624475965034726],[101.5927310403445,3.163668313509922],[101.59423676102303,3.1628832862006497],[101.59423676102303,3.163668313509922],[101.59475496941357,3.163668313509922],[101.59527317780415,3.16445334139783],[101.59630959458526,3.16445334139783],[101.59630959458526,3.1683784895219818],[101.59682780297581,3.1683784895219818],[101.59682780297581,3.169556036783489],[101.59728347483676,3.169556036783489],[101.59663009999998,3.1668493964986975],[101.59723969999999,3.161132496504885]]],[[[101.59423676102303,3.1672009435643607],[101.59371855263245,3.1656308843149534],[101.59282043807619,3.1652383698645203],[101.59479323111543,3.1687710051309175],[101.59527317780415,3.1687710051309175],[101.59527317780415,3.167593458738722],[101.59423676102303,3.1672009435643607]]],[[[101.59475496941357,3.1691635208847466],[101.59475496941357,3.168880294120031],[101.59455030714872,3.1691635208847466],[101.59475496941357,3.1691635208847466]]],[[[101.5906093022891,3.167985974057922],[101.59106847369016,3.167985974057922],[101.5906093022891,3.167685868635965],[101.5906093022891,3.167985974057922]]],[[[101.59268213585133,3.1691635208847466],[101.59268213585133,3.169556036783489],[101.59371855263245,3.169556036783489],[101.59112751067966,3.1680251513028175],[101.59216392746077,3.1691635208847466],[101.59268213585133,3.1691635208847466]]],[[[101.59734601136638,3.1707335853493697],[101.59786421975694,3.1707335853493697],[101.5983824281475,3.1726961691924394],[101.59890063653806,3.1726961691924394],[101.59890063653806,3.1734812037450677],[101.5994040431883,3.1734812037450677],[101.59734601136638,3.1696717052526684],[101.59734601136638,3.1707335853493697]]],[[[101.59941884492862,3.1750512745918043],[101.6000534,3.174817596490099],[101.59941884492862,3.173511666082322],[101.59941884492862,3.1750512745918043]]],[[[101.59164571907021,3.1758363108862038],[101.59164571907021,3.175443792666403],[101.5906093022891,3.1750512745918043],[101.59116298858207,3.1758363108862038],[101.59164571907021,3.1758363108862038]]],[[[101.59216392746077,3.177013866416996],[101.59154214695879,3.1762288292512233],[101.59153489111851,3.1774063852177847],[101.59164571907021,3.177013866416996],[101.59216392746077,3.177013866416996]]],[[[101.59941884492862,3.1766213477614813],[101.59941884492862,3.177013866416996],[101.59990227319678,3.177013866416996],[101.59991950499506,3.1766213477614813],[101.59941884492862,3.1766213477614813]]],[[[101.59934683732696,3.1789764618740444],[101.5997954,3.1780746964865934],[101.59982318465384,3.1777989041638657],[101.59941884492862,3.1777989041638657],[101.59941884492862,3.178583942491977],[101.59890063653806,3.178583942491977],[101.59890063653806,3.1789764618740444],[101.59934683732696,3.1789764618740444]]],[[[101.59164571907021,3.178583942491977],[101.59112751067966,3.1785654276166877],[101.59080110419794,3.179368981401476],[101.59164571907021,3.1789764618740444],[101.59164571907021,3.178583942491977]]],[[[101.59009109389854,3.1797615010742897],[101.59036892933673,3.179368981401476],[101.58993039999999,3.1792414964853193],[101.589801,3.1793409964852044],[101.59009109389854,3.1797615010742897]]],[[[101.59890063653806,3.179368981401476],[101.59890063653806,3.1797615010742897],[101.59786421975694,3.1801540208925045],[101.59734601136638,3.181724101619736],[101.59630959458526,3.182116622165227],[101.59630959458526,3.182901663692755],[101.59579138619469,3.182901663692755],[101.59475496941357,3.1840792270756872],[101.59371855263245,3.1840792270756872],[101.5932003442419,3.1848371383355367],[101.59481979999998,3.184049496480111],[101.5958279,3.183303196480922],[101.5970322,3.182302396482044],[101.5990414,3.179590496484961],[101.59890063653806,3.179368981401476]]],[[[101.58957288550796,3.186041835626147],[101.58957288550796,3.1864343577732375],[101.58853646872684,3.1864343577732375],[101.5880182603363,3.187051934579613],[101.58913639999997,3.1868850964770488],[101.59314455923189,3.1848642700589442],[101.59112751067966,3.185256791769018],[101.5906093022891,3.186041835626147],[101.58957288550796,3.186041835626147]]]]},"properties":{"place_id":"26cc99b9-2c50-55b9-896e-5cc74ae8009f","habitat":"disturbed_built_edge","habitat_label":"Disturbed, bare or built edge","resolution_m":50}},{"type":"Feature","geometry":{"type":"Polygon","coordinates":[[[101.581281551259,3.166415913650086],[101.58114605311812,3.166415913650086],[101.581281551259,3.16673946963946],[101.581281551259,3.166415913650086]]]},"properties":{"place_id":"26cc99b9-2c50-55b9-896e-5cc74ae8009f","habitat":"permanent_water","habitat_label":"Permanent water","resolution_m":50}},{"type":"Feature","geometry":{"type":"MultiPolygon","coordinates":[[[[101.581281551259,3.167593458738722],[101.58179975964957,3.1670624283054805],[101.58076334286845,3.1672087787452923],[101.58076334286845,3.167593458738722],[101.581281551259,3.167593458738722]]],[[[101.581281551259,3.16673946963946],[101.58231796804012,3.1668084285348206],[101.58231796804012,3.166415913650086],[101.58179975964957,3.166415913650086],[101.581281551259,3.1656579760662855],[101.581281551259,3.16673946963946]]],[[[101.58539928894196,3.1805465408561395],[101.58536729999999,3.1805165964839515],[101.5853462391207,3.1805465408561395],[101.58539928894196,3.1805465408561395]]]]},"properties":{"place_id":"26cc99b9-2c50-55b9-896e-5cc74ae8009f","habitat":"water_edge","habitat_label":"Water edge","resolution_m":50}}]}