{"type":"FeatureCollection","metadata":{"schema_version":1,"place_id":"2739c705-88be-58f0-b7d2-5a002199c5aa","place_name":"Bukit Mas Forest Reserve","place_type":"forest","osm_reference":"way/338721785","protection_context":"no protected status confirmed from included OSM tags","resolution_m":50,"raster_coverage":1.0,"interpretation":"Suggested search habitats, not predicted plant locations or probabilities of presence."},"features":[{"type":"Feature","geometry":{"type":"MultiPolygon","coordinates":[[[[114.99976961643623,4.732715080688839],[114.99976961643623,4.7326941216901135],[114.99975397677626,4.732715080688839],[114.99976961643623,4.732715080688839]]],[[[115.00650632551351,4.743725791321251],[115.00650632551351,4.744119034145486],[115.00702453390407,4.744119034145486],[115.00702453390407,4.745280175000824],[115.0080609506852,4.745692007622923],[115.00782149999999,4.747629394824252],[115.0073047,4.747791694824078],[115.00760199999998,4.748807494823024],[115.00806210000002,4.749470594822321],[115.00909736746631,4.74923121070811],[115.00909736746631,4.74962445658646],[115.00961557585688,4.74962445658646],[115.00961557585688,4.750017702683103],[115.00912664338423,4.750017702683103],[115.00929576258994,4.750410948998052],[115.01013378424744,4.750804195531328],[115.01013378424744,4.751590689252931],[115.01065199263802,4.751590689252931],[115.01065199263802,4.751983936441295],[115.01013378424744,4.751983936441295],[115.01013378424744,4.75268818932576],[115.0107448,4.752673094819007],[115.01168840941912,4.753950175659481],[115.01220661780968,4.753950175659481],[115.01220661780968,4.755363513868634],[115.01296039999995,4.75509969481649],[115.01324455516114,4.7555231709667725],[115.01427945137192,4.7555231709667725],[115.01427945137192,4.755916420339964],[115.01583407654363,4.7567029197421125],[115.01558650000001,4.757251194814303],[115.0163226,4.756736194814829],[115.0167119,4.757378194814158],[115.01605432055125,4.757882670485039],[115.01635228493416,4.75827592117001],[115.01583407654363,4.75827592117001],[115.0163934,4.758746594812732],[115.01583407654363,4.75906242319605],[115.01635228493416,4.75906242319605],[115.01640717580352,4.760242177875639],[115.01687049332473,4.760242177875639],[115.01687049332473,4.760635429873051],[115.01738870171529,4.760635429873051],[115.0184251184964,4.761421934524306],[115.01852400000001,4.761984394809394],[115.0193026,4.762301794809063],[115.01946153527753,4.7641747076981735],[115.0200105,4.76411469480718],[115.02049795205866,4.7645679618844605],[115.02101616044921,4.763781453730858],[115.02190183001656,4.763781453730858],[115.02186759999998,4.763537294807752],[115.02146825107747,4.762601693142547],[115.02101616044921,4.762601693142547],[115.02101616044921,4.761815187178187],[115.02049795205866,4.761815187178187],[115.02049795205866,4.761028682089268],[115.0199797436681,4.761028682089268],[115.0199797436681,4.760635429873051],[115.02049004421653,4.760635429873051],[115.0199797436681,4.760242177875639],[115.0198228095319,4.75906242319605],[115.01946153527753,4.75906242319605],[115.01946153527753,4.75827592117001],[115.01894332688697,4.75827592117001],[115.0188623052735,4.7574894200187465],[115.0184251184964,4.7574894200187465],[115.0184251184964,4.7567029197421125],[115.01888499999998,4.756679794814854],[115.0184251184964,4.755916420339964],[115.01790691010586,4.755916420339964],[115.01790691010586,4.7555231709667725],[115.01834538238055,4.7555231709667725],[115.01785983506001,4.75434342415852],[115.01738870171529,4.75434342415852],[115.01738870171529,4.7531636793168595],[115.01635228493416,4.752770431473242],[115.0166765,4.751643194820072],[115.01576339999998,4.751756094819963],[115.0151759,4.751008394820741],[115.016811,4.749138994822675],[115.01635228493416,4.748837965048027],[115.01635228493416,4.746478495670199],[115.01583407654363,4.746478495670199],[115.01583407654363,4.743935220102869],[115.0154449,4.743672094828343],[115.01580589999998,4.743453394828554],[115.01531586815305,4.74333254871503],[115.01531586815305,4.743725791321251],[115.0147976597625,4.743725791321251],[115.0147976597625,4.74333254871503],[115.01376124298136,4.742939306326805],[115.01376124298136,4.742546064156556],[115.01427945137192,4.742546064156556],[115.01427945137192,4.742152822204264],[115.01527499999999,4.741647494830423],[115.01393720000002,4.740631694831464],[115.0131444,4.742211894829861],[115.01186319999998,4.741421794830683],[115.01013378424744,4.7413663389534815],[115.00959109999998,4.742021394830039],[115.0105113,4.744490394827472],[115.00844439999997,4.740716394831385],[115.00859129999999,4.740430794831702],[115.00961557585688,4.740973097654955],[115.00961557585688,4.740579856574311],[115.01013378424744,4.740579856574311],[115.0128345,4.741884894830173],[115.01421320000001,4.740088594832054],[115.01376124298136,4.739400134639504],[115.0147976597625,4.739006894430213],[115.0147976597625,4.739400134639504],[115.01531586815305,4.739400134639504],[115.01531586815305,4.739793375066605],[115.0147976597625,4.739793375066605],[115.01526409999997,4.740437694831683],[115.0148575,4.740867194831225],[115.01581352696944,4.741759580469913],[115.01583407654363,4.739400134639504],[115.01619155687655,4.739400134639504],[115.01586580000001,4.738889994833278],[115.01642680000002,4.738881894833284],[115.01583407654363,4.738220414664995],[115.01531586815305,4.738220414664995],[115.01531586815305,4.737827175109027],[115.0154023,4.737512494834712],[115.0167846,4.737293694834937],[115.01628859999997,4.735454294836852],[115.01570309999997,4.734959994837348],[115.01513400000002,4.735211194837087],[115.01455669999999,4.734635794837673],[115.0136379,4.732423694839954],[115.0143776576057,4.730355664894739],[115.01376124298136,4.730355664894739],[115.01376124298136,4.73007567429236],[115.01232069999999,4.730681494841791],[115.0117109,4.730260094842235],[115.01427945137192,4.72917595993267],[115.01427336341364,4.728782725380002],[115.01376124298136,4.728782725380002],[115.01420730000001,4.72814939484441],[115.0127478,4.728409894844129],[115.01278939999997,4.727728694844833],[115.0141404,4.727245994845316],[115.01395616844357,4.725243624182919],[115.01272482620026,4.724850391802565],[115.01256029999999,4.723275494849466],[115.01318140803632,4.722884233157369],[115.0125761,4.721325794851487],[115.0119831,4.7213864948514],[115.01178439999997,4.720953994851872],[115.0120302,4.7194620948534025],[115.01155230000002,4.7188562948540325],[115.01197330000001,4.717981894854955],[115.01046429999997,4.719486894853371],[115.0101718,4.719108494853754],[115.0108555,4.718352394854544],[115.01060870000002,4.717466194855479],[115.01198799999999,4.71675269485622],[115.0093695,4.7168886948560615],[115.00911739999998,4.717813594855104],[115.0095466,4.71805419485485],[115.00847080000001,4.721050594851759],[115.0067463,4.720598994852216],[115.0040159,4.720775394852028],[114.9968993,4.722657194850111],[114.99751769999999,4.723902394848792],[114.9983992,4.729991994842475],[114.99894933179942,4.730748900316847],[115.00080603321736,4.731535371813297],[115.00080603321736,4.732321844179517],[114.99976961643623,4.732715080688839],[114.99976961643623,4.733501554359993],[115.0002878248268,4.733501554359993],[115.00080603321736,4.732715080688839],[115.00184244999846,4.733108317415659],[115.00184244999846,4.734288028901288],[115.00236065838904,4.734288028901288],[115.00236065838904,4.734681266498281],[115.00184244999846,4.734681266498281],[115.00132424160793,4.73546774234506],[115.00184244999846,4.73546774234506],[115.00184244999846,4.736200422362191],[115.00245283371213,4.737040696650285],[115.0028788667796,4.737040696650285],[115.00269860931074,4.738613654438717],[115.0028788667796,4.738880277484696],[115.00425480000001,4.737917594834279],[115.00470700000001,4.738628294833537],[115.00407699999997,4.739291394832854],[115.00354609999997,4.73864949483354],[115.00328419999998,4.7388046948333855],[115.00339707517017,4.74085136298284],[115.0039152835607,4.740973097654955],[115.0039152835607,4.741759580469913],[115.00443349195127,4.741759580469913],[115.00443349195127,4.742490725017264],[115.00650632551351,4.743725791321251]]],[[[115.01615706548866,4.750410948998052],[115.0162164,4.750443994821323],[115.01626878009233,4.750410948998052],[115.01615706548866,4.750410948998052]]],[[[115.00495170034183,4.74333254871503],[115.00509629999999,4.743587394828408],[115.00519222013448,4.74333254871503],[115.00495170034183,4.74333254871503]]]]},"properties":{"place_id":"2739c705-88be-58f0-b7d2-5a002199c5aa","habitat":"forest_interior","habitat_label":"Forest interior","resolution_m":50}},{"type":"Feature","geometry":{"type":"MultiPolygon","coordinates":[[[[114.99866352166542,4.730355664894739],[114.99873319965512,4.730451532202098],[114.99873319965512,4.730355664894739],[114.99866352166542,4.730355664894739]]],[[[114.99925140804567,4.730748900316847],[114.99894933179942,4.730748900316847],[114.99925140804567,4.730887277642812],[114.99925140804567,4.730748900316847]]],[[[115.0002878248268,4.731142135956358],[114.9998109924307,4.731142135956358],[115.0001812,4.731945594840481],[114.99976961643623,4.732715080688839],[115.00080603321736,4.732321844179517],[115.00080603321736,4.731535371813297],[115.0002878248268,4.731535371813297],[115.0002878248268,4.731142135956358]]],[[[115.00236065838904,4.734681266498281],[115.00132424160793,4.732715080688839],[115.00080603321736,4.732715080688839],[115.0002878248268,4.733501554359993],[114.99976961643623,4.733501554359993],[114.99975397677626,4.732715080688839],[114.99949820000002,4.734003794838343],[115.00184244999846,4.736200422362191],[115.00184244999846,4.73546774234506],[115.00132424160793,4.73546774234506],[115.00132424160793,4.735074504312868],[115.00236065838904,4.734681266498281]]],[[[115.00218600627613,4.736647457747474],[115.00236065838904,4.7369048525630655],[115.00236065838904,4.736647457747474],[115.00218600627613,4.736647457747474]]],[[[115.0028788667796,4.73795279577638],[115.00286097781742,4.738220414664995],[115.0028788667796,4.738220414664995],[115.0028788667796,4.73795279577638]]],[[[115.0028788667796,4.737040696650285],[115.00245283371213,4.737040696650285],[115.0028788667796,4.737786196763859],[115.0028788667796,4.737040696650285]]],[[[115.0028788667796,4.738613654438717],[115.00269359999997,4.7388413948333445],[115.00284,4.738946694833213],[115.0028788667796,4.738613654438717]]],[[[115.00339707517017,4.739400134639504],[115.00308599999998,4.740681094831435],[115.00339707517017,4.74085136298284],[115.00339707517017,4.739400134639504]]],[[[115.00443349195127,4.741759580469913],[115.0039152835607,4.741759580469913],[115.0039152835607,4.741217780556656],[115.00379390000002,4.7419437948301155],[115.00420439999996,4.742501094829535],[115.00443349195127,4.741759580469913]]],[[[115.0039152835607,4.740973097654955],[115.00364914564474,4.740973097654955],[115.0039152835607,4.741047396683618],[115.0039152835607,4.740973097654955]]],[[[115.0048698,4.74417289482782],[115.00546990873241,4.742939306326805],[115.00456062460607,4.742546064156556],[115.0048698,4.74417289482782]]],[[[115.00598811712297,4.74333254871503],[115.00572235829766,4.74333254871503],[115.00598811712297,4.743655744186731],[115.00598811712297,4.74333254871503]]],[[[115.00702453390407,4.744119034145486],[115.0060353116936,4.743725791321251],[115.00702453390407,4.745280175000824],[115.00702453390407,4.744119034145486]]],[[[115.00754274229465,4.745692007622923],[115.00754274229465,4.745298763926451],[115.00704128101066,4.745298763926451],[115.0080609506852,4.746478495670199],[115.0080609506852,4.745692007622923],[115.00754274229465,4.745692007622923]]],[[[115.00857915907578,4.7494362314201375],[115.00912664338423,4.750017702683103],[115.00961557585688,4.750017702683103],[115.00909736746631,4.74923121070811],[115.00857915907578,4.7494362314201375]]],[[[115.01013378424744,4.750804195531328],[115.00929576258994,4.750410948998052],[115.01013378424744,4.75268818932576],[115.01013378424744,4.751983936441295],[115.01065199263802,4.751983936441295],[115.01065199263802,4.751590689252931],[115.01013378424744,4.751590689252931],[115.01013378424744,4.750804195531328]]],[[[115.01168840941912,4.719345161267864],[115.01196268741226,4.719345161267864],[115.01168840941912,4.718983769362421],[115.01168840941912,4.719345161267864]]],[[[115.01272482620026,4.722884233157369],[115.01272482620026,4.723259909951562],[115.01333199999999,4.723202394849527],[115.01318140803632,4.722884233157369],[115.01272482620026,4.722884233157369]]],[[[115.01272482620026,4.724850391802565],[115.01324303459081,4.724850391802565],[115.01324303459081,4.725243624182919],[115.01395616844357,4.725243624182919],[115.01272482620026,4.724178033784481],[115.01272482620026,4.724850391802565]]],[[[115.01376124298136,4.72838949104465],[115.01376124298136,4.728782725380002],[115.01427336341364,4.728782725380002],[115.01423234470901,4.72838949104465],[115.01376124298136,4.72838949104465]]],[[[115.01427945137192,4.72917595993267],[115.01376124298136,4.72917595993267],[115.01376124298136,4.729428176673893],[115.01433069999997,4.729332394843161],[115.01427945137192,4.728841088875522],[115.01427945137192,4.72917595993267]]],[[[115.01324303459081,4.729569194702669],[115.01324303459081,4.7296384374891085],[115.0134136902088,4.729569194702669],[115.01324303459081,4.729569194702669]]],[[[115.01376124298136,4.730355664894739],[115.0143776576057,4.730355664894739],[115.01424770000001,4.7298710948426335],[115.01376124298136,4.73007567429236],[115.01376124298136,4.730355664894739]]],[[[115.01583407654363,4.738220414664995],[115.01583407654363,4.738613654438717],[115.01626266679594,4.738613654438717],[115.0160202,4.738217394833977],[115.01531586815305,4.737827175109027],[115.01531586815305,4.738220414664995],[115.01583407654363,4.738220414664995]]],[[[115.01583407654363,4.737433935770798],[115.01583407654363,4.7374780313022296],[115.01626591811856,4.737433935770798],[115.01583407654363,4.737433935770798]]],[[[115.01427945137192,4.739006894430213],[115.01376124298136,4.739793375066605],[115.0147843,4.7394409948327025],[115.01447539999997,4.73984619483228],[115.0147976597625,4.740112812604237],[115.01531586815305,4.739400134639504],[115.01427945137192,4.739006894430213]]],[[[115.01583407654363,4.739400134639504],[115.01583407654363,4.7416964363057446],[115.01626420000001,4.739513894832631],[115.01583407654363,4.739400134639504]]],[[[115.01013378424744,4.740853536227458],[115.00961557585688,4.740579856574311],[115.0094174,4.741270094830812],[115.01013378424744,4.740853536227458]]],[[[115.01013378424744,4.741759580469913],[115.01013378424744,4.7413663389534815],[115.01065199263802,4.7413663389534815],[115.0101573,4.740998594831086],[115.0097421396076,4.741759580469913],[115.01013378424744,4.741759580469913]]],[[[115.01576060330147,4.741759580469913],[115.01580070000001,4.741798994830272],[115.01581352696944,4.741759580469913],[115.01576060330147,4.741759580469913]]],[[[115.01427945137192,4.742152822204264],[115.01376124298136,4.742939306326805],[115.01531586815305,4.743725791321251],[115.01531586815305,4.74333254871503],[115.0157099960903,4.74333254871503],[115.01445389999998,4.743058394828972],[115.01427945137192,4.742152822204264]]],[[[115.01021313402484,4.752770431473242],[115.01040509999999,4.7529693948187],[115.01057811160342,4.752770431473242],[115.01021313402484,4.752770431473242]]],[[[115.01220661780968,4.753950175659481],[115.01141428339909,4.753556927378935],[115.01172870000002,4.755353594816243],[115.01220661780968,4.755363513868634],[115.01220661780968,4.753950175659481]]],[[[115.01427945137192,4.755916420339964],[115.01427945137192,4.7555231709667725],[115.01324455516114,4.7555231709667725],[115.01583407654363,4.757096169771111],[115.01583407654363,4.7567029197421125],[115.01427945137192,4.755916420339964]]],[[[115.01605432055125,4.757882670485039],[115.01527499999999,4.758231694813259],[115.01548029999998,4.758513794812981],[115.01635228493416,4.75827592117001],[115.01605432055125,4.757882670485039]]],[[[115.01635228493416,4.75906242319605],[115.0156502,4.758817194812665],[115.01635228493416,4.7597355675076765],[115.01635228493416,4.75906242319605]]],[[[115.01583407654363,4.735074504312868],[115.01583873689233,4.735074504312868],[115.01583407654363,4.7350705698808495],[115.01583407654363,4.735074504312868]]],[[[115.01635228493416,4.736254219062345],[115.01650809999998,4.736191694836058],[115.01635228493416,4.7356682413203055],[115.01635228493416,4.736254219062345]]],[[[115.01635228493416,4.746478495670199],[115.01635228493416,4.748837965048027],[115.01676942983977,4.748837965048027],[115.01614569999998,4.7438272948281535],[115.01583407654363,4.746478495670199],[115.01635228493416,4.746478495670199]]],[[[115.01583407654363,4.750398271714574],[115.0164288,4.750309994821481],[115.01671004744323,4.74962445658646],[115.01583407654363,4.750017702683103],[115.01583407654363,4.750398271714574]]],[[[115.01635228493416,4.752770431473242],[115.01738870171529,4.7531636793168595],[115.01738870171529,4.75434342415852],[115.01785983506001,4.75434342415852],[115.01735429999997,4.752683694819007],[115.0169349,4.7528282948188485],[115.01660609254115,4.751983936441295],[115.01635228493416,4.752770431473242]]],[[[115.01790691010586,4.75473667287607],[115.01800966676029,4.75473667287607],[115.01790691010586,4.754471448953151],[115.01790691010586,4.75473667287607]]],[[[115.01790691010586,4.7555231709667725],[115.0187113688252,4.756309669931737],[115.01834538238055,4.7555231709667725],[115.01790691010586,4.7555231709667725]]],[[[115.0184251184964,4.7574894200187465],[115.0188623052735,4.7574894200187465],[115.0188675948442,4.7567029197421125],[115.0184251184964,4.7567029197421125],[115.0184251184964,4.7574894200187465]]],[[[115.01894332688697,4.75827592117001],[115.01946153527753,4.75827592117001],[115.01946153527753,4.75906242319605],[115.0198228095319,4.75906242319605],[115.019423,4.757850794813656],[115.01916810000002,4.7580482948134355],[115.01894332688697,4.757628710821871],[115.01894332688697,4.75827592117001]]],[[[115.0199797436681,4.760242177875639],[115.02032093587182,4.760242177875639],[115.0199797436681,4.759448755154874],[115.0199797436681,4.760242177875639]]],[[[115.01687049332473,4.760635429873051],[115.01687049332473,4.760242177875639],[115.01640717580352,4.760242177875639],[115.0170517,4.761025094810379],[115.01738870171529,4.760635429873051],[115.01687049332473,4.760635429873051]]],[[[115.0184251184964,4.761421934524306],[115.01821355411467,4.761421934524306],[115.0184251184964,4.761822236332052],[115.0184251184964,4.761421934524306]]],[[[115.01768169999997,4.7614764948099],[115.01760346576117,4.761028682089268],[115.01746220000001,4.7614129948099775],[115.01768169999997,4.7614764948099]]],[[[115.02049795205866,4.761028682089268],[115.02049795205866,4.761815187178187],[115.02101616044921,4.761815187178187],[115.02101616044921,4.762601693142547],[115.02146825107747,4.762601693142547],[115.02049004421653,4.760635429873051],[115.0199797436681,4.760635429873051],[115.0199797436681,4.761028682089268],[115.02049795205866,4.761028682089268]]],[[[115.02153436883977,4.763388199982494],[115.02178248304277,4.763388199982494],[115.02153436883977,4.762764642720069],[115.02153436883977,4.763388199982494]]],[[[115.01946153527753,4.7641747076981735],[115.01946153527753,4.762601693142547],[115.01941965841596,4.762601693142547],[115.0187788,4.763056594808274],[115.01946539999999,4.76433339480695],[115.01990929844591,4.7641747076981735],[115.01946153527753,4.7641747076981735]]],[[[115.02101616044921,4.7641747076981735],[115.02049795205866,4.7641747076981735],[115.02048959999998,4.764677594806599],[115.02139459999998,4.763912294807379],[115.02191559999997,4.764354294806921],[115.02190183001656,4.763781453730858],[115.02101616044921,4.763781453730858],[115.02101616044921,4.7641747076981735]]]]},"properties":{"place_id":"2739c705-88be-58f0-b7d2-5a002199c5aa","habitat":"forest_edge_opening","habitat_label":"Forest edge or opening","resolution_m":50}},{"type":"Feature","geometry":{"type":"MultiPolygon","coordinates":[[[[115.00000383936228,4.732321844179517],[115.0002878248268,4.731535371813297],[115.00014101111464,4.731535371813297],[115.00000383936228,4.732321844179517]]],[[[115.00080603321736,4.733501554359993],[115.0002878248268,4.733501554359993],[115.0002878248268,4.733894791521863],[115.00132424160793,4.733894791521863],[115.00132424160793,4.733108317415659],[115.00080603321736,4.733108317415659],[115.00080603321736,4.733501554359993]]],[[[115.00132424160793,4.734681266498281],[115.00184244999846,4.734681266498281],[115.00184244999846,4.734288028901288],[115.00132424160793,4.734288028901288],[115.00132424160793,4.734681266498281]]],[[[115.0002878248268,4.734288028901288],[114.99991290000001,4.73447379483783],[115.0002878248268,4.734781031245747],[115.0002878248268,4.734288028901288]]],[[[115.01427945137192,4.739441585891468],[115.0147843,4.7394409948327025],[115.0147976597625,4.739793375066605],[115.0147976597625,4.739400134639504],[115.01427945137192,4.739441585891468]]],[[[115.01427945137192,4.742644815564178],[115.01430322226356,4.742546064156556],[115.01427945137192,4.742546064156556],[115.01427945137192,4.742644815564178]]],[[[115.01427945137192,4.742939306326805],[115.01439529534505,4.742939306326805],[115.01427945137192,4.742703903835136],[115.01427945137192,4.742939306326805]]],[[[115.0147976597625,4.7431564327798865],[115.01531586815305,4.74333254871503],[115.01531586815305,4.7431500948288825],[115.0147976597625,4.7431564327798865]]],[[[115.02101616044921,4.7641747076981735],[115.021101,4.764387894806913],[115.02108226405748,4.7641747076981735],[115.02101616044921,4.7641747076981735]]],[[[115.02178020357111,4.7641747076981735],[115.02191559999997,4.764354294806921],[115.02192125263778,4.7641747076981735],[115.02178020357111,4.7641747076981735]]]]},"properties":{"place_id":"2739c705-88be-58f0-b7d2-5a002199c5aa","habitat":"open_grassland","habitat_label":"Open grassland or shrubland","resolution_m":50}},{"type":"Feature","geometry":{"type":"MultiPolygon","coordinates":[[[[114.99866352166542,4.730355664894739],[114.99873319965512,4.730451532202098],[114.99873319965512,4.730355664894739],[114.99866352166542,4.730355664894739]]],[[[114.99925140804567,4.730748900316847],[114.99894933179942,4.730748900316847],[114.99925140804567,4.730887277642812],[114.99925140804567,4.730748900316847]]],[[[115.00184244999846,4.733894791521863],[115.00132424160793,4.733894791521863],[115.00132424160793,4.733501554359993],[115.00080603321736,4.733501554359993],[115.00080603321736,4.733894791521863],[114.99976961643623,4.733894791521863],[114.99975397677626,4.732715080688839],[114.99949820000002,4.734003794838343],[115.00184244999846,4.736200422362191],[115.00184244999846,4.73546774234506],[115.00132424160793,4.73546774234506],[115.00184244999846,4.733894791521863]]],[[[115.00236065838904,4.736647457747474],[115.00218600627613,4.736647457747474],[115.00236065838904,4.7369048525630655],[115.00236065838904,4.736647457747474]]],[[[115.0028788667796,4.73795279577638],[115.00286097781742,4.738220414664995],[115.0028788667796,4.738220414664995],[115.0028788667796,4.73795279577638]]],[[[115.0028788667796,4.737040696650285],[115.00245283371213,4.737040696650285],[115.0028788667796,4.737786196763859],[115.0028788667796,4.737040696650285]]],[[[115.0028788667796,4.738880277484696],[115.00269860931074,4.738613654438717],[115.00284,4.738946694833213],[115.0028788667796,4.738880277484696]]],[[[115.00339707517017,4.739400134639504],[115.00308599999998,4.740681094831435],[115.00339707517017,4.74085136298284],[115.00339707517017,4.739400134639504]]],[[[115.01013378424744,4.740853536227458],[115.00961557585688,4.740579856574311],[115.0094174,4.741270094830812],[115.01013378424744,4.740853536227458]]],[[[115.01013378424744,4.741759580469913],[115.01013378424744,4.7413663389534815],[115.01065199263802,4.7413663389534815],[115.0101573,4.740998594831086],[115.0097421396076,4.741759580469913],[115.01013378424744,4.741759580469913]]],[[[115.00443349195127,4.741759580469913],[115.0039152835607,4.741759580469913],[115.0039152835607,4.741217780556656],[115.00379390000002,4.7419437948301155],[115.00420439999996,4.742501094829535],[115.00443349195127,4.741759580469913]]],[[[115.0039152835607,4.740973097654955],[115.00364914564474,4.740973097654955],[115.0039152835607,4.741047396683618],[115.0039152835607,4.740973097654955]]],[[[115.0048698,4.74417289482782],[115.00546990873241,4.742939306326805],[115.00456062460607,4.742546064156556],[115.0048698,4.74417289482782]]],[[[115.00598811712297,4.74333254871503],[115.00579000000002,4.743361694828651],[115.00598811712297,4.743655744186731],[115.00598811712297,4.74333254871503]]],[[[115.00650632551351,4.744119034145486],[115.00650632551351,4.743725791321251],[115.0060353116936,4.743725791321251],[115.00702453390407,4.745280175000824],[115.00702453390407,4.744119034145486],[115.00650632551351,4.744119034145486]]],[[[115.00857915907578,4.7494362314201375],[115.00912664338423,4.750017702683103],[115.00961557585688,4.750017702683103],[115.00909736746631,4.74923121070811],[115.00857915907578,4.7494362314201375]]],[[[115.00961557585688,4.750804195531328],[115.00929576258994,4.750410948998052],[115.01013378424744,4.75268818932576],[115.01013378424744,4.751983936441295],[115.01065199263802,4.751983936441295],[115.01065199263802,4.751590689252931],[115.01013378424744,4.751590689252931],[115.01013378424744,4.750804195531328],[115.00961557585688,4.750804195531328]]],[[[115.01021313402484,4.752770431473242],[115.01040509999999,4.7529693948187],[115.01057811160342,4.752770431473242],[115.01021313402484,4.752770431473242]]],[[[115.01168840941912,4.719345161267864],[115.01196268741226,4.719345161267864],[115.01168840941912,4.718983769362421],[115.01168840941912,4.719345161267864]]],[[[115.01272482620026,4.722884233157369],[115.01272482620026,4.723259909951562],[115.01333199999999,4.723202394849527],[115.01318140803632,4.722884233157369],[115.01272482620026,4.722884233157369]]],[[[115.01272482620026,4.724850391802565],[115.01324303459081,4.724850391802565],[115.01324303459081,4.725243624182919],[115.01395616844357,4.725243624182919],[115.01272482620026,4.724178033784481],[115.01272482620026,4.724850391802565]]],[[[115.01376124298136,4.72838949104465],[115.01376124298136,4.728782725380002],[115.01427336341364,4.728782725380002],[115.01423234470901,4.72838949104465],[115.01376124298136,4.72838949104465]]],[[[115.01427945137192,4.72917595993267],[115.01376124298136,4.72917595993267],[115.01376124298136,4.729428176673893],[115.01433069999997,4.729332394843161],[115.01427945137192,4.728841088875522],[115.01427945137192,4.72917595993267]]],[[[115.01324303459081,4.729569194702669],[115.01324303459081,4.7296384374891085],[115.0134136902088,4.729569194702669],[115.01324303459081,4.729569194702669]]],[[[115.01376124298136,4.730355664894739],[115.0143776576057,4.730355664894739],[115.01424770000001,4.7298710948426335],[115.01376124298136,4.73007567429236],[115.01376124298136,4.730355664894739]]],[[[115.01583407654363,4.735074504312868],[115.01583873689233,4.735074504312868],[115.01583407654363,4.7350705698808495],[115.01583407654363,4.735074504312868]]],[[[115.01531586815305,4.738220414664995],[115.01583407654363,4.738220414664995],[115.01583407654363,4.738613654438717],[115.01626266679594,4.738613654438717],[115.0160202,4.738217394833977],[115.01538988642587,4.737827175109027],[115.01531586815305,4.738220414664995]]],[[[115.01583407654363,4.737433935770798],[115.01583407654363,4.7374780313022296],[115.01626591811856,4.737433935770798],[115.01583407654363,4.737433935770798]]],[[[115.01619155687655,4.739400134639504],[115.01583407654363,4.739793375066605],[115.01622975151822,4.739793375066605],[115.01619155687655,4.739400134639504]]],[[[115.01583407654363,4.740186615711534],[115.01583407654363,4.7416964363057446],[115.01618128105366,4.740186615711534],[115.01583407654363,4.740186615711534]]],[[[115.01576060330147,4.741759580469913],[115.01580070000001,4.741798994830272],[115.01581352696944,4.741759580469913],[115.01576060330147,4.741759580469913]]],[[[115.01531586815305,4.74333254871503],[115.0157099960903,4.74333254871503],[115.01556520000001,4.7431500948288825],[115.01531586815305,4.74333254871503]]],[[[115.01583407654363,4.750398271714574],[115.0164288,4.750309994821481],[115.01671004744323,4.74962445658646],[115.01583407654363,4.750017702683103],[115.01583407654363,4.750398271714574]]],[[[115.01220661780968,4.753950175659481],[115.01141428339909,4.753556927378935],[115.01172870000002,4.755353594816243],[115.01220661780968,4.755363513868634],[115.01220661780968,4.753950175659481]]],[[[115.01427945137192,4.755916420339964],[115.01427945137192,4.7555231709667725],[115.01324455516114,4.7555231709667725],[115.01583407654363,4.757096169771111],[115.01583407654363,4.7567029197421125],[115.01427945137192,4.755916420339964]]],[[[115.01635228493416,4.757882670485039],[115.01527499999999,4.758231694813259],[115.01548029999998,4.758513794812981],[115.01635228493416,4.75827592117001],[115.01635228493416,4.757882670485039]]],[[[115.01635228493416,4.759455674537158],[115.01635228493416,4.75906242319605],[115.015728,4.758746594812732],[115.01579879999998,4.759212194812267],[115.01635228493416,4.759455674537158]]],[[[115.01635228493416,4.736254219062345],[115.01650809999998,4.736191694836058],[115.01635228493416,4.7356682413203055],[115.01635228493416,4.736254219062345]]],[[[115.01635228493416,4.746478495670199],[115.01635228493416,4.748837965048027],[115.01676942983977,4.748837965048027],[115.01614569999998,4.7438272948281535],[115.01583407654363,4.746478495670199],[115.01635228493416,4.746478495670199]]],[[[115.01635228493416,4.751983936441295],[115.01635228493416,4.752770431473242],[115.01738870171529,4.7531636793168595],[115.01738870171529,4.75434342415852],[115.01785983506001,4.75434342415852],[115.01735429999997,4.752683694819007],[115.0169349,4.7528282948188485],[115.01635228493416,4.751983936441295]]],[[[115.01790691010586,4.75473667287607],[115.01797190000002,4.754648194816981],[115.01790691010586,4.754471448953151],[115.01790691010586,4.75473667287607]]],[[[115.01790691010586,4.7555231709667725],[115.0187113688252,4.756309669931737],[115.01834538238055,4.7555231709667725],[115.01790691010586,4.7555231709667725]]],[[[115.0184251184964,4.7574894200187465],[115.0188623052735,4.7574894200187465],[115.0188675948442,4.7567029197421125],[115.0184251184964,4.7567029197421125],[115.0184251184964,4.7574894200187465]]],[[[115.01894332688697,4.75827592117001],[115.01946153527753,4.75827592117001],[115.01946153527753,4.75906242319605],[115.0198228095319,4.75906242319605],[115.019423,4.757850794813656],[115.01916810000002,4.7580482948134355],[115.01894332688697,4.757628710821871],[115.01894332688697,4.75827592117001]]],[[[115.0199797436681,4.760242177875639],[115.02032093587182,4.760242177875639],[115.0199797436681,4.759448755154874],[115.0199797436681,4.760242177875639]]],[[[115.01687049332473,4.760635429873051],[115.01687049332473,4.760242177875639],[115.01640717580352,4.760242177875639],[115.0170517,4.761025094810379],[115.01738870171529,4.760635429873051],[115.01687049332473,4.760635429873051]]],[[[115.0184251184964,4.761421934524306],[115.01821355411467,4.761421934524306],[115.0184251184964,4.761822236332052],[115.0184251184964,4.761421934524306]]],[[[115.01768169999997,4.7614764948099],[115.01760346576117,4.761028682089268],[115.01746220000001,4.7614129948099775],[115.01768169999997,4.7614764948099]]],[[[115.02049795205866,4.761028682089268],[115.02049795205866,4.761815187178187],[115.02101616044921,4.761815187178187],[115.02101616044921,4.762601693142547],[115.02146825107747,4.762601693142547],[115.02049004421653,4.760635429873051],[115.0199797436681,4.760635429873051],[115.0199797436681,4.761028682089268],[115.02049795205866,4.761028682089268]]],[[[115.02153436883977,4.763388199982494],[115.02178248304277,4.763388199982494],[115.02153436883977,4.762764642720069],[115.02153436883977,4.763388199982494]]],[[[115.01946153527753,4.7641747076981735],[115.01946153527753,4.762601693142547],[115.01941965841596,4.762601693142547],[115.0187788,4.763056594808274],[115.01946539999999,4.76433339480695],[115.01990929844591,4.7641747076981735],[115.01946153527753,4.7641747076981735]]],[[[115.02049795205866,4.7641747076981735],[115.0207293,4.764688394806594],[115.02108226405748,4.7641747076981735],[115.02049795205866,4.7641747076981735]]],[[[115.02178020357111,4.7641747076981735],[115.02191559999997,4.764354294806921],[115.02192125263778,4.7641747076981735],[115.02178020357111,4.7641747076981735]]]]},"properties":{"place_id":"2739c705-88be-58f0-b7d2-5a002199c5aa","habitat":"disturbed_built_edge","habitat_label":"Disturbed, bare or built edge","resolution_m":50}},{"type":"Feature","geometry":{"type":"Polygon","coordinates":[[[115.00754274229465,4.745692007622923],[115.00739556142017,4.745692007622923],[115.00754274229465,4.746029733796869],[115.00754274229465,4.745692007622923]]]},"properties":{"place_id":"2739c705-88be-58f0-b7d2-5a002199c5aa","habitat":"permanent_water","habitat_label":"Permanent water","resolution_m":50}},{"type":"Feature","geometry":{"type":"MultiPolygon","coordinates":[[[[115.0080609506852,4.746478495670199],[115.00857915907578,4.746478495670199],[115.00857915907578,4.745692007622923],[115.0080609506852,4.745692007622923],[115.00754274229465,4.744905520448067],[115.00687634348604,4.744905520448067],[115.00790731340679,4.746871740021041],[115.0080609506852,4.746478495670199]]],[[[115.00754274229465,4.7484447196062],[115.00748617842306,4.7484447196062],[115.00754274229465,4.748621888391419],[115.00754274229465,4.7484447196062]]]]},"properties":{"place_id":"2739c705-88be-58f0-b7d2-5a002199c5aa","habitat":"water_edge","habitat_label":"Water edge","resolution_m":50}}]}