{"type":"FeatureCollection","metadata":{"schema_version":1,"place_id":"27539508-6609-53ae-87d2-d7ece391b189","place_name":"Taman Bukit Lagi","place_type":"park","osm_reference":"way/1317632323","protection_context":"no protected status confirmed from included OSM tags","resolution_m":50,"raster_coverage":1.0,"interpretation":"Suggested search habitats, not predicted plant locations or probabilities of presence."},"features":[{"type":"Feature","geometry":{"type":"Polygon","coordinates":[[[100.19144664777536,6.417213092661198],[100.19144664777536,6.417401261714821],[100.19155763493401,6.417213092661198],[100.19144664777536,6.417213092661198]]]},"properties":{"place_id":"27539508-6609-53ae-87d2-d7ece391b189","habitat":"forest_interior","habitat_label":"Forest interior","resolution_m":50}},{"type":"Feature","geometry":{"type":"Polygon","coordinates":[[[100.19144664777536,6.414515172080431],[100.1913328,6.417594993148828],[100.19216019999999,6.41586239315052],[100.19184509999998,6.4145342931518075],[100.19144664777536,6.414515172080431]]]},"properties":{"place_id":"27539508-6609-53ae-87d2-d7ece391b189","habitat":"forest_edge_opening","habitat_label":"Forest edge or opening","resolution_m":50}},{"type":"Feature","geometry":{"type":"Polygon","coordinates":[[[100.19196485616592,6.414791823756091],[100.19143249999999,6.414514493151817],[100.19123197732924,6.41681875602128],[100.19190269999999,6.416630093149765],[100.19196485616592,6.414791823756091]]]},"properties":{"place_id":"27539508-6609-53ae-87d2-d7ece391b189","habitat":"open_grassland","habitat_label":"Open grassland or shrubland","resolution_m":50}},{"type":"Feature","geometry":{"type":"MultiPolygon","coordinates":[[[[100.19196485616592,6.414791823756091],[100.19184509999998,6.4145342931518075],[100.19144664777536,6.414515172080431],[100.19144664777536,6.41484707727871],[100.19196485616592,6.414791823756091]]],[[[100.19144664777536,6.417213092661198],[100.19126958647772,6.416424419678522],[100.19119436818075,6.417213092661198],[100.19144664777536,6.417213092661198]]]]},"properties":{"place_id":"27539508-6609-53ae-87d2-d7ece391b189","habitat":"disturbed_built_edge","habitat_label":"Disturbed, bare or built edge","resolution_m":50}}]}