{"type":"FeatureCollection","metadata":{"schema_version":1,"place_id":"275d54d2-667f-5afd-873a-fc56a773ced5","place_name":"Kota Kinabalu City Park","place_type":"park","osm_reference":"way/201230557","protection_context":"no protected status confirmed from included OSM tags","resolution_m":50,"raster_coverage":1.0,"interpretation":"Suggested search habitats, not predicted plant locations or probabilities of presence."},"features":[{"type":"Feature","geometry":{"type":"Polygon","coordinates":[[[116.07401561006843,5.980707378126834],[116.07455304229217,5.98164813591642],[116.07489355136352,5.98164813591642],[116.07433406459096,5.980466077455782],[116.07401561006843,5.980707378126834]]]},"properties":{"place_id":"275d54d2-667f-5afd-873a-fc56a773ced5","habitat":"forest_edge_opening","habitat_label":"Forest edge or opening","resolution_m":50}},{"type":"Feature","geometry":{"type":"Polygon","coordinates":[[[116.07468271473027,5.98125411615317],[116.07455304229217,5.98164813591642],[116.07489355136352,5.98164813591642],[116.07468271473027,5.98125411615317]]]},"properties":{"place_id":"275d54d2-667f-5afd-873a-fc56a773ced5","habitat":"open_grassland","habitat_label":"Open grassland or shrubland","resolution_m":50}},{"type":"Feature","geometry":{"type":"Polygon","coordinates":[[[116.07428459999998,5.980436393576491],[116.0745196,5.981587993575334],[116.07468129999998,5.9818787935750555],[116.07428459999998,5.980436393576491]]]},"properties":{"place_id":"275d54d2-667f-5afd-873a-fc56a773ced5","habitat":"disturbed_built_edge","habitat_label":"Disturbed, bare or built edge","resolution_m":50}}]}