{"type":"FeatureCollection","metadata":{"schema_version":1,"place_id":"277e08c1-4c49-5563-b17a-48a8d8be94af","place_name":"Taman Kejiranan Persiaran Paya Terubong 3","place_type":"park","osm_reference":"way/881670967","protection_context":"no protected status confirmed from included OSM tags","resolution_m":50,"raster_coverage":1.0,"interpretation":"Suggested search habitats, not predicted plant locations or probabilities of presence."},"features":[{"type":"Feature","geometry":{"type":"MultiPolygon","coordinates":[[[[100.27591461543675,5.335095842957538],[100.2758477,5.335301794222166],[100.27591461543675,5.33532594510007],[100.27591461543675,5.335095842957538]]],[[[100.2764328238273,5.335512975033261],[100.2769039,5.335682994221813],[100.2764328238273,5.335468579679919],[100.2764328238273,5.335512975033261]]]]},"properties":{"place_id":"277e08c1-4c49-5563-b17a-48a8d8be94af","habitat":"forest_edge_opening","habitat_label":"Forest edge or opening","resolution_m":50}},{"type":"Feature","geometry":{"type":"Polygon","coordinates":[[[100.2769039,5.335682994221813],[100.27612469999998,5.335347794222136],[100.2760624,5.334640994222856],[100.2758477,5.335301794222166],[100.2769039,5.335682994221813]]]},"properties":{"place_id":"277e08c1-4c49-5563-b17a-48a8d8be94af","habitat":"disturbed_built_edge","habitat_label":"Disturbed, bare or built edge","resolution_m":50}}]}