{"type":"FeatureCollection","metadata":{"schema_version":1,"place_id":"27e7303c-8a67-5109-9429-160c5619996b","place_name":"Taman AWANI","place_type":"park","osm_reference":"way/813007515","protection_context":"no protected status confirmed from included OSM tags","resolution_m":50,"raster_coverage":1.0,"interpretation":"Suggested search habitats, not predicted plant locations or probabilities of presence."},"features":[{"type":"Feature","geometry":{"type":"Polygon","coordinates":[[[100.27599119999999,5.38729219416954],[100.2758462,5.3882635941685235],[100.2768046,5.38796799416885],[100.27599119999999,5.38729219416954]]]},"properties":{"place_id":"27e7303c-8a67-5109-9429-160c5619996b","habitat":"forest_edge_opening","habitat_label":"Forest edge or opening","resolution_m":50}},{"type":"Feature","geometry":{"type":"Polygon","coordinates":[[[100.27599119999999,5.38729219416954],[100.2758462,5.3882635941685235],[100.2768046,5.38796799416885],[100.27599119999999,5.38729219416954]]]},"properties":{"place_id":"27e7303c-8a67-5109-9429-160c5619996b","habitat":"disturbed_built_edge","habitat_label":"Disturbed, bare or built edge","resolution_m":50}}]}