{"type":"FeatureCollection","metadata":{"schema_version":1,"place_id":"2883e021-5a4b-5554-891d-aa76f99b2cfc","place_name":"Lok Kawi Wildlife Park","place_type":"park","osm_reference":"way/469530319","protection_context":"no protected status confirmed from included OSM tags","resolution_m":50,"raster_coverage":1.0,"interpretation":"Suggested search habitats, not predicted plant locations or probabilities of presence."},"features":[{"type":"Feature","geometry":{"type":"MultiPolygon","coordinates":[[[[116.06847641404144,5.850454718219026],[116.06883352616282,5.850060789454968],[116.06986994294395,5.849666860961057],[116.06986994294395,5.850060789454968],[116.0703881513345,5.850060789454968],[116.0703881513345,5.8508486472532475],[116.06986994294395,5.8511035135154215],[116.07093949999997,5.851465193704202],[116.0713464,5.850018693705656],[116.07048420000001,5.849282793706373],[116.07037699999997,5.8478258937078],[116.06869789999998,5.846897393708744],[116.06921819999997,5.845840793709773],[116.06884269999999,5.845114993710529],[116.06767330000001,5.844997593710619],[116.06734069999999,5.843476693712123],[116.06599419999999,5.8437434937118775],[116.0665414,5.8447040937109245],[116.06648239999998,5.846555793709093],[116.06741040000001,5.847420393708217],[116.06748605096803,5.848091149686495],[116.06779710938169,5.847697222543034],[116.06883352616282,5.847697222543034],[116.06883352616282,5.848091149686495],[116.0693517345534,5.848091149686495],[116.06883352616282,5.848879004783596],[116.06805436594964,5.848879004783596],[116.06847641404144,5.850454718219026]]],[[[116.06779710938169,5.848485077100008],[116.06753919999997,5.848562393707096],[116.06779710938169,5.848720899826933],[116.06779710938169,5.848485077100008]]]]},"properties":{"place_id":"2883e021-5a4b-5554-891d-aa76f99b2cfc","habitat":"forest_interior","habitat_label":"Forest interior","resolution_m":50}},{"type":"Feature","geometry":{"type":"MultiPolygon","coordinates":[[[[116.06883352616282,5.848485077100008],[116.0693517345534,5.848485077100008],[116.0693517345534,5.848091149686495],[116.06883352616282,5.848091149686495],[116.06883352616282,5.847697222543034],[116.06779710938169,5.847697222543034],[116.06748605096803,5.848091149686495],[116.06779710938169,5.848720899826933],[116.06883352616282,5.848879004783596],[116.06883352616282,5.848485077100008]]],[[[116.0703881513345,5.8508486472532475],[116.0703881513345,5.850060789454968],[116.06986994294395,5.850060789454968],[116.06986994294395,5.849666860961057],[116.06847641404144,5.850454718219026],[116.06860399999998,5.851051793704614],[116.0703881513345,5.8508486472532475]]],[[[116.07090635972506,5.851242576557654],[116.0703881513345,5.851260560900114],[116.07090635972506,5.851452893704326],[116.07090635972506,5.851242576557654]]]]},"properties":{"place_id":"2883e021-5a4b-5554-891d-aa76f99b2cfc","habitat":"forest_edge_opening","habitat_label":"Forest edge or opening","resolution_m":50}},{"type":"Feature","geometry":{"type":"MultiPolygon","coordinates":[[[[116.06883352616282,5.848485077100008],[116.0693517345534,5.848485077100008],[116.0693517345534,5.848091149686495],[116.06883352616282,5.848091149686495],[116.06883352616282,5.847697222543034],[116.06779710938169,5.847697222543034],[116.06748605096803,5.848091149686495],[116.06779710938169,5.848720899826933],[116.06883352616282,5.848879004783596],[116.06883352616282,5.848485077100008]]],[[[116.0703881513345,5.8508486472532475],[116.0703881513345,5.850060789454968],[116.06986994294395,5.850060789454968],[116.06986994294395,5.849666860961057],[116.06847641404144,5.850454718219026],[116.06860399999998,5.851051793704614],[116.0703881513345,5.8508486472532475]]],[[[116.07090635972506,5.851242576557654],[116.0703881513345,5.851260560900114],[116.07090635972506,5.851452893704326],[116.07090635972506,5.851242576557654]]]]},"properties":{"place_id":"2883e021-5a4b-5554-891d-aa76f99b2cfc","habitat":"disturbed_built_edge","habitat_label":"Disturbed, bare or built edge","resolution_m":50}}]}