{"type":"FeatureCollection","metadata":{"schema_version":1,"place_id":"28c8313d-711a-5494-875d-4d55d12a32a0","place_name":"Taman Rimba Kiara","place_type":"park","osm_reference":"relation/19352496","protection_context":"no protected status confirmed from included OSM tags","resolution_m":50,"raster_coverage":1.0,"interpretation":"Suggested search habitats, not predicted plant locations or probabilities of presence."},"features":[{"type":"Feature","geometry":{"type":"Polygon","coordinates":[[[101.63206597353393,3.137370212738167],[101.63206597353393,3.1389402304768845],[101.6325841819245,3.1389402304768845],[101.6325841819245,3.1397252402072877],[101.63362059870563,3.1394353212942083],[101.63362059870563,3.138547725826972],[101.6325841819245,3.138155221320561],[101.6325841819245,3.137370212738167],[101.63206597353393,3.137370212738167]]]},"properties":{"place_id":"28c8313d-711a-5494-875d-4d55d12a32a0","habitat":"forest_interior","habitat_label":"Forest interior","resolution_m":50}},{"type":"Feature","geometry":{"type":"MultiPolygon","coordinates":[[[[101.63206597353393,3.138155221320561],[101.63206597353393,3.137370212738167],[101.6325841819245,3.137370212738167],[101.6325841819245,3.138155221320561],[101.63362059870563,3.138547725826972],[101.6337873,3.1394311965283657],[101.63344529999999,3.137257696530696],[101.63184900000002,3.1361621965318833],[101.63206597353393,3.138155221320561]]],[[[101.6325841819245,3.1397252402072877],[101.6325841819245,3.1389402304768845],[101.63181523868575,3.138547725826972],[101.6318106,3.1400082965277307],[101.6325841819245,3.1397252402072877]]]]},"properties":{"place_id":"28c8313d-711a-5494-875d-4d55d12a32a0","habitat":"forest_edge_opening","habitat_label":"Forest edge or opening","resolution_m":50}},{"type":"Feature","geometry":{"type":"Polygon","coordinates":[[[101.63362059870563,3.138155221320561],[101.63362059870563,3.137762716957631],[101.63310239031506,3.137762716957631],[101.63310239031506,3.138155221320561],[101.63362059870563,3.138155221320561]]]},"properties":{"place_id":"28c8313d-711a-5494-875d-4d55d12a32a0","habitat":"open_grassland","habitat_label":"Open grassland or shrubland","resolution_m":50}},{"type":"Feature","geometry":{"type":"MultiPolygon","coordinates":[[[[101.63206597353393,3.13697770866215],[101.63309840654932,3.13697770866215],[101.63184900000002,3.1361621965318833],[101.63181000785605,3.138155221320561],[101.63206597353393,3.13697770866215]]],[[[101.6325841819245,3.1397252402072877],[101.6325841819245,3.1389402304768845],[101.63181523868575,3.138547725826972],[101.6318106,3.1400082965277307],[101.6325841819245,3.1397252402072877]]]]},"properties":{"place_id":"28c8313d-711a-5494-875d-4d55d12a32a0","habitat":"disturbed_built_edge","habitat_label":"Disturbed, bare or built edge","resolution_m":50}},{"type":"Feature","geometry":{"type":"Polygon","coordinates":[[[101.6325841819245,3.13697770866215],[101.6325841819245,3.137370212738167],[101.63310239031506,3.137370212738167],[101.63309840654932,3.13697770866215],[101.6325841819245,3.13697770866215]]]},"properties":{"place_id":"28c8313d-711a-5494-875d-4d55d12a32a0","habitat":"permanent_water","habitat_label":"Permanent water","resolution_m":50}},{"type":"Feature","geometry":{"type":"Polygon","coordinates":[[[101.63179431536696,3.13697770866215],[101.6325841819245,3.138155221320561],[101.63362059870563,3.137762716957631],[101.63310239031506,3.13698092407579],[101.63310239031506,3.137370212738167],[101.6325841819245,3.137370212738167],[101.6325841819245,3.13697770866215],[101.63309840654932,3.13697770866215],[101.63241747267682,3.1365852047295615],[101.63179431536696,3.13697770866215]]]},"properties":{"place_id":"28c8313d-711a-5494-875d-4d55d12a32a0","habitat":"water_edge","habitat_label":"Water edge","resolution_m":50}}]}