{"type":"FeatureCollection","metadata":{"schema_version":1,"place_id":"29d654a1-c387-5cb9-b122-0d0f43f11625","place_name":"Tanjung Balau Park","place_type":"park","osm_reference":"way/494803228","protection_context":"no protected status confirmed from included OSM tags","resolution_m":50,"raster_coverage":1.0,"interpretation":"Suggested search habitats, not predicted plant locations or probabilities of presence."},"features":[{"type":"Feature","geometry":{"type":"Polygon","coordinates":[[[104.25736189999998,1.6149017981996385],[104.25657699999996,1.6160115981983978],[104.25704619999999,1.616243798198146],[104.25758886067334,1.6157503655281689],[104.25736189999998,1.6149017981996385]]]},"properties":{"place_id":"29d654a1-c387-5cb9-b122-0d0f43f11625","habitat":"forest_edge_opening","habitat_label":"Forest edge or opening","resolution_m":50}},{"type":"Feature","geometry":{"type":"Polygon","coordinates":[[[104.25679147172359,1.6157503655281689],[104.25730968011415,1.6160042199303544],[104.2578278885047,1.6155330213815609],[104.25742188122503,1.6149661990859938],[104.25679147172359,1.6157503655281689]]]},"properties":{"place_id":"29d654a1-c387-5cb9-b122-0d0f43f11625","habitat":"open_grassland","habitat_label":"Open grassland or shrubland","resolution_m":50}},{"type":"Feature","geometry":{"type":"Polygon","coordinates":[[[104.25704619999999,1.616243798198146],[104.2578939,1.6154729981990075],[104.25736189999998,1.6149017981996385],[104.25657699999996,1.6160115981983978],[104.25704619999999,1.616243798198146]]]},"properties":{"place_id":"29d654a1-c387-5cb9-b122-0d0f43f11625","habitat":"disturbed_built_edge","habitat_label":"Disturbed, bare or built edge","resolution_m":50}},{"type":"Feature","geometry":{"type":"Polygon","coordinates":[[[104.2568414062526,1.616142448859735],[104.25704619999999,1.616243798198146],[104.25715766058704,1.616142448859735],[104.2568414062526,1.616142448859735]]]},"properties":{"place_id":"29d654a1-c387-5cb9-b122-0d0f43f11625","habitat":"permanent_water","habitat_label":"Permanent water","resolution_m":50}},{"type":"Feature","geometry":{"type":"Polygon","coordinates":[[[104.2578278885047,1.6155330213815609],[104.2578939,1.6154729981990075],[104.2578278885047,1.6154021226903856],[104.2578278885047,1.6155330213815609]]]},"properties":{"place_id":"29d654a1-c387-5cb9-b122-0d0f43f11625","habitat":"seasonal_water_wetland","habitat_label":"Seasonal water or wetland","resolution_m":50}},{"type":"Feature","geometry":{"type":"Polygon","coordinates":[[[104.25742188122503,1.6149661990859938],[104.25657699999996,1.6160115981983978],[104.25715766058704,1.616142448859735],[104.2578278885047,1.6155330213815609],[104.25742188122503,1.6149661990859938]]]},"properties":{"place_id":"29d654a1-c387-5cb9-b122-0d0f43f11625","habitat":"water_edge","habitat_label":"Water edge","resolution_m":50}}]}