{"type":"FeatureCollection","metadata":{"schema_version":1,"place_id":"29f765a0-2d45-59f7-8509-7a4e568aba38","place_name":"Urban Park · OSM way/744193319","place_type":"park","osm_reference":"way/744193319","protection_context":"no protected status confirmed from included OSM tags","resolution_m":50,"raster_coverage":1.0,"interpretation":"Suggested search habitats, not predicted plant locations or probabilities of presence."},"features":[{"type":"Feature","geometry":{"type":"MultiPolygon","coordinates":[[[[103.76604812586265,1.5879126361896496],[103.76604812586265,1.587763839840564],[103.76540155108961,1.5879126361896496],[103.76604812586265,1.5879126361896496]]],[[[103.76708454264377,1.587662699513602],[103.76751342473925,1.5879126361896496],[103.76738079999998,1.5876505982298383],[103.76708454264377,1.587662699513602]]],[[[103.76760275103435,1.5883047143359776],[103.76771186642287,1.5883047143359776],[103.76760275103435,1.5880891257546472],[103.76760275103435,1.5883047143359776]]],[[[103.76397529230042,1.5886967925547106],[103.76395248950146,1.5886967925547106],[103.76397529230042,1.5887705469300515],[103.76397529230042,1.5886967925547106]]],[[[103.76407370918153,1.5890888708458664],[103.76419492886161,1.589480949209462],[103.76449350069097,1.589480949209462],[103.76449350069097,1.5890888708458664],[103.76407370918153,1.5890888708458664]]]]},"properties":{"place_id":"29f765a0-2d45-59f7-8509-7a4e568aba38","habitat":"forest_edge_opening","habitat_label":"Forest edge or opening","resolution_m":50}},{"type":"Feature","geometry":{"type":"Polygon","coordinates":[[[103.76397529230042,1.5886967925547106],[103.76407370918153,1.5890888708458664],[103.76582529210692,1.5890888708458664],[103.76779789999999,1.5884746982289204],[103.76738079999998,1.5876505982298383],[103.7666537,1.5876802982297762],[103.7648728,1.5880715982293658],[103.76397529230042,1.5886967925547106]]]},"properties":{"place_id":"29f765a0-2d45-59f7-8509-7a4e568aba38","habitat":"open_grassland","habitat_label":"Open grassland or shrubland","resolution_m":50}},{"type":"Feature","geometry":{"type":"MultiPolygon","coordinates":[[[[103.76449350069097,1.5882236548267368],[103.76429130088717,1.5883047143359776],[103.76449350069097,1.5883047143359776],[103.76449350069097,1.5882236548267368]]],[[[103.76708454264377,1.5879126361896496],[103.76656633425323,1.5886967925547106],[103.76388200000001,1.5884687982289123],[103.76424199999998,1.5896331982276213],[103.76779789999999,1.5884746982289204],[103.76708454264377,1.5879126361896496]]]]},"properties":{"place_id":"29f765a0-2d45-59f7-8509-7a4e568aba38","habitat":"disturbed_built_edge","habitat_label":"Disturbed, bare or built edge","resolution_m":50}},{"type":"Feature","geometry":{"type":"Polygon","coordinates":[[[103.76449350069097,1.5883047143359776],[103.76449350069097,1.5882236548267368],[103.76429130088717,1.5883047143359776],[103.76449350069097,1.5883047143359776]]]},"properties":{"place_id":"29f765a0-2d45-59f7-8509-7a4e568aba38","habitat":"water_edge","habitat_label":"Water edge","resolution_m":50}}]}