{"type":"FeatureCollection","metadata":{"schema_version":1,"place_id":"2a15a467-fc84-5350-9992-6448d8ac234e","place_name":"USJ13 Park","place_type":"park","osm_reference":"way/219753802","protection_context":"no protected status confirmed from included OSM tags","resolution_m":50,"raster_coverage":1.0,"interpretation":"Suggested search habitats, not predicted plant locations or probabilities of presence."},"features":[{"type":"Feature","geometry":{"type":"Polygon","coordinates":[[[101.58439080160235,3.0376381131775805],[101.58551750000001,3.0376180966385617],[101.58552019999999,3.0369644966392846],[101.58446879999998,3.037106496639139],[101.58439080160235,3.0376381131775805]]]},"properties":{"place_id":"2a15a467-fc84-5350-9992-6448d8ac234e","habitat":"forest_edge_opening","habitat_label":"Forest edge or opening","resolution_m":50}},{"type":"Feature","geometry":{"type":"Polygon","coordinates":[[[101.58552019999999,3.0369644966392846],[101.58430729999999,3.037639596638551],[101.58551750000001,3.0376180966385617],[101.58552019999999,3.0369644966392846]]]},"properties":{"place_id":"2a15a467-fc84-5350-9992-6448d8ac234e","habitat":"disturbed_built_edge","habitat_label":"Disturbed, bare or built edge","resolution_m":50}}]}