{"type":"FeatureCollection","metadata":{"schema_version":1,"place_id":"2a1f417e-3d03-57e4-afa0-794adffd3322","place_name":"Pulau Hulu Laba","place_type":"wood","osm_reference":"way/724611958","protection_context":"no protected status confirmed from included OSM tags","resolution_m":50,"raster_coverage":1.0,"interpretation":"Suggested search habitats, not predicted plant locations or probabilities of presence."},"features":[{"type":"Feature","geometry":{"type":"MultiPolygon","coordinates":[[[[102.66433708753074,5.074128407180356],[102.66330067074962,5.07454842029262],[102.66330067074962,5.074915272344802],[102.66433708753074,5.074915272344802],[102.66433708753074,5.074128407180356]]],[[[102.66381887914017,5.075308705277329],[102.66381887914017,5.07609557184309],[102.66433708753074,5.07609557184309],[102.66433708753074,5.075308705277329],[102.66381887914017,5.075308705277329]]],[[[102.66308421703305,5.077275873443769],[102.6622642539685,5.0776693077779465],[102.6622642539685,5.080298688503473],[102.66278246235906,5.080423354661056],[102.66278246235906,5.080816790865133],[102.66174604557793,5.081210227303029],[102.66174604557793,5.081603663974765],[102.6622642539685,5.081603663974765],[102.66244277768124,5.084751165769084],[102.66330067074962,5.084751165769084],[102.66330067074962,5.0839642889168415],[102.66278246235906,5.0839642889168415],[102.66278246235906,5.082783975393196],[102.66330067074962,5.082783975393196],[102.66278246235906,5.08199710088036],[102.66381887914017,5.081543420836157],[102.66381887914017,5.0803485035395815],[102.66330067074962,5.0796364829542915],[102.66381887914017,5.0796364829542915],[102.66381887914017,5.079243047451565],[102.6648552959213,5.079243047451565],[102.6648552959213,5.0788496121825855],[102.66330067074962,5.078062742345795],[102.66330067074962,5.0776693077779465],[102.66381887914017,5.077642492501845],[102.66381887914017,5.07609557184309],[102.66330067074962,5.07609557184309],[102.66308421703305,5.077275873443769]]]]},"properties":{"place_id":"2a1f417e-3d03-57e4-afa0-794adffd3322","habitat":"forest_interior","habitat_label":"Forest interior","resolution_m":50}},{"type":"Feature","geometry":{"type":"MultiPolygon","coordinates":[[[[102.66381887914017,5.074521839645816],[102.66381887914017,5.074326255756157],[102.66358705511082,5.074521839645816],[102.66381887914017,5.074521839645816]]],[[[102.66330067074962,5.078062742345795],[102.66365193650354,5.0776693077779465],[102.66330067074962,5.0776693077779465],[102.66330067074962,5.078062742345795]]],[[[102.6637092,5.07314549448922],[102.66433708753074,5.074915272344802],[102.66330067074962,5.074915272344802],[102.66316879999998,5.074586894487707],[102.6631607,5.076119094486148],[102.6627141,5.076523894485752],[102.66330067074962,5.077275873443769],[102.66330067074962,5.07609557184309],[102.66381887914017,5.07609557184309],[102.66381887914017,5.077642492501845],[102.66426309999999,5.077752894484476],[102.6647191,5.07748969448476],[102.66405659999998,5.0768938944853685],[102.6644619,5.076099294486175],[102.66435559999998,5.075224094487057],[102.6648438,5.074210194488087],[102.66404450000002,5.072372094490005],[102.6637092,5.07314549448922]],[[102.66381887914017,5.075308705277329],[102.66433708753074,5.075308705277329],[102.66433708753074,5.07609557184309],[102.66381887914017,5.07609557184309],[102.66381887914017,5.075308705277329]]],[[[102.66433708753074,5.0788496121825855],[102.66465791287737,5.0788496121825855],[102.66433708753074,5.078630175608059],[102.66433708753074,5.0788496121825855]]],[[[102.6648552959213,5.0788496121825855],[102.6648552959213,5.07884959448337],[102.66480727740674,5.0788496121825855],[102.6648552959213,5.0788496121825855]]],[[[102.66278246235906,5.077430538908807],[102.6622426,5.077610294484645],[102.6618277,5.0786892944835405],[102.66217229999998,5.079266394482921],[102.661719,5.079796694482371],[102.6622642539685,5.080298688503473],[102.6622642539685,5.0776693077779465],[102.66278246235906,5.077430538908807]]],[[[102.6648552959213,5.0788496121825855],[102.6648552959213,5.079243047451565],[102.66381887914017,5.079243047451565],[102.66330067074962,5.080029918690781],[102.66509589999998,5.07932249448286],[102.6651375,5.079001894483212],[102.66497919999999,5.078876294483352],[102.66490554885513,5.0788496121825855],[102.6648552959213,5.0788496121825855]]],[[[102.66381887914017,5.081543420836157],[102.664412,5.08091749448125],[102.66381887914017,5.0803485035395815],[102.66381887914017,5.081543420836157]]],[[[102.66278246235906,5.080816790865133],[102.66278246235906,5.080423354661056],[102.66239225466838,5.080423354661056],[102.66233858517643,5.080816790865133],[102.66278246235906,5.080816790865133]]],[[[102.66330067074962,5.081603663974765],[102.66330067074962,5.081976671326461],[102.6636278075194,5.081603663974765],[102.66330067074962,5.081603663974765]]],[[[102.66278246235906,5.08199710088036],[102.66278246235906,5.08239053801983],[102.66330067074962,5.08239053801983],[102.66330067074962,5.082783975393196],[102.66278246235906,5.082783975393196],[102.66330067074962,5.084751165769084],[102.66244277768124,5.084751165769084],[102.6615876,5.085344394476706],[102.66176729999998,5.085998994476021],[102.6608661,5.086527994475518],[102.6612362,5.087072994474953],[102.66262959999999,5.085232194476832],[102.6636301,5.084739294477361],[102.6630373,5.083141594478976],[102.66366359999999,5.082706194479392],[102.66327896656148,5.08199710088036],[102.66278246235906,5.08199710088036]]],[[[102.6622642539685,5.082887250896064],[102.66172839999999,5.083195094478939],[102.66217629999998,5.0837306944783665],[102.66148969999999,5.084176894477924],[102.6622642539685,5.084665876860603],[102.6622642539685,5.082887250896064]]],[[[102.6622642539685,5.081603663974765],[102.66174604557793,5.081603663974765],[102.66174604557793,5.081210227303029],[102.6622642539685,5.081210227303029],[102.6622642539685,5.080947400812075],[102.6615232,5.0811191944810234],[102.6622642539685,5.082754894227982],[102.6622642539685,5.081603663974765]]]]},"properties":{"place_id":"2a1f417e-3d03-57e4-afa0-794adffd3322","habitat":"forest_edge_opening","habitat_label":"Forest edge or opening","resolution_m":50}},{"type":"Feature","geometry":{"type":"MultiPolygon","coordinates":[[[[102.66330067074962,5.07609557184309],[102.66330067074962,5.074915272344802],[102.66321196691372,5.074915272344802],[102.66309369999998,5.0755981944866795],[102.66330067074962,5.07609557184309]]],[[[102.66278246235906,5.076305979985527],[102.6627141,5.076523894485752],[102.66278246235906,5.076747658682443],[102.66278246235906,5.076305979985527]]],[[[102.6622642539685,5.0776693077779465],[102.6622426,5.077610294484645],[102.66220155783182,5.0776693077779465],[102.6622642539685,5.0776693077779465]]],[[[102.66174604557793,5.079570743279075],[102.6617123,5.0796777944825315],[102.66174604557793,5.079856367610217],[102.66174604557793,5.079570743279075]]],[[[102.66174604557793,5.081210227303029],[102.6615232,5.0811191944810234],[102.66143986381175,5.081210227303029],[102.66174604557793,5.081210227303029]]],[[[102.66174604557793,5.081603663974765],[102.66146128952622,5.081603663974765],[102.66174604557793,5.082062865086488],[102.66174604557793,5.081603663974765]]],[[[102.66174604557793,5.083962790504362],[102.66148969999999,5.084176894477924],[102.66174604557793,5.084535491732515],[102.66174604557793,5.083962790504362]]],[[[102.66174604557793,5.083150251377467],[102.66172839999999,5.083195094478939],[102.66174604557793,5.08329049499643],[102.66174604557793,5.083150251377467]]],[[[102.6622642539685,5.085144604546205],[102.6622642539685,5.08507338330748],[102.66209360462885,5.085144604546205],[102.6622642539685,5.085144604546205]]],[[[102.66317114316227,5.085144604546205],[102.66321229999998,5.085162694476902],[102.66328490063394,5.085144604546205],[102.66317114316227,5.085144604546205]]],[[[102.66278246235906,5.085144604546205],[102.66284149999998,5.085208194476869],[102.66299279315672,5.085144604546205],[102.66278246235906,5.085144604546205]]],[[[102.66174604557793,5.085227211221869],[102.66156750000002,5.085411194476657],[102.66174604557793,5.0856814394805125],[102.66174604557793,5.085227211221869]]],[[[102.6622642539685,5.085538043557349],[102.6622642539685,5.085789097934655],[102.66241592333705,5.085538043557349],[102.6622642539685,5.085538043557349]]],[[[102.66122783718737,5.086324922281784],[102.66104039999998,5.086316894475708],[102.66102902137986,5.086324922281784],[102.66122783718737,5.086324922281784]]],[[[102.66174604557793,5.086324922281784],[102.66174604557793,5.086559767623414],[102.66195523217459,5.086324922281784],[102.66174604557793,5.086324922281784]]],[[[102.66085799999999,5.086718361995112],[102.6612362,5.087072994474953],[102.66152865718604,5.086718361995112],[102.66085799999999,5.086718361995112]]],[[[102.66426951353513,5.072554679653393],[102.66404450000002,5.072372094490005],[102.66386177191532,5.072554679653393],[102.66426951353513,5.072554679653393]]],[[[102.66433708753074,5.073341542949936],[102.66451735686572,5.073341542949936],[102.66433708753074,5.072701271006377],[102.66433708753074,5.073341542949936]]],[[[102.66381887914017,5.072635975045755],[102.66369579999999,5.072994594489363],[102.66381887914017,5.073486147690689],[102.66381887914017,5.072635975045755]]],[[[102.66433708753074,5.074915272344802],[102.66433708753074,5.07620141949645],[102.6645112,5.075729094486547],[102.66433708753074,5.074915272344802]]],[[[102.66433708753074,5.077275873443769],[102.66467604151393,5.077275873443769],[102.66433708753074,5.0771519176689],[102.66433708753074,5.077275873443769]]],[[[102.66404053471972,5.0776693077779465],[102.66426309999999,5.077752894484476],[102.66457737621568,5.0776693077779465],[102.66404053471972,5.0776693077779465]]],[[[102.6648552959213,5.0788496121825855],[102.6648076,5.07884959448337],[102.66480727740674,5.0788496121825855],[102.6648552959213,5.0788496121825855]]],[[[102.66433708753074,5.0788496121825855],[102.66465791287737,5.0788496121825855],[102.66433708753074,5.078630175608059],[102.66433708753074,5.0788496121825855]]],[[[102.6648552959213,5.079243047451565],[102.66487599999999,5.079345194482867],[102.665153308634,5.079243047451565],[102.6648552959213,5.079243047451565]]],[[[102.66381887914017,5.0796364829542915],[102.66381887914017,5.079662430915438],[102.66387666464507,5.0796364829542915],[102.66381887914017,5.0796364829542915]]],[[[102.66381887914017,5.080423354661056],[102.66391501291747,5.080423354661056],[102.66381887914017,5.0803485035395815],[102.66381887914017,5.080423354661056]]],[[[102.66433708753074,5.081144182094832],[102.664412,5.08091749448125],[102.66433708753074,5.080685640713586],[102.66433708753074,5.081144182094832]]],[[[102.66330067074962,5.08239053801983],[102.66333679736704,5.08239053801983],[102.66330067074962,5.082346578225358],[102.66330067074962,5.08239053801983]]],[[[102.66330067074962,5.082783975393196],[102.66330067074962,5.082894011501621],[102.6636238750107,5.082783975393196],[102.66330067074962,5.082783975393196]]],[[[102.66330067074962,5.0839642889168415],[102.66351257863452,5.0839642889168415],[102.66330067074962,5.083738164233706],[102.66330067074962,5.0839642889168415]]],[[[102.66330067074962,5.084751165769084],[102.66330067074962,5.085133635555684],[102.66362383292201,5.084751165769084],[102.66330067074962,5.084751165769084]]]]},"properties":{"place_id":"2a1f417e-3d03-57e4-afa0-794adffd3322","habitat":"permanent_water","habitat_label":"Permanent water","resolution_m":50}},{"type":"Feature","geometry":{"type":"MultiPolygon","coordinates":[[[[102.6624164,5.077484394484749],[102.66278246235906,5.0776693077779465],[102.66278246235906,5.077430538908807],[102.6624164,5.077484394484749]]],[[[102.66146128952622,5.081603663974765],[102.66174604557793,5.081210227303029],[102.66143986381175,5.081210227303029],[102.66146128952622,5.081603663974765]]],[[[102.6622642539685,5.085144604546205],[102.6622642539685,5.08507338330748],[102.66209360462885,5.085144604546205],[102.6622642539685,5.085144604546205]]],[[[102.6622642539685,5.085538043557349],[102.6622877,5.085741194476308],[102.66241592333705,5.085538043557349],[102.6622642539685,5.085538043557349]]],[[[102.66174604557793,5.086324922281784],[102.66174604557793,5.086017719696536],[102.66122783718737,5.086236875308179],[102.66122783718737,5.086324922281784],[102.66174604557793,5.086324922281784]]],[[[102.66122783718737,5.086324922281784],[102.66085799999999,5.086781794475233],[102.66122783718737,5.087070551833543],[102.66122783718737,5.086324922281784]]],[[[102.66426951353513,5.072554679653393],[102.66404450000002,5.072372094490005],[102.66386177191532,5.072554679653393],[102.66426951353513,5.072554679653393]]],[[[102.66381887914017,5.073341542949936],[102.66381887914017,5.072635975045755],[102.66369579999999,5.072994594489363],[102.66381887914017,5.073341542949936]]],[[[102.66330067074962,5.07609557184309],[102.66330067074962,5.07454842029262],[102.66326669999998,5.074546894487778],[102.6630883,5.075455194486817],[102.66330067074962,5.07609557184309]]],[[[102.66433708753074,5.077275873443769],[102.66467604151393,5.077275873443769],[102.66433708753074,5.0771519176689],[102.66433708753074,5.077275873443769]]],[[[102.6648552959213,5.079243047451565],[102.66487599999999,5.079345194482867],[102.665153308634,5.079243047451565],[102.6648552959213,5.079243047451565]]],[[[102.66317114316227,5.085144604546205],[102.66321229999998,5.085162694476902],[102.66328490063394,5.085144604546205],[102.66317114316227,5.085144604546205]]],[[[102.66278246235906,5.085144604546205],[102.66284149999998,5.085208194476869],[102.66299279315672,5.085144604546205],[102.66278246235906,5.085144604546205]]]]},"properties":{"place_id":"2a1f417e-3d03-57e4-afa0-794adffd3322","habitat":"seasonal_water_wetland","habitat_label":"Seasonal water or wetland","resolution_m":50}},{"type":"Feature","geometry":{"type":"MultiPolygon","coordinates":[[[[102.6622642539685,5.085538043557349],[102.6636301,5.084739294477361],[102.66304,5.0830828944790465],[102.6636623,5.082748194479358],[102.6632794,5.081996194480144],[102.66433708753074,5.081144182094832],[102.66363549999997,5.079816694482364],[102.66516159999999,5.079220994482972],[102.663728,5.078487594483747],[102.6634826,5.077836994484406],[102.6647191,5.07748969448476],[102.66405659999998,5.0768938944853685],[102.6648438,5.074210194488087],[102.66426951353513,5.072554679653393],[102.66381887914017,5.072635975045755],[102.6640727,5.074024494488319],[102.66330067074962,5.07454842029262],[102.66330067074962,5.07609557184309],[102.66278246235906,5.076305979985527],[102.66309899999997,5.077253294484996],[102.66220155783182,5.0776693077779465],[102.6618277,5.0786892944835405],[102.66217229999998,5.079266394482921],[102.66174604557793,5.079856367610217],[102.66244460000001,5.080586194481602],[102.66174604557793,5.081110061289511],[102.6623212,5.082828394479286],[102.66174604557793,5.083150251377467],[102.66218980000001,5.0836799944784],[102.66174604557793,5.084535491732515],[102.6624888,5.084894194477173],[102.66174604557793,5.085227211221869],[102.66174604557793,5.086324922281784],[102.66217899999998,5.086207394475819],[102.6622642539685,5.085538043557349]],[[102.66330067074962,5.080816790865133],[102.66330067074962,5.081603663974765],[102.66278246235906,5.081603663974765],[102.66278246235906,5.080816790865133],[102.66330067074962,5.080816790865133]],[[102.66330067074962,5.078062742345795],[102.66330067074962,5.0788496121825855],[102.66381887914017,5.0788496121825855],[102.66381887914017,5.079243047451565],[102.66278246235906,5.0796364829542915],[102.66278246235906,5.078062742345795],[102.66330067074962,5.078062742345795]]],[[[102.66122783718737,5.086718361995112],[102.66163319999998,5.0866561944753546],[102.66174604557793,5.086324922281784],[102.66122783718737,5.086324922281784],[102.66122783718737,5.086718361995112]]]]},"properties":{"place_id":"2a1f417e-3d03-57e4-afa0-794adffd3322","habitat":"water_edge","habitat_label":"Water edge","resolution_m":50}}]}