{"type":"FeatureCollection","metadata":{"schema_version":1,"place_id":"2a3cf508-1a4c-5c81-b85b-3c5ddfe97fe6","place_name":"Taman Kejiranan Cangkat Bukit Belah 7 · OSM way/1057501660","place_type":"park","osm_reference":"way/1057501660","protection_context":"no protected status confirmed from included OSM tags","resolution_m":50,"raster_coverage":1.0,"interpretation":"Suggested search habitats, not predicted plant locations or probabilities of presence."},"features":[{"type":"Feature","geometry":{"type":"Polygon","coordinates":[[[100.24620809999999,5.287684894270485],[100.24666370000001,5.287423394270748],[100.24631129999999,5.287289294270901],[100.24620809999999,5.287684894270485]]]},"properties":{"place_id":"2a3cf508-1a4c-5c81-b85b-3c5ddfe97fe6","habitat":"forest_edge_opening","habitat_label":"Forest edge or opening","resolution_m":50}},{"type":"Feature","geometry":{"type":"Polygon","coordinates":[[[100.24666370000001,5.287423394270748],[100.2463767371748,5.287750084751986],[100.2464911,5.28779429427039],[100.24666370000001,5.287423394270748]]]},"properties":{"place_id":"2a3cf508-1a4c-5c81-b85b-3c5ddfe97fe6","habitat":"open_grassland","habitat_label":"Open grassland or shrubland","resolution_m":50}},{"type":"Feature","geometry":{"type":"Polygon","coordinates":[[[100.24666370000001,5.287423394270748],[100.2463767371748,5.287750084751986],[100.2464911,5.28779429427039],[100.24666370000001,5.287423394270748]]]},"properties":{"place_id":"2a3cf508-1a4c-5c81-b85b-3c5ddfe97fe6","habitat":"disturbed_built_edge","habitat_label":"Disturbed, bare or built edge","resolution_m":50}}]}