{"type":"FeatureCollection","metadata":{"schema_version":1,"place_id":"2a50fd1a-1484-5d0d-81fc-8ad4a2bdd11c","place_name":"Park Taman Wawasan 1","place_type":"park","osm_reference":"way/1172654879","protection_context":"no protected status confirmed from included OSM tags","resolution_m":50,"raster_coverage":1.0,"interpretation":"Suggested search habitats, not predicted plant locations or probabilities of presence."},"features":[{"type":"Feature","geometry":{"type":"Polygon","coordinates":[[[103.61840139999998,2.6658733970429127],[103.6178071,2.665876997042891],[103.6178676,2.6661293970426234],[103.61840139999998,2.6658733970429127]]]},"properties":{"place_id":"2a50fd1a-1484-5d0d-81fc-8ad4a2bdd11c","habitat":"forest_edge_opening","habitat_label":"Forest edge or opening","resolution_m":50}},{"type":"Feature","geometry":{"type":"Polygon","coordinates":[[[103.61784052616231,2.6658604273587208],[103.61817241159474,2.666070967465936],[103.61829172702377,2.665678622629262],[103.61784052616231,2.6658604273587208]]]},"properties":{"place_id":"2a50fd1a-1484-5d0d-81fc-8ad4a2bdd11c","habitat":"open_grassland","habitat_label":"Open grassland or shrubland","resolution_m":50}},{"type":"Feature","geometry":{"type":"Polygon","coordinates":[[[103.6178071,2.665876997042891],[103.61840139999998,2.6658733970429127],[103.6182733,2.665645897043137],[103.6178071,2.665876997042891]]]},"properties":{"place_id":"2a50fd1a-1484-5d0d-81fc-8ad4a2bdd11c","habitat":"disturbed_built_edge","habitat_label":"Disturbed, bare or built edge","resolution_m":50}}]}