{"type":"FeatureCollection","metadata":{"schema_version":1,"place_id":"2b0fe388-1f67-51a3-b546-849fe819641b","place_name":"Setia Alam Western Park","place_type":"park","osm_reference":"way/552317257","protection_context":"no protected status confirmed from included OSM tags","resolution_m":50,"raster_coverage":1.0,"interpretation":"Suggested search habitats, not predicted plant locations or probabilities of presence."},"features":[{"type":"Feature","geometry":{"type":"Polygon","coordinates":[[[101.4459123,3.1027757965679985],[101.4459418,3.1032177965675274],[101.44755109999998,3.103185596567559],[101.4474814,3.10146879656943],[101.4455643,3.101477996569421],[101.4454617,3.102789196567982],[101.4459123,3.1027757965679985]],[[101.4470655781038,3.1020454182038417],[101.4470655781038,3.102437909585531],[101.44654736971323,3.102437909585531],[101.44654736971323,3.1020454182038417],[101.4470655781038,3.1020454182038417]],[[101.44602916132267,3.1020454182038417],[101.44602916132267,3.1016529269639723],[101.44654736971323,3.1016529269639723],[101.44654736971323,3.1020454182038417],[101.44602916132267,3.1020454182038417]]]},"properties":{"place_id":"2b0fe388-1f67-51a3-b546-849fe819641b","habitat":"forest_edge_opening","habitat_label":"Forest edge or opening","resolution_m":50}},{"type":"Feature","geometry":{"type":"Polygon","coordinates":[[[101.44602916132267,3.1032160485810567],[101.44591594442137,3.102830401109056],[101.4459418,3.1032177965675274],[101.44602916132267,3.1032160485810567]]]},"properties":{"place_id":"2b0fe388-1f67-51a3-b546-849fe819641b","habitat":"open_grassland","habitat_label":"Open grassland or shrubland","resolution_m":50}},{"type":"Feature","geometry":{"type":"Polygon","coordinates":[[[101.44602916132267,3.102830401109056],[101.44602916132267,3.102437909585531],[101.4470655781038,3.102437909585531],[101.4470655781038,3.103195311229139],[101.44755109999998,3.103185596567559],[101.4474814,3.10146879656943],[101.4455643,3.101477996569421],[101.4454617,3.102789196567982],[101.44602916132267,3.102830401109056]]]},"properties":{"place_id":"2b0fe388-1f67-51a3-b546-849fe819641b","habitat":"disturbed_built_edge","habitat_label":"Disturbed, bare or built edge","resolution_m":50}},{"type":"Feature","geometry":{"type":"Polygon","coordinates":[[[101.44602916132267,3.1020454182038417],[101.44602916132267,3.102830401109056],[101.4470655781038,3.102830401109056],[101.4470655781038,3.102437909585531],[101.44754563228625,3.102437909585531],[101.44754276205887,3.1020454182038417],[101.44602916132267,3.1020454182038417]]]},"properties":{"place_id":"2b0fe388-1f67-51a3-b546-849fe819641b","habitat":"permanent_water","habitat_label":"Permanent water","resolution_m":50}},{"type":"Feature","geometry":{"type":"Polygon","coordinates":[[[101.44654736971323,3.102830401109056],[101.44654736971323,3.1020454182038417],[101.44602916132267,3.1020454182038417],[101.44602916132267,3.102830401109056],[101.44654736971323,3.102830401109056]]]},"properties":{"place_id":"2b0fe388-1f67-51a3-b546-849fe819641b","habitat":"seasonal_water_wetland","habitat_label":"Seasonal water or wetland","resolution_m":50}},{"type":"Feature","geometry":{"type":"Polygon","coordinates":[[[101.4474814,3.10146879656943],[101.4455643,3.1016529269639723],[101.4454617,3.102789196567982],[101.4459123,3.1027757965679985],[101.4459418,3.1032177965675274],[101.44755109999998,3.103185596567559],[101.44754563228625,3.102437909585531],[101.4470655781038,3.102437909585531],[101.4470655781038,3.102830401109056],[101.44602916132267,3.102830401109056],[101.44602916132267,3.1020454182038417],[101.44754276205887,3.1020454182038417],[101.4474814,3.10146879656943]]]},"properties":{"place_id":"2b0fe388-1f67-51a3-b546-849fe819641b","habitat":"water_edge","habitat_label":"Water edge","resolution_m":50}}]}