{"type":"FeatureCollection","metadata":{"schema_version":1,"place_id":"2b34bfc6-6b25-5c34-aa7c-84a19d93f06a","place_name":"Kamunting Garden Field","place_type":"park","osm_reference":"way/729253159","protection_context":"no protected status confirmed from included OSM tags","resolution_m":50,"raster_coverage":1.0,"interpretation":"Suggested search habitats, not predicted plant locations or probabilities of presence."},"features":[{"type":"Feature","geometry":{"type":"Polygon","coordinates":[[[100.7267559152245,4.880194267100023],[100.72727412361506,4.880360355826217],[100.72784464046751,4.880194267100023],[100.7274824,4.879795494687761],[100.7267559152245,4.880194267100023]]]},"properties":{"place_id":"2b34bfc6-6b25-5c34-aa7c-84a19d93f06a","habitat":"forest_edge_opening","habitat_label":"Forest edge or opening","resolution_m":50}},{"type":"Feature","geometry":{"type":"Polygon","coordinates":[[[100.7267559152245,4.87994716512505],[100.72727412361506,4.880194267100023],[100.72727412361506,4.879838977179022],[100.7267559152245,4.87994716512505]]]},"properties":{"place_id":"2b34bfc6-6b25-5c34-aa7c-84a19d93f06a","habitat":"open_grassland","habitat_label":"Open grassland or shrubland","resolution_m":50}},{"type":"Feature","geometry":{"type":"Polygon","coordinates":[[[100.726801,4.880459194687062],[100.72785409999997,4.880239194687288],[100.72780859999999,4.880023094687503],[100.72669589999998,4.879959694687593],[100.726801,4.880459194687062]]]},"properties":{"place_id":"2b34bfc6-6b25-5c34-aa7c-84a19d93f06a","habitat":"disturbed_built_edge","habitat_label":"Disturbed, bare or built edge","resolution_m":50}}]}