{"type":"FeatureCollection","metadata":{"schema_version":1,"place_id":"2b514daa-f6f2-54ea-9731-a395c616bb05","place_name":"Tualang Indah Park","place_type":"park","osm_reference":"way/1298974957","protection_context":"no protected status confirmed from included OSM tags","resolution_m":50,"raster_coverage":1.0,"interpretation":"Suggested search habitats, not predicted plant locations or probabilities of presence."},"features":[{"type":"Feature","geometry":{"type":"Polygon","coordinates":[[[102.360653,3.4456142961984066],[102.3610458,3.4455865961984133],[102.36095189999999,3.445432896198588],[102.360653,3.4456142961984066]]]},"properties":{"place_id":"2b514daa-f6f2-54ea-9731-a395c616bb05","habitat":"disturbed_built_edge","habitat_label":"Disturbed, bare or built edge","resolution_m":50}}]}