{"type":"FeatureCollection","metadata":{"schema_version":1,"place_id":"2c0106bf-bba7-537e-8b84-4422d7393636","place_name":"Pulau Loba Balei","place_type":"wood","osm_reference":"way/694045316","protection_context":"no protected status confirmed from included OSM tags","resolution_m":50,"raster_coverage":1.0,"interpretation":"Suggested search habitats, not predicted plant locations or probabilities of presence."},"features":[{"type":"Feature","geometry":{"type":"MultiPolygon","coordinates":[[[[111.4044398027265,2.182004431761482],[111.4044398027265,2.181637708309885],[111.4040361737946,2.182004431761482],[111.4044398027265,2.182004431761482]]],[[[111.40392159433594,2.1821366187621343],[111.40362590264245,2.182396640160299],[111.40392159433594,2.182396640160299],[111.40392159433594,2.1821366187621343]]],[[[111.40340338594538,2.1825923139397587],[111.4029864,2.1829589975722272],[111.40255384110999,2.1835732659542906],[111.40340338594538,2.183181057256686],[111.40340338594538,2.1825923139397587]]],[[[111.40288517755482,2.1859265202328086],[111.40236696916425,2.1859265202328086],[111.40236696916425,2.183838639208928],[111.401982,2.185212397569742],[111.4023989,2.185988797568868],[111.40288517755482,2.186549487181358],[111.40288517755482,2.1859265202328086]]],[[[111.40340338594538,2.1867109391233712],[111.40302520233047,2.1867109391233712],[111.40340338594538,2.1870193139038774],[111.40340338594538,2.1867109391233712]]],[[[111.40392159433594,2.1871031487183057],[111.40352815622776,2.1871031487183057],[111.40392159433594,2.187367505052851],[111.40392159433594,2.1871031487183057]]],[[[111.40495801111706,2.181612223462224],[111.40495801111706,2.181381809220848],[111.40448006991814,2.181612223462224],[111.40495801111706,2.181612223462224]]],[[[111.40547621950762,2.181612223462224],[111.40567729999997,2.181557697573761],[111.40547621950762,2.1814428593890036],[111.40547621950762,2.181612223462224]]],[[[111.40599442789818,2.1843576836484124],[111.40626433277151,2.1843576836484124],[111.40599442789818,2.1828254927633957],[111.40599442789818,2.1843576836484124]]],[[[111.40651263628874,2.187495358413034],[111.40599442789818,2.1877294359608777],[111.40660590000002,2.1874658975672348],[111.40651263628874,2.1859702441327746],[111.40651263628874,2.187495358413034]]],[[[111.40547621950762,2.187495358413034],[111.40411187681146,2.187495358413034],[111.40547621950762,2.187726106345231],[111.40547621950762,2.187495358413034]]]]},"properties":{"place_id":"2c0106bf-bba7-537e-8b84-4422d7393636","habitat":"permanent_water","habitat_label":"Permanent water","resolution_m":50}},{"type":"Feature","geometry":{"type":"MultiPolygon","coordinates":[[[[111.40340338594538,2.1825923139397587],[111.40317989023183,2.182788848658695],[111.40340338594538,2.182788848658695],[111.40340338594538,2.1825923139397587]]],[[[111.40620394005273,2.1839654747515267],[111.40599442789818,2.1843576836484124],[111.40626433277151,2.1843576836484124],[111.40620394005273,2.1839654747515267]]],[[[111.40198450582982,2.1851421017412043],[111.40215485639204,2.1855343109371455],[111.40236696916425,2.1855343109371455],[111.40236696916425,2.1851421017412043],[111.40198450582982,2.1851421017412043]]]]},"properties":{"place_id":"2c0106bf-bba7-537e-8b84-4422d7393636","habitat":"seasonal_water_wetland","habitat_label":"Seasonal water or wetland","resolution_m":50}},{"type":"Feature","geometry":{"type":"Polygon","coordinates":[[[111.40411187681146,2.187495358413034],[111.40567729999997,2.1877498975669263],[111.40651263628874,2.187495358413034],[111.40651263628874,2.1859702441327746],[111.40568878711159,2.181612223462224],[111.4052793,2.1813303975739786],[111.4044398027265,2.181637708309885],[111.40340338594538,2.1825923139397587],[111.40340338594538,2.183181057256686],[111.40288517755482,2.183181057256686],[111.40236696916425,2.183838639208928],[111.40236696916425,2.1859265202328086],[111.40288517755482,2.1859265202328086],[111.40288517755482,2.186549487181358],[111.40411187681146,2.187495358413034]],[[111.40392159433594,2.1859265202328086],[111.40340338594538,2.1859265202328086],[111.40340338594538,2.1835732659542906],[111.40392159433594,2.1835732659542906],[111.40392159433594,2.183181057256686],[111.4044398027265,2.183181057256686],[111.4044398027265,2.182396640160299],[111.40495801111706,2.182396640160299],[111.40547621950762,2.1867109391233712],[111.40392159433594,2.1867109391233712],[111.40392159433594,2.1859265202328086]]]},"properties":{"place_id":"2c0106bf-bba7-537e-8b84-4422d7393636","habitat":"water_edge","habitat_label":"Water edge","resolution_m":50}},{"type":"Feature","geometry":{"type":"Polygon","coordinates":[[[111.40411187681146,2.187495358413034],[111.40567729999997,2.1877498975669263],[111.40651263628874,2.187495358413034],[111.40651263628874,2.1859702441327746],[111.40568878711159,2.181612223462224],[111.4052793,2.1813303975739786],[111.4044398027265,2.181637708309885],[111.40340338594538,2.1825923139397587],[111.40340338594538,2.183181057256686],[111.40288517755482,2.183181057256686],[111.40236696916425,2.183838639208928],[111.40236696916425,2.1859265202328086],[111.40288517755482,2.1859265202328086],[111.40288517755482,2.186549487181358],[111.40411187681146,2.187495358413034]]]},"properties":{"place_id":"2c0106bf-bba7-537e-8b84-4422d7393636","habitat":"mangrove","habitat_label":"Mangrove","resolution_m":50}}]}