{"type":"FeatureCollection","metadata":{"schema_version":1,"place_id":"2c6f9d32-555d-5c74-9638-2dd47c9fcff7","place_name":"Pulau Pelung Besar","place_type":"wood","osm_reference":"way/724602092","protection_context":"no protected status confirmed from included OSM tags","resolution_m":50,"raster_coverage":1.0,"interpretation":"Suggested search habitats, not predicted plant locations or probabilities of presence."},"features":[{"type":"Feature","geometry":{"type":"Polygon","coordinates":[[[102.66537350431187,5.018263359056041],[102.66433708753074,5.018656758548603],[102.66433708753074,5.019836958411768],[102.66537350431187,5.019836958411768],[102.66589171270242,5.0206237594752965],[102.66692812948354,5.020230358828044],[102.66640992109298,5.018656758548603],[102.66692812948354,5.018656758548603],[102.66692812948354,5.018263359056041],[102.66744633787411,5.018263359056041],[102.66744633787411,5.018656758548603],[102.66848275465522,5.018656758548603],[102.66786929999999,5.017431494546254],[102.66900096304578,5.0170831619635745],[102.66900096304578,5.01550956907178],[102.67003737982691,5.015116171425761],[102.67003737982691,5.013935979872038],[102.67055558821747,5.013935979872038],[102.67055558821747,5.013542583148845],[102.67159200499859,5.013542583148845],[102.67159200499859,5.013149186656315],[102.67055558821747,5.012755790394426],[102.67008079999998,5.011746894552098],[102.67107379660801,5.011968998562502],[102.67107379660801,5.011575602992431],[102.67262842177972,5.011575602992431],[102.6712368,5.010289394553621],[102.67314663017027,5.010002023017643],[102.67314663017027,5.0092844366194464],[102.67262842177972,5.009215234413292],[102.67262842177972,5.008576974386469],[102.67190199999997,5.008263994555672],[102.67249243183223,5.00803505323515],[102.67228829999999,5.00752119455644],[102.67314663017027,5.007641659969931],[102.67312379999998,5.006778394557204],[102.67418304695138,5.006854874130626],[102.67418304695138,5.006068089212711],[102.67470125534196,5.006068089212711],[102.67470125534196,5.005207923388497],[102.6742047,5.005004194559018],[102.67470125534196,5.004799625958406],[102.67470125534196,5.003314349253799],[102.67521946373252,5.003248811144797],[102.67521946373252,5.002527568480298],[102.67625588051362,5.002134178438773],[102.6761922,5.001455794562654],[102.67781050568533,5.00134739904608],[102.67781050568533,5.0009540096948735],[102.67884692246643,5.000560620573738],[102.67884692246643,5.000167231682655],[102.67729229729476,5.000167231682655],[102.6767740889042,4.999773843021603],[102.6767740889042,4.999380454590566],[102.67781050568533,4.9989870663895255],[102.67781050568533,4.998200290677358],[102.67729229729476,4.998593678418463],[102.67625588051362,4.998200290677358],[102.67581539999999,4.998952194565229],[102.67470125534196,4.9989870663895255],[102.67470125534196,4.999380454590566],[102.67418304695138,4.999380454590566],[102.67418304695138,5.000560620573738],[102.67262842177972,5.00134739904608],[102.67262842177972,5.001740788627372],[102.67340269999998,5.001633494562472],[102.67314663017027,5.002134178438773],[102.67366483856082,5.002134178438773],[102.6733236,5.003319494560733],[102.67262842177972,5.003314349253799],[102.67188972177043,5.002527568480298],[102.67159200499859,5.002920958751968],[102.67055558821747,5.002974320148309],[102.67055558821747,5.004101130948023],[102.67003737982691,5.004101130948023],[102.67003737982691,5.004494522140452],[102.67055558821747,5.004494522140452],[102.67055558821747,5.005281305216036],[102.67003737982691,5.005281305216036],[102.67003737982691,5.006461481556506],[102.66951917143635,5.006461481556506],[102.66951917143635,5.006854874130626],[102.67003737982691,5.006854874130626],[102.67003737982691,5.007248266935098],[102.66951917143635,5.007248266935098],[102.66951917143635,5.010788812543974],[102.66900096304578,5.010788812543974],[102.66900096304578,5.011575602992431],[102.66848275465522,5.011575602992431],[102.66900096304578,5.012362394363161],[102.66848275465522,5.012362394363161],[102.66848275465522,5.012755790394426],[102.66744633787411,5.012755790394426],[102.66692812948354,5.013293555139506],[102.66764340000002,5.014714794549056],[102.66640992109298,5.014722774010475],[102.66640992109298,5.015116171425761],[102.66589171270242,5.015161529643787],[102.66589171270242,5.01550956907178],[102.66642759999999,5.0155103945482455],[102.66640992109298,5.016296365056098],[102.66589171270242,5.016296365056098],[102.6659274,5.016949194546772],[102.66537350431187,5.016698929059781],[102.66537350431187,5.018263359056041]]]},"properties":{"place_id":"2c6f9d32-555d-5c74-9638-2dd47c9fcff7","habitat":"forest_interior","habitat_label":"Forest interior","resolution_m":50}},{"type":"Feature","geometry":{"type":"MultiPolygon","coordinates":[[[[102.67159200499859,5.002920958751968],[102.67188972177043,5.002527568480298],[102.67061308672626,5.002920958751968],[102.67159200499859,5.002920958751968]]],[[[102.66710170520415,5.013149186656315],[102.66744633787411,5.012755790394426],[102.66848275465522,5.012755790394426],[102.66848275465522,5.012362394363161],[102.66900096304578,5.012362394363161],[102.66848275465522,5.011575602992431],[102.66900096304578,5.011575602992431],[102.66900096304578,5.010788812543974],[102.66951917143635,5.010788812543974],[102.66951917143635,5.007248266935098],[102.67003737982691,5.007248266935098],[102.66951917143635,5.006461481556506],[102.67003737982691,5.006461481556506],[102.67003737982691,5.005281305216036],[102.67055558821747,5.005281305216036],[102.67055558821747,5.004494522140452],[102.67003737982691,5.004494522140452],[102.67003737982691,5.004101130948023],[102.67055558821747,5.004101130948023],[102.67055558821747,5.002974320148309],[102.66974819999999,5.0046113945594355],[102.67004060000001,5.005263394558735],[102.669252,5.006485794557499],[102.66919429999999,5.010517794553352],[102.66821259999998,5.011704194552165],[102.6683293,5.012662094551154],[102.66753140000002,5.012674094551138],[102.66741339999999,5.012756894551065],[102.66710170520415,5.013149186656315]]],[[[102.66692812948354,5.013293555139506],[102.66668509999998,5.013479694550317],[102.66692812948354,5.0138146488281246],[102.66692812948354,5.013293555139506]]],[[[102.66741199999998,5.0141048945496784],[102.66744633787411,5.013935979872038],[102.667051422162,5.013935979872038],[102.66741199999998,5.0141048945496784]]],[[[102.66605522428982,5.015116171425761],[102.66640992109298,5.014722774010475],[102.66692812948354,5.014722774010475],[102.66660059999997,5.014493694549293],[102.66605522428982,5.015116171425761]]],[[[102.67107379660801,5.013149186656315],[102.67159200499859,5.013149186656315],[102.67159200499859,5.013542583148845],[102.67055558821747,5.013542583148845],[102.67003737982691,5.014205139790996],[102.67190339999999,5.0135718945502274],[102.6718752,5.013030794550779],[102.67107379660801,5.012789108509206],[102.67107379660801,5.013149186656315]]],[[[102.67003737982691,5.015116171425761],[102.66900096304578,5.01550956907178],[102.66900096304578,5.0170831619635745],[102.66848275465522,5.0170831619635745],[102.66848275465522,5.017425124077554],[102.66951749999998,5.017193694546508],[102.6691782,5.015651994548126],[102.6701452,5.015484994548258],[102.670915,5.014783594548994],[102.67003737982691,5.014445547513275],[102.67003737982691,5.015116171425761]]],[[[102.66625173930835,5.01550956907178],[102.66589171270242,5.015161529643787],[102.6655747,5.015221794548511],[102.6654808,5.015595894548158],[102.66625173930835,5.01550956907178]]],[[[102.66589171270242,5.016689763394431],[102.66589171270242,5.016296365056098],[102.66640992109298,5.016296365056098],[102.66640992109298,5.016053118170147],[102.66571009999998,5.016250494547493],[102.66589171270242,5.016689763394431]]],[[[102.66640992109298,5.0156070648533655],[102.66632839999998,5.015830994547936],[102.66640992109298,5.016002999232601],[102.66640992109298,5.0156070648533655]]],[[[102.66537350431187,5.016698929059781],[102.665049,5.017240394546463],[102.6650097739379,5.018263359056041],[102.66537350431187,5.018263359056041],[102.66537350431187,5.016698929059781]]],[[[102.66709577860712,5.0210171603535425],[102.6670647,5.020468094543136],[102.66760109999998,5.02019889454344],[102.66729399999998,5.019789494543836],[102.66692812948354,5.019618310908385],[102.66692812948354,5.020230358828044],[102.66589171270242,5.0206237594752965],[102.66589171270242,5.020230358828044],[102.66537350431187,5.020230358828044],[102.66537350431187,5.019836958411768],[102.66433708753074,5.019836958411768],[102.66433708753074,5.018656758548603],[102.6648552959213,5.018467601850168],[102.66422549999999,5.018621794545059],[102.66385139999998,5.019834894543805],[102.66575839999999,5.0203919945432585],[102.66610439999997,5.021034594542598],[102.66709577860712,5.0210171603535425]]],[[[102.66796454626467,5.018263359056041],[102.66848275465522,5.018263359056041],[102.66848275465522,5.018656758548603],[102.66744633787411,5.018656758548603],[102.66744633787411,5.018263359056041],[102.66692812948354,5.018263359056041],[102.66692812948354,5.018656758548603],[102.66640992109298,5.018656758548603],[102.66640992109298,5.019443558226447],[102.66693859999998,5.018681994544983],[102.6678318,5.019105494544565],[102.66890469999998,5.018701994544985],[102.66796454626467,5.017596492319328],[102.66796454626467,5.018263359056041]]],[[[102.67729229729476,4.998593678418463],[102.67670720000001,4.997815194566398],[102.6758328,4.998093094566109],[102.67596831967948,4.998593678418463],[102.67625588051362,4.998200290677358],[102.67729229729476,4.998593678418463]]],[[[102.67781050568533,4.998200290677358],[102.67781050568533,4.9989870663895255],[102.67729229729476,4.9989870663895255],[102.6767740889042,4.999773843021603],[102.6778834,4.999179294564989],[102.67790079999999,4.9982079945659725],[102.6777023,4.998063694566154],[102.67741912720942,4.998200290677358],[102.67781050568533,4.998200290677358]]],[[[102.67729229729476,5.000167231682655],[102.67884692246643,5.000167231682655],[102.67832871407586,5.000901444269022],[102.6794296,5.00042839456371],[102.67959609999998,4.999929494564209],[102.67729229729476,5.000167231682655]]],[[[102.67211021338915,5.002920958751968],[102.67262842177972,5.002920958751968],[102.67262842177972,5.003314349253799],[102.67314663017027,5.003314349253799],[102.672653,5.002815894561258],[102.67211021338915,5.002576439481111],[102.67211021338915,5.002920958751968]]],[[[102.67366483856082,5.002920958751968],[102.67366483856082,5.002134178438773],[102.67314663017027,5.001960808046407],[102.67316836775204,5.002920958751968],[102.67366483856082,5.002920958751968]]],[[[102.67242509999998,5.002059694562045],[102.67262842177972,5.00134739904608],[102.67418304695138,5.000560620573738],[102.6745118,4.998857294565307],[102.6735596,4.99972699456441],[102.67397399999999,5.000525994563588],[102.67301780000001,5.000743694563404],[102.6721662,5.001578694562517],[102.67242509999998,5.002059694562045]]],[[[102.67567465398317,4.9989870663895255],[102.6751019,4.998627494565554],[102.67497049999997,4.998648894565522],[102.6748578498697,4.9989870663895255],[102.67567465398317,4.9989870663895255]]],[[[102.67573767212306,4.9989870663895255],[102.67573767212306,4.998972845513835],[102.67568414632781,4.9989870663895255],[102.67573767212306,4.9989870663895255]]],[[[102.6767740889042,5.00134739904608],[102.6769218,5.001673594562425],[102.67781900000001,5.001478494562652],[102.67825644447926,5.0009540096948735],[102.67781050568533,5.0009540096948735],[102.67781050568533,5.00134739904608],[102.6767740889042,5.00134739904608]]],[[[102.67521946373252,5.002527568480298],[102.67521946373252,5.003248811144797],[102.67577379999999,5.002968194561099],[102.67521946373252,5.002527568480298]]],[[[102.67625588051362,5.001740788627372],[102.67573767212306,5.0024748075152035],[102.67651539999997,5.002610094561473],[102.6765355,5.002090394562013],[102.67625588051362,5.001740788627372]]],[[[102.67470125534196,5.003314349253799],[102.67470125534196,5.004799625958406],[102.67526019999997,5.003815194560256],[102.6751278103464,5.003314349253799],[102.67470125534196,5.003314349253799]]],[[[102.67470125534196,5.005920314468977],[102.67507239999999,5.005511894558498],[102.67470125534196,5.005207923388497],[102.67470125534196,5.005920314468977]]],[[[102.67470125534196,5.006068089212711],[102.67418304695138,5.006068089212711],[102.67418304695138,5.006854874130626],[102.67366483856082,5.006909039689545],[102.6742195,5.006944094557016],[102.67470125534196,5.006068089212711]]],[[[102.67314663017027,5.007248266935098],[102.67314663017027,5.007641659969931],[102.67262842177972,5.007672406568765],[102.6738332,5.008449694555477],[102.6738976,5.007728294556209],[102.67314663017027,5.007248266935098]]],[[[102.67249243183223,5.00803505323515],[102.67211021338915,5.008142907978677],[102.67249749999999,5.008052894555876],[102.67249243183223,5.00803505323515]]],[[[102.67262842177972,5.009215234413292],[102.67299017538411,5.009215234413292],[102.6726517,5.008576594555373],[102.67262842177972,5.008576974386469],[102.67262842177972,5.009215234413292]]],[[[102.67314663017027,5.010002023017643],[102.67211021338915,5.010002023017643],[102.67211021338915,5.0101799446758415],[102.67342819999999,5.010346794553539],[102.67314663017027,5.0092844366194464],[102.67314663017027,5.010002023017643]]],[[[102.67159200499859,5.010788812543974],[102.67208393837649,5.010788812543974],[102.67159200499859,5.010524776060243],[102.67159200499859,5.010788812543974]]],[[[102.67211021338915,5.011182207652927],[102.67251122084265,5.011182207652927],[102.67211021338915,5.010802694626469],[102.67211021338915,5.011182207652927]]],[[[102.67055558821747,5.012755790394426],[102.67066419999999,5.012627294551198],[102.67055558821747,5.012588659067554],[102.67055558821747,5.012755790394426]]],[[[102.67262842177972,5.011575602992431],[102.67107379660801,5.011575602992431],[102.67074361862778,5.011968998562502],[102.6714447,5.011591994552258],[102.6730487,5.012285294551547],[102.6730849,5.011423594552414],[102.67262842177972,5.011244975968934],[102.67262842177972,5.011575602992431]]]]},"properties":{"place_id":"2c6f9d32-555d-5c74-9638-2dd47c9fcff7","habitat":"forest_edge_opening","habitat_label":"Forest edge or opening","resolution_m":50}},{"type":"Feature","geometry":{"type":"MultiPolygon","coordinates":[[[[102.66900096304578,5.010684780207805],[102.66871689999999,5.0110521945528115],[102.66848898117574,5.011182207652927],[102.66900096304578,5.011182207652927],[102.66900096304578,5.010684780207805]]],[[[102.66900096304578,5.009541497596768],[102.66891539999997,5.009737594554171],[102.66900096304578,5.010077848938923],[102.66900096304578,5.009541497596768]]],[[[102.66848275465522,5.011575602992431],[102.66848275465522,5.011188223104819],[102.6682722922818,5.011575602992431],[102.66848275465522,5.011575602992431]]],[[[102.66848275465522,5.012362394363161],[102.66821634357515,5.011968998562502],[102.66835596761308,5.012362394363161],[102.66848275465522,5.012362394363161]]],[[[102.66744633787411,5.013149186656315],[102.66744633787411,5.012733782211275],[102.66710170520415,5.013149186656315],[102.66744633787411,5.013149186656315]]],[[[102.66692812948354,5.013293555139506],[102.66668509999998,5.013479694550317],[102.66692812948354,5.0138146488281246],[102.66692812948354,5.013293555139506]]],[[[102.66640992109298,5.014550203122729],[102.66631229999999,5.014966594548807],[102.66605522428982,5.015116171425761],[102.66640992109298,5.015116171425761],[102.66640992109298,5.014550203122729]]],[[[102.66589171270242,5.01550956907178],[102.6655492,5.015618594548145],[102.66589171270242,5.015591551225209],[102.66589171270242,5.01550956907178]]],[[[102.66589171270242,5.016296365056098],[102.66589171270242,5.016065518752373],[102.66569062978375,5.016296365056098],[102.66589171270242,5.016296365056098]]],[[[102.66923465357446,5.016296365056098],[102.66900096304578,5.016689763394431],[102.66931613047639,5.016689763394431],[102.66923465357446,5.016296365056098]]],[[[102.66848275465522,5.018263359056041],[102.66855691196507,5.018263359056041],[102.66848275465522,5.018200944534489],[102.66848275465522,5.018263359056041]]],[[[102.6648552959213,5.018656758548603],[102.6646265,5.0184547945452245],[102.66419209410654,5.018656758548603],[102.6648552959213,5.018656758548603]]],[[[102.6676707296672,5.019050158272065],[102.6678318,5.019105494544565],[102.66799424417901,5.019050158272065],[102.6676707296672,5.019050158272065]]],[[[102.66744633787411,5.018830261328368],[102.66692812948354,5.018656758548603],[102.66692812948354,5.018692405058266],[102.66744633787411,5.018830261328368]]],[[[102.66692812948354,5.01909682706198],[102.6669909,5.018978494544694],[102.66692812948354,5.018801275180263],[102.66692812948354,5.01909682706198]]],[[[102.66381887914017,5.019383164994393],[102.6637749,5.019543594544119],[102.66381887914017,5.0197674273685315],[102.66381887914017,5.019383164994393]]],[[[102.66537350431187,5.020230358828044],[102.6653293,5.020231694543397],[102.66537350431187,5.020331006332488],[102.66537350431187,5.020230358828044]]],[[[102.66438386399581,5.020230358828044],[102.66465469999999,5.020290394543326],[102.66504074995552,5.020230358828044],[102.66438386399581,5.020230358828044]]],[[[102.66692812948354,5.020230358828044],[102.66692812948354,5.021013415756603],[102.66705330000002,5.021077294542525],[102.6670647,5.020468094543136],[102.6676024,5.020173594543468],[102.66692812948354,5.020230358828044]]],[[[102.66589171270242,5.0206237594752965],[102.665851,5.020745994542857],[102.66589171270242,5.020856807027382],[102.66589171270242,5.0206237594752965]]],[[[102.66608213710107,5.0210171603535425],[102.66616339999999,5.0210518945425635],[102.66627336639945,5.0210171603535425],[102.66608213710107,5.0210171603535425]]],[[[102.67262842177972,5.00134739904608],[102.67262842177972,5.001264594565251],[102.6724916661357,5.00134739904608],[102.67262842177972,5.00134739904608]]],[[[102.67188972177043,5.002527568480298],[102.67158419999998,5.002497894561598],[102.67144830761666,5.002527568480298],[102.67188972177043,5.002527568480298]]],[[[102.67314663017027,5.002134178438773],[102.67304329999999,5.002341594561765],[102.67314663017027,5.002510039295036],[102.67314663017027,5.002134178438773]]],[[[102.67262842177972,5.002920958751968],[102.67273191628833,5.002920958751968],[102.67262842177972,5.002798519726682],[102.67262842177972,5.002920958751968]]],[[[102.67003737982691,5.004101130948023],[102.67003737982691,5.003879557332894],[102.66997800282014,5.004101130948023],[102.67003737982691,5.004101130948023]]],[[[102.67003737982691,5.005270096588977],[102.67003199433661,5.005281305216036],[102.67003737982691,5.005281305216036],[102.67003737982691,5.005270096588977]]],[[[102.67003737982691,5.004494522140452],[102.66974819999999,5.0046113945594355],[102.67003737982691,5.005141358086791],[102.67003737982691,5.004494522140452]]],[[[102.66951917143635,5.006461481556506],[102.66951917143635,5.006224721779005],[102.66925978236772,5.006461481556506],[102.66951917143635,5.006461481556506]]],[[[102.66951917143635,5.005656020774814],[102.66947999999998,5.005745694558253],[102.66951917143635,5.005797868509706],[102.66951917143635,5.005656020774814]]],[[[102.66951917143635,5.006854874130626],[102.66932439999998,5.007073694556878],[102.66951917143635,5.007248266935098],[102.66951917143635,5.006854874130626]]],[[[102.67366483856082,5.00803505323515],[102.67312360546214,5.00803505323515],[102.67366483856082,5.008388394076715],[102.67366483856082,5.00803505323515]]],[[[102.67314515474932,5.010395417665552],[102.67321089999999,5.0104015945535005],[102.6732490113983,5.010395417665552],[102.67314515474932,5.010395417665552]]],[[[102.67211021338915,5.011182207652927],[102.67241839999998,5.011009494552839],[102.67211021338915,5.010802694626469],[102.67211021338915,5.011182207652927]]],[[[102.67159200499859,5.011575602992431],[102.67107379660801,5.011575602992431],[102.67107379660801,5.012021293444467],[102.6712785,5.011612994552227],[102.67159200499859,5.011575602992431]]],[[[102.67262842177972,5.011968998562502],[102.67245319999999,5.012006094551831],[102.67262842177972,5.012002251968973],[102.67262842177972,5.011968998562502]]],[[[102.6716874,5.013029494550789],[102.6719446583024,5.013149186656315],[102.67194229999997,5.013116294550724],[102.6716874,5.013029494550789]]],[[[102.67055558821747,5.013935979872038],[102.67055558821747,5.014008768552868],[102.67061750216588,5.013935979872038],[102.67055558821747,5.013935979872038]]],[[[102.67055558821747,5.014959509978436],[102.670915,5.014783594548994],[102.67055558821747,5.014631803990655],[102.67055558821747,5.014959509978436]]],[[[102.6699866726925,5.01550956907178],[102.67000840000001,5.015512994548231],[102.67008990732185,5.01550956907178],[102.6699866726925,5.01550956907178]]],[[[102.66951917143635,5.01550956907178],[102.66951917143635,5.01562802148872],[102.6697224717741,5.01550956907178],[102.66951917143635,5.01550956907178]]],[[[102.66951917143635,5.017178577879029],[102.66952429999999,5.017132194546587],[102.66951917143635,5.017082191047461],[102.66951917143635,5.017178577879029]]],[[[102.6767740889042,4.998200290677358],[102.6767955171198,4.998200290677358],[102.6767740889042,4.998173973136925],[102.6767740889042,4.998200290677358]]],[[[102.67781050568533,4.999268180241693],[102.6780403,4.998712994565468],[102.67781050568533,4.998101979148701],[102.67781050568533,4.999268180241693]]],[[[102.67418304695138,4.999380454590566],[102.67418304695138,4.998992992107149],[102.67409873057615,4.999380454590566],[102.67418304695138,4.999380454590566]]],[[[102.67729229729476,4.999380454590566],[102.67729229729476,4.9995285647194425],[102.67759464811628,4.999380454590566],[102.67729229729476,4.999380454590566]]],[[[102.67366483856082,5.000560620573738],[102.67366483856082,5.000538649498993],[102.67356609588683,5.000560620573738],[102.67366483856082,5.000560620573738]]],[[[102.67366483856082,4.999635648961991],[102.6735449,4.999793794564356],[102.67366483856082,5.000049266768106],[102.67366483856082,4.999635648961991]]],[[[102.67781050568533,5.0000784493754695],[102.67884692246643,5.000167231682655],[102.67884692246643,5.000024804829901],[102.67781050568533,5.0000784493754695]]],[[[102.679365130857,5.000461282160887],[102.6795959,4.999976894564191],[102.6794659,4.999868594564307],[102.679365130857,4.999867660919383],[102.679365130857,5.000461282160887]]],[[[102.67832871407586,5.000560620573738],[102.67832871407586,5.000901444269022],[102.67915043536185,5.000560620573738],[102.67832871407586,5.000560620573738]]],[[[102.67781050568533,5.00134739904608],[102.67781050568533,5.0014799253571685],[102.67807550219325,5.00134739904608],[102.67781050568533,5.00134739904608]]],[[[102.67573767212306,5.003031050329991],[102.67577379999999,5.002968194561099],[102.67573767212306,5.002879097707521],[102.67573767212306,5.003031050329991]]],[[[102.67623220733412,5.002527568480298],[102.67651539999997,5.002610094561473],[102.67660181997296,5.002527568480298],[102.67623220733412,5.002527568480298]]],[[[102.67521946373252,5.003930063525562],[102.67526019999997,5.003815194560256],[102.67521946373252,5.0037252077287695],[102.67521946373252,5.003930063525562]]],[[[102.67470125534196,5.005281305216036],[102.67484555651909,5.005281305216036],[102.67470125534196,5.005207923388497],[102.67470125534196,5.005281305216036]]],[[[102.67470125534196,5.006068089212711],[102.67470125534196,5.006364042319273],[102.674827,5.006217294557762],[102.67470125534196,5.006068089212711]]],[[[102.67366483856082,5.007641659969931],[102.6736817,5.007575994556393],[102.67366483856082,5.007565035987107],[102.67366483856082,5.007641659969931]]],[[[102.67366483856082,5.006854874130626],[102.6741604,5.006965394557019],[102.67426962438832,5.006854874130626],[102.67366483856082,5.006854874130626]]],[[[102.67373120222447,5.008428446730769],[102.6738332,5.008449694555477],[102.67388146769616,5.008428446730769],[102.67373120222447,5.008428446730769]]]]},"properties":{"place_id":"2c6f9d32-555d-5c74-9638-2dd47c9fcff7","habitat":"permanent_water","habitat_label":"Permanent water","resolution_m":50}},{"type":"Feature","geometry":{"type":"MultiPolygon","coordinates":[[[[102.66900096304578,5.011182207652927],[102.66900096304578,5.010684780207805],[102.66848898117574,5.011182207652927],[102.66900096304578,5.011182207652927]]],[[[102.66848275465522,5.012362394363161],[102.66848275465522,5.011575602992431],[102.6682722922818,5.011575602992431],[102.6681992,5.01193129455191],[102.66848275465522,5.012362394363161]]],[[[102.66710170520415,5.013149186656315],[102.66744633787411,5.012755790394426],[102.66741497355648,5.012755790394426],[102.66710170520415,5.013149186656315]]],[[[102.66692812948354,5.013542583148845],[102.66692812948354,5.013293555139506],[102.66668509999998,5.013479694550317],[102.66692812948354,5.013542583148845]]],[[[102.66723728049348,5.014722774010475],[102.66692812948354,5.014628402347923],[102.66692812948354,5.014722774010475],[102.66723728049348,5.014722774010475]]],[[[102.66744633787411,5.014329376825907],[102.66726977271136,5.014329376825907],[102.66744633787411,5.0145182688093515],[102.66744633787411,5.014329376825907]]],[[[102.66433708753074,5.018656758548603],[102.6648552959213,5.018467601850168],[102.66433708753074,5.018591776073045],[102.66433708753074,5.018656758548603]]],[[[102.66796454626467,5.019050158272065],[102.6676707296672,5.019050158272065],[102.6678318,5.019105494544565],[102.66796454626467,5.019050158272065]]],[[[102.66692812948354,5.019050158272065],[102.66692812948354,5.01909682706198],[102.6669768067476,5.019050158272065],[102.66692812948354,5.019050158272065]]],[[[102.66744633787411,5.020230358828044],[102.6676024,5.020173594543468],[102.66744633787411,5.0200426319969935],[102.66744633787411,5.020230358828044]]],[[[102.66589171270242,5.0206237594752965],[102.66583071421242,5.0206237594752965],[102.66589171270242,5.020856807027382],[102.66589171270242,5.0206237594752965]]],[[[102.67832871407586,5.000167231682655],[102.67884692246643,5.000024804829901],[102.67832871407586,5.000143342271421],[102.67832871407586,5.000167231682655]]],[[[102.679365130857,5.000167231682655],[102.67958250000001,4.999903394564253],[102.679365130857,4.999867660919383],[102.679365130857,5.000167231682655]]],[[[102.67625588051362,5.002527568480298],[102.67623220733412,5.002527568480298],[102.67625588051362,5.002535538098213],[102.67625588051362,5.002527568480298]]],[[[102.67573767212306,5.003031050329991],[102.67577379999999,5.002968194561099],[102.67573767212306,5.002879097707521],[102.67573767212306,5.003031050329991]]],[[[102.67003737982691,5.004101130948023],[102.67003737982691,5.003879557332894],[102.66997800282014,5.004101130948023],[102.67003737982691,5.004101130948023]]],[[[102.67003737982691,5.005674697099228],[102.67003737982691,5.005270096588977],[102.66951917143635,5.005656020774814],[102.67003737982691,5.005674697099228]]],[[[102.67003737982691,5.004887913563116],[102.66994567436696,5.004887913563116],[102.67003737982691,5.005141358086791],[102.67003737982691,5.004887913563116]]],[[[102.67262842177972,5.008821840456811],[102.6728649,5.008643394555307],[102.67262842177972,5.008576974386469],[102.67262842177972,5.008821840456811]]],[[[102.67373120222447,5.008428446730769],[102.6738332,5.008449694555477],[102.67388146769616,5.008428446730769],[102.67373120222447,5.008428446730769]]],[[[102.66900096304578,5.010002023017643],[102.66891539999997,5.009737594554171],[102.66896097329064,5.010002023017643],[102.66900096304578,5.010002023017643]]]]},"properties":{"place_id":"2c6f9d32-555d-5c74-9638-2dd47c9fcff7","habitat":"seasonal_water_wetland","habitat_label":"Seasonal water or wetland","resolution_m":50}},{"type":"Feature","geometry":{"type":"MultiPolygon","coordinates":[[[[102.66381887914017,5.0197674273685315],[102.66608213710107,5.0210171603535425],[102.66692812948354,5.021013415756603],[102.66692812948354,5.020230358828044],[102.66744633787411,5.020230358828044],[102.66660329999999,5.019345894544329],[102.66692812948354,5.018656758548603],[102.66799424417901,5.019050158272065],[102.66892339999998,5.018656594545022],[102.66788345777434,5.017476560763545],[102.66744633787411,5.017476560763545],[102.66744633787411,5.01786995979436],[102.66589171270242,5.018656758548603],[102.66589171270242,5.016947025479359],[102.66530919999998,5.016696694547022],[102.66504159999998,5.0184621945452115],[102.66417189999999,5.018677894544999],[102.66381887914017,5.0197674273685315]],[[102.66589171270242,5.019443558226447],[102.66640992109298,5.019443558226447],[102.66640992109298,5.020230358828044],[102.66589171270242,5.020230358828044],[102.6648552959213,5.019050158272065],[102.66589171270242,5.018656758548603],[102.66589171270242,5.019443558226447]]],[[[102.66640889999998,5.016056094547664],[102.66568060000002,5.016319994547428],[102.66589171270242,5.016729722098095],[102.66640992109298,5.016689763394431],[102.66640992109298,5.016296365056098],[102.66692812948354,5.016296365056098],[102.66692812948354,5.01550956907178],[102.66848275465522,5.014722774010475],[102.66848275465522,5.014329376825907],[102.66796454626467,5.014329376825907],[102.66796454626467,5.013149186656315],[102.66951917143635,5.012362394363161],[102.66951917143635,5.011182207652927],[102.67003737982691,5.011182207652927],[102.67003737982691,5.007248266935098],[102.67055558821747,5.007248266935098],[102.67003737982691,5.006461481556506],[102.67055558821747,5.006461481556506],[102.67055558821747,5.005674697099228],[102.67107379660801,5.005674697099228],[102.67107379660801,5.004494522140452],[102.67055558821747,5.004494522140452],[102.67055558821747,5.004101130948023],[102.67107379660801,5.004101130948023],[102.67107379660801,5.003314349253799],[102.67262842177972,5.003314349253799],[102.67262842177972,5.003707739985812],[102.67314663017027,5.003707739985812],[102.67326621131998,5.003314349253799],[102.67206699999998,5.002560694561534],[102.6709016,5.002636794561434],[102.6702176,5.0032005945608935],[102.67003737982691,5.005674697099228],[102.66951917143635,5.005674697099228],[102.669252,5.006485794557499],[102.66900096304578,5.011182207652927],[102.66848275465522,5.011188223104819],[102.6683293,5.012662094551154],[102.66753140000002,5.012674094551138],[102.66692812948354,5.013293555139506],[102.66762589999999,5.0147434945490295],[102.6665054,5.014492394549295],[102.66640992109298,5.015116171425761],[102.6654902,5.015299294548454],[102.66642759999999,5.0155103945482455],[102.66640889999998,5.016056094547664]]],[[[102.67314663017027,5.002134178438773],[102.67333020314382,5.003314349253799],[102.67366483856082,5.003314349253799],[102.67366483856082,5.002920958751968],[102.67418304695138,5.002920958751968],[102.67418304695138,5.002134178438773],[102.67366483856082,5.002134178438773],[102.67366483856082,5.001740788627372],[102.67314663017027,5.002134178438773]]],[[[102.67301780000001,5.000743694563404],[102.6721327,5.001669594562443],[102.67242509999998,5.002059694562045],[102.67314663017027,5.00134739904608],[102.67366483856082,5.00134739904608],[102.67366483856082,5.0009540096948735],[102.67418304695138,5.0009540096948735],[102.67418304695138,5.000560620573738],[102.67470125534196,5.000560620573738],[102.67470125534196,4.999380454590566],[102.67573767212306,4.999380454590566],[102.67625588051362,4.998593678418463],[102.6767740889042,4.998593678418463],[102.6767740889042,4.999380454590566],[102.67625588051362,4.999380454590566],[102.67625588051362,4.999773843021603],[102.67729229729476,5.000167231682655],[102.67729229729476,5.0009540096948735],[102.67625588051362,5.00144634330597],[102.6770224,5.001672194562445],[102.67807550219325,5.00134739904608],[102.67832871407586,5.000560620573738],[102.679365130857,5.000461282160887],[102.679365130857,4.999867660919383],[102.67884692246643,5.000167231682655],[102.67716449999999,5.000011594564118],[102.67729229729476,4.999380454590566],[102.67781050568533,4.999268180241693],[102.67781050568533,4.998101979148701],[102.6768762,4.998280094565899],[102.67666559999999,4.997807194566409],[102.6758328,4.998093094566109],[102.67581539999999,4.998952194565229],[102.67502809999999,4.998622194565563],[102.67487929999997,4.998982894565195],[102.67426769999999,4.9988853945653045],[102.67366483856082,4.999635648961991],[102.67397399999999,5.000525994563588],[102.67301780000001,5.000743694563404]]],[[[102.67660181997296,5.002527568480298],[102.67625588051362,5.001638250400392],[102.67521946373252,5.002134178438773],[102.67521946373252,5.002527568480298],[102.67470125534196,5.002527568480298],[102.67470125534196,5.003314349253799],[102.67418304695138,5.003314349253799],[102.67418304695138,5.004887913563116],[102.67366483856082,5.004887913563116],[102.67366483856082,5.005281305216036],[102.67418304695138,5.005281305216036],[102.67418304695138,5.006068089212711],[102.67366483856082,5.006068089212711],[102.67314663017027,5.006770606012924],[102.67426962438832,5.006854874130626],[102.67470125534196,5.006364042319273],[102.67507239999999,5.005511894558498],[102.67422210000001,5.004950794559086],[102.67506169999999,5.004687594559333],[102.67510729999998,5.003352894560721],[102.67573767212306,5.003031050329991],[102.6754466,5.002610094561473],[102.67660181997296,5.002527568480298]]],[[[102.67388146769616,5.008428446730769],[102.67311996792472,5.006854874130626],[102.67262842177972,5.006854874130626],[102.6725692276501,5.007641659969931],[102.67388146769616,5.008428446730769]]],[[[102.67354089999998,5.009674794554218],[102.6719262,5.008333494555614],[102.67248679999999,5.008096994555832],[102.67211021338915,5.007641659969931],[102.67211021338915,5.00803505323515],[102.67159200499859,5.00803505323515],[102.67159200499859,5.008821840456811],[102.67211021338915,5.008821840456811],[102.67262842177972,5.00960862860023],[102.67159200499859,5.010144569437889],[102.6733343,5.010381594553526],[102.67354089999998,5.009674794554218]]],[[[102.67211021338915,5.011182207652927],[102.67211021338915,5.010802694626469],[102.67107379660801,5.010395417665552],[102.67107379660801,5.011182207652927],[102.67003737982691,5.011575602992431],[102.67003737982691,5.012755790394426],[102.67055558821747,5.012755790394426],[102.67055558821747,5.013542583148845],[102.66951917143635,5.013935979872038],[102.66951917143635,5.015116171425761],[102.66848275465522,5.01550956907178],[102.66848275465522,5.016296365056098],[102.66796454626467,5.016296365056098],[102.66848275465522,5.0170831619635745],[102.66796454626467,5.017339213704083],[102.669476,5.0172457945464854],[102.66900096304578,5.016689763394431],[102.6694317,5.016030094547698],[102.66914739999999,5.015692094548064],[102.6701452,5.015484994548258],[102.67055558821747,5.014959509978436],[102.66981799999999,5.014389494549402],[102.6719449,5.013513094550308],[102.6719446583024,5.013149186656315],[102.6703463,5.012474994551362],[102.67008079999998,5.011746894552098],[102.6710035,5.012042194551813],[102.67107379660801,5.011575602992431],[102.67159200499859,5.011575602992431],[102.6730862,5.012270594551585],[102.6730849,5.011423594552414],[102.67211021338915,5.011182207652927]]]]},"properties":{"place_id":"2c6f9d32-555d-5c74-9638-2dd47c9fcff7","habitat":"water_edge","habitat_label":"Water edge","resolution_m":50}}]}