{"type":"FeatureCollection","metadata":{"schema_version":1,"place_id":"2cd11077-59e4-5b77-93c2-dbbda01da0ac","place_name":"Park 1","place_type":"park","osm_reference":"way/1298974651","protection_context":"no protected status confirmed from included OSM tags","resolution_m":50,"raster_coverage":1.0,"interpretation":"Suggested search habitats, not predicted plant locations or probabilities of presence."},"features":[{"type":"Feature","geometry":{"type":"Polygon","coordinates":[[[102.37414038881678,3.4400384450748582],[102.374435,3.440485796203889],[102.37499309999998,3.440434596203949],[102.37465859720734,3.440034928705397],[102.37414038881678,3.4400384450748582]]]},"properties":{"place_id":"2cd11077-59e4-5b77-93c2-dbbda01da0ac","habitat":"forest_interior","habitat_label":"Forest interior","resolution_m":50}},{"type":"Feature","geometry":{"type":"MultiPolygon","coordinates":[[[[102.37465859720734,3.440034928705397],[102.37499399602862,3.440427548910785],[102.37476890000002,3.4398238962046226],[102.37415068986051,3.440034928705397],[102.37465859720734,3.440034928705397]]],[[[102.37414038881678,3.4400384450748582],[102.37395160000001,3.440271396204115],[102.37414038881678,3.440355128764261],[102.37414038881678,3.4400384450748582]]]]},"properties":{"place_id":"2cd11077-59e4-5b77-93c2-dbbda01da0ac","habitat":"forest_edge_opening","habitat_label":"Forest edge or opening","resolution_m":50}},{"type":"Feature","geometry":{"type":"Polygon","coordinates":[[[102.37465859720734,3.440034928705397],[102.37465859720734,3.440427548910785],[102.37499399602862,3.440427548910785],[102.37485999999998,3.4398448962045607],[102.37415068986051,3.440034928705397],[102.37465859720734,3.440034928705397]]]},"properties":{"place_id":"2cd11077-59e4-5b77-93c2-dbbda01da0ac","habitat":"disturbed_built_edge","habitat_label":"Disturbed, bare or built edge","resolution_m":50}}]}