{"type":"FeatureCollection","metadata":{"schema_version":1,"place_id":"2cefabe8-9ee5-5b10-8ea6-7e07cd382b7b","place_name":"USTM PKB","place_type":"park","osm_reference":"way/808995757","protection_context":"no protected status confirmed from included OSM tags","resolution_m":50,"raster_coverage":1.0,"interpretation":"Suggested search habitats, not predicted plant locations or probabilities of presence."},"features":[{"type":"Feature","geometry":{"type":"Polygon","coordinates":[[[102.23484260000001,5.923508693632776],[102.23488009999998,5.92355139363274],[102.2348788,5.923508693632776],[102.23484260000001,5.923508693632776]]]},"properties":{"place_id":"2cefabe8-9ee5-5b10-8ea6-7e07cd382b7b","habitat":"disturbed_built_edge","habitat_label":"Disturbed, bare or built edge","resolution_m":50}}]}