{"type":"FeatureCollection","metadata":{"schema_version":1,"place_id":"2d1ff87a-2bda-5d77-9cc7-b0a59b22a644","place_name":"Pulau Tepus","place_type":"wood","osm_reference":"way/76397112","protection_context":"no protected status confirmed from included OSM tags","resolution_m":50,"raster_coverage":1.0,"interpretation":"Suggested search habitats, not predicted plant locations or probabilities of presence."},"features":[{"type":"Feature","geometry":{"type":"Polygon","coordinates":[[[100.92833897915258,4.5101774375529216],[100.92782077076204,4.512143022436712],[100.92730256237147,4.512143022436712],[100.92730256237147,4.515681088281995],[100.92782077076204,4.515681088281995],[100.92782077076204,4.517253567381428],[100.92833897915258,4.517253567381428],[100.92833897915258,4.518039808175636],[100.92885718754316,4.518039808175636],[100.93041181271484,4.5196122922537745],[100.93144822949596,4.5196122922537745],[100.93144822949596,4.520005413792107],[100.93196643788652,4.520005413792107],[100.93196643788652,4.518039808175636],[100.93144822949596,4.518039808175636],[100.9309300211054,4.514108612500234],[100.93041181271484,4.514108612500234],[100.93041181271484,4.512929257840426],[100.92989360432428,4.512929257840426],[100.92989360432428,4.51174990504565],[100.92937539593372,4.51174990504565],[100.92931653795173,4.5101774375529216],[100.92833897915258,4.5101774375529216]]]},"properties":{"place_id":"2d1ff87a-2bda-5d77-9cc7-b0a59b22a644","habitat":"forest_interior","habitat_label":"Forest interior","resolution_m":50}},{"type":"Feature","geometry":{"type":"Polygon","coordinates":[[[100.92937539593372,4.51174990504565],[100.92989360432428,4.51174990504565],[100.92989360432428,4.512929257840426],[100.93041181271484,4.512929257840426],[100.93041181271484,4.514108612500234],[100.9309300211054,4.514108612500234],[100.9309300211054,4.515681088281995],[100.93144822949596,4.515681088281995],[100.93196643788652,4.520005413792107],[100.93144822949596,4.520005413792107],[100.93144822949596,4.5196122922537745],[100.93041181271484,4.5196122922537745],[100.93041181271484,4.5192191709229785],[100.92833897915258,4.518039808175636],[100.92833897915258,4.517253567381428],[100.92782077076204,4.517253567381428],[100.92782077076204,4.515681088281995],[100.92730256237147,4.515681088281995],[100.92730256237147,4.512143022436712],[100.92782077076204,4.512143022436712],[100.92833897915258,4.5101774375529216],[100.92931653795173,4.5101774375529216],[100.92847019999999,4.50910979507208],[100.92687430000001,4.5125430950685],[100.9268904,4.515409495065475],[100.92849540000002,4.5186283950621515],[100.931839,4.520396295060268],[100.93235670000001,4.519762595060956],[100.93237279999998,4.518553995062191],[100.93092439999998,4.513896095067051],[100.92937539593372,4.510290154310416],[100.92937539593372,4.51174990504565]]]},"properties":{"place_id":"2d1ff87a-2bda-5d77-9cc7-b0a59b22a644","habitat":"forest_edge_opening","habitat_label":"Forest edge or opening","resolution_m":50}},{"type":"Feature","geometry":{"type":"MultiPolygon","coordinates":[[[[100.92833897915258,4.5101774375529216],[100.92833897915258,4.509391205049216],[100.92875003780736,4.509391205049216],[100.92847019999999,4.50910979507208],[100.92795715224847,4.5101774375529216],[100.92833897915258,4.5101774375529216]]],[[[100.92782077076204,4.510963670885017],[100.92782077076204,4.510469341763593],[100.92757237345037,4.510963670885017],[100.92782077076204,4.510963670885017]]],[[[100.92730256237147,4.512143022436712],[100.92730256237147,4.51144661594127],[100.92701373924815,4.512143022436712],[100.92730256237147,4.512143022436712]]],[[[100.92678435398092,4.5131928990663495],[100.92671329999999,4.51440409506652],[100.92678435398092,4.514807469676823],[100.92678435398092,4.5131928990663495]]],[[[100.92730256237147,4.515681088281995],[100.9269715484409,4.515681088281995],[100.92730256237147,4.516687543582218],[100.92730256237147,4.515681088281995]]],[[[100.92782077076204,4.517253567381428],[100.92753458316888,4.517253567381428],[100.92782077076204,4.51778720352966],[100.92782077076204,4.517253567381428]]],[[[100.92833897915258,4.518039808175636],[100.92796942139717,4.518039808175636],[100.92833897915258,4.518455092476628],[100.92833897915258,4.518039808175636]]],[[[100.92937539593372,4.518826049799703],[100.9287425888944,4.518826049799703],[100.92937539593372,4.519266799378657],[100.92937539593372,4.518826049799703]]],[[[100.92885718754316,4.509784321197529],[100.92887519999998,4.509548295071579],[100.92885718754316,4.509525687785452],[100.92885718754316,4.509784321197529]]],[[[100.9299803889521,4.51174990504565],[100.92989360432428,4.511578210727902],[100.92989360432428,4.51174990504565],[100.9299803889521,4.51174990504565]]],[[[100.93051871944995,4.512929257840426],[100.93041181271484,4.512680022995826],[100.93041181271484,4.512929257840426],[100.93051871944995,4.512929257840426]]],[[[100.93099545666547,4.514108612500234],[100.9309300211054,4.513912906758497],[100.9309300211054,4.514108612500234],[100.93099545666547,4.514108612500234]]],[[[100.93147195565223,4.515681088281995],[100.93144822949596,4.515591546514695],[100.93144822949596,4.515681088281995],[100.93147195565223,4.515681088281995]]],[[[100.93196643788652,4.518039808175636],[100.93204019999999,4.517781195062996],[100.93196643788652,4.517512735754125],[100.93196643788652,4.518039808175636]]],[[[100.93041181271484,4.5196122922537745],[100.93000056774007,4.5196122922537745],[100.93041181271484,4.519831487155605],[100.93041181271484,4.5196122922537745]]],[[[100.93144822949596,4.520005413792107],[100.93074488259808,4.520005413792107],[100.93144822949596,4.520330428225542],[100.93144822949596,4.520005413792107]]]]},"properties":{"place_id":"2d1ff87a-2bda-5d77-9cc7-b0a59b22a644","habitat":"permanent_water","habitat_label":"Permanent water","resolution_m":50}},{"type":"Feature","geometry":{"type":"MultiPolygon","coordinates":[[[[100.92989360432428,4.51174990504565],[100.9299803889521,4.51174990504565],[100.92989360432428,4.511578210727902],[100.92989360432428,4.51174990504565]]],[[[100.92678435398092,4.513715494073041],[100.92671329999999,4.51440409506652],[100.92678435398092,4.514807469676823],[100.92678435398092,4.513715494073041]]]]},"properties":{"place_id":"2d1ff87a-2bda-5d77-9cc7-b0a59b22a644","habitat":"seasonal_water_wetland","habitat_label":"Seasonal water or wetland","resolution_m":50}},{"type":"Feature","geometry":{"type":"Polygon","coordinates":[[[100.93074488259808,4.520005413792107],[100.931839,4.520396295060268],[100.93224409999999,4.520096795060593],[100.93237279999998,4.518553995062191],[100.929594,4.510708795070387],[100.92875003780736,4.509391205049216],[100.92833897915258,4.509391205049216],[100.92833897915258,4.5101774375529216],[100.92795715224847,4.5101774375529216],[100.92687430000001,4.5125430950685],[100.9268904,4.515409495065475],[100.92849540000002,4.5186283950621515],[100.92937539593372,4.518826049799703],[100.92937539593372,4.519266799378657],[100.93074488259808,4.520005413792107]],[[100.93196643788652,4.5192191709229785],[100.93196643788652,4.5196122922537745],[100.93144822949596,4.5196122922537745],[100.93144822949596,4.5192191709229785],[100.93196643788652,4.5192191709229785]],[[100.93041181271484,4.5192191709229785],[100.93041181271484,4.518826049799703],[100.92885718754316,4.518039808175636],[100.92885718754316,4.517253567381428],[100.92833897915258,4.517253567381428],[100.92833897915258,4.515681088281995],[100.92782077076204,4.515681088281995],[100.92782077076204,4.512143022436712],[100.92833897915258,4.512143022436712],[100.92833897915258,4.510963670885017],[100.92885718754316,4.510963670885017],[100.92885718754316,4.51174990504565],[100.92937539593372,4.51174990504565],[100.92937539593372,4.512929257840426],[100.92989360432428,4.512929257840426],[100.92989360432428,4.514108612500234],[100.93041181271484,4.514108612500234],[100.93041181271484,4.515681088281995],[100.9309300211054,4.515681088281995],[100.9309300211054,4.518039808175636],[100.93144822949596,4.518039808175636],[100.93144822949596,4.5192191709229785],[100.93041181271484,4.5192191709229785]]]},"properties":{"place_id":"2d1ff87a-2bda-5d77-9cc7-b0a59b22a644","habitat":"water_edge","habitat_label":"Water edge","resolution_m":50}}]}