{"type":"FeatureCollection","metadata":{"schema_version":1,"place_id":"2d75af06-d39d-59d7-a717-733482424f6e","place_name":"The West Park","place_type":"park","osm_reference":"way/579720812","protection_context":"no protected status confirmed from included OSM tags","resolution_m":50,"raster_coverage":1.0,"interpretation":"Suggested search habitats, not predicted plant locations or probabilities of presence."},"features":[{"type":"Feature","geometry":{"type":"Polygon","coordinates":[[[101.62532926445665,3.1856493136247463],[101.62532926445665,3.1848642700589442],[101.62481105606608,3.1848642700589442],[101.62429284767553,3.1856493136247463],[101.62532926445665,3.1856493136247463]]]},"properties":{"place_id":"2d75af06-d39d-59d7-a717-733482424f6e","habitat":"forest_interior","habitat_label":"Forest interior","resolution_m":50}},{"type":"Feature","geometry":{"type":"Polygon","coordinates":[[[101.6238937,3.1858454964781715],[101.62505279999999,3.1861043964778895],[101.6257516,3.1851498964789386],[101.6255896,3.184119996480047],[101.624313,3.1847878964793437],[101.6238937,3.1858454964781715]],[[101.62429284767553,3.185256791769018],[101.62481105606608,3.185256791769018],[101.62481105606608,3.1848642700589442],[101.62532926445665,3.1848642700589442],[101.62532926445665,3.1856493136247463],[101.62429284767553,3.1856493136247463],[101.62429284767553,3.185256791769018]]]},"properties":{"place_id":"2d75af06-d39d-59d7-a717-733482424f6e","habitat":"forest_edge_opening","habitat_label":"Forest edge or opening","resolution_m":50}},{"type":"Feature","geometry":{"type":"Polygon","coordinates":[[[101.62532926445665,3.1844717484945075],[101.62532926445665,3.1848642700589442],[101.62579388640637,3.1848642700589442],[101.62575357463517,3.1844717484945075],[101.62532926445665,3.1844717484945075]]]},"properties":{"place_id":"2d75af06-d39d-59d7-a717-733482424f6e","habitat":"open_grassland","habitat_label":"Open grassland or shrubland","resolution_m":50}},{"type":"Feature","geometry":{"type":"Polygon","coordinates":[[[101.62571733887381,3.185256791769018],[101.62532926445665,3.1856493136247463],[101.62429284767553,3.1856493136247463],[101.62429284767553,3.185256791769018],[101.62481105606608,3.185256791769018],[101.62481105606608,3.1844717484945075],[101.62575357463517,3.1844717484945075],[101.62553759999999,3.1841074964800624],[101.62475159999997,3.1844116964797555],[101.624313,3.1847878964793437],[101.62389430000002,3.1859006964781376],[101.62505279999999,3.1861043964778895],[101.62571733887381,3.185256791769018]]]},"properties":{"place_id":"2d75af06-d39d-59d7-a717-733482424f6e","habitat":"disturbed_built_edge","habitat_label":"Disturbed, bare or built edge","resolution_m":50}},{"type":"Feature","geometry":{"type":"MultiPolygon","coordinates":[[[[101.62481105606608,3.1844717484945075],[101.62469969999998,3.1844414964797045],[101.62465825811307,3.1844717484945075],[101.62481105606608,3.1844717484945075]]],[[[101.62429284767553,3.1848642700589442],[101.62429284767553,3.1848121506036797],[101.62424954254026,3.1848642700589442],[101.62429284767553,3.1848642700589442]]]]},"properties":{"place_id":"2d75af06-d39d-59d7-a717-733482424f6e","habitat":"water_edge","habitat_label":"Water edge","resolution_m":50}}]}