{"type":"FeatureCollection","metadata":{"schema_version":1,"place_id":"2dacbc7e-67cf-568f-817a-83d28dd0548f","place_name":"Pulau Hulu Tekak","place_type":"wood","osm_reference":"way/724514549","protection_context":"no protected status confirmed from included OSM tags","resolution_m":50,"raster_coverage":1.0,"interpretation":"Suggested search habitats, not predicted plant locations or probabilities of presence."},"features":[{"type":"Feature","geometry":{"type":"Polygon","coordinates":[[[102.74828684680156,5.173280822668826],[102.74880505519212,5.174347918695952],[102.74932326358268,5.174461299079244],[102.74932326358268,5.171706857455863],[102.74969502967465,5.171706857455863],[102.74914029999998,5.171228194389001],[102.74926499999998,5.171908094388309],[102.747768638411,5.172514780533832],[102.747768638411,5.173130165680123],[102.74828684680156,5.173280822668826]]]},"properties":{"place_id":"2dacbc7e-67cf-568f-817a-83d28dd0548f","habitat":"forest_interior","habitat_label":"Forest interior","resolution_m":50}},{"type":"Feature","geometry":{"type":"MultiPolygon","coordinates":[[[[102.747768638411,5.172514780533832],[102.74750679999998,5.172685394387509],[102.7476208,5.173144894387031],[102.747768638411,5.173130165680123],[102.747768638411,5.172514780533832]]],[[[102.74932326358268,5.171706857455863],[102.74932326358268,5.174461299079244],[102.74896981523347,5.174461299079244],[102.74927029999999,5.175227094384907],[102.74980809999997,5.175049494385081],[102.7494809,5.174400394385775],[102.75003079999999,5.173944894386207],[102.7495037,5.173387994386815],[102.74978399999999,5.17183599438837],[102.74932326358268,5.171706857455863]]],[[[102.74828684680156,5.173280822668826],[102.7482498,5.1738046943863525],[102.74880505519212,5.174347918695952],[102.74880505519212,5.173674314567438],[102.74828684680156,5.173674314567438],[102.74828684680156,5.173280822668826]]]]},"properties":{"place_id":"2dacbc7e-67cf-568f-817a-83d28dd0548f","habitat":"forest_edge_opening","habitat_label":"Forest edge or opening","resolution_m":50}},{"type":"Feature","geometry":{"type":"MultiPolygon","coordinates":[[[[102.74828684680156,5.173674314567438],[102.7482498,5.1738046943863525],[102.74828684680156,5.173860079181453],[102.74828684680156,5.173674314567438]]],[[[102.74984147197326,5.174136401682432],[102.75003079999999,5.173944894386207],[102.74984147197326,5.173704264043418],[102.74984147197326,5.174136401682432]]],[[[102.74932326358268,5.174854791692472],[102.7492033,5.175158994384966],[102.74932326358268,5.175225744332798],[102.74932326358268,5.174854791692472]]],[[[102.74984147197326,5.174980709067461],[102.74984569999998,5.174971994385185],[102.74984147197326,5.174900048956954],[102.74984147197326,5.174980709067461]]]]},"properties":{"place_id":"2dacbc7e-67cf-568f-817a-83d28dd0548f","habitat":"permanent_water","habitat_label":"Permanent water","resolution_m":50}},{"type":"Feature","geometry":{"type":"Polygon","coordinates":[[[102.74932326358268,5.175225744332798],[102.74920627727103,5.174854791692472],[102.74927029999999,5.175227094384907],[102.74932326358268,5.175225744332798]]]},"properties":{"place_id":"2dacbc7e-67cf-568f-817a-83d28dd0548f","habitat":"seasonal_water_wetland","habitat_label":"Seasonal water or wetland","resolution_m":50}},{"type":"Feature","geometry":{"type":"Polygon","coordinates":[[[102.74749609999998,5.172761594387434],[102.74932326358268,5.175225744332798],[102.74980809999997,5.175049494385081],[102.7494755,5.174464494385695],[102.74984147197326,5.174136401682432],[102.74950099999997,5.173325194386857],[102.74978399999999,5.17183599438837],[102.74914029999998,5.171228194389001],[102.74926499999998,5.171908094388309],[102.7483852,5.172050994388154],[102.74749609999998,5.172761594387434]],[[102.74828684680156,5.172493839586083],[102.74880505519212,5.172493839586083],[102.74880505519212,5.173280822668826],[102.74828684680156,5.173280822668826],[102.74828684680156,5.172493839586083]]]},"properties":{"place_id":"2dacbc7e-67cf-568f-817a-83d28dd0548f","habitat":"water_edge","habitat_label":"Water edge","resolution_m":50}}]}