{"type":"FeatureCollection","metadata":{"schema_version":1,"place_id":"2df9c1c2-9850-56fb-b537-9320aefa592a","place_name":"University of Malaya Crest","place_type":"park","osm_reference":"way/555184310","protection_context":"no protected status confirmed from included OSM tags","resolution_m":50,"raster_coverage":1.0,"interpretation":"Suggested search habitats, not predicted plant locations or probabilities of presence."},"features":[{"type":"Feature","geometry":{"type":"Polygon","coordinates":[[[101.65685449999998,3.1219167965473074],[101.65708079999997,3.1220765965471324],[101.65718359999998,3.1219250965472813],[101.65685449999998,3.1219167965473074]]]},"properties":{"place_id":"2df9c1c2-9850-56fb-b537-9320aefa592a","habitat":"forest_edge_opening","habitat_label":"Forest edge or opening","resolution_m":50}},{"type":"Feature","geometry":{"type":"Polygon","coordinates":[[[101.65685449999998,3.1219167965473074],[101.6570252,3.122089096547125],[101.65718359999998,3.1219250965472813],[101.65685449999998,3.1219167965473074]]]},"properties":{"place_id":"2df9c1c2-9850-56fb-b537-9320aefa592a","habitat":"disturbed_built_edge","habitat_label":"Disturbed, bare or built edge","resolution_m":50}}]}