{"type":"FeatureCollection","metadata":{"schema_version":1,"place_id":"2e1ea1f8-1e60-53d2-a61c-4f3625400f18","place_name":"Pulau Mecopo","place_type":"wood","osm_reference":"way/724526639","protection_context":"no protected status confirmed from included OSM tags","resolution_m":50,"raster_coverage":1.0,"interpretation":"Suggested search habitats, not predicted plant locations or probabilities of presence."},"features":[{"type":"Feature","geometry":{"type":"Polygon","coordinates":[[[102.7189466,4.97602929458878],[102.71996319999998,4.975735994589071],[102.7203783,4.974429394590381],[102.71908749999997,4.974663194590151],[102.7189466,4.97602929458878]]]},"properties":{"place_id":"2e1ea1f8-1e60-53d2-a61c-4f3625400f18","habitat":"forest_edge_opening","habitat_label":"Forest edge or opening","resolution_m":50}},{"type":"Feature","geometry":{"type":"MultiPolygon","coordinates":[[[[102.71978538532072,4.974597446337841],[102.71978538532072,4.974401741253129],[102.71962043674716,4.974597446337841],[102.71978538532072,4.974597446337841]]],[[[102.72030359371128,4.975196101842517],[102.7204668,4.974621694590206],[102.72030359371128,4.974397867165731],[102.72030359371128,4.975196101842517]]],[[[102.71926717693017,4.975984267934376],[102.7190714,4.974683194590128],[102.7189869,4.9760459945887385],[102.71926717693017,4.975984267934376]]],[[[102.71978538532072,4.975777568956464],[102.71978538532072,4.975870087569853],[102.71991314329397,4.975777568956464],[102.71978538532072,4.975777568956464]]]]},"properties":{"place_id":"2e1ea1f8-1e60-53d2-a61c-4f3625400f18","habitat":"permanent_water","habitat_label":"Permanent water","resolution_m":50}},{"type":"Feature","geometry":{"type":"Polygon","coordinates":[[[102.71926717693017,4.975984267934376],[102.72018179999998,4.975467494589355],[102.7202911,4.974392594590461],[102.71926717693017,4.974668777150926],[102.71926717693017,4.975984267934376]]]},"properties":{"place_id":"2e1ea1f8-1e60-53d2-a61c-4f3625400f18","habitat":"water_edge","habitat_label":"Water edge","resolution_m":50}}]}