{"type":"FeatureCollection","metadata":{"schema_version":1,"place_id":"2e8681ec-225d-5b9b-a040-4cb5f5c35bb0","place_name":"Pulau Metung","place_type":"wood","osm_reference":"relation/12488980","protection_context":"no protected status confirmed from included OSM tags","resolution_m":50,"raster_coverage":1.0,"interpretation":"Suggested search habitats, not predicted plant locations or probabilities of presence."},"features":[{"type":"Feature","geometry":{"type":"MultiPolygon","coordinates":[[[[102.6964660077455,4.977030709125118],[102.6956812,4.976486894588309],[102.69599630000002,4.975737294589065],[102.69620280000001,4.976526994588232],[102.69698421613606,4.976564318513291],[102.69698421613606,4.976170943620423],[102.6976901,4.976120094588673],[102.69802063291716,4.9769576936350814],[102.6990570496983,4.9769576936350814],[102.69981567560788,4.977744444565515],[102.70112988326053,4.977744444565515],[102.70112988326053,4.97813782037419],[102.70164809165111,4.97813782037419],[102.70164809165111,4.977056987489343],[102.70061167486998,4.976564318513291],[102.7003529,4.9756451945891556],[102.70112988326053,4.975777568956464],[102.70112988326053,4.975384194521393],[102.70164809165111,4.975384194521393],[102.70164809165111,4.975777568956464],[102.70216630004167,4.975777568956464],[102.70216630004167,4.975384194521393],[102.70268450843223,4.975384194521393],[102.70327013402554,4.976564318513291],[102.70475734199448,4.976170943620423],[102.70475734199448,4.975520368743499],[102.70372092521335,4.975384194521393],[102.70372092521335,4.974990820315191],[102.70216630004167,4.974204072589322],[102.70213989999999,4.973364794591494],[102.7029717,4.972967394591889],[102.70320271682277,4.97341732577871],[102.7042391336039,4.97341732577871],[102.70418566306442,4.97302395271658],[102.70372092521335,4.97302395271658],[102.7042391336039,4.972237207278579],[102.70475734199448,4.972237207278579],[102.70527555038502,4.97302395271658],[102.70631196716614,4.97302395271658],[102.70627261368286,4.972237207278579],[102.70527555038502,4.971843834902671],[102.7052815,4.9706155945943244],[102.70683017555672,4.971057090836944],[102.70683017555672,4.970270347685887],[102.70734838394728,4.970270347685887],[102.70734838394728,4.969876976453311],[102.70631196716614,4.969483605449348],[102.70625679999999,4.9686979945962895],[102.70734838394728,4.968683790523259],[102.70734838394728,4.967910123719235],[102.7066065,4.967527294597517],[102.70734838394728,4.966730014821163],[102.70838480072838,4.966730014821163],[102.70838480072838,4.966336645645426],[102.70786659233782,4.966336645645426],[102.70734838394728,4.965549907979265],[102.70631196716614,4.965549907979265],[102.70631196716614,4.965235068558282],[102.70535119999998,4.965004094600085],[102.70631196716614,4.963976435387695],[102.70683017555672,4.963976435387695],[102.70683017555672,4.963111978203147],[102.70611389999998,4.962842294602308],[102.70631196716614,4.961276516515552],[102.7052084,4.961734094603448],[102.70566649168705,4.960829501163429],[102.70480258321014,4.960436135412429],[102.7041657,4.960907694604291],[102.7042391336039,4.959649404594919],[102.70372092521335,4.959649404594919],[102.70372092521335,4.959256039528369],[102.70472399656705,4.958862674689932],[102.70504469999999,4.958054494607231],[102.70579375877558,4.959256039528369],[102.70734838394728,4.959256039528369],[102.70734838394728,4.958862674689932],[102.70631196716614,4.958862674689932],[102.70579375877558,4.958075945697323],[102.70631196716614,4.958075945697323],[102.70631196716614,4.957682581543115],[102.70734838394728,4.958075945697323],[102.70717939999999,4.957501994607788],[102.70838480072838,4.957289217616944],[102.70838480072838,4.956202812640715],[102.70693640000002,4.956012894609312],[102.70699039999997,4.9556007946097465],[102.70890300911896,4.955322401406038],[102.70890300911896,4.954929038847715],[102.7070745,4.953909894611461],[102.70753989999999,4.953559894611837],[102.70890300911896,4.953748952540133],[102.70890300911896,4.953355590893338],[102.70786659233782,4.953355590893338],[102.70781401445133,4.95296222947438],[102.70734838394728,4.95296222947438],[102.70734838394728,4.9521755073198985],[102.70683017555672,4.9521755073198985],[102.70683017555672,4.950995425796488],[102.70734838394728,4.950781087569859],[102.70758879999997,4.949563594615962],[102.70838480072838,4.9494219869533405],[102.70838480072838,4.949815346322604],[102.70890300911896,4.949815346322604],[102.70890300911896,4.950995425796488],[102.70942121750952,4.950995425796488],[102.70942121750952,4.95138878607654],[102.71040080000002,4.951001194614468],[102.71045763429062,4.95178214658434],[102.71201225946233,4.95178214658434],[102.71244289999999,4.950538294614926],[102.71408509302456,4.95060206574416],[102.71408509302456,4.9494506403874565],[102.71356688463399,4.9494219869533405],[102.7138746,4.9489963946165325],[102.7133019,4.948463294617086],[102.7139825,4.948260194617285],[102.71460330141512,4.94863526889775],[102.71460330141512,4.948241910211386],[102.71512150980568,4.948241910211386],[102.71512150980568,4.946668477741707],[102.71460330141512,4.946668477741707],[102.71460330141512,4.945881762872075],[102.71563971819623,4.945488405778496],[102.71563971819623,4.94475035606724],[102.7146175,4.94440219462126],[102.71563971819623,4.943914979678669],[102.71563971819623,4.943128267993187],[102.7161579265868,4.943128267993187],[102.7161579265868,4.942341557217133],[102.7151862,4.942133494623584],[102.71512150980568,4.941161492757898],[102.71460330141512,4.941161492757898],[102.71453839999998,4.9407946946249774],[102.71272119999999,4.941476094624255],[102.71356688463399,4.939981430344039],[102.71282871878672,4.939981430344039],[102.71253046785287,4.940374784254759],[102.71149405107175,4.939981430344039],[102.71149405107175,4.941948202170092],[102.7106848,4.9426518946230305],[102.71045763429062,4.941948202170092],[102.70993942590007,4.941948202170092],[102.70993942590007,4.941161492757898],[102.70942121750952,4.941161492757898],[102.70942121750952,4.940374784254759],[102.70890300911896,4.940374784254759],[102.70890300911896,4.941948202170092],[102.70838480072838,4.942055140502957],[102.70838480072838,4.942734912491492],[102.70890300911896,4.942734912491492],[102.70890300911896,4.943128267993187],[102.70838480072838,4.943128267993187],[102.70838480072838,4.9450950489123855],[102.70683017555672,4.945881762872075],[102.70683017555672,4.945488405778496],[102.70631196716614,4.945488405778496],[102.70631196716614,4.9435216237222415],[102.70527555038502,4.943128267993187],[102.70579375877558,4.942341557217133],[102.7051038,4.942341894623359],[102.70469699274202,4.941554847350353],[102.7042391336039,4.941554847350353],[102.7042391336039,4.941161492757898],[102.70527555038502,4.94070246005623],[102.70527555038502,4.939041364319937],[102.70475734199448,4.938408016973065],[102.7042391336039,4.938408016973065],[102.7042391336039,4.937227959329812],[102.7034958,4.937196194628648],[102.70320271682277,4.936047903730277],[102.70268450843223,4.936047903730277],[102.70268450843223,4.934474499442484],[102.7011644238163,4.934474499442484],[102.70061167486998,4.9352612011324055],[102.70009346647943,4.9352612011324055],[102.70009346647943,4.93644125536974],[102.69853884130774,4.937123522359114],[102.69853884130774,4.938801369975059],[102.6990570496983,4.938801369975059],[102.6990570496983,4.939981430344039],[102.69957525808887,4.939981430344039],[102.69957525808887,4.942341557217133],[102.70009346647943,4.942341557217133],[102.70009346647943,4.943128267993187],[102.69957525808887,4.943128267993187],[102.69957525808887,4.943914979678669],[102.70009346647943,4.943914979678669],[102.70009346647943,4.945488405778496],[102.69957525808887,4.945616052127147],[102.69957525808887,4.948998759494748],[102.70009346647943,4.949028627811729],[102.70009346647943,4.950995425796488],[102.70112988326053,4.95138878607654],[102.70112988326053,4.9521755073198985],[102.70061167486998,4.9521755073198985],[102.70061167486998,4.953748952540133],[102.70009346647943,4.9541423144147805],[102.70112988326053,4.9541423144147805],[102.70112988326053,4.954535676517302],[102.70164809165111,4.954535676517302],[102.70164809165111,4.955322401406038],[102.70320271682277,4.956109127206487],[102.70320271682277,4.957682581543115],[102.70268450843223,4.957682581543115],[102.70268450843223,4.959256039528369],[102.70216630004167,4.959256039528369],[102.70216630004167,4.961222867142617],[102.70164809165111,4.961222867142617],[102.70112988326053,4.961912701499035],[102.70112988326053,4.963189700461993],[102.70061167486998,4.963189700461993],[102.70061167486998,4.963976435387695],[102.70009346647943,4.963976435387695],[102.70009346647943,4.96558576502513],[102.700725,4.966056294598995],[102.70066129999998,4.96688709459815],[102.7002563,4.96734189459768],[102.7005588,4.966338194598707],[102.69981947475266,4.965943276698133],[102.69957525808887,4.966336645645426],[102.69853884130774,4.966336645645426],[102.69802063291716,4.96751675385805],[102.69750242452663,4.96751675385805],[102.69750242452663,4.968696864127178],[102.69698421613606,4.968757796683598],[102.69698421613606,4.970663719147092],[102.6964660077455,4.970727553099204],[102.6964660077455,4.971450462755466],[102.69594779935493,4.971570636568632],[102.69594779935493,4.97302395271658],[102.69548623109463,4.97302395271658],[102.69542959096437,4.9738106990696185],[102.69491138257382,4.9738106990696185],[102.69542959096437,4.976170943620423],[102.69491138257382,4.976170943620423],[102.69491138257382,4.97813782037419],[102.69439317418326,4.97813782037419],[102.69439317418326,4.978924572678562],[102.69491138257382,4.978924572678562],[102.69491138257382,4.978531196411868],[102.69698421613606,4.978531196411868],[102.69577470000002,4.978349694586355],[102.6964660077455,4.978050908957536],[102.6964660077455,4.977030709125118]]],[[[102.70786659233782,4.958862674689932],[102.70786659233782,4.959256039528369],[102.70838480072838,4.959256039528369],[102.70838480072838,4.958862674689932],[102.70786659233782,4.958862674689932]]],[[[102.6990570496983,4.979317949174291],[102.69802063291716,4.97813782037419],[102.69698421613606,4.978531196411868],[102.69698421613606,4.978924572678562],[102.69750242452663,4.978924572678562],[102.69750242452663,4.979711325899076],[102.69853884130774,4.979711325899076],[102.69853884130774,4.979317949174291],[102.6990570496983,4.979317949174291]]]]},"properties":{"place_id":"2e8681ec-225d-5b9b-a040-4cb5f5c35bb0","habitat":"forest_interior","habitat_label":"Forest interior","resolution_m":50}},{"type":"Feature","geometry":{"type":"MultiPolygon","coordinates":[[[[102.70216630004167,4.933687798660361],[102.7011644238163,4.934474499442484],[102.70268450843223,4.934474499442484],[102.70268450843223,4.936047903730277],[102.70320271682277,4.936047903730277],[102.70339282722007,4.936834607236246],[102.70355339999999,4.935969894629918],[102.70288619999998,4.9357761946301135],[102.7027655,4.9341754946317655],[102.70216630004167,4.933687798660361]]],[[[102.69957525808887,4.936834607236246],[102.69957525808887,4.936537595716978],[102.6988237,4.936472694629426],[102.6987897829238,4.936834607236246],[102.69957525808887,4.936834607236246]]],[[[102.70009346647943,4.93644125536974],[102.70009346647943,4.9352612011324055],[102.70061167486998,4.9352612011324055],[102.70112988326053,4.934659329770033],[102.70031199999998,4.9349330946309875],[102.69973929999999,4.935492894630409],[102.70000520000002,4.936082194629812],[102.6995482,4.936274894629615],[102.70009346647943,4.93644125536974]]],[[[102.70009346647943,4.942341557217133],[102.69957525808887,4.942341557217133],[102.69957525808887,4.939981430344039],[102.6990570496983,4.939981430344039],[102.6990570496983,4.938801369975059],[102.69853884130774,4.938801369975059],[102.6982041,4.936988694628853],[102.69805489999999,4.938020894627844],[102.69969579999999,4.94271339462301],[102.69929679999998,4.943510994622172],[102.69968633109865,4.945488405778496],[102.70009346647943,4.945488405778496],[102.70009346647943,4.943914979678669],[102.69957525808887,4.943914979678669],[102.69957525808887,4.943128267993187],[102.70009346647943,4.943128267993187],[102.70009346647943,4.942341557217133]]],[[[102.69957525808887,4.945616052127147],[102.6990715,4.945640094619981],[102.69897289999999,4.946919394618666],[102.69957525808887,4.948998759494748],[102.69957525808887,4.945616052127147]]],[[[102.70061167486998,4.950995425796488],[102.70009346647943,4.950995425796488],[102.70009346647943,4.949028627811729],[102.69960032300055,4.949028627811729],[102.69984529999999,4.951092094614363],[102.70027109999998,4.9513428946141325],[102.70061167486998,4.950995425796488]]],[[[102.70061167486998,4.953748952540133],[102.70061167486998,4.9521755073198985],[102.70112988326053,4.9521755073198985],[102.70112988326053,4.95138878607654],[102.69998539999999,4.952672694612753],[102.70061167486998,4.953748952540133]]],[[[102.70164809165111,4.961616233350005],[102.70164809165111,4.961222867142617],[102.70216630004167,4.961222867142617],[102.70268450843223,4.957682581543115],[102.70320271682277,4.957682581543115],[102.70320271682277,4.956109127206487],[102.70268450843223,4.956109127206487],[102.70268450843223,4.955715764192289],[102.70252609999997,4.955871294609479],[102.7028695,4.956715694608598],[102.70163699999999,4.959822094605412],[102.70212249999999,4.960498194604727],[102.70135129999998,4.961210294603994],[102.70164809165111,4.961616233350005]]],[[[102.70216630004167,4.955322401406038],[102.70164809165111,4.955322401406038],[102.70164809165111,4.954535676517302],[102.70112988326053,4.954535676517302],[102.70112988326053,4.9541423144147805],[102.70001829999998,4.953897894611496],[102.69999879999997,4.954382294611021],[102.70092759999999,4.954538594610853],[102.7014935,4.955597394609735],[102.70216630004167,4.955697898114698],[102.70216630004167,4.955322401406038]]],[[[102.70009346647943,4.963976435387695],[102.70061167486998,4.963976435387695],[102.70061167486998,4.963189700461993],[102.70112988326053,4.963189700461993],[102.70112988326053,4.961912701499035],[102.69961460000002,4.964495094600604],[102.70009346647943,4.96558576502513],[102.70009346647943,4.963976435387695]]],[[[102.69817555255317,4.966730014821163],[102.69853884130774,4.966336645645426],[102.69957525808887,4.966336645645426],[102.69981947475266,4.965943276698133],[102.6985806,4.966118994598915],[102.69817555255317,4.966730014821163]]],[[[102.69750242452663,4.968696864127178],[102.69750242452663,4.968559108247655],[102.69710895393769,4.968696864127178],[102.69750242452663,4.968696864127178]]],[[[102.69750242452663,4.96751675385805],[102.69802063291716,4.96751675385805],[102.69802063291716,4.9669261504595585],[102.69723419999998,4.967815894597209],[102.69750242452663,4.968409232928837],[102.69750242452663,4.96751675385805]]],[[[102.69698421613606,4.970663719147092],[102.69698421613606,4.969919348600443],[102.69662800000002,4.969654294595311],[102.69615119999999,4.970035094594908],[102.69698421613606,4.970663719147092]]],[[[102.69698421613606,4.968757796683598],[102.6968117,4.968977594595996],[102.69698421613606,4.969644673400277],[102.69698421613606,4.968757796683598]]],[[[102.6964660077455,4.971450462755466],[102.6964660077455,4.970727553099204],[102.69619282816979,4.971450462755466],[102.6964660077455,4.971450462755466]]],[[[102.70320271682277,4.975777568956464],[102.70271257807305,4.975777568956464],[102.70320271682277,4.976479735252299],[102.70320271682277,4.975777568956464]]],[[[102.70268450843223,4.975384194521393],[102.70216630004167,4.975384194521393],[102.70216630004167,4.975777568956464],[102.70112988326053,4.975384194521393],[102.70086404610609,4.975777568956464],[102.70141299999999,4.975570294589247],[102.701525,4.976049294588745],[102.7019937,4.976008594588772],[102.70268450843223,4.97576164265895],[102.70268450843223,4.975384194521393]]],[[[102.70061167486998,4.976564318513291],[102.70111673829028,4.976564318513291],[102.70061167486998,4.976018248910102],[102.70061167486998,4.976564318513291]]],[[[102.6990570496983,4.978924572678562],[102.69853884130774,4.979711325899076],[102.69750242452663,4.979711325899076],[102.69750242452663,4.978924572678562],[102.69698421613606,4.978924572678562],[102.69698421613606,4.978531196411868],[102.69491138257382,4.978531196411868],[102.69491138257382,4.978924572678562],[102.69439317418326,4.978924572678562],[102.69439317418326,4.97813782037419],[102.69491138257382,4.97813782037419],[102.69491138257382,4.976170943620423],[102.69542959096437,4.976170943620423],[102.69542959096437,4.974990820315191],[102.69491138257382,4.974990820315191],[102.6953365,4.97323889459164],[102.6945117,4.974480094590362],[102.6951206,4.9758040945889865],[102.69438699999999,4.976880994587909],[102.69434269999998,4.978251794586466],[102.6937835,4.979021994585697],[102.6940437,4.979769494584894],[102.69282329999999,4.98072609458396],[102.692729,4.9818012945828185],[102.6939189,4.981573894583064],[102.6938814,4.980294594584401],[102.69468569999998,4.979758494584907],[102.6950911,4.9786766945860625],[102.6973696,4.97915229458556],[102.696522,4.980578494584078],[102.6979121,4.9798857945847885],[102.69933939999999,4.97974479458495],[102.6997346,4.979223094585476],[102.6994282,4.979038694585664],[102.69853884130774,4.97871891687035],[102.6990570496983,4.978924572678562]]],[[[102.69594779935493,4.97302395271658],[102.69594779935493,4.971570636568632],[102.6956356,4.971518094593376],[102.6953814,4.972907594591988],[102.69594779935493,4.97302395271658]]],[[[102.69957525808887,4.977351068985818],[102.6990570496983,4.977351068985818],[102.6990570496983,4.9769576936350814],[102.69802063291716,4.9769576936350814],[102.69771071994059,4.976564318513291],[102.6977082,4.977150194587615],[102.6982668,4.977518994587239],[102.69891219999998,4.977091094587662],[102.6990822,4.9776865945870385],[102.69957525808887,4.977351068985818]]],[[[102.69750242452663,4.976170943620423],[102.69698421613606,4.976170943620423],[102.69660499742041,4.976564318513291],[102.69704369999997,4.97670869458804],[102.69750242452663,4.976170943620423]]],[[[102.6964660077455,4.978050908957536],[102.69700819999998,4.977506294587266],[102.6964660077455,4.977030709125118],[102.6964660077455,4.978050908957536]]],[[[102.69788177620674,4.97813782037419],[102.69802063291716,4.978531196411868],[102.69853884130774,4.978596895522083],[102.69818629999999,4.97817629458655],[102.6980281,4.978130194586594],[102.69788177620674,4.97813782037419]]],[[[102.70112988326053,4.9769576936350814],[102.70146449036982,4.9769576936350814],[102.70112988326053,4.976582756787158],[102.70112988326053,4.9769576936350814]]],[[[102.69981567560788,4.977744444565515],[102.7012638,4.978382394586336],[102.70189779999998,4.978110194586604],[102.7020534,4.977590394587163],[102.70164809165111,4.977056987489343],[102.70164809165111,4.97813782037419],[102.70112988326053,4.97813782037419],[102.70112988326053,4.977744444565515],[102.69981567560788,4.977744444565515]]],[[[102.69698421613606,4.978354633347462],[102.69750242452663,4.978531196411868],[102.69750242452663,4.978227316539507],[102.69698421613606,4.978354633347462]]],[[[102.70372092521335,4.937227959329812],[102.7042391336039,4.937227959329812],[102.7042391336039,4.938408016973065],[102.70514359674367,4.938801369975059],[102.70454379999998,4.937443694628427],[102.70570519999997,4.936727494629166],[102.70477520000001,4.9366279946292435],[102.70372092521335,4.937227959329812]]],[[[102.70527555038502,4.94070246005623],[102.7055383,4.9395640946262604],[102.70607609999998,4.939405094626404],[102.70527555038502,4.939041364319937],[102.70527555038502,4.94070246005623]]],[[[102.70475734199448,4.941948202170092],[102.7047819,4.9417633946239565],[102.70475734199448,4.9417154988837915],[102.70475734199448,4.941948202170092]]],[[[102.70475734199448,4.940768138392706],[102.70475734199448,4.941161492757898],[102.7042391336039,4.941161492757898],[102.7042391336039,4.941554847350353],[102.70469699274202,4.941554847350353],[102.70518843688517,4.940768138392706],[102.70475734199448,4.940768138392706]]],[[[102.70527555038502,4.942341557217133],[102.70556581827499,4.942341557217133],[102.70543229999998,4.942261094623452],[102.70527555038502,4.942341557217133]]],[[[102.70606199999997,4.942210994623512],[102.70527555038502,4.943128267993187],[102.70579375877558,4.943128267993187],[102.70579375877558,4.9435216237222415],[102.70631196716614,4.9435216237222415],[102.70631196716614,4.943909393658393],[102.70653199999998,4.943432194622237],[102.70583,4.94326049462246],[102.70606199999997,4.942210994623512]]],[[[102.70631196716614,4.945488405778496],[102.70734838394728,4.945881762872075],[102.70631196716614,4.944264999509086],[102.70631196716614,4.945488405778496]]],[[[102.70786659233782,4.945488405778496],[102.70786659233782,4.945142453576519],[102.70750635681708,4.945488405778496],[102.70786659233782,4.945488405778496]]],[[[102.70734838394728,4.9521755073198985],[102.70734838394728,4.95296222947438],[102.70781401445133,4.95296222947438],[102.70683017555672,4.950995425796488],[102.70683017555672,4.9521755073198985],[102.70734838394728,4.9521755073198985]]],[[[102.70786659233782,4.956109127206487],[102.70798201254229,4.956109127206487],[102.70786659233782,4.95607954999242],[102.70786659233782,4.956109127206487]]],[[[102.70527555038502,4.9584693100795905],[102.7052506,4.958705194606553],[102.70527555038502,4.958721033505961],[102.70527555038502,4.9584693100795905]]],[[[102.70475734199448,4.9584693100795905],[102.70475734199448,4.958491868163157],[102.70477064357105,4.9584693100795905],[102.70475734199448,4.9584693100795905]]],[[[102.70734838394728,4.958075945697323],[102.70683017555672,4.958075945697323],[102.70683017555672,4.957682581543115],[102.70579375877558,4.958075945697323],[102.70579375877558,4.9584693100795905],[102.70631196716614,4.9584693100795905],[102.70631196716614,4.958862674689932],[102.70734838394728,4.958862674689932],[102.70734838394728,4.959256039528369],[102.70579375877558,4.959256039528369],[102.7054669502817,4.958862674689932],[102.7055946,4.959522794605726],[102.7083707,4.959532894605722],[102.70858119999997,4.959110694606139],[102.70829159999998,4.958460594606817],[102.70734838394728,4.957718612851049],[102.70734838394728,4.958075945697323]],[[102.70838480072838,4.958862674689932],[102.70838480072838,4.959256039528369],[102.70786659233782,4.959256039528369],[102.70786659233782,4.958862674689932],[102.70838480072838,4.958862674689932]]],[[[102.7042391336039,4.959649404594919],[102.70431563739865,4.9600427698896],[102.70444930000001,4.9597412946054975],[102.70372092521335,4.959256039528369],[102.70372092521335,4.959649404594919],[102.7042391336039,4.959649404594919]]],[[[102.7042391336039,4.958862674689932],[102.7042391336039,4.9592035532464696],[102.7046263,4.9591473946061],[102.70472399656705,4.958862674689932],[102.7042391336039,4.958862674689932]]],[[[102.70566649168705,4.960829501163429],[102.7052606,4.960269894604952],[102.7048507,4.960372894604853],[102.70527555038502,4.960829501163429],[102.70566649168705,4.960829501163429]]],[[[102.70631196716614,4.9626063414448796],[102.70694979999999,4.961886394603271],[102.70631196716614,4.961276516515552],[102.70631196716614,4.9626063414448796]]],[[[102.70683017555672,4.963976435387695],[102.70579375877558,4.964369803193041],[102.70579375877558,4.964787814396229],[102.70724949999999,4.964112294600986],[102.7074333,4.963570494601553],[102.70683017555672,4.963111978203147],[102.70683017555672,4.963976435387695]]],[[[102.70631196716614,4.965549907979265],[102.70734838394728,4.965549907979265],[102.70734838394728,4.965943276698133],[102.70838480072838,4.966336645645426],[102.70838480072838,4.966730014821163],[102.70734838394728,4.966730014821163],[102.70683017555672,4.967375669303541],[102.70775650000002,4.966875294598137],[102.7088857,4.96695139459807],[102.70830899999999,4.96615109459891],[102.70713019999998,4.965271994599825],[102.70631196716614,4.965235068558282],[102.70631196716614,4.965549907979265]]],[[[102.70683017555672,4.967910123719235],[102.70734838394728,4.967910123719235],[102.70734838394728,4.968683790523259],[102.7085014,4.968422394596585],[102.70734269999998,4.967789794597236],[102.70683017555672,4.967910123719235]]],[[[102.70683017555672,4.968696864127178],[102.7069082,4.968774494596194],[102.70729266187902,4.968696864127178],[102.70683017555672,4.968696864127178]]],[[[102.70631196716614,4.969090234673976],[102.70734838394728,4.970270347685887],[102.70683017555672,4.970270347685887],[102.70683017555672,4.971057090836944],[102.70579375877558,4.970704501787592],[102.70715229999999,4.971398494593502],[102.70771619999998,4.969781494595192],[102.70631196716614,4.969090234673976]]],[[[102.7054751180401,4.971057090836944],[102.70527555038502,4.971843834902671],[102.70627261368286,4.972237207278579],[102.7054751180401,4.971057090836944]]],[[[102.7042391336039,4.972529407229883],[102.70611289999998,4.973733294591106],[102.7067278,4.972765294592117],[102.70631196716614,4.972295573316778],[102.70631196716614,4.97302395271658],[102.70527555038502,4.97302395271658],[102.70475734199448,4.972237207278579],[102.7042391336039,4.972529407229883]]],[[[102.7039665277377,4.97263057988321],[102.70372092521335,4.97302395271658],[102.70418566306442,4.97302395271658],[102.7039665277377,4.97263057988321]]],[[[102.7042391336039,4.97341732577871],[102.70320271682277,4.97341732577871],[102.70320271682277,4.97302395271658],[102.70306023208903,4.97302395271658],[102.7030784,4.973464094591391],[102.70344780000002,4.973737894591121],[102.7047286,4.974109394590738],[102.7042391336039,4.973156752304668],[102.7042391336039,4.97341732577871]]],[[[102.70268450843223,4.97302395271658],[102.70268450843223,4.973350626312828],[102.70290060221522,4.97302395271658],[102.70268450843223,4.97302395271658]]],[[[102.70216630004167,4.974204072589322],[102.70268450843223,4.974204072589322],[102.70268450843223,4.974597446337841],[102.70317030034342,4.974597446337841],[102.70216630004167,4.973484171772368],[102.70216630004167,4.974204072589322]]],[[[102.7046763,4.976578694588201],[102.7061981,4.975683194589121],[102.70485569999998,4.975454394589331],[102.70475734199448,4.976170943620423],[102.7042391336039,4.97645444372188],[102.7046763,4.976578694588201]]],[[[102.70320271682277,4.974990820315191],[102.70333388548349,4.974990820315191],[102.70320271682277,4.974805615852559],[102.70320271682277,4.974990820315191]]],[[[102.70351578971547,4.974990820315191],[102.70372092521335,4.975384194521393],[102.70434720761388,4.975384194521393],[102.7037898,4.974924994589897],[102.70351578971547,4.974990820315191]]],[[[102.70327013402554,4.976564318513291],[102.70382529999998,4.976874694587895],[102.70406602085956,4.976564318513291],[102.70327013402554,4.976564318513291]]],[[[102.71356688463399,4.939981430344039],[102.71329920000001,4.9396722946261304],[102.71282871878672,4.939981430344039],[102.71356688463399,4.939981430344039]]],[[[102.71201225946233,4.940374784254759],[102.71253046785287,4.94020284820767],[102.71201225946233,4.940322480309026],[102.71201225946233,4.940374784254759]]],[[[102.71328094364638,4.940374784254759],[102.71304867624343,4.940768138392706],[102.71306392066539,4.940768138392706],[102.71328094364638,4.940374784254759]]],[[[102.70890300911896,4.941948202170092],[102.70890300911896,4.940374784254759],[102.70942121750952,4.940374784254759],[102.70942121750952,4.941161492757898],[102.70993942590007,4.941161492757898],[102.70993942590007,4.941948202170092],[102.71045763429062,4.941948202170092],[102.71057774278566,4.942341557217133],[102.7103971,4.941597694624143],[102.70964610000001,4.9402815946255],[102.7096018,4.939854094625931],[102.70914719999999,4.939752494626048],[102.70822319999999,4.941210194624556],[102.70890300911896,4.941948202170092]]],[[[102.71149405107175,4.941948202170092],[102.71149405107175,4.939981430344039],[102.71174220000002,4.939808594626003],[102.71079,4.9402428946255466],[102.7110906808952,4.941948202170092],[102.71149405107175,4.941948202170092]]],[[[102.71408509302456,4.941161492757898],[102.7136815,4.941069894624678],[102.71356688463399,4.941161492757898],[102.71408509302456,4.941161492757898]]],[[[102.71525322014126,4.941554847350353],[102.7152224,4.941093994624663],[102.71460330141512,4.94086383043316],[102.71460330141512,4.941161492757898],[102.71512150980568,4.941161492757898],[102.71525322014126,4.941554847350353]]],[[[102.70838480072838,4.9450950489123855],[102.70838480072838,4.943128267993187],[102.70890300911896,4.943128267993187],[102.70838480072838,4.942055140502957],[102.7077819,4.9423378946234005],[102.70824939999999,4.943125494622575],[102.70789537156277,4.9450950489123855],[102.70838480072838,4.9450950489123855]]],[[[102.71563971819623,4.942341557217133],[102.7161579265868,4.942341557217133],[102.7161579265868,4.943128267993187],[102.71563971819623,4.943128267993187],[102.71563971819623,4.943914979678669],[102.71512150980568,4.943914979678669],[102.71512150980568,4.944220374196156],[102.71564220000002,4.944068194621597],[102.71667209999998,4.942657194623053],[102.7160686,4.942053294623653],[102.71563971819623,4.942341557217133]]],[[[102.71563971819623,4.945488405778496],[102.71512150980568,4.945488405778496],[102.71512150980568,4.9458315820386805],[102.71570179999999,4.945840494619793],[102.71612329999999,4.944724894620927],[102.71563971819623,4.94475035606724],[102.71563971819623,4.945488405778496]]],[[[102.71460330141512,4.945881762872075],[102.71460330141512,4.946668477741707],[102.71512150980568,4.946668477741707],[102.71512150980568,4.948241910211386],[102.71460330141512,4.948241910211386],[102.71444278457882,4.94863526889775],[102.71488979999998,4.948828694616709],[102.7154229,4.9476188946179285],[102.7155261,4.946969494618623],[102.7150538450431,4.945881762872075],[102.71460330141512,4.945881762872075]]],[[[102.71405832870629,4.9494219869533405],[102.71387272561962,4.949028627811729],[102.71356688463399,4.949028627811729],[102.71356688463399,4.9494219869533405],[102.71405832870629,4.9494219869533405]]],[[[102.71408509302456,4.95060206574416],[102.71292918661082,4.95060206574416],[102.71380749999999,4.950751394614746],[102.7143026,4.950534894614953],[102.71408509302456,4.9494506403874565],[102.71408509302456,4.95060206574416]]],[[[102.71201225946233,4.950995425796488],[102.71201225946233,4.95178214658434],[102.71045763429062,4.95178214658434],[102.71037872267532,4.95138878607654],[102.7102858,4.952118194613334],[102.71236049999999,4.951884394613567],[102.7127279,4.9514648946139745],[102.71201225946233,4.950995425796488]]],[[[102.70942121750952,4.95138878607654],[102.70942121750952,4.950995425796488],[102.70890300911896,4.950995425796488],[102.70890300911896,4.949815346322604],[102.70786659233782,4.9494219869533405],[102.70856969999998,4.949904494615601],[102.7089936,4.952307894613108],[102.71002574788275,4.95138878607654],[102.70942121750952,4.95138878607654]]],[[[102.70734838394728,4.949815346322604],[102.70734838394728,4.950781087569859],[102.70773769999998,4.950198194615286],[102.70734838394728,4.949815346322604]]],[[[102.70786659233782,4.953355590893338],[102.70854376379083,4.953355590893338],[102.70786659233782,4.953059210825923],[102.70786659233782,4.953355590893338]]],[[[102.70890300911896,4.953355590893338],[102.70890300911896,4.953748952540133],[102.70838480072838,4.953820785249725],[102.7104048,4.954204794611172],[102.710495,4.95365939461172],[102.70890300911896,4.953355590893338]]],[[[102.70786659233782,4.954535676517302],[102.70890300911896,4.954929038847715],[102.70890300911896,4.955322401406038],[102.70838480072838,4.955382075407175],[102.70958966345376,4.955322401406038],[102.70786659233782,4.954209848397236],[102.70786659233782,4.954535676517302]]],[[[102.70838480072838,4.957289217616944],[102.70786659233782,4.95746329460782],[102.70883669999999,4.957232094608069],[102.70902449999998,4.957002994608281],[102.70838480072838,4.956202812640715],[102.70838480072838,4.957289217616944]]]]},"properties":{"place_id":"2e8681ec-225d-5b9b-a040-4cb5f5c35bb0","habitat":"forest_edge_opening","habitat_label":"Forest edge or opening","resolution_m":50}},{"type":"Feature","geometry":{"type":"MultiPolygon","coordinates":[[[[102.70683017555672,4.958075945697323],[102.70631196716614,4.958075945697323],[102.70631196716614,4.9584693100795905],[102.70683017555672,4.9584693100795905],[102.70683017555672,4.958075945697323]]],[[[102.70786659233782,4.9584693100795905],[102.70734838394728,4.9584693100795905],[102.70734838394728,4.958862674689932],[102.70786659233782,4.958862674689932],[102.70786659233782,4.9584693100795905]]]]},"properties":{"place_id":"2e8681ec-225d-5b9b-a040-4cb5f5c35bb0","habitat":"open_grassland","habitat_label":"Open grassland or shrubland","resolution_m":50}},{"type":"Feature","geometry":{"type":"MultiPolygon","coordinates":[[[[102.69898113872505,4.93644125536974],[102.69895039999997,4.936426194629474],[102.69887172441281,4.93644125536974],[102.69898113872505,4.93644125536974]]],[[[102.69957525808887,4.936166533180206],[102.69954419999999,4.936244494629659],[102.69957525808887,4.936307900390371],[102.69957525808887,4.936166533180206]]],[[[102.69853884130774,4.938801369975059],[102.69829704145138,4.938801369975059],[102.69853884130774,4.939408636374426],[102.69853884130774,4.938801369975059]]],[[[102.6990570496983,4.94060252595431],[102.69905400000002,4.940620994625169],[102.6990570496983,4.9406372322072105],[102.6990570496983,4.94060252595431]]],[[[102.6990570496983,4.939981430344039],[102.69857458993447,4.939981430344039],[102.6990570496983,4.9401767297793455],[102.6990570496983,4.939981430344039]]],[[[102.69957525808887,4.943128267993187],[102.69957525808887,4.943082874257869],[102.69955555313274,4.943128267993187],[102.69957525808887,4.943128267993187]]],[[[102.69957525808887,4.942341557217133],[102.6993839,4.94238929462332],[102.69957525808887,4.942572379177964],[102.69957525808887,4.942341557217133]]],[[[102.69957525808887,4.943914979678669],[102.69940274349109,4.943914979678669],[102.69957525808887,4.944103906785448],[102.69957525808887,4.943914979678669]]],[[[102.6990570496983,4.94685030604787],[102.69897289999999,4.946919394618666],[102.6990570496983,4.947018435752741],[102.6990570496983,4.94685030604787]]],[[[102.69957525808887,4.9497257753796475],[102.69949929999999,4.950076694615444],[102.69957525808887,4.95032552659412],[102.69957525808887,4.9497257753796475]]],[[[102.69957525808887,4.965943276698133],[102.69955159999998,4.965893294599175],[102.69937005128571,4.965943276698133],[102.69957525808887,4.965943276698133]]],[[[102.69853884130774,4.966336645645426],[102.69853884130774,4.966193223747357],[102.69852568869662,4.966336645645426],[102.69853884130774,4.966336645645426]]],[[[102.69750242452663,4.96751675385805],[102.69750242452663,4.967506507110176],[102.69749917065825,4.96751675385805],[102.69750242452663,4.96751675385805]]],[[[102.69698421613606,4.969090234673976],[102.69698421613606,4.968757796683598],[102.6968117,4.968977594595996],[102.69698421613606,4.969090234673976]]],[[[102.6964660077455,4.969724581075438],[102.69614119999999,4.9699682945950086],[102.6964660077455,4.970375305130994],[102.6964660077455,4.969724581075438]]],[[[102.69542959096437,4.97341732577871],[102.69542959096437,4.973205870033389],[102.69512746980735,4.97341732577871],[102.69542959096437,4.97341732577871]]],[[[102.69542959096437,4.9727684521999915],[102.69537609999999,4.9728547945920045],[102.69542959096437,4.9729696940705255],[102.69542959096437,4.9727684521999915]]],[[[102.69491138257382,4.973766690333611],[102.69488871073311,4.9738106990696185],[102.69491138257382,4.9738106990696185],[102.69491138257382,4.973766690333611]]],[[[102.69491138257382,4.976170943620423],[102.69491138257382,4.976054897460957],[102.69480399938494,4.976170943620423],[102.69491138257382,4.976170943620423]]],[[[102.69491138257382,4.974990820315191],[102.6946512708899,4.974990820315191],[102.69491138257382,4.97542776448638],[102.69491138257382,4.974990820315191]]],[[[102.69660499742041,4.976564318513291],[102.69693899999999,4.9767219945880585],[102.69719223016668,4.976564318513291],[102.69660499742041,4.976564318513291]]],[[[102.69439317418326,4.97813782037419],[102.69439317418326,4.977652435270519],[102.6943496,4.977841694586905],[102.69439317418326,4.97813782037419]]],[[[102.69439317418326,4.976869336501826],[102.6943615,4.97697989458777],[102.69439317418326,4.977235302631136],[102.69439317418326,4.976869336501826]]],[[[102.69698421613606,4.977595443122633],[102.69700819999998,4.977506294587266],[102.69698421613606,4.977431550259795],[102.69698421613606,4.977595443122633]]],[[[102.698064475415,4.97813782037419],[102.6980281,4.978130194586594],[102.69788177620674,4.97813782037419],[102.698064475415,4.97813782037419]]],[[[102.6990570496983,4.977351068985818],[102.69901249999998,4.977516994587218],[102.6990570496983,4.977656846246051],[102.6990570496983,4.977351068985818]]],[[[102.69802918806619,4.977351068985818],[102.6983003,4.97751959458724],[102.69859884179266,4.977351068985818],[102.69802918806619,4.977351068985818]]],[[[102.69906140209225,4.978924572678562],[102.6986996,4.978830594585882],[102.69853884130774,4.97871891687035],[102.69853884130774,4.978924572678562],[102.69906140209225,4.978924572678562]]],[[[102.69853884130774,4.978596895522083],[102.69854839999999,4.9785663945861796],[102.69853884130774,4.9784924092604905],[102.69853884130774,4.978596895522083]]],[[[102.69387496579269,4.978825646033606],[102.6937835,4.979021994585697],[102.69387496579269,4.979195835347575],[102.69387496579269,4.978825646033606]]],[[[102.69491138257382,4.978924572678562],[102.6949657,4.978980594585716],[102.69498996345582,4.978924572678562],[102.69491138257382,4.978924572678562]]],[[[102.69698421613606,4.978924572678562],[102.69627316170836,4.978924572678562],[102.69698421613606,4.97900168637404],[102.69698421613606,4.978924572678562]]],[[[102.69957525808887,4.979544609631227],[102.6997833,4.979331994585387],[102.69957525808887,4.979130224131916],[102.69957525808887,4.979544609631227]]],[[[102.69387496579269,4.980104702852933],[102.69387496579269,4.979975740211744],[102.6936633781288,4.980104702852933],[102.69387496579269,4.980104702852933]]],[[[102.69853884130774,4.979711325899076],[102.69854709999998,4.979739494584925],[102.69864856475623,4.979711325899076],[102.69853884130774,4.979711325899076]]],[[[102.69918715042297,4.979711325899076],[102.69928069999999,4.979763494584946],[102.6993805432176,4.979711325899076],[102.69918715042297,4.979711325899076]]],[[[102.69698421613606,4.980104702852933],[102.69698421613606,4.980021956441452],[102.69669884697399,4.980104702852933],[102.69698421613606,4.980104702852933]]],[[[102.69439317418326,4.979711325899076],[102.69464949999997,4.9797858945849125],[102.6947112589076,4.979711325899076],[102.69439317418326,4.979711325899076]]],[[[102.69335675740213,4.980498080035881],[102.69335675740213,4.98039447586012],[102.69309090881549,4.980498080035881],[102.69335675740213,4.980498080035881]]],[[[102.69750242452663,4.980104702852933],[102.69759089999997,4.980230494584459],[102.69764704766209,4.980104702852933],[102.69750242452663,4.980104702852933]]],[[[102.6964660077455,4.980498080035881],[102.6964660077455,4.980338187135426],[102.69693385210248,4.980498080035881],[102.6964660077455,4.980498080035881]]],[[[102.69387496579269,4.980104702852933],[102.69387496579269,4.98032892636116],[102.69406071892529,4.980104702852933],[102.69387496579269,4.980104702852933]]],[[[102.69387496579269,4.980820079331171],[102.6939786,4.9806726945839985],[102.69387496579269,4.980508140523789],[102.69387496579269,4.980820079331171]]],[[[102.69283854901158,4.981678212959457],[102.69274779999998,4.981818694582815],[102.69364553869356,4.981678212959457],[102.69283854901158,4.981678212959457]]],[[[102.69283854901158,4.980710898519861],[102.69280719999998,4.980816994583861],[102.69283854901158,4.981036543050769],[102.69283854901158,4.980710898519861]]],[[[102.69387496579269,4.981599215791543],[102.6939438,4.981497694583152],[102.69387496579269,4.981378221933378],[102.69387496579269,4.981599215791543]]],[[[102.70216630004167,4.934081148937955],[102.70231089999999,4.933644394632325],[102.70138150040573,4.934081148937955],[102.70216630004167,4.934081148937955]]],[[[102.70268450843223,4.934474499442484],[102.70280821779686,4.934474499442484],[102.70268450843223,4.934062049974505],[102.70268450843223,4.934474499442484]]],[[[102.70112988326053,4.934867850173959],[102.70112988326053,4.934659329770033],[102.70045609604395,4.934867850173959],[102.70112988326053,4.934867850173959]]],[[[102.70009346647943,4.9352612011324055],[102.70009346647943,4.935127195476912],[102.69996022140404,4.9352612011324055],[102.70009346647943,4.9352612011324055]]],[[[102.70320271682277,4.935921044955512],[102.70353570980492,4.936047903730277],[102.70355339999999,4.935969894629918],[102.70320271682277,4.935921044955512]]],[[[102.70475734199448,4.936834607236246],[102.70475734199448,4.936632698486159],[102.70455387736499,4.936834607236246],[102.70475734199448,4.936834607236246]]],[[[102.70475734199448,4.937227959329812],[102.7047926,4.937306294628571],[102.7048621157928,4.937227959329812],[102.70475734199448,4.937227959329812]]],[[[102.70009346647943,4.950995425796488],[102.69980502132715,4.950995425796488],[102.70009346647943,4.95132043932646],[102.70009346647943,4.950995425796488]]],[[[102.70061167486998,4.9521755073198985],[102.70061167486998,4.952107762179126],[102.70050937468127,4.9521755073198985],[102.70061167486998,4.9521755073198985]]],[[[102.70009346647943,4.952516695854715],[102.69998479999998,4.95274219461268],[102.70009346647943,4.95286138662295],[102.70009346647943,4.952516695854715]]],[[[102.70009346647943,4.9541423144147805],[102.69991640000002,4.9542024946111844],[102.70009346647943,4.954461249993459],[102.70009346647943,4.9541423144147805]]],[[[102.70112988326053,4.954535676517302],[102.70091936388557,4.954535676517302],[102.70112988326053,4.955237428083275],[102.70112988326053,4.954535676517302]]],[[[102.700203978122,4.954535676517302],[102.70039919999999,4.954592694610775],[102.70060642988908,4.954535676517302],[102.700203978122,4.954535676517302]]],[[[102.70193376297135,4.955715764192289],[102.70197499999999,4.955722994609617],[102.70206883993248,4.955715764192289],[102.70193376297135,4.955715764192289]]],[[[102.70268450843223,4.956109127206487],[102.70262919471811,4.956109127206487],[102.70268450843223,4.956209727208312],[102.70268450843223,4.956109127206487]]],[[[102.70268450843223,4.957682581543115],[102.70268450843223,4.957195162745309],[102.7025281152896,4.957682581543115],[102.70268450843223,4.957682581543115]]],[[[102.70216630004167,4.959256039528369],[102.70216630004167,4.958809712347186],[102.70190373973769,4.959256039528369],[102.70216630004167,4.959256039528369]]],[[[102.7042391336039,4.959649404594919],[102.70432140632468,4.959649404594919],[102.7042391336039,4.959601488207602],[102.7042391336039,4.959649404594919]]],[[[102.70164809165111,4.959782157457007],[102.70163699999999,4.959822094605412],[102.70164809165111,4.959855297533537],[102.70164809165111,4.959782157457007]]],[[[102.70164809165111,4.961222867142617],[102.70164809165111,4.960732226251853],[102.70135129999998,4.961210294603994],[102.70164809165111,4.961222867142617]]],[[[102.70112988326053,4.962009599785622],[102.70112988326053,4.961912701499035],[102.70086045876032,4.962009599785622],[102.70112988326053,4.962009599785622]]],[[[102.70061167486998,4.962253934396289],[102.70038709999999,4.962901794602235],[102.70051669401404,4.963189700461993],[102.70061167486998,4.963189700461993],[102.70061167486998,4.962253934396289]]],[[[102.70009346647943,4.963976435387695],[102.70009346647943,4.963614942010398],[102.69991646330665,4.963976435387695],[102.70009346647943,4.963976435387695]]],[[[102.70475734199448,4.97263057988321],[102.70445879113352,4.97263057988321],[102.70475734199448,4.972808326213199],[102.70475734199448,4.97263057988321]]],[[[102.70268450843223,4.974204072589322],[102.70275174684616,4.974204072589322],[102.70268450843223,4.974010702787775],[102.70268450843223,4.974204072589322]]],[[[102.70320271682277,4.97341732577871],[102.70307418313985,4.97341732577871],[102.70320271682277,4.973543701811457],[102.70320271682277,4.97341732577871]]],[[[102.70373291462701,4.9738106990696185],[102.7046437,4.97411049459074],[102.7047514,4.974085994590764],[102.70468116370854,4.9738106990696185],[102.70373291462701,4.9738106990696185]]],[[[102.70372092521335,4.974990820315191],[102.7037898,4.974924994589897],[102.70372092521335,4.9749071483033696],[102.70372092521335,4.974990820315191]]],[[[102.7042391336039,4.975384194521393],[102.70434720761388,4.975384194521393],[102.70429169999998,4.97536189458945],[102.7042391336039,4.975384194521393]]],[[[102.70538532253367,4.975384194521393],[102.7053016,4.975378594589436],[102.7052521661174,4.975384194521393],[102.70538532253367,4.975384194521393]]],[[[102.70112988326053,4.975777568956464],[102.70117229999998,4.975782094589008],[102.70117827478506,4.975777568956464],[102.70112988326053,4.975777568956464]]],[[[102.70164809165111,4.976064857764792],[102.70151359999998,4.9758782945889255],[102.7015961,4.976079394588734],[102.70164809165111,4.976064857764792]]],[[[102.70216630004167,4.975777568956464],[102.7021949,4.975794794588981],[102.70222959671548,4.975777568956464],[102.70216630004167,4.975777568956464]]],[[[102.70475734199448,4.976170943620423],[102.7049482,4.976352294588437],[102.70502336708954,4.976170943620423],[102.70475734199448,4.976170943620423]]],[[[102.70372092521335,4.976564318513291],[102.70327013402554,4.976564318513291],[102.70372092521335,4.976829413500046],[102.70372092521335,4.976564318513291]]],[[[102.70447707530852,4.976564318513291],[102.70455359999998,4.976592394588184],[102.70470834499369,4.976564318513291],[102.70447707530852,4.976564318513291]]],[[[102.70112988326053,4.97813782037419],[102.70020610827201,4.97813782037419],[102.70112988326053,4.978317544447345],[102.70112988326053,4.97813782037419]]],[[[102.70164809165111,4.97813782037419],[102.7018382,4.978139594586591],[102.7018417967026,4.97813782037419],[102.70164809165111,4.97813782037419]]],[[[102.70527555038502,4.937122293396293],[102.7055678,4.93697269462887],[102.7056704,4.936706794629177],[102.70527555038502,4.936741596405729],[102.70527555038502,4.937122293396293]]],[[[102.70475734199448,4.9380347757782275],[102.70475769999999,4.938032294627825],[102.70475734199448,4.938030650724796],[102.70475734199448,4.9380347757782275]]],[[[102.70475734199448,4.938408016973065],[102.70478527697395,4.938408016973065],[102.70475734199448,4.938376305236206],[102.70475734199448,4.938408016973065]]],[[[102.7057023473912,4.939194723204209],[102.7053653,4.939087094626733],[102.70527555038502,4.939041364319937],[102.70527555038502,4.939194723204209],[102.7057023473912,4.939194723204209]]],[[[102.70579375877558,4.939488365011027],[102.70607609999998,4.939405094626404],[102.70579375877558,4.93923273841525],[102.70579375877558,4.939488365011027]]],[[[102.70527555038502,4.939588076660527],[102.70555809623666,4.940374784254759],[102.70552597346651,4.939588076660527],[102.70527555038502,4.939588076660527]]],[[[102.70838480072838,4.9407170177604005],[102.70821510000002,4.941307794624447],[102.70838480072838,4.941544259890212],[102.70838480072838,4.9407170177604005]]],[[[102.70475734199448,4.9411806759927845],[102.70476847374252,4.941161492757898],[102.70475734199448,4.941161492757898],[102.70475734199448,4.9411806759927845]]],[[[102.70475734199448,4.941948202170092],[102.70498742473833,4.941948202170092],[102.70475734199448,4.9417154988837915],[102.70475734199448,4.941948202170092]]],[[[102.70579375877558,4.942303008049121],[102.70608174452984,4.942341557217133],[102.70606199999997,4.942210994623512],[102.70579375877558,4.942303008049121]]],[[[102.70786659233782,4.942184459966766],[102.7077819,4.9423378946234005],[102.70786659233782,4.942481000685641],[102.70786659233782,4.942184459966766]]],[[[102.70838480072838,4.942734912491492],[102.70824867492843,4.943128267993187],[102.70838480072838,4.943128267993187],[102.70838480072838,4.942734912491492]]],[[[102.70579375877558,4.942734912491492],[102.70582102757832,4.943128267993187],[102.7059436905635,4.942734912491492],[102.70579375877558,4.942734912491492]]],[[[102.70683017555672,4.945881762872075],[102.70734838394728,4.945881762872075],[102.70734838394728,4.945537010989496],[102.70683017555672,4.945465839512783],[102.70683017555672,4.945881762872075]]],[[[102.70838480072838,4.949815346322604],[102.70831656914855,4.949815346322604],[102.70838480072838,4.949849086365884],[102.70838480072838,4.949815346322604]]],[[[102.70734838394728,4.951493300274572],[102.7073488,4.95148019461397],[102.70734838394728,4.9514787189269125],[102.70734838394728,4.951493300274572]]],[[[102.70734838394728,4.9521755073198985],[102.70767916563315,4.9521755073198985],[102.70734838394728,4.951993764119729],[102.70734838394728,4.9521755073198985]]],[[[102.70786659233782,4.956109127206487],[102.70798201254229,4.956109127206487],[102.70786659233782,4.95607954999242],[102.70786659233782,4.956109127206487]]],[[[102.70838480072838,4.957289217616944],[102.7085088,4.957307594607974],[102.70858861212069,4.957289217616944],[102.70838480072838,4.957289217616944]]],[[[102.70620646963965,4.959649404594919],[102.70621419999999,4.959649794605568],[102.70622665739899,4.959649404594919],[102.70620646963965,4.959649404594919]]],[[[102.70527555038502,4.960436135412429],[102.70553358590743,4.960436135412429],[102.70527555038502,4.960280872877352],[102.70527555038502,4.960436135412429]]],[[[102.70683017555672,4.962070119889525],[102.70694979999999,4.961886394603271],[102.70683017555672,4.961640617961012],[102.70683017555672,4.962070119889525]]],[[[102.70631196716614,4.962402966449478],[102.70639119999998,4.962530394602637],[102.70650751876146,4.962402966449478],[102.70631196716614,4.962402966449478]]],[[[102.70631196716614,4.963189700461993],[102.70712379636727,4.963189700461993],[102.70631196716614,4.962993625829757],[102.70631196716614,4.963189700461993]]],[[[102.70734838394728,4.9639388027408415],[102.7074433,4.963630594601508],[102.70734838394728,4.9634288032045815],[102.70734838394728,4.9639388027408415]]],[[[102.70631196716614,4.964369803193041],[102.7064697,4.964541094600559],[102.7066033705886,4.964369803193041],[102.70631196716614,4.964369803193041]]],[[[102.70755858799383,4.965549907979265],[102.70734838394728,4.96542674343856],[102.70734838394728,4.965549907979265],[102.70755858799383,4.965549907979265]]],[[[102.70786659233782,4.965943276698133],[102.70787627545546,4.965943276698133],[102.70786659233782,4.965927828736295],[102.70786659233782,4.965943276698133]]],[[[102.70734838394728,4.967133443470284],[102.7073626161553,4.967123384225367],[102.70734838394728,4.967123384225367],[102.70734838394728,4.967133443470284]]],[[[102.70734838394728,4.967910123719235],[102.7074871743138,4.967910123719235],[102.70734838394728,4.9677929523456745],[102.70734838394728,4.967910123719235]]],[[[102.70838480072838,4.96850976791112],[102.7085088,4.968393694596585],[102.70838480072838,4.968230415667527],[102.70838480072838,4.96850976791112]]],[[[102.70778319225064,4.968696864127178],[102.70787309999999,4.9687383945962385],[102.7081824841194,4.968696864127178],[102.70778319225064,4.968696864127178]]],[[[102.70683017555672,4.969483605449348],[102.70690586031125,4.969483605449348],[102.70683017555672,4.969334592145593],[102.70683017555672,4.969483605449348]]],[[[102.70734838394728,4.970270347685887],[102.7074668,4.970572194594353],[102.70743180677195,4.970270347685887],[102.70734838394728,4.970270347685887]]],[[[102.70579375877558,4.971843834902671],[102.70581450000002,4.971698494593199],[102.70579375877558,4.9716554625118095],[102.70579375877558,4.971843834902671]]],[[[102.70631196716614,4.971057090836944],[102.70630774460258,4.971057090836944],[102.70631196716614,4.971059679814665],[102.70631196716614,4.971057090836944]]],[[[102.70666209315779,4.97263057988321],[102.70633139999997,4.972324394592562],[102.70631196716614,4.972295573316778],[102.70631196716614,4.97263057988321],[102.70666209315779,4.97263057988321]]],[[[102.70631196716614,4.97302395271658],[102.70631879999999,4.973087994591784],[102.70638686244132,4.97302395271658],[102.70631196716614,4.97302395271658]]],[[[102.70579375877558,4.97341732577871],[102.70570274267774,4.97341732577871],[102.70579375877558,4.973526536388841],[102.70579375877558,4.97341732577871]]],[[[102.70579375877558,4.975529741005287],[102.70527555038502,4.975777568956464],[102.70527555038502,4.975926857593103],[102.7061981,4.975683194589121],[102.70579375877558,4.975529741005287]]],[[[102.71149405107175,4.939981430344039],[102.71149405107175,4.939916750434297],[102.71143536519597,4.939981430344039],[102.71149405107175,4.939981430344039]]],[[[102.70890300911896,4.940374784254759],[102.70890300911896,4.940149055631629],[102.70882666464368,4.940374784254759],[102.70890300911896,4.940374784254759]]],[[[102.7109758426812,4.940253696918056],[102.7107974,4.940210094625558],[102.7109758426812,4.940977236540749],[102.7109758426812,4.940253696918056]]],[[[102.70993942590007,4.941161492757898],[102.71004252919279,4.941161492757898],[102.70993942590007,4.940968231985504],[102.70993942590007,4.941161492757898]]],[[[102.7136815,4.941069894624678],[102.71408509302456,4.941161492757898],[102.71408509302456,4.940995415001008],[102.7136815,4.941069894624678]]],[[[102.71512150980568,4.941161492757898],[102.71527584435206,4.941161492757898],[102.71512150980568,4.941030537404084],[102.71512150980568,4.941161492757898]]],[[[102.71045763429062,4.941948202170092],[102.71048242522338,4.941948202170092],[102.71045763429062,4.9418611155280425],[102.71045763429062,4.941948202170092]]],[[[102.7161579265868,4.942341557217133],[102.71634791660718,4.942341557217133],[102.7161579265868,4.942090162141956],[102.7161579265868,4.942341557217133]]],[[[102.71667613497736,4.942641425745782],[102.71668079999999,4.942623194623108],[102.71667613497736,4.942591725054243],[102.71667613497736,4.942641425745782]]],[[[102.7161579265868,4.943128267993187],[102.71620139999999,4.943194394622522],[102.71621274722774,4.943128267993187],[102.7161579265868,4.943128267993187]]],[[[102.71563971819623,4.943914979678669],[102.7156904,4.944013394621681],[102.71577350037168,4.943914979678669],[102.71563971819623,4.943914979678669]]],[[[102.7161579265868,4.94483350327293],[102.7161659,4.944782294620866],[102.7161579265868,4.94476074485538],[102.7161579265868,4.94483350327293]]],[[[102.71563971819623,4.945488405778496],[102.715726,4.945798394619828],[102.7157901595791,4.945488405778496],[102.71563971819623,4.945488405778496]]],[[[102.71512150980568,4.946668477741707],[102.7152143,4.946596094619008],[102.71512150980568,4.946401984199848],[102.71512150980568,4.946668477741707]]],[[[102.71512150980568,4.948241910211386],[102.71512150980568,4.948459454902178],[102.71513177627844,4.948241910211386],[102.71512150980568,4.948241910211386]]],[[[102.71460330141512,4.94863526889775],[102.71496359999999,4.948817994616699],[102.71506877639327,4.94863526889775],[102.71460330141512,4.94863526889775]]],[[[102.71408509302456,4.949815346322604],[102.71418393529915,4.949815346322604],[102.71408509302456,4.9494506403874565],[102.71408509302456,4.949815346322604]]],[[[102.71408509302456,4.95060206574416],[102.7141173,4.950649794614827],[102.71419427266585,4.95060206574416],[102.71408509302456,4.95060206574416]]],[[[102.71253046785287,4.95176663416847],[102.7127279,4.951526294613941],[102.71253046785287,4.9512278488246695],[102.71253046785287,4.95176663416847]]],[[[102.71304867624343,4.95060206574416],[102.71292918661082,4.95060206574416],[102.71304867624343,4.950624429198713],[102.71304867624343,4.95060206574416]]],[[[102.70890300911896,4.950995425796488],[102.70871800000002,4.951281794614192],[102.70890300911896,4.952082355415798],[102.70890300911896,4.950995425796488]]],[[[102.70942121750952,4.95178214658434],[102.7094778,4.951981894613483],[102.70965722931453,4.95178214658434],[102.70942121750952,4.95178214658434]]],[[[102.71064586122176,4.9521755073198985],[102.71045763429062,4.95138878607654],[102.71037872267532,4.95138878607654],[102.7102858,4.952118194613334],[102.71035949999997,4.9521622946132675],[102.7105527,4.952190394613265],[102.71064586122176,4.9521755073198985]]],[[[102.70993942590007,4.95138878607654],[102.70993942590007,4.951480927027767],[102.71002574788275,4.95138878607654],[102.70993942590007,4.95138878607654]]],[[[102.70892794018285,4.9521755073198985],[102.7090533,4.9523205946131394],[102.70939727607973,4.9521755073198985],[102.70892794018285,4.9521755073198985]]],[[[102.70838480072838,4.953355590893338],[102.70854376379083,4.953355590893338],[102.70838480072838,4.953270272848796],[102.70838480072838,4.953355590893338]]],[[[102.70909140400958,4.953355590893338],[102.70898359999998,4.9533393946120485],[102.70879935563202,4.953355590893338],[102.70909140400958,4.953355590893338]]],[[[102.71045763429062,4.95403856979492],[102.71052179999998,4.953717494611699],[102.71045763429062,4.953642278881692],[102.71045763429062,4.95403856979492]]],[[[102.70838480072838,4.954535676517302],[102.70838539123586,4.954535676517302],[102.70838480072838,4.954535283774114],[102.70838480072838,4.954535676517302]]],[[[102.7095923924392,4.9541423144147805],[102.7103106,4.954247594611127],[102.71042465922848,4.9541423144147805],[102.7095923924392,4.9541423144147805]]],[[[102.70890300911896,4.954929038847715],[102.70911421861473,4.954929038847715],[102.70890300911896,4.954823708204724],[102.70890300911896,4.954929038847715]]],[[[102.70946170000002,4.955493894609857],[102.70890300911896,4.955322401406038],[102.70890300911896,4.955420205190149],[102.70946170000002,4.955493894609857]]],[[[102.70890300911896,4.957185123239955],[102.70902449999998,4.957002994608281],[102.70890300911896,4.95673417754079],[102.70890300911896,4.957185123239955]]],[[[102.70838480072838,4.959510265540666],[102.70858189999998,4.959149394606113],[102.70838480072838,4.9587107736680425],[102.70838480072838,4.959510265540666]]],[[[102.70838480072838,4.966336645645426],[102.70839079999999,4.966318094598738],[102.70838480072838,4.966304837466308],[102.70838480072838,4.966336645645426]]],[[[102.70890300911896,4.966931913354258],[102.70891519999998,4.966903294598115],[102.70890300911896,4.966879818923482],[102.70890300911896,4.966931913354258]]]]},"properties":{"place_id":"2e8681ec-225d-5b9b-a040-4cb5f5c35bb0","habitat":"permanent_water","habitat_label":"Permanent water","resolution_m":50}},{"type":"Feature","geometry":{"type":"MultiPolygon","coordinates":[[[[102.70009346647943,4.935127195476912],[102.69996022140404,4.9352612011324055],[102.70009346647943,4.9352612011324055],[102.70009346647943,4.935127195476912]]],[[[102.69957525808887,4.943128267993187],[102.69957525808887,4.943082874257869],[102.69955555313274,4.943128267993187],[102.69957525808887,4.943128267993187]]],[[[102.69957525808887,4.943914979678669],[102.69945229999999,4.943995994621676],[102.69957525808887,4.944103906785448],[102.69957525808887,4.943914979678669]]],[[[102.6990570496983,4.94685030604787],[102.69897289999999,4.946919394618666],[102.6990570496983,4.947018435752741],[102.6990570496983,4.94685030604787]]],[[[102.69957525808887,4.949815346322604],[102.69957525808887,4.9497257753796475],[102.6995500878131,4.949815346322604],[102.69957525808887,4.949815346322604]]],[[[102.70050937468127,4.9521755073198985],[102.70013629999997,4.95246829461295],[102.70009346647943,4.952568868283241],[102.70061167486998,4.952568868283241],[102.70050937468127,4.9521755073198985]]],[[[102.70112988326053,4.954929038847715],[102.70091936388557,4.954535676517302],[102.70106573649153,4.954929038847715],[102.70112988326053,4.954929038847715]]],[[[102.70061167486998,4.963583067810688],[102.70038039999999,4.963380094601762],[102.70011917315159,4.963583067810688],[102.70061167486998,4.963583067810688]]],[[[102.69750242452663,4.967910123719235],[102.69738774269055,4.968303493808938],[102.69750242452663,4.968303493808938],[102.69750242452663,4.967910123719235]]],[[[102.69698421613606,4.969090234673976],[102.69698421613606,4.968757796683598],[102.6968117,4.968977594595996],[102.69698421613606,4.969090234673976]]],[[[102.69635875481913,4.970270347685887],[102.6964660077455,4.970375305130994],[102.6964660077455,4.970270347685887],[102.69635875481913,4.970270347685887]]],[[[102.69452261117829,4.974597446337841],[102.69464309999998,4.974977094589834],[102.69491138257382,4.975384194521393],[102.69491138257382,4.974597446337841],[102.69452261117829,4.974597446337841]]],[[[102.69491138257382,4.976564318513291],[102.6946565,4.976331894588436],[102.69452807063128,4.976564318513291],[102.69491138257382,4.976564318513291]]],[[[102.69439317418326,4.97813782037419],[102.6943496,4.977841694586905],[102.69435628214357,4.97813782037419],[102.69439317418326,4.97813782037419]]],[[[102.69439317418326,4.9769576936350814],[102.6943615,4.97697989458777],[102.69439317418326,4.977235302631136],[102.69439317418326,4.9769576936350814]]],[[[102.6990570496983,4.977351068985818],[102.6990822,4.9776865945870385],[102.69957525808887,4.977469898599972],[102.69957525808887,4.977351068985818],[102.6990570496983,4.977351068985818]]],[[[102.69387496579269,4.978924572678562],[102.6937915,4.9790867945856405],[102.69387496579269,4.979195835347575],[102.69387496579269,4.978924572678562]]],[[[102.6964660077455,4.978924572678562],[102.69627316170836,4.978924572678562],[102.6964660077455,4.978936166965471],[102.6964660077455,4.978924572678562]]],[[[102.6964660077455,4.980498080035881],[102.69662460000002,4.980584494584086],[102.69693385210248,4.980498080035881],[102.6964660077455,4.980498080035881]]],[[[102.70214324029726,4.933687798660361],[102.7020071,4.933937694632004],[102.70164809165111,4.934081148937955],[102.70216630004167,4.934081148937955],[102.70214324029726,4.933687798660361]]],[[[102.70112988326053,4.934867850173959],[102.70061167486998,4.934806712997747],[102.70061167486998,4.934867850173959],[102.70112988326053,4.934867850173959]]],[[[102.70475734199448,4.9380347757782275],[102.70475769999999,4.938032294627825],[102.70475734199448,4.938030650724796],[102.70475734199448,4.9380347757782275]]],[[[102.70475734199448,4.938408016973065],[102.70478527697395,4.938408016973065],[102.70475734199448,4.938376305236206],[102.70475734199448,4.938408016973065]]],[[[102.70579375877558,4.939488365011027],[102.70607609999998,4.939405094626404],[102.70579375877558,4.93923273841525],[102.70579375877558,4.939488365011027]]],[[[102.7059436905635,4.942734912491492],[102.7060787,4.942397994623311],[102.70603579999998,4.9422029946235035],[102.70569874483154,4.942341557217133],[102.7059436905635,4.942734912491492]]],[[[102.70527555038502,4.942341557217133],[102.70556581827499,4.942341557217133],[102.70543229999998,4.942261094623452],[102.70527555038502,4.942341557217133]]],[[[102.70631196716614,4.944308335862489],[102.70636578565346,4.944308335862489],[102.70631196716614,4.944264999509086],[102.70631196716614,4.944308335862489]]],[[[102.70734838394728,4.95060206574416],[102.70734838394728,4.950781087569859],[102.70766352453643,4.95060206574416],[102.70734838394728,4.95060206574416]]],[[[102.70112988326053,4.95138878607654],[102.70095918625704,4.95178214658434],[102.70112988326053,4.95178214658434],[102.70112988326053,4.95138878607654]]],[[[102.70193376297135,4.955715764192289],[102.70197499999999,4.955722994609617],[102.70206883993248,4.955715764192289],[102.70193376297135,4.955715764192289]]],[[[102.70262919471811,4.956109127206487],[102.70268450843223,4.956209727208312],[102.70268450843223,4.956109127206487],[102.70262919471811,4.956109127206487]]],[[[102.70268450843223,4.957682581543115],[102.70265759999998,4.957298294607996],[102.7025281152896,4.957682581543115],[102.70268450843223,4.957682581543115]]],[[[102.70216630004167,4.959256039528369],[102.70214706798349,4.958862674689932],[102.70190373973769,4.959256039528369],[102.70216630004167,4.959256039528369]]],[[[102.70527555038502,4.960436135412429],[102.7051252,4.960249694604966],[102.70480258321014,4.960436135412429],[102.70527555038502,4.960436135412429]]],[[[102.70683017555672,4.962009599785622],[102.70683017555672,4.962070119889525],[102.70689830703208,4.962009599785622],[102.70683017555672,4.962009599785622]]],[[[102.70572347137079,4.970663719147092],[102.70579375877558,4.970704501787592],[102.70579375877558,4.970663719147092],[102.70572347137079,4.970663719147092]]],[[[102.70527555038502,4.971057090836944],[102.7054751180401,4.971057090836944],[102.70527555038502,4.970707861251824],[102.70527555038502,4.971057090836944]]],[[[102.70630774460258,4.971057090836944],[102.70631196716614,4.971059679814665],[102.70631196716614,4.971057090836944],[102.70630774460258,4.971057090836944]]],[[[102.70579375877558,4.975885096336592],[102.7061753,4.975776794589022],[102.7061981,4.975683194589121],[102.70579375877558,4.975529741005287],[102.70579375877558,4.975885096336592]]],[[[102.70406602085956,4.976564318513291],[102.70372092521335,4.976829413500046],[102.70385349999997,4.976868594587909],[102.70406602085956,4.976564318513291]]],[[[102.71304867624343,4.939981430344039],[102.71304867624343,4.9397338998230245],[102.71282871878672,4.939981430344039],[102.71304867624343,4.939981430344039]]],[[[102.71356688463399,4.939981430344039],[102.71386249999999,4.939952294625856],[102.71356688463399,4.939737742169471],[102.71356688463399,4.939981430344039]]],[[[102.70890300911896,4.940374784254759],[102.70890300911896,4.940149055631629],[102.70882666464368,4.940374784254759],[102.70890300911896,4.940374784254759]]],[[[102.7109758426812,4.940768138392706],[102.71080368812936,4.940374784254759],[102.71084451226598,4.940768138392706],[102.7109758426812,4.940768138392706]]],[[[102.70993942590007,4.941161492757898],[102.71004252919279,4.941161492757898],[102.70993942590007,4.940968231985504],[102.70993942590007,4.941161492757898]]],[[[102.70838480072838,4.940768138392706],[102.70821510000002,4.941307794624447],[102.70838480072838,4.941544259890212],[102.70838480072838,4.940768138392706]]],[[[102.71045763429062,4.941948202170092],[102.71048242522338,4.941948202170092],[102.71045763429062,4.9418611155280425],[102.71045763429062,4.941948202170092]]],[[[102.7161579265868,4.942341557217133],[102.71634791660718,4.942341557217133],[102.7161579265868,4.942090162141956],[102.7161579265868,4.942341557217133]]],[[[102.70786659233782,4.942341557217133],[102.70785839999998,4.942475494623251],[102.70786659233782,4.942481000685641],[102.70786659233782,4.942341557217133]]],[[[102.70838480072838,4.943128267993187],[102.70816924944785,4.942734912491492],[102.70824867492843,4.943128267993187],[102.70838480072838,4.943128267993187]]],[[[102.7161579265868,4.94483350327293],[102.7161659,4.944782294620866],[102.7161579265868,4.94476074485538],[102.7161579265868,4.94483350327293]]],[[[102.70890300911896,4.95138878607654],[102.70873809999999,4.951515594613959],[102.70890300911896,4.952082355415798],[102.70890300911896,4.95138878607654]]],[[[102.71045763429062,4.953748952540133],[102.71052179999998,4.953717494611699],[102.71045763429062,4.953642278881692],[102.71045763429062,4.953748952540133]]],[[[102.70838480072838,4.953748952540133],[102.70834389999999,4.953814394611565],[102.70838480072838,4.953820785249725],[102.70838480072838,4.953748952540133]]],[[[102.70734838394728,4.9541423144147805],[102.7076902562267,4.9541423144147805],[102.70734838394728,4.9540469042971695],[102.70734838394728,4.9541423144147805]]],[[[102.70744129999997,4.956002194609334],[102.70786659233782,4.956109127206487],[102.70786659233782,4.95607954999242],[102.70744129999997,4.956002194609334]]],[[[102.70838480072838,4.957289217616944],[102.70838480072838,4.95734322944591],[102.70858861212069,4.957289217616944],[102.70838480072838,4.957289217616944]]]]},"properties":{"place_id":"2e8681ec-225d-5b9b-a040-4cb5f5c35bb0","habitat":"seasonal_water_wetland","habitat_label":"Seasonal water or wetland","resolution_m":50}},{"type":"Feature","geometry":{"type":"MultiPolygon","coordinates":[[[[102.69387496579269,4.980104702852933],[102.69541229999999,4.978570394586169],[102.6973696,4.97915229458556],[102.6964660077455,4.980498080035881],[102.69957525808887,4.979544609631227],[102.69957525808887,4.979130224131916],[102.69853884130774,4.978924572678562],[102.69811729999999,4.978148894586561],[102.6957901,4.9783713945863575],[102.69698421613606,4.977431550259795],[102.6956812,4.976486894588309],[102.69594779935493,4.974597446337841],[102.69542959096437,4.974597446337841],[102.69542959096437,4.9738106990696185],[102.6964660077455,4.97341732577871],[102.6964660077455,4.971450462755466],[102.69698421613606,4.971450462755466],[102.69698421613606,4.970663719147092],[102.69750242452663,4.970663719147092],[102.69750242452663,4.969090234673976],[102.69802063291716,4.969090234673976],[102.69802063291716,4.968303493808938],[102.69853884130774,4.968303493808938],[102.69802063291716,4.96751675385805],[102.69853884130774,4.96751675385805],[102.69853884130774,4.966730014821163],[102.69957525808887,4.966730014821163],[102.69957525808887,4.966336645645426],[102.70009346647943,4.966336645645426],[102.69976879999999,4.965915994599163],[102.6985806,4.966118994598915],[102.6976767,4.967050994597996],[102.69723419999998,4.967815894597209],[102.69755199999999,4.968517294596478],[102.69682483730183,4.969090234673976],[102.69700749999998,4.969902794595028],[102.6964660077455,4.969724581075438],[102.6964134,4.9713015945936],[102.69551619999999,4.9715981945933185],[102.69542959096437,4.97341732577871],[102.6945117,4.974480094590362],[102.69491138257382,4.974597446337841],[102.6951125,4.97588559458892],[102.69439317418326,4.976869336501826],[102.69387496579269,4.980104702852933]],[[102.69594779935493,4.9769576936350814],[102.69594779935493,4.97813782037419],[102.69542959096437,4.97813782037419],[102.69542959096437,4.9769576936350814],[102.69594779935493,4.9769576936350814]]],[[[102.69719223016668,4.976564318513291],[102.69750242452663,4.975777568956464],[102.6964660077455,4.975777568956464],[102.6964660077455,4.976170943620423],[102.69600424342916,4.976170943620423],[102.69620280000001,4.976526994588232],[102.69719223016668,4.976564318513291]]],[[[102.69774379999998,4.9772062945875515],[102.6989705,4.977103094587654],[102.69984729999999,4.977989894586768],[102.7012638,4.978382394586336],[102.70195549999997,4.978036694586681],[102.7019438,4.9772627945875065],[102.70034353224688,4.975777568956464],[102.70009346647943,4.976564318513291],[102.70061167486998,4.976564318513291],[102.70112988326053,4.977351068985818],[102.70009346647943,4.977351068985818],[102.69957525808887,4.976564318513291],[102.69802063291716,4.976564318513291],[102.6977601567768,4.976170943620423],[102.69774379999998,4.9772062945875515]]],[[[102.70061167486998,4.975729411123862],[102.7015123,4.975605094589195],[102.70164809165111,4.976064857764792],[102.70255799999998,4.9756912945891045],[102.70327013402554,4.976564318513291],[102.70470834499369,4.976564318513291],[102.70579375877558,4.975529741005287],[102.70462029999999,4.9755836945892],[102.70333419999999,4.974991194589812],[102.70213929764118,4.97341732577871],[102.70164809165111,4.97341732577871],[102.70164809165111,4.974204072589322],[102.70216630004167,4.974204072589322],[102.70268450843223,4.974990820315191],[102.70216630004167,4.974990820315191],[102.70216630004167,4.975384194521393],[102.70112988326053,4.974990820315191],[102.70112988326053,4.975384194521393],[102.70061167486998,4.975384194521393],[102.70061167486998,4.975729411123862]],[[102.70320271682277,4.974990820315191],[102.70320271682277,4.975384194521393],[102.70268450843223,4.975384194521393],[102.70268450843223,4.974990820315191],[102.70320271682277,4.974990820315191]],[[102.70372092521335,4.975384194521393],[102.70372092521335,4.975777568956464],[102.70320271682277,4.975777568956464],[102.70320271682277,4.975384194521393],[102.70372092521335,4.975384194521393]]],[[[102.7030287,4.972977094591887],[102.70348709999999,4.973752994591083],[102.70468116370854,4.9738106990696185],[102.7040161,4.972401194592498],[102.7061488,4.973705194591133],[102.7067191,4.972699794592177],[102.70631196716614,4.97263057988321],[102.7052815,4.9706155945943244],[102.70715229999999,4.971398494593502],[102.70771619999998,4.969781494595192],[102.70631196716614,4.968863441658056],[102.70579375877558,4.969483605449348],[102.70631196716614,4.969483605449348],[102.70683017555672,4.970270347685887],[102.70579375877558,4.970270347685887],[102.70579375877558,4.969876976453311],[102.70527555038502,4.969876976453311],[102.70527555038502,4.970270347685887],[102.7042391336039,4.970663719147092],[102.7042391336039,4.971057090836944],[102.70475734199448,4.971057090836944],[102.70475734199448,4.971843834902671],[102.7042391336039,4.971843834902671],[102.70372092521335,4.97263057988321],[102.70268450843223,4.97263057988321],[102.70268450843223,4.97302395271658],[102.70216630004167,4.97302395271658],[102.70262810000001,4.973369194591504],[102.7030287,4.972977094591887]],[[102.70527555038502,4.971843834902671],[102.70527555038502,4.972237207278579],[102.70475734199448,4.972237207278579],[102.70475734199448,4.971843834902671],[102.70527555038502,4.971843834902671]]],[[[102.7081824841194,4.968696864127178],[102.70822990000002,4.968100394596906],[102.7066065,4.967527294597517],[102.70775650000002,4.966875294598137],[102.70890300911896,4.966879818923482],[102.70713019999998,4.965271994599825],[102.70579375877558,4.965157166280146],[102.70631196716614,4.965943276698133],[102.70734838394728,4.965943276698133],[102.70734838394728,4.966730014821163],[102.70631196716614,4.967123384225367],[102.70631196716614,4.967910123719235],[102.70683017555672,4.967910123719235],[102.70658886846446,4.968696864127178],[102.7081824841194,4.968696864127178]]],[[[102.7053405,4.964945994600165],[102.70715559999998,4.964213794600894],[102.70734838394728,4.9634288032045815],[102.706125,4.962867394602274],[102.70683017555672,4.962070119889525],[102.70620349999999,4.961263794603926],[102.7056181292854,4.961616233350005],[102.70579375877558,4.962402966449478],[102.70527555038502,4.962402966449478],[102.70527555038502,4.963189700461993],[102.70579375877558,4.963189700461993],[102.70631196716614,4.963976435387695],[102.70527555038502,4.964369803193041],[102.70527555038502,4.965156539488806],[102.70579276673176,4.965156539488806],[102.7053405,4.964945994600165]]],[[[102.70480258321014,4.960436135412429],[102.70445969348141,4.960829501163429],[102.70527555038502,4.961547226059817],[102.7057391,4.960600694604599],[102.70480258321014,4.960436135412429]]],[[[102.7042391336039,4.9605863185551025],[102.70384919999998,4.959165394606067],[102.7046652,4.959112694606148],[102.70499073632811,4.958075945697323],[102.7042391336039,4.958862674689932],[102.70372092521335,4.958862674689932],[102.70372092521335,4.959256039528369],[102.70320271682277,4.959256039528369],[102.70320271682277,4.959649404594919],[102.70372092521335,4.959649404594919],[102.70372092521335,4.960436135412429],[102.7042391336039,4.9605863185551025]]],[[[102.7054806,4.95938519460586],[102.70838480072838,4.959510265540666],[102.70829159999998,4.958460594606817],[102.70728499553593,4.957682581543115],[102.70683017555672,4.957682581543115],[102.70683017555672,4.958075945697323],[102.70734838394728,4.958075945697323],[102.70734838394728,4.958862674689932],[102.70579375877558,4.958862674689932],[102.70508585225436,4.958075945697323],[102.7054806,4.95938519460586]]],[[[102.70734838394728,4.957460669627024],[102.70890300911896,4.957185123239955],[102.70867809999997,4.956373694608956],[102.70698059999998,4.956084394609254],[102.70697660000002,4.955623794609714],[102.70942121750952,4.955169201288155],[102.7070886,4.953802994611573],[102.70753989999999,4.953559894611837],[102.71042465922848,4.9541423144147805],[102.71045763429062,4.953642278881692],[102.70787579999998,4.953076194612355],[102.70693739999999,4.950968194614503],[102.70769069999999,4.950550994614928],[102.7075513,4.949604994615908],[102.70856559999997,4.94989679461562],[102.70892794018285,4.9521755073198985],[102.70939727607973,4.9521755073198985],[102.7103723,4.95099919461445],[102.71045763429062,4.9521755073198985],[102.71103409999999,4.951872394613553],[102.71197559999999,4.952092794613338],[102.71253046785287,4.95176663416847],[102.71244289999999,4.950538294614926],[102.71380749999999,4.950751394614746],[102.71440569999999,4.950418694615088],[102.71356688463399,4.948657491467609],[102.71356688463399,4.949028627811729],[102.71304867624343,4.949028627811729],[102.71304867624343,4.949815346322604],[102.71149405107175,4.95060206574416],[102.71149405107175,4.95138878607654],[102.7109758426812,4.95138878607654],[102.71045763429062,4.95060206574416],[102.70942121750952,4.950995425796488],[102.70942121750952,4.949815346322604],[102.70890300911896,4.949815346322604],[102.70838480072838,4.949028627811729],[102.70786659233782,4.949028627811729],[102.70786659233782,4.9494219869533405],[102.70683017555672,4.949815346322604],[102.70683017555672,4.95060206574416],[102.70631196716614,4.95060206574416],[102.70631196716614,4.9521755073198985],[102.70683017555672,4.9521755073198985],[102.70683017555672,4.95296222947438],[102.70734838394728,4.95296222947438],[102.70734838394728,4.953355590893338],[102.70631196716614,4.953748952540133],[102.70631196716614,4.9541423144147805],[102.70734838394728,4.954535676517302],[102.70734838394728,4.955322401406038],[102.70683017555672,4.955322401406038],[102.70631196716614,4.956109127206487],[102.70786659233782,4.956895853918796],[102.70734838394728,4.957460669627024]],[[102.71356688463399,4.949815346322604],[102.71356688463399,4.950208705919537],[102.71304867624343,4.950208705919537],[102.71304867624343,4.949815346322604],[102.71356688463399,4.949815346322604]]],[[[102.71408509302456,4.9482801835995165],[102.71506877639327,4.94863526889775],[102.7155261,4.946969494618623],[102.7148227,4.946008194619596],[102.71563971819623,4.945872636169892],[102.71608869999997,4.944716894620951],[102.71512150980568,4.944684426039337],[102.71512150980568,4.945488405778496],[102.71408509302456,4.945881762872075],[102.71408509302456,4.946668477741707],[102.71460330141512,4.946668477741707],[102.71460330141512,4.948241910211386],[102.71408509302456,4.9482801835995165]]],[[[102.71563971819623,4.943914979678669],[102.71667613497736,4.942591725054243],[102.7160686,4.942053294623653],[102.7151862,4.942133494623584],[102.71527584435206,4.941161492757898],[102.7143641,4.940798694624954],[102.71304867624343,4.941554847350353],[102.71356688463399,4.941554847350353],[102.71356688463399,4.941948202170092],[102.71460330141512,4.941554847350353],[102.71460330141512,4.941948202170092],[102.71563971819623,4.942341557217133],[102.71563971819623,4.943128267993187],[102.71512150980568,4.943128267993187],[102.71512150980568,4.943914979678669],[102.71460330141512,4.943914979678669],[102.71460330141512,4.944308335862489],[102.71563971819623,4.943914979678669]]],[[[102.71356688463399,4.939981430344039],[102.713141,4.939692394626113],[102.7121325,4.940344394625423],[102.7116524,4.939809994625997],[102.7109758426812,4.940253696918056],[102.71109594899204,4.942341557217133],[102.71201225946233,4.941948202170092],[102.71201225946233,4.940768138392706],[102.71288953409913,4.941161492757898],[102.71356688463399,4.939981430344039]]],[[[102.7109758426812,4.942734912491492],[102.7096018,4.939854094625931],[102.7090439,4.939763194626031],[102.70838480072838,4.9407170177604005],[102.70869519999998,4.941961094623779],[102.70786659233782,4.942184459966766],[102.70838480072838,4.942734912491492],[102.70795379999998,4.944986494620644],[102.70734838394728,4.945881762872075],[102.70683017555672,4.945881762872075],[102.7062477,4.944112294621565],[102.70653199999998,4.943432194622237],[102.70585069999998,4.943283894622412],[102.70579375877558,4.942341557217133],[102.7051038,4.942341894623359],[102.70467059999999,4.941448094624307],[102.7056107,4.94055289462522],[102.70527555038502,4.939588076660527],[102.70579375877558,4.939488365011027],[102.70454719999998,4.9376013946282615],[102.70527555038502,4.936741596405729],[102.7034958,4.937196194628648],[102.70353570980492,4.936047903730277],[102.70288619999998,4.9357761946301135],[102.70238350750745,4.933687798660361],[102.70216630004167,4.934081148937955],[102.7011529,4.934243694631688],[102.70112988326053,4.934867850173959],[102.69985999999999,4.935361994630541],[102.69964279999999,4.936516394629351],[102.6988616,4.936444294629449],[102.698704,4.937077594628767],[102.6981686,4.937010394628836],[102.6985712,4.939974294625828],[102.6990570496983,4.939981430344039],[102.69917069999997,4.941949094623797],[102.69969579999999,4.94271339462301],[102.69929679999998,4.943510994622172],[102.6997071,4.94545509462019],[102.6990715,4.945640094619981],[102.6991117,4.948406494617136],[102.6996964,4.949213494616325],[102.69980502132715,4.950995425796488],[102.70112988326053,4.95138878607654],[102.70061167486998,4.952568868283241],[102.70009346647943,4.952568868283241],[102.70041929999998,4.953539794611853],[102.69993077725302,4.9541423144147805],[102.700203978122,4.954535676517302],[102.70112988326053,4.954535676517302],[102.7014935,4.955597394609735],[102.70247789999999,4.955653494609699],[102.70288819999998,4.956627494608677],[102.70164809165111,4.959782157457007],[102.70210369999998,4.960550294604666],[102.7006419,4.9621976946029696],[102.70061167486998,4.963583067810688],[102.70011917315159,4.963583067810688],[102.69961460000002,4.964495094600604],[102.699919,4.965453694599622],[102.70061167486998,4.965936062723961],[102.70061167486998,4.963976435387695],[102.70164809165111,4.963583067810688],[102.70164809165111,4.962009599785622],[102.70216630004167,4.962009599785622],[102.70216630004167,4.961222867142617],[102.70268450843223,4.961222867142617],[102.70268450843223,4.959256039528369],[102.70320271682277,4.959256039528369],[102.70372092521335,4.956109127206487],[102.70320271682277,4.956109127206487],[102.70320271682277,4.955715764192289],[102.70216630004167,4.955322401406038],[102.70216630004167,4.954535676517302],[102.70112988326053,4.9541423144147805],[102.70112988326053,4.952568868283241],[102.70164809165111,4.952568868283241],[102.70164809165111,4.95178214658434],[102.70216630004167,4.95178214658434],[102.70216630004167,4.95138878607654],[102.70061167486998,4.95060206574416],[102.70061167486998,4.949028627811729],[102.70009346647943,4.949028627811729],[102.70009346647943,4.945488405778496],[102.70061167486998,4.945488405778496],[102.70061167486998,4.943914979678669],[102.70009346647943,4.943914979678669],[102.70009346647943,4.943128267993187],[102.70061167486998,4.943128267993187],[102.70061167486998,4.942341557217133],[102.70009346647943,4.942341557217133],[102.70009346647943,4.939981430344039],[102.69957525808887,4.939981430344039],[102.69957525808887,4.938801369975059],[102.6990570496983,4.938801369975059],[102.6990570496983,4.937227959329812],[102.69957525808887,4.937227959329812],[102.69957525808887,4.936834607236246],[102.70061167486998,4.93644125536974],[102.70061167486998,4.935654552317839],[102.70216630004167,4.934867850173959],[102.70216630004167,4.936047903730277],[102.70268450843223,4.936047903730277],[102.70268450843223,4.936834607236246],[102.70320271682277,4.936834607236246],[102.70320271682277,4.937227959329812],[102.70372092521335,4.937227959329812],[102.70372092521335,4.938408016973065],[102.7042391336039,4.938408016973065],[102.7042391336039,4.939194723204209],[102.70475734199448,4.939194723204209],[102.70475734199448,4.939588076660527],[102.7042391336039,4.939588076660527],[102.7042391336039,4.940374784254759],[102.70475734199448,4.940374784254759],[102.70475734199448,4.940768138392706],[102.70372092521335,4.941161492757898],[102.70372092521335,4.941948202170092],[102.7042391336039,4.941948202170092],[102.7042391336039,4.942341557217133],[102.70475734199448,4.942341557217133],[102.70475734199448,4.943128267993187],[102.70579375877558,4.9435216237222415],[102.70527555038502,4.944308335862489],[102.70579375877558,4.944308335862489],[102.70579375877558,4.945881762872075],[102.70631196716614,4.945881762872075],[102.70683017555672,4.946668477741707],[102.70734838394728,4.946668477741707],[102.70734838394728,4.946275120193139],[102.70838480072838,4.945881762872075],[102.70838480072838,4.9450950489123855],[102.70890300911896,4.9450950489123855],[102.70890300911896,4.943128267993187],[102.70942121750952,4.943128267993187],[102.70942121750952,4.942734912491492],[102.70890300911896,4.942734912491492],[102.70890300911896,4.941948202170092],[102.70993942590007,4.941948202170092],[102.70993942590007,4.942341557217133],[102.71045763429062,4.942341557217133],[102.71045763429062,4.942734912491492],[102.7109758426812,4.942734912491492]]],[[[102.69387496579269,4.980104702852933],[102.69283854901158,4.980710898519861],[102.69283854901158,4.981678212959457],[102.69387496579269,4.981599215791543],[102.69387496579269,4.980104702852933]]]]},"properties":{"place_id":"2e8681ec-225d-5b9b-a040-4cb5f5c35bb0","habitat":"water_edge","habitat_label":"Water edge","resolution_m":50}}]}