{"type":"FeatureCollection","metadata":{"schema_version":1,"place_id":"2f35a273-52e2-5fd3-84a8-613f01da374d","place_name":"Pulau Lubuk Batu Penggiling","place_type":"wood","osm_reference":"way/724078449","protection_context":"no protected status confirmed from included OSM tags","resolution_m":50,"raster_coverage":1.0,"interpretation":"Suggested search habitats, not predicted plant locations or probabilities of presence."},"features":[{"type":"Feature","geometry":{"type":"Polygon","coordinates":[[[103.39863837695518,4.6623291928955926],[103.3981201685646,4.6631155892853045],[103.39945339851583,4.6631155892853045],[103.4021348,4.662324394912658],[103.40382046086077,4.662722390983336],[103.40382046086077,4.6611495999175165],[103.40433866925133,4.66096015925628],[103.4026712,4.660046694914988],[103.40114769999998,4.660062694914993],[103.3999032,4.660554594914479],[103.40019300212684,4.6611495999175165],[103.3996747937363,4.6611495999175165],[103.39915658534572,4.661935995022051],[103.39863837695518,4.661846193555891],[103.39826710523398,4.6623291928955926],[103.39863837695518,4.6623291928955926]]]},"properties":{"place_id":"2f35a273-52e2-5fd3-84a8-613f01da374d","habitat":"forest_interior","habitat_label":"Forest interior","resolution_m":50}},{"type":"Feature","geometry":{"type":"MultiPolygon","coordinates":[[[[103.39915658534572,4.661542797362699],[103.3996747937363,4.661542797362699],[103.40019300212684,4.660756402686483],[103.39976146903108,4.660756402686483],[103.39863837695518,4.661935995022051],[103.39915658534572,4.661935995022051],[103.39915658534572,4.661542797362699]]],[[[103.40433866925133,4.6611495999175165],[103.40382046086077,4.6611495999175165],[103.40352702367716,4.662722390983336],[103.4038738,4.662966894911977],[103.4046126,4.661801694913175],[103.40433866925133,4.6611495999175165]]],[[[103.3981201685646,4.6631155892853045],[103.39863837695518,4.6623291928955926],[103.3976769,4.663233294911689],[103.3978647,4.663591494911336],[103.3988893,4.663623594911305],[103.39945339851583,4.6631155892853045],[103.3981201685646,4.6631155892853045]]]]},"properties":{"place_id":"2f35a273-52e2-5fd3-84a8-613f01da374d","habitat":"forest_edge_opening","habitat_label":"Forest edge or opening","resolution_m":50}},{"type":"Feature","geometry":{"type":"MultiPolygon","coordinates":[[[[103.3996747937363,4.6611495999175165],[103.3996747937363,4.660877880168705],[103.39933517740722,4.6611495999175165],[103.3996747937363,4.6611495999175165]]],[[[103.39915658534572,4.661542797362699],[103.39915658534572,4.661292487640714],[103.3988715915353,4.661542797362699],[103.39915658534572,4.661542797362699]]],[[[103.40433866925133,4.662225253114452],[103.4046126,4.661801694913175],[103.4045769618131,4.661542797362699],[103.40433866925133,4.661542797362699],[103.40433866925133,4.662225253114452]]],[[[103.3981201685646,4.662722390983336],[103.3981201685646,4.662520347630461],[103.39799017651659,4.662722390983336],[103.3981201685646,4.662722390983336]]],[[[103.40382046086077,4.662722390983336],[103.4038738,4.662966894911977],[103.40402643534348,4.662722390983336],[103.40382046086077,4.662722390983336]]],[[[103.39782133765418,4.663508787801516],[103.39840649999998,4.663725194911188],[103.39905783220406,4.663508787801516],[103.39782133765418,4.663508787801516]]]]},"properties":{"place_id":"2f35a273-52e2-5fd3-84a8-613f01da374d","habitat":"permanent_water","habitat_label":"Permanent water","resolution_m":50}},{"type":"Feature","geometry":{"type":"Polygon","coordinates":[[[103.40382046086077,4.6623291928955926],[103.40382046086077,4.662722390983336],[103.40402643534348,4.662722390983336],[103.40427144757656,4.6623291928955926],[103.40382046086077,4.6623291928955926]]]},"properties":{"place_id":"2f35a273-52e2-5fd3-84a8-613f01da374d","habitat":"seasonal_water_wetland","habitat_label":"Seasonal water or wetland","resolution_m":50}},{"type":"Feature","geometry":{"type":"MultiPolygon","coordinates":[[[[103.3996747937363,4.662722390983336],[103.39915658534572,4.662722390983336],[103.39915658534572,4.661935995022051],[103.40071121051741,4.6611495999175165],[103.40019300212684,4.660440047945175],[103.3988715915353,4.661542797362699],[103.39782133765418,4.663508787801516],[103.39905783220406,4.663508787801516],[103.3996747937363,4.662722390983336]]],[[[103.40382046086077,4.6623291928955926],[103.40433866925133,4.662225253114452],[103.4045769618131,4.661542797362699],[103.40433866925133,4.66096015925628],[103.40330225247021,4.661542797362699],[103.40330225247021,4.6623291928955926],[103.40278404407965,4.662425368691485],[103.40382046086077,4.6629292867187395],[103.40382046086077,4.6623291928955926]]]]},"properties":{"place_id":"2f35a273-52e2-5fd3-84a8-613f01da374d","habitat":"water_edge","habitat_label":"Water edge","resolution_m":50}},{"type":"Feature","geometry":{"type":"Polygon","coordinates":[[[103.40452283673413,4.6611495999175165],[103.40433866925133,4.661542797362699],[103.4045769618131,4.661542797362699],[103.40452283673413,4.6611495999175165]]]},"properties":{"place_id":"2f35a273-52e2-5fd3-84a8-613f01da374d","habitat":"mangrove","habitat_label":"Mangrove","resolution_m":50}}]}