{"type":"FeatureCollection","metadata":{"schema_version":1,"place_id":"2f6808c6-77b2-5aea-a41f-93b8e267ba1e","place_name":"PJS 10 Park","place_type":"park","osm_reference":"way/461676017","protection_context":"no protected status confirmed from included OSM tags","resolution_m":50,"raster_coverage":1.0,"interpretation":"Suggested search habitats, not predicted plant locations or probabilities of presence."},"features":[{"type":"Feature","geometry":{"type":"Polygon","coordinates":[[[101.60675430865918,3.0796736433164695],[101.60818569999999,3.079703296592979],[101.60818999999998,3.078226496594601],[101.6067598,3.078244696594574],[101.60675430865918,3.0796736433164695]]]},"properties":{"place_id":"2f6808c6-77b2-5aea-a41f-93b8e267ba1e","habitat":"forest_edge_opening","habitat_label":"Forest edge or opening","resolution_m":50}},{"type":"Feature","geometry":{"type":"Polygon","coordinates":[[[101.60818569999999,3.079703296592979],[101.60818999999998,3.078226496594601],[101.6067598,3.078244696594574],[101.6067543,3.079675896593011],[101.60818569999999,3.079703296592979]],[[101.60719197078703,3.078496194180533],[101.60771017917759,3.078496194180533],[101.60771017917759,3.0792811601303933],[101.60719197078703,3.0792811601303933],[101.60719197078703,3.078496194180533]]]},"properties":{"place_id":"2f6808c6-77b2-5aea-a41f-93b8e267ba1e","habitat":"disturbed_built_edge","habitat_label":"Disturbed, bare or built edge","resolution_m":50}},{"type":"Feature","geometry":{"type":"Polygon","coordinates":[[[101.60719197078703,3.0788886770850876],[101.60719197078703,3.0792811601303933],[101.60818692261705,3.0792811601303933],[101.6081880593505,3.0788886770850876],[101.60719197078703,3.0788886770850876]]]},"properties":{"place_id":"2f6808c6-77b2-5aea-a41f-93b8e267ba1e","habitat":"permanent_water","habitat_label":"Permanent water","resolution_m":50}},{"type":"Feature","geometry":{"type":"Polygon","coordinates":[[[101.60771017917759,3.0788886770850876],[101.60771017917759,3.0792811601303933],[101.60719197078703,3.0792811601303933],[101.60719197078703,3.0796736433164695],[101.60818578588359,3.0796736433164695],[101.6081880593505,3.0788886770850876],[101.60771017917759,3.0788886770850876]]]},"properties":{"place_id":"2f6808c6-77b2-5aea-a41f-93b8e267ba1e","habitat":"seasonal_water_wetland","habitat_label":"Seasonal water or wetland","resolution_m":50}},{"type":"Feature","geometry":{"type":"Polygon","coordinates":[[[101.60719197078703,3.078239197008251],[101.60675883351212,3.078496194180533],[101.6067543,3.079675896593011],[101.60818569999999,3.079703296592979],[101.60719197078703,3.0796736433164695],[101.60719197078703,3.0788886770850876],[101.6081880593505,3.0788886770850876],[101.60818999999998,3.078226496594601],[101.60719197078703,3.078239197008251]]]},"properties":{"place_id":"2f6808c6-77b2-5aea-a41f-93b8e267ba1e","habitat":"water_edge","habitat_label":"Water edge","resolution_m":50}}]}