{"type":"FeatureCollection","metadata":{"schema_version":1,"place_id":"2fcadf17-81bd-55c1-b155-8146e7507ed9","place_name":"Taman Tanjung Ketapang","place_type":"park","osm_reference":"way/24229706","protection_context":"no protected status confirmed from included OSM tags","resolution_m":50,"raster_coverage":1.0,"interpretation":"Suggested search habitats, not predicted plant locations or probabilities of presence."},"features":[{"type":"Feature","geometry":{"type":"MultiPolygon","coordinates":[[[[102.54743186696702,2.0392470439687194],[102.54722199126404,2.0396392173143525],[102.54751737238509,2.0396392173143525],[102.54743186696702,2.0392470439687194]]],[[[102.54760287780314,2.0400313907530268],[102.54722199126404,2.0404235642847617],[102.54768838322123,2.0404235642847617],[102.54760287780314,2.0400313907530268]]],[[[102.5465999,2.0410536977285005],[102.54670378287346,2.0408157379095724],[102.54666326437982,2.0408157379095724],[102.5465999,2.0410536977285005]]],[[[102.54670378287346,2.0412079116274784],[102.54673529999998,2.041339597728182],[102.54697752554499,2.0412079116274784],[102.54670378287346,2.0412079116274784]]]]},"properties":{"place_id":"2fcadf17-81bd-55c1-b155-8146e7507ed9","habitat":"forest_interior","habitat_label":"Forest interior","resolution_m":50}},{"type":"Feature","geometry":{"type":"MultiPolygon","coordinates":[[[[102.54722199126404,2.0404235642847617],[102.54760287780314,2.0400313907530268],[102.5473857,2.039035297730727],[102.54670378287346,2.0412079116274784],[102.54776589999999,2.040779097728818],[102.54722199126404,2.0404235642847617]]],[[[102.54670378287346,2.0412079116274784],[102.5466729344973,2.0412079116274784],[102.54670378287346,2.041273048636166],[102.54670378287346,2.0412079116274784]]]]},"properties":{"place_id":"2fcadf17-81bd-55c1-b155-8146e7507ed9","habitat":"forest_edge_opening","habitat_label":"Forest edge or opening","resolution_m":50}},{"type":"Feature","geometry":{"type":"MultiPolygon","coordinates":[[[[102.54722199126404,2.0392470439687194],[102.54713059999999,2.039060697730685],[102.54708097932631,2.0392470439687194],[102.54722199126404,2.0392470439687194]]],[[[102.54722199126404,2.0396392173143525],[102.54687212185306,2.0400313907530268],[102.54722199126404,2.0400313907530268],[102.54722199126404,2.0396392173143525]]],[[[102.54676769311642,2.0404235642847617],[102.54670378287346,2.0408157379095724],[102.54722199126404,2.0408157379095724],[102.54722199126404,2.0404235642847617],[102.54676769311642,2.0404235642847617]]]]},"properties":{"place_id":"2fcadf17-81bd-55c1-b155-8146e7507ed9","habitat":"open_grassland","habitat_label":"Open grassland or shrubland","resolution_m":50}},{"type":"Feature","geometry":{"type":"Polygon","coordinates":[[[102.54774019965458,2.0407930767001745],[102.54776589999999,2.040779097728818],[102.54774019965458,2.0406612221782905],[102.54774019965458,2.0407930767001745]]]},"properties":{"place_id":"2fcadf17-81bd-55c1-b155-8146e7507ed9","habitat":"disturbed_built_edge","habitat_label":"Disturbed, bare or built edge","resolution_m":50}},{"type":"Feature","geometry":{"type":"Polygon","coordinates":[[[102.54670378287346,2.0412079116274784],[102.5466729344973,2.0412079116274784],[102.54670378287346,2.041273048636166],[102.54670378287346,2.0412079116274784]]]},"properties":{"place_id":"2fcadf17-81bd-55c1-b155-8146e7507ed9","habitat":"water_edge","habitat_label":"Water edge","resolution_m":50}}]}