{"type":"FeatureCollection","metadata":{"schema_version":1,"place_id":"2ffe9a12-09af-5099-8b8c-b1a3a603b631","place_name":"Taman Permainan Bukit Seri Senawang","place_type":"park","osm_reference":"way/1249362221","protection_context":"no protected status confirmed from included OSM tags","resolution_m":50,"raster_coverage":1.0,"interpretation":"Suggested search habitats, not predicted plant locations or probabilities of presence."},"features":[{"type":"Feature","geometry":{"type":"Polygon","coordinates":[[[101.9937445,2.6676376970410054],[101.9939136,2.6674102970412186],[101.99351839999999,2.666939197041757],[101.99331189999997,2.667353397041315],[101.9937445,2.6676376970410054]]]},"properties":{"place_id":"2ffe9a12-09af-5099-8b8c-b1a3a603b631","habitat":"forest_edge_opening","habitat_label":"Forest edge or opening","resolution_m":50}},{"type":"Feature","geometry":{"type":"Polygon","coordinates":[[[101.9937445,2.6676376970410054],[101.9939136,2.6674102970412186],[101.99351839999999,2.666939197041757],[101.99331189999997,2.667353397041315],[101.9937445,2.6676376970410054]]]},"properties":{"place_id":"2ffe9a12-09af-5099-8b8c-b1a3a603b631","habitat":"disturbed_built_edge","habitat_label":"Disturbed, bare or built edge","resolution_m":50}}]}