{"type":"FeatureCollection","metadata":{"schema_version":1,"place_id":"303e1e57-304f-58dc-b274-65116112f62f","place_name":"Laman Medan Tuanku","place_type":"park","osm_reference":"way/1187819051","protection_context":"no protected status confirmed from included OSM tags","resolution_m":50,"raster_coverage":1.0,"interpretation":"Suggested search habitats, not predicted plant locations or probabilities of presence."},"features":[{"type":"Feature","geometry":{"type":"Polygon","coordinates":[[[101.698207,3.1591782965070014],[101.69836349999999,3.1591434965070224],[101.6982338,3.159083996507097],[101.698207,3.1591782965070014]]]},"properties":{"place_id":"303e1e57-304f-58dc-b274-65116112f62f","habitat":"disturbed_built_edge","habitat_label":"Disturbed, bare or built edge","resolution_m":50}}]}