{"type":"FeatureCollection","metadata":{"schema_version":1,"place_id":"30989161-87bc-5d8a-9f32-002be67da812","place_name":"Hutan Simpanan Kekal Bujang Melaka (Perak Selatan)","place_type":"park","osm_reference":"relation/19308397","protection_context":"mapped protected boundary","resolution_m":50,"raster_coverage":1.0,"interpretation":"Suggested search habitats, not predicted plant locations or probabilities of presence."},"features":[{"type":"Feature","geometry":{"type":"Polygon","coordinates":[[[101.17604258984059,4.275523166976492],[101.17461645826536,4.2767021561255705],[101.1758101,4.280235995311603],[101.1762983,4.280433995311416],[101.1761098,4.281889595309856],[101.18383989999998,4.282385495309337],[101.18521289999998,4.283754695307902],[101.19634969999998,4.2845153953071],[101.19612079999999,4.286264895305289],[101.19505289999998,4.287634095303854],[101.19520549999999,4.290068195301276],[101.19757009999998,4.296077295294971],[101.19688359999999,4.2995762952912955],[101.1973604,4.309312495281075],[101.1961399,4.313800195276355],[101.19621619999998,4.318972495270962],[101.1973604,4.324639095265007],[101.1959111,4.330132195259238],[101.1986732,4.3305406952588],[101.19987649999999,4.331391995257931],[101.2012506,4.333310195255915],[101.2324869,4.33559199525352],[101.2319702,4.333964095255214],[101.2320614,4.3297222952596774],[101.23164299999998,4.329786395259617],[101.23139080000001,4.318151995271821],[101.2305392,4.316306595273739],[101.2297614,4.316762595273257],[101.22913779999999,4.316000295274055],[101.22810939999998,4.3162381952738045],[101.2280397,4.315107695275008],[101.2288897,4.314740595275388],[101.22872469999999,4.313993195276162],[101.22739969999999,4.314380795275764],[101.22726830000002,4.3125968952776255],[101.2277913,4.312206395278065],[101.22859329999999,4.312698495277538],[101.2285906,4.312045895278208],[101.2267821,4.311929895278342],[101.22627249999996,4.312615595277595],[101.2247356,4.312322095277943],[101.2221332,4.309431495280925],[101.221059,4.311337095278972],[101.2209731,4.308940695281486],[101.21660920000001,4.306946695283537],[101.2177893,4.306043995284518],[101.21963740000001,4.30581139528476],[101.2233066,4.2993279952915415],[101.2231243,4.295529995295525],[101.23308059999998,4.294395895296744],[101.2323081,4.291421695299857],[101.2343788,4.291935195299328],[101.23529609999999,4.28892879530247],[101.23408192958337,4.288588912922073],[101.23408192958337,4.288885147493507],[101.23356372119281,4.288885147493507],[101.23356372119281,4.288492144823187],[101.23304551280225,4.288492144823187],[101.23304551280225,4.2877061400728165],[101.23252730441169,4.2877061400728165],[101.23316019453235,4.2869201361093445],[101.2327427,4.286208695305332],[101.23210160000001,4.2860802953054655],[101.23150949999999,4.286439995305094],[101.23145789999998,4.2830792953086165],[101.22843499999999,4.284464795307142],[101.22702420000002,4.28084049531097],[101.22638579999999,4.280712095311104],[101.22033739999999,4.282322295309411],[101.221059,4.285839595305725],[101.21346829999999,4.2869709953045465],[101.2126932,4.285997395305549],[101.2139511,4.285654995305909],[101.2171161,4.28296959530873],[101.21504539999998,4.2806345953111675],[101.21835530000001,4.280829795310986],[101.2171483,4.280128995311737],[101.22130569999999,4.271815895320457],[101.2203938,4.271414695320864],[101.21848399999999,4.274704695317418],[101.2149113,4.2736561953185355],[101.2132108,4.266953195325555],[101.21926720000002,4.265530195327048],[101.21853567786656,4.264519353318105],[101.2182641,4.262438195330304],[101.2164938,4.261488595331304],[101.2145171,4.263160395329545],[101.2138358,4.262192095330546],[101.21231717717983,4.263242706456565],[101.21371779999998,4.265194495327385],[101.21173289999999,4.265372395327195],[101.2090749,4.262860795329859],[101.20722949999998,4.261951395330806],[101.20669900540368,4.2629473924690195],[101.20765330166478,4.263340382387886],[101.20765330166478,4.263733372502345],[101.20713509327422,4.263733372502345],[101.20713509327422,4.264519353318105],[101.20661688488364,4.264519353318105],[101.206634,4.265971595326591],[101.20248199999999,4.269815195322545],[101.19493419999999,4.2672313953252745],[101.1929709,4.267488195324977],[101.1928046,4.267942895324509],[101.191442,4.266145395326406],[101.19048179999999,4.269119795323303],[101.1866409,4.269039495323362],[101.184302,4.268269195324191],[101.17864249999998,4.268745295323656],[101.1751985,4.27336189531885],[101.17448796466888,4.272980638973789],[101.17407043393764,4.273165193974106],[101.17393249999999,4.273880895318281],[101.17495943983404,4.274344179592836],[101.17500617305946,4.273951184190514],[101.17552438145002,4.273951184190514],[101.17552438145002,4.274344179592836],[101.17656079823115,4.2747371751912615],[101.17656079823115,4.275523166976492],[101.17604258984059,4.275523166976492]],[[101.20765330166478,4.264519353318105],[101.20765330166478,4.264126362812412],[101.20817151005534,4.264126362812412],[101.2086897184459,4.264912344019445],[101.20765330166478,4.26530533491645],[101.20765330166478,4.264912344019445],[101.20713509327422,4.264912344019445],[101.20713509327422,4.264519353318105],[101.20765330166478,4.264519353318105]]]},"properties":{"place_id":"30989161-87bc-5d8a-9f32-002be67da812","habitat":"forest_interior","habitat_label":"Forest interior","resolution_m":50}},{"type":"Feature","geometry":{"type":"MultiPolygon","coordinates":[[[[101.20690832211457,4.262554402745723],[101.20713509327422,4.262161413217984],[101.20711763882544,4.262161413217984],[101.20690832211457,4.262554402745723]]],[[[101.20713509327422,4.2629473924690195],[101.20669900540368,4.2629473924690195],[101.20661688488364,4.263733372502345],[101.2062451,4.263799595328869],[101.2064443395288,4.264912344019445],[101.20661688488364,4.264519353318105],[101.20713509327422,4.264519353318105],[101.20713509327422,4.263733372502345],[101.20765330166478,4.263733372502345],[101.20713509327422,4.2629473924690195]]],[[[101.20817151005534,4.264912344019445],[101.2086897184459,4.264912344019445],[101.2086897184459,4.264519353318105],[101.20765330166478,4.264126362812412],[101.20713509327422,4.264912344019445],[101.20765330166478,4.264912344019445],[101.20765330166478,4.26530533491645],[101.20817151005534,4.26530533491645],[101.20817151005534,4.264912344019445]]],[[[101.17407043393764,4.273165193974106],[101.17448796466888,4.272980638973789],[101.17414179999997,4.272794895319407],[101.17407043393764,4.273165193974106]]],[[[101.17448796466888,4.273951184190514],[101.17408830598082,4.273951184190514],[101.17448796466888,4.274131482551237],[101.17448796466888,4.273951184190514]]],[[[101.17552438145002,4.276309159546357],[101.17552438145002,4.275916163163336],[101.17656079823115,4.275523166976492],[101.17656079823115,4.2747371751912615],[101.17500617305946,4.273951184190514],[101.17495943983404,4.274344179592836],[101.17646989999999,4.275025595317083],[101.17502451160347,4.276309159546357],[101.17552438145002,4.276309159546357]]],[[[101.17500617305946,4.2767021561255705],[101.17500617305946,4.276325444939681],[101.1746085,4.276678595315342],[101.17500617305946,4.2767021561255705]]],[[[101.20765330166478,4.262161413217984],[101.20765567899822,4.262161413217984],[101.20765330166478,4.262160241685327],[101.20765330166478,4.262161413217984]]],[[[101.20817151005534,4.262554402745723],[101.20845315306849,4.262554402745723],[101.20817151005534,4.2624156110574765],[101.20817151005534,4.262554402745723]]],[[[101.21231717717983,4.263242706456565],[101.2122318,4.2632699953294395],[101.21231717717983,4.2634003647038],[101.21231717717983,4.263242706456565]]],[[[101.21853567786656,4.264519353318105],[101.21855481128273,4.263733372502345],[101.21853567786656,4.263733372502345],[101.21853567786656,4.264519353318105]]],[[[101.21283538557039,4.264126362812412],[101.21279262348587,4.264126362812412],[101.21283538557039,4.264191659792624],[101.21283538557039,4.264126362812412]]],[[[101.23304551280225,4.2869201361093445],[101.23252730441169,4.2877061400728165],[101.23304551280225,4.2877061400728165],[101.23304551280225,4.288492144823187],[101.23408192958337,4.288885147493507],[101.23385179999998,4.288251795303171],[101.2331504,4.288096295303366],[101.23304551280225,4.2869201361093445]]]]},"properties":{"place_id":"30989161-87bc-5d8a-9f32-002be67da812","habitat":"forest_edge_opening","habitat_label":"Forest edge or opening","resolution_m":50}},{"type":"Feature","geometry":{"type":"MultiPolygon","coordinates":[[[[101.20713509327422,4.263733372502345],[101.20661688488364,4.263101572856625],[101.20637397391336,4.264519353318105],[101.20661688488364,4.263733372502345],[101.20713509327422,4.263733372502345]]],[[[101.20765330166478,4.264912344019445],[101.20817151005534,4.264912344019445],[101.20817151005534,4.264519353318105],[101.20765330166478,4.264519353318105],[101.20765330166478,4.264912344019445]]],[[[101.17500617305946,4.2743652624005835],[101.17552438145002,4.274599042319327],[101.17552438145002,4.274344179592836],[101.17500617305946,4.2743652624005835]]],[[[101.17583057368728,4.2747371751912615],[101.17604258984059,4.2748328223074665],[101.17604258984059,4.2747371751912615],[101.17583057368728,4.2747371751912615]]],[[[101.17604258984059,4.275523166976492],[101.17604258984059,4.275405064061853],[101.17590959717639,4.275523166976492],[101.17604258984059,4.275523166976492]]],[[[101.23304551280225,4.287313137992727],[101.233373,4.287701195303756],[101.23331820715843,4.287313137992727],[101.23304551280225,4.287313137992727]]],[[[101.23356372119281,4.28811663683385],[101.23395657568093,4.288492144823187],[101.23359829999998,4.288111695303329],[101.23356372119281,4.28811663683385]]]]},"properties":{"place_id":"30989161-87bc-5d8a-9f32-002be67da812","habitat":"open_grassland","habitat_label":"Open grassland or shrubland","resolution_m":50}},{"type":"Feature","geometry":{"type":"Polygon","coordinates":[[[101.20637397391336,4.264519353318105],[101.20661688488364,4.264126362812412],[101.20630360829789,4.264126362812412],[101.20637397391336,4.264519353318105]]]},"properties":{"place_id":"30989161-87bc-5d8a-9f32-002be67da812","habitat":"disturbed_built_edge","habitat_label":"Disturbed, bare or built edge","resolution_m":50}},{"type":"Feature","geometry":{"type":"Polygon","coordinates":[[[101.2257905953344,4.281418130385969],[101.2257905953344,4.2810251314509955],[101.22527238694383,4.2810251314509955],[101.22527238694383,4.281418130385969],[101.2257905953344,4.281418130385969]]]},"properties":{"place_id":"30989161-87bc-5d8a-9f32-002be67da812","habitat":"permanent_water","habitat_label":"Permanent water","resolution_m":50}},{"type":"Feature","geometry":{"type":"MultiPolygon","coordinates":[[[[101.21335359396095,4.264126362812412],[101.21283538557039,4.264126362812412],[101.21283538557039,4.263077072956001],[101.2122318,4.2632699953294395],[101.21304998745089,4.264519353318105],[101.21335359396095,4.264126362812412]]],[[[101.21024434361759,4.264050597979876],[101.21042939999998,4.263970795328685],[101.21024434361759,4.263819143273367],[101.21024434361759,4.264050597979876]]],[[[101.21024434361759,4.264126362812412],[101.21031075656818,4.264126362812412],[101.21024434361759,4.264068174147586],[101.21024434361759,4.264126362812412]]],[[[101.22630880372496,4.281811129517377],[101.22630880372496,4.281418130385969],[101.22682701211552,4.281418130385969],[101.22630880372496,4.2807323901299945],[101.2248838,4.281107995310687],[101.22423597016271,4.281346578753443],[101.22527238694383,4.281811129517377],[101.22527238694383,4.282204128845236],[101.22630880372496,4.281811129517377]],[[101.2257905953344,4.281418130385969],[101.22527238694383,4.281418130385969],[101.22527238694383,4.2810251314509955],[101.2257905953344,4.2810251314509955],[101.2257905953344,4.281418130385969]]]]},"properties":{"place_id":"30989161-87bc-5d8a-9f32-002be67da812","habitat":"water_edge","habitat_label":"Water edge","resolution_m":50}}]}