{"type":"FeatureCollection","metadata":{"schema_version":1,"place_id":"30e925d2-a713-5219-8eb0-3f250366a3ba","place_name":"Taman Subang Ria","place_type":"park","osm_reference":"way/245997972","protection_context":"no protected status confirmed from included OSM tags","resolution_m":50,"raster_coverage":1.0,"interpretation":"Suggested search habitats, not predicted plant locations or probabilities of presence."},"features":[{"type":"Feature","geometry":{"type":"MultiPolygon","coordinates":[[[[101.59863206382389,3.0808510937195],[101.5983824281475,3.0812435774688383],[101.5987162838112,3.0812435774688383],[101.59863206382389,3.0808510937195]]],[[[101.59896894377316,3.082421029562089],[101.59890063653806,3.082467878256256],[101.5989734,3.082441796590006],[101.59896894377316,3.082421029562089]]],[[[101.59475496941357,3.0832059983288005],[101.59371855263245,3.083336424163625],[101.59475496941357,3.083329528690724],[101.59475496941357,3.0832059983288005]]]]},"properties":{"place_id":"30e925d2-a713-5219-8eb0-3f250366a3ba","habitat":"forest_interior","habitat_label":"Forest interior","resolution_m":50}},{"type":"Feature","geometry":{"type":"MultiPolygon","coordinates":[[[[101.59733888319117,3.0796736433164695],[101.59730069999999,3.079664496593037],[101.5973001579438,3.0796736433164695],[101.59733888319117,3.0796736433164695]]],[[[101.5932741,3.0833644965890183],[101.59504679999999,3.083442196588953],[101.59896894377316,3.082421029562089],[101.59834599999999,3.0799148965927468],[101.59734601136638,3.0796753508596475],[101.5978542,3.081262496591284],[101.59584099999998,3.0810881965914914],[101.59585069999999,3.0805476965920606],[101.59325729999999,3.0807507965918295],[101.5932741,3.0833644965890183]],[[101.59475496941357,3.082421029562089],[101.59475496941357,3.081636061359037],[101.59682780297581,3.0820285453901155],[101.59682780297581,3.0828135138749784],[101.59579138619469,3.0828135138749784],[101.59579138619469,3.0832059983288005],[101.59527317780415,3.0832059983288005],[101.59527317780415,3.082421029562089],[101.59475496941357,3.082421029562089]]]]},"properties":{"place_id":"30e925d2-a713-5219-8eb0-3f250366a3ba","habitat":"forest_edge_opening","habitat_label":"Forest edge or opening","resolution_m":50}},{"type":"Feature","geometry":{"type":"MultiPolygon","coordinates":[[[[101.59786421975694,3.081636061359037],[101.59786421975694,3.0820285453901155],[101.5983824281475,3.0820285453901155],[101.5983824281475,3.081636061359037],[101.59786421975694,3.081636061359037]]],[[[101.59786421975694,3.082421029562089],[101.59786421975694,3.0828135138749784],[101.5983824281475,3.082653627246763],[101.5983824281475,3.082421029562089],[101.59786421975694,3.082421029562089]]],[[[101.59579138619469,3.0828135138749784],[101.59579138619469,3.0832059983288005],[101.59682780297581,3.0831254656021767],[101.59682780297581,3.0828135138749784],[101.59579138619469,3.0828135138749784]]],[[[101.59734601136638,3.0828135138749784],[101.59786421975694,3.082839376268836],[101.59786421975694,3.0828135138749784],[101.59734601136638,3.0828135138749784]]],[[[101.59527317780415,3.0832059983288005],[101.59579138619469,3.0833016712009895],[101.59579138619469,3.0832059983288005],[101.59527317780415,3.0832059983288005]]]]},"properties":{"place_id":"30e925d2-a713-5219-8eb0-3f250366a3ba","habitat":"open_grassland","habitat_label":"Open grassland or shrubland","resolution_m":50}},{"type":"Feature","geometry":{"type":"MultiPolygon","coordinates":[[[[101.5932741,3.0833644965890183],[101.59475496941357,3.0828135138749784],[101.59475496941357,3.082421029562089],[101.59371855263245,3.0820285453901155],[101.59371855263245,3.081636061359037],[101.59475496941357,3.081636061359037],[101.59475496941357,3.0812435774688383],[101.59734601136638,3.081636061359037],[101.59682780297581,3.082421029562089],[101.59786421975694,3.0828135138749784],[101.59786421975694,3.082421029562089],[101.5983824281475,3.082421029562089],[101.5983824281475,3.0820285453901155],[101.59786421975694,3.0820285453901155],[101.59786421975694,3.0812435774688383],[101.5983824281475,3.0812435774688383],[101.59834599999999,3.0799148965927468],[101.59730069999999,3.079664496593037],[101.5978542,3.081262496591284],[101.59584099999998,3.0810881965914914],[101.59585069999999,3.0805476965920606],[101.59325729999999,3.0807507965918295],[101.5932741,3.0833644965890183]]],[[[101.59890063653806,3.082421029562089],[101.59896894377316,3.082421029562089],[101.59890063653806,3.0821027024004306],[101.59890063653806,3.082421029562089]]],[[[101.59579138619469,3.0832059983288005],[101.59579138619469,3.0833016712009895],[101.59629831742306,3.0832059983288005],[101.59579138619469,3.0832059983288005]]]]},"properties":{"place_id":"30e925d2-a713-5219-8eb0-3f250366a3ba","habitat":"disturbed_built_edge","habitat_label":"Disturbed, bare or built edge","resolution_m":50}},{"type":"Feature","geometry":{"type":"MultiPolygon","coordinates":[[[[101.5983824281475,3.081636061359037],[101.5983824281475,3.0820285453901155],[101.59888472378584,3.0820285453901155],[101.59880050379853,3.081636061359037],[101.5983824281475,3.081636061359037]]],[[[101.59579138619469,3.0828135138749784],[101.59734601136638,3.0828135138749784],[101.59734601136638,3.0820285453901155],[101.59682780297581,3.0820285453901155],[101.59682780297581,3.081636061359037],[101.59579138619469,3.081636061359037],[101.59579138619469,3.0812435774688383],[101.59423676102303,3.0812435774688383],[101.59475496941357,3.0832059983288005],[101.59579138619469,3.0832059983288005],[101.59579138619469,3.0828135138749784]]]]},"properties":{"place_id":"30e925d2-a713-5219-8eb0-3f250366a3ba","habitat":"permanent_water","habitat_label":"Permanent water","resolution_m":50}},{"type":"Feature","geometry":{"type":"MultiPolygon","coordinates":[[[[101.59890063653806,3.082421029562089],[101.59880050379853,3.081636061359037],[101.5983824281475,3.081636061359037],[101.5983824281475,3.082421029562089],[101.59890063653806,3.082421029562089]]],[[[101.59423676102303,3.0820285453901155],[101.59423676102303,3.082421029562089],[101.59475496941357,3.082421029562089],[101.59475496941357,3.0820285453901155],[101.59423676102303,3.0820285453901155]]],[[[101.59579138619469,3.082421029562089],[101.59579138619469,3.0828135138749784],[101.59630959458526,3.0828135138749784],[101.59630959458526,3.082421029562089],[101.59579138619469,3.082421029562089]]]]},"properties":{"place_id":"30e925d2-a713-5219-8eb0-3f250366a3ba","habitat":"seasonal_water_wetland","habitat_label":"Seasonal water or wetland","resolution_m":50}},{"type":"Feature","geometry":{"type":"Polygon","coordinates":[[[101.59371855263245,3.082421029562089],[101.59371855263245,3.0832059983288005],[101.59504679999999,3.083442196588953],[101.5989734,3.082441796590006],[101.59890063653806,3.0821027024004306],[101.59890063653806,3.082421029562089],[101.5983824281475,3.082421029562089],[101.5983824281475,3.081636061359037],[101.59880050379853,3.081636061359037],[101.5983824281475,3.080029068896883],[101.59786421975694,3.080066126643334],[101.59786421975694,3.0808510937195],[101.5983824281475,3.0808510937195],[101.59786421975694,3.081636061359037],[101.59584099999998,3.0810881965914914],[101.59579138619469,3.08054721755057],[101.59423676102303,3.080534661789729],[101.59371855263245,3.0812435774688383],[101.59326046743571,3.0812435774688383],[101.59326803571032,3.082421029562089],[101.59371855263245,3.082421029562089]],[[101.59475496941357,3.082421029562089],[101.59423676102303,3.082421029562089],[101.59423676102303,3.0812435774688383],[101.59579138619469,3.0812435774688383],[101.59579138619469,3.081636061359037],[101.59682780297581,3.081636061359037],[101.59682780297581,3.0820285453901155],[101.59734601136638,3.0820285453901155],[101.59734601136638,3.0828135138749784],[101.59579138619469,3.0828135138749784],[101.59579138619469,3.0832059983288005],[101.59475496941357,3.0832059983288005],[101.59475496941357,3.082421029562089]]]},"properties":{"place_id":"30e925d2-a713-5219-8eb0-3f250366a3ba","habitat":"water_edge","habitat_label":"Water edge","resolution_m":50}}]}