{"type":"FeatureCollection","metadata":{"schema_version":1,"place_id":"30f71233-b2f1-5234-94ee-aaf06e846bf9","place_name":"Taman Kejiranan Desa Mawar","place_type":"park","osm_reference":"way/262004062","protection_context":"no protected status confirmed from included OSM tags","resolution_m":50,"raster_coverage":1.0,"interpretation":"Suggested search habitats, not predicted plant locations or probabilities of presence."},"features":[{"type":"Feature","geometry":{"type":"Polygon","coordinates":[[[100.28938803359132,5.3998288187403425],[100.28972739381291,5.399578555006209],[100.28946149999999,5.399270794157431],[100.28911629999999,5.399504894157184],[100.28938803359132,5.3998288187403425]]]},"properties":{"place_id":"30f71233-b2f1-5234-94ee-aaf06e846bf9","habitat":"forest_edge_opening","habitat_label":"Forest edge or opening","resolution_m":50}},{"type":"Feature","geometry":{"type":"Polygon","coordinates":[[[100.28990624198187,5.3999721869200235],[100.28990624198187,5.4002632864978235],[100.2899065,5.400263594156404],[100.29016260000002,5.400152994156535],[100.28990624198187,5.3999721869200235]]]},"properties":{"place_id":"30f71233-b2f1-5234-94ee-aaf06e846bf9","habitat":"open_grassland","habitat_label":"Open grassland or shrubland","resolution_m":50}},{"type":"Feature","geometry":{"type":"Polygon","coordinates":[[[100.28972389999997,5.400229194156445],[100.29016260000002,5.400152994156535],[100.28946149999999,5.399270794157431],[100.28911629999999,5.399504894157184],[100.28972389999997,5.400229194156445]]]},"properties":{"place_id":"30f71233-b2f1-5234-94ee-aaf06e846bf9","habitat":"disturbed_built_edge","habitat_label":"Disturbed, bare or built edge","resolution_m":50}},{"type":"Feature","geometry":{"type":"Polygon","coordinates":[[[100.28938803359132,5.399578555006209],[100.28950830212838,5.3999721869200235],[100.28990624198187,5.3999721869200235],[100.28972739381291,5.399578555006209],[100.28938803359132,5.399578555006209]]]},"properties":{"place_id":"30f71233-b2f1-5234-94ee-aaf06e846bf9","habitat":"cropland","habitat_label":"Cropland","resolution_m":50}}]}