{"type":"FeatureCollection","metadata":{"schema_version":1,"place_id":"31145494-6f04-58bb-bd17-0af76aa6372a","place_name":"Zuwen Bina","place_type":"wood","osm_reference":"way/1248097115","protection_context":"no protected status confirmed from included OSM tags","resolution_m":50,"raster_coverage":1.0,"interpretation":"Suggested search habitats, not predicted plant locations or probabilities of presence."},"features":[{"type":"Feature","geometry":{"type":"MultiPolygon","coordinates":[[[[100.4660970947725,5.343187986164345],[100.46661530316307,5.343291744222907],[100.46661530316307,5.343265353600887],[100.4660970947725,5.343187986164345]]],[[[100.46661530316307,5.342898147949276],[100.4660970947725,5.342898147949276],[100.4660970947725,5.343016946733409],[100.46647149999998,5.343143394214227],[100.46661530316307,5.342898147949276]]]]},"properties":{"place_id":"31145494-6f04-58bb-bd17-0af76aa6372a","habitat":"forest_interior","habitat_label":"Forest interior","resolution_m":50}},{"type":"Feature","geometry":{"type":"Polygon","coordinates":[[[100.46713351155361,5.343291744222907],[100.4669084,5.342730194214638],[100.4660309,5.34285399421451],[100.4667402,5.342955894214436],[100.46661530316307,5.343291744222907],[100.46507489999999,5.343006894214373],[100.46650439999999,5.344188094213146],[100.46713351155361,5.343291744222907]]]},"properties":{"place_id":"31145494-6f04-58bb-bd17-0af76aa6372a","habitat":"forest_edge_opening","habitat_label":"Forest edge or opening","resolution_m":50}},{"type":"Feature","geometry":{"type":"MultiPolygon","coordinates":[[[[100.46557888638195,5.343268138912183],[100.46531626671634,5.342898147949276],[100.46507489999999,5.343006894214373],[100.46557888638195,5.343268138912183]]],[[[100.46637244218572,5.344078937508707],[100.46650439999999,5.344188094213146],[100.46661216305368,5.344078937508707],[100.46637244218572,5.344078937508707]]]]},"properties":{"place_id":"31145494-6f04-58bb-bd17-0af76aa6372a","habitat":"open_grassland","habitat_label":"Open grassland or shrubland","resolution_m":50}},{"type":"Feature","geometry":{"type":"MultiPolygon","coordinates":[[[[100.46661530316307,5.343291744222907],[100.4656180047297,5.343291744222907],[100.46650439999999,5.344188094213146],[100.4672118,5.343054194214292],[100.4669084,5.342730194214638],[100.4660309,5.34285399421451],[100.4667402,5.342955894214436],[100.46661530316307,5.343291744222907]]],[[[100.46557888638195,5.343268138912183],[100.4655136,5.342879494214505],[100.46507489999999,5.343006894214373],[100.46557888638195,5.343268138912183]]]]},"properties":{"place_id":"31145494-6f04-58bb-bd17-0af76aa6372a","habitat":"disturbed_built_edge","habitat_label":"Disturbed, bare or built edge","resolution_m":50}}]}