{"type":"FeatureCollection","metadata":{"schema_version":1,"place_id":"31481237-c5b2-500c-be8f-e4c2100c27a3","place_name":"Gunung Layang-Layang","place_type":"forest","osm_reference":"relation/10424538","protection_context":"no protected status confirmed from included OSM tags","resolution_m":50,"raster_coverage":1.0,"interpretation":"Suggested search habitats, not predicted plant locations or probabilities of presence."},"features":[{"type":"Feature","geometry":{"type":"MultiPolygon","coordinates":[[[[101.15324142065592,4.6524993102709935],[101.15427783743704,4.650926541455793],[101.15531425421815,4.6504157286353545],[101.15531425421815,4.649746967088016],[101.15583246260871,4.649746967088016],[101.15583246260871,4.647781014080489],[101.15635067099927,4.647781014080489],[101.15635067099927,4.647387824119635],[101.15583246260871,4.647387824119635],[101.15583246260871,4.646601444838426],[101.15635067099927,4.646601444838426],[101.15639230132402,4.646208255518037],[101.15612280239951,4.644635500370814],[101.15496739999998,4.644065594931623],[101.1549889,4.643359794932337],[101.15402329999999,4.643488194932201],[101.15430229999998,4.644343594931317],[101.15324142065592,4.64512054023749],[101.15324142065592,4.6454218775175935],[101.15375962904648,4.6454218775175935],[101.15375962904648,4.646601444838426],[101.1532747849006,4.646601444838426],[101.1533152,4.649284094926172],[101.1515128,4.6490701949263915],[101.1507122,4.649502694925966],[101.15067589999997,4.649968494925491],[101.1514044,4.650520494924888],[101.14961396192199,4.651712925435977],[101.14857754514087,4.651900398341437],[101.15013217031255,4.652106117746622],[101.15013217031255,4.6524993102709935],[101.1506503787031,4.6524993102709935],[101.15220500387478,4.6539835742214395],[101.1529719,4.653796694921494],[101.1536371,4.652983994922327],[101.15324142065592,4.6524993102709935]]],[[[101.15790529617095,4.651319733339038],[101.15686887938983,4.651712925435977],[101.15686887938983,4.652892503009115],[101.15790529617095,4.6524993102709935],[101.15790529617095,4.651319733339038]]],[[[101.15790529617095,4.652892503009115],[101.15738708778039,4.652892503009115],[101.15738708778039,4.653285695960999],[101.15790529617095,4.653285695960999],[101.15790529617095,4.652892503009115]]]]},"properties":{"place_id":"31481237-c5b2-500c-be8f-e4c2100c27a3","habitat":"forest_interior","habitat_label":"Forest interior","resolution_m":50}},{"type":"Feature","geometry":{"type":"MultiPolygon","coordinates":[[[[101.15324142065592,4.6454218775175935],[101.15312209999999,4.645263294930342],[101.1532747849006,4.646601444838426],[101.15375962904648,4.646601444838426],[101.15375962904648,4.6454218775175935],[101.15324142065592,4.6454218775175935]]],[[[101.15013217031255,4.651319733339038],[101.15013217031255,4.65117212463887],[101.14981750933197,4.651319733339038],[101.15013217031255,4.651319733339038]]],[[[101.14961396192199,4.651712925435977],[101.14961396192199,4.651415218243465],[101.14936535385195,4.651712925435977],[101.14961396192199,4.651712925435977]]],[[[101.14857754514087,4.652106117746622],[101.148837,4.652518894922832],[101.1492574,4.652343494923023],[101.1506503787031,4.652864417969728],[101.15013217031255,4.652106117746622],[101.14857754514087,4.652106117746622]]],[[[101.15324142065592,4.6524993102709935],[101.15357118525738,4.652106117746622],[101.15324142065592,4.652106117746622],[101.15324142065592,4.6524993102709935]]],[[[101.15116858709366,4.653285695960999],[101.15116858709366,4.652892503009115],[101.1506806226704,4.652892503009115],[101.1515128,4.653775294921532],[101.15220500387478,4.6539835742214395],[101.15168679548424,4.653285695960999],[101.15116858709366,4.653285695960999]]],[[[101.15479604582758,4.643455936250935],[101.15497399410852,4.643849124077548],[101.15498597135276,4.643455936250935],[101.15479604582758,4.643455936250935]]],[[[101.15583246260871,4.644635500370814],[101.1561047,4.644300894931373],[101.15583246260871,4.644300894931373],[101.15583246260871,4.644635500370814]]],[[[101.15635067099927,4.646208255518037],[101.15635067099927,4.646601444838426],[101.15583246260871,4.646601444838426],[101.15583246260871,4.647387824119635],[101.15635067099927,4.647387824119635],[101.15635067099927,4.647781014080489],[101.15583246260871,4.647781014080489],[101.15583246260871,4.649746967088016],[101.15531425421815,4.649746967088016],[101.15531425421815,4.6504157286353545],[101.15599569999999,4.650446494924972],[101.15664109999999,4.648278894927249],[101.15635067099927,4.646208255518037]]],[[[101.15427783743704,4.650960386651318],[101.15431405642705,4.650926541455793],[101.15427783743704,4.650926541455793],[101.15427783743704,4.650960386651318]]],[[[101.15375962904648,4.651712925435977],[101.15375962904648,4.651727385833089],[101.15376875856639,4.651712925435977],[101.15375962904648,4.651712925435977]]],[[[101.15686887938983,4.652892503009115],[101.15686887938983,4.651712925435977],[101.15738708778039,4.651712925435977],[101.15738708778039,4.651331632921638],[101.1564805,4.650981694924442],[101.1567484,4.6533475949219625],[101.1570981,4.653668394921627],[101.15807879999998,4.653497294921805],[101.15802949999998,4.651187494924201],[101.1577424,4.650661594924754],[101.15790529617095,4.6524993102709935],[101.15686887938983,4.652892503009115]],[[101.15790529617095,4.652892503009115],[101.15790529617095,4.653285695960999],[101.15738708778039,4.653285695960999],[101.15738708778039,4.652892503009115],[101.15790529617095,4.652892503009115]]]]},"properties":{"place_id":"31481237-c5b2-500c-be8f-e4c2100c27a3","habitat":"forest_edge_opening","habitat_label":"Forest edge or opening","resolution_m":50}},{"type":"Feature","geometry":{"type":"MultiPolygon","coordinates":[[[[101.15324142065592,4.6454218775175935],[101.15322940000001,4.645904894929676],[101.15324142065592,4.646089383244083],[101.15324142065592,4.6454218775175935]]],[[[101.15635067099927,4.646601444838426],[101.15657571013529,4.647387824119635],[101.15651800283082,4.646601444838426],[101.15635067099927,4.646601444838426]]],[[[101.15635067099927,4.649254310766776],[101.15664109999999,4.648278894927249],[101.1566045637875,4.647781014080489],[101.15635067099927,4.647781014080489],[101.15635067099927,4.649254310766776]]],[[[101.15583246260871,4.649746967088016],[101.15608691119404,4.6501401583303],[101.15620398326654,4.649746967088016],[101.15583246260871,4.649746967088016]]],[[[101.15686887938983,4.651319733339038],[101.15735625942297,4.651319733339038],[101.15686887938983,4.651131607255034],[101.15686887938983,4.651319733339038]]],[[[101.15790529617095,4.6524993102709935],[101.15818580657117,4.652892503009115],[101.1581423468621,4.6524993102709935],[101.15790529617095,4.6524993102709935]]],[[[101.15168679548424,4.653678889126667],[101.15142192164897,4.653678889126667],[101.15168679548424,4.6538658007687825],[101.15168679548424,4.653678889126667]]]]},"properties":{"place_id":"31481237-c5b2-500c-be8f-e4c2100c27a3","habitat":"open_grassland","habitat_label":"Open grassland or shrubland","resolution_m":50}},{"type":"Feature","geometry":{"type":"MultiPolygon","coordinates":[[[[101.15013217031255,4.651319733339038],[101.15013217031255,4.65117212463887],[101.14981750933197,4.651319733339038],[101.15013217031255,4.651319733339038]]],[[[101.15427783743704,4.650926541455793],[101.15427783743704,4.650960386651318],[101.15431405642705,4.650926541455793],[101.15427783743704,4.650926541455793]]],[[[101.15375962904648,4.651712925435977],[101.15375962904648,4.651727385833089],[101.15376875856639,4.651712925435977],[101.15375962904648,4.651712925435977]]],[[[101.14857754514087,4.652106117746622],[101.148837,4.652518894922832],[101.1492574,4.652343494923023],[101.1506503787031,4.652864417969728],[101.15013217031255,4.652106117746622],[101.14857754514087,4.652106117746622]]],[[[101.15324142065592,4.6524993102709935],[101.15357118525738,4.652106117746622],[101.15324142065592,4.652106117746622],[101.15324142065592,4.6524993102709935]]],[[[101.1506806226704,4.652892503009115],[101.1515128,4.653775294921532],[101.15168679548424,4.6538658007687825],[101.15168679548424,4.653285695960999],[101.1506806226704,4.652892503009115]]],[[[101.15479604582758,4.643455936250935],[101.15497399410852,4.643849124077548],[101.15498597135276,4.643455936250935],[101.15479604582758,4.643455936250935]]],[[[101.15583246260871,4.644635500370814],[101.1561047,4.644300894931373],[101.15583246260871,4.644300894931373],[101.15583246260871,4.644635500370814]]],[[[101.15620398326654,4.649746967088016],[101.15531425421815,4.6504157286353545],[101.15599569999999,4.650446494924972],[101.15620398326654,4.649746967088016]]],[[[101.157887039975,4.650926541455793],[101.1577424,4.650661594924754],[101.15764579708028,4.650926541455793],[101.157887039975,4.650926541455793]]],[[[101.15686887938983,4.651712925435977],[101.15686887938983,4.651131607255034],[101.1564805,4.650981694924442],[101.15639471762555,4.651712925435977],[101.15686887938983,4.651712925435977]]],[[[101.15738708778039,4.653285695960999],[101.15738708778039,4.652892503009115],[101.15686887938983,4.652892503009115],[101.15686887938983,4.652106117746622],[101.15644664037524,4.652106117746622],[101.1570981,4.653668394921627],[101.15807879999998,4.653497294921805],[101.15790529617095,4.650959982534473],[101.15790529617095,4.653285695960999],[101.15738708778039,4.653285695960999]]]]},"properties":{"place_id":"31481237-c5b2-500c-be8f-e4c2100c27a3","habitat":"disturbed_built_edge","habitat_label":"Disturbed, bare or built edge","resolution_m":50}}]}