{"type":"FeatureCollection","metadata":{"schema_version":1,"place_id":"31492841-037f-5f96-b3f4-6cd4453716d5","place_name":"Sibu Gateway","place_type":"park","osm_reference":"way/402321914","protection_context":"no protected status confirmed from included OSM tags","resolution_m":50,"raster_coverage":1.0,"interpretation":"Suggested search habitats, not predicted plant locations or probabilities of presence."},"features":[{"type":"Feature","geometry":{"type":"Polygon","coordinates":[[[111.83092530815792,2.287119902332108],[111.83092530815792,2.2875121380606105],[111.83136866319963,2.2875121380606105],[111.831382,2.287263297457539],[111.83092530815792,2.287119902332108]]]},"properties":{"place_id":"31492841-037f-5f96-b3f4-6cd4453716d5","habitat":"open_grassland","habitat_label":"Open grassland or shrubland","resolution_m":50}},{"type":"Feature","geometry":{"type":"Polygon","coordinates":[[[111.8307757,2.2879797974567597],[111.83142029999999,2.2873747974573964],[111.830913,2.2871043974577283],[111.8307757,2.2879797974567597]]]},"properties":{"place_id":"31492841-037f-5f96-b3f4-6cd4453716d5","habitat":"disturbed_built_edge","habitat_label":"Disturbed, bare or built edge","resolution_m":50}}]}