{"type":"FeatureCollection","metadata":{"schema_version":1,"place_id":"31a277f0-b4bf-5039-a2a2-654d9490321f","place_name":"Taman Perling Park","place_type":"park","osm_reference":"way/466244785","protection_context":"no protected status confirmed from included OSM tags","resolution_m":50,"raster_coverage":1.0,"interpretation":"Suggested search habitats, not predicted plant locations or probabilities of presence."},"features":[{"type":"Feature","geometry":{"type":"Polygon","coordinates":[[[103.68162939999999,1.484143098344631],[103.6816325,1.4851163983435434],[103.682063,1.4844581983443201],[103.68162939999999,1.484143098344631]]]},"properties":{"place_id":"31a277f0-b4bf-5039-a2a2-654d9490321f","habitat":"forest_edge_opening","habitat_label":"Forest edge or opening","resolution_m":50}},{"type":"Feature","geometry":{"type":"Polygon","coordinates":[[[103.6816325,1.4851163983435434],[103.682063,1.4844581983443201],[103.68162939999999,1.484143098344631],[103.6812628,1.4848699983438314],[103.6816325,1.4851163983435434]]]},"properties":{"place_id":"31a277f0-b4bf-5039-a2a2-654d9490321f","habitat":"disturbed_built_edge","habitat_label":"Disturbed, bare or built edge","resolution_m":50}}]}