{"type":"FeatureCollection","metadata":{"schema_version":1,"place_id":"31a3acaf-233a-52f6-b8a1-6520488f4320","place_name":"Pulau Pelung Kiri Besar · OSM way/724674500","place_type":"wood","osm_reference":"way/724674500","protection_context":"no protected status confirmed from included OSM tags","resolution_m":50,"raster_coverage":1.0,"interpretation":"Suggested search habitats, not predicted plant locations or probabilities of presence."},"features":[{"type":"Feature","geometry":{"type":"Polygon","coordinates":[[[102.64930904420447,5.0210171603535425],[102.64930904420447,5.017476560763545],[102.64879083581393,5.017476560763545],[102.64879083581393,5.0210171603535425],[102.64930904420447,5.0210171603535425]]]},"properties":{"place_id":"31a3acaf-233a-52f6-b8a1-6520488f4320","habitat":"forest_interior","habitat_label":"Forest interior","resolution_m":50}},{"type":"Feature","geometry":{"type":"Polygon","coordinates":[[[102.64930904420447,5.0170831619635745],[102.6482771,5.017840294545858],[102.64803979999999,5.019450094544222],[102.64856523595289,5.022590766176823],[102.6499361,5.020251694543384],[102.6495257,5.019307194544347],[102.6496746,5.017259094546454],[102.64930904420447,5.0170831619635745]],[[102.64879083581393,5.017476560763545],[102.64930904420447,5.017476560763545],[102.64930904420447,5.0210171603535425],[102.64879083581393,5.0210171603535425],[102.64879083581393,5.017476560763545]]]},"properties":{"place_id":"31a3acaf-233a-52f6-b8a1-6520488f4320","habitat":"forest_edge_opening","habitat_label":"Forest edge or opening","resolution_m":50}},{"type":"Feature","geometry":{"type":"Polygon","coordinates":[[[102.64930904420447,5.0170831619635745],[102.64930904420447,5.017476560763545],[102.64955050792375,5.017476560763545],[102.6496746,5.017259094546454],[102.64930904420447,5.0170831619635745]]]},"properties":{"place_id":"31a3acaf-233a-52f6-b8a1-6520488f4320","habitat":"cropland","habitat_label":"Cropland","resolution_m":50}},{"type":"Feature","geometry":{"type":"MultiPolygon","coordinates":[[[[102.64942344717423,5.0170831619635745],[102.64938759999998,5.017023994546682],[102.6492699273897,5.0170831619635745],[102.64942344717423,5.0170831619635745]]],[[[102.64879083581393,5.017476560763545],[102.64864730000001,5.017333994546354],[102.6485563100704,5.017476560763545],[102.64879083581393,5.017476560763545]]],[[[102.64982725259505,5.018910932565702],[102.6498449,5.018870294544793],[102.64982725259505,5.018820358717953],[102.64982725259505,5.018910932565702]]],[[[102.64827262742335,5.018608749795759],[102.64803979999999,5.019450094544222],[102.64827262742335,5.020367337574746],[102.64827262742335,5.018608749795759]]],[[[102.64827262742335,5.017878606805822],[102.64827179999999,5.017885694545827],[102.64827262742335,5.017887349392516],[102.64827262742335,5.017878606805822]]],[[[102.64982725259505,5.020368138433798],[102.6499388,5.020215594543439],[102.64982725259505,5.019697825565596],[102.64982725259505,5.020368138433798]]],[[[102.64930904420447,5.0206237594752965],[102.64930904420447,5.02124649789307],[102.64954653292848,5.0206237594752965],[102.64930904420447,5.0206237594752965]]],[[[102.64827262742335,5.021272283877896],[102.6482329,5.021429994542178],[102.64827262742335,5.02154772032227],[102.64827262742335,5.021272283877896]]],[[[102.64879083581393,5.021803962803085],[102.64879083581393,5.022139118972836],[102.6491314943046,5.021803962803085],[102.64879083581393,5.021803962803085]]],[[[102.6487382722352,5.022197364374421],[102.6485628,5.022584294540992],[102.6486151,5.022657794540901],[102.6487382722352,5.022197364374421]]]]},"properties":{"place_id":"31a3acaf-233a-52f6-b8a1-6520488f4320","habitat":"permanent_water","habitat_label":"Permanent water","resolution_m":50}},{"type":"Feature","geometry":{"type":"MultiPolygon","coordinates":[[[[102.64955050792375,5.017476560763545],[102.64930904420447,5.01786995979436],[102.64952000945532,5.01786995979436],[102.64955050792375,5.017476560763545]]],[[[102.64822219525425,5.018656758548603],[102.6481712,5.019212294544424],[102.64804089108576,5.019443558226447],[102.64827262742335,5.019443558226447],[102.64822219525425,5.018656758548603]]],[[[102.64827262742335,5.020230358828044],[102.6482007,5.020283794543344],[102.64827262742335,5.020367337574746],[102.64827262742335,5.020230358828044]]],[[[102.64827262742335,5.021410561462797],[102.64827262742335,5.021272283877896],[102.6482350562362,5.021410561462797],[102.64827262742335,5.021410561462797]]],[[[102.6485628,5.022584294540992],[102.6487382722352,5.022197364374421],[102.64854108102364,5.022197364374421],[102.6485628,5.022584294540992]]]]},"properties":{"place_id":"31a3acaf-233a-52f6-b8a1-6520488f4320","habitat":"seasonal_water_wetland","habitat_label":"Seasonal water or wetland","resolution_m":50}},{"type":"Feature","geometry":{"type":"Polygon","coordinates":[[[102.64827262742335,5.02154772032227],[102.6487382722352,5.022197364374421],[102.64930904420447,5.0206237594752965],[102.64982725259505,5.020368138433798],[102.64942344717423,5.0170831619635745],[102.6482771,5.017840294545858],[102.64827262742335,5.02154772032227]]]},"properties":{"place_id":"31a3acaf-233a-52f6-b8a1-6520488f4320","habitat":"water_edge","habitat_label":"Water edge","resolution_m":50}}]}