{"type":"FeatureCollection","metadata":{"schema_version":1,"place_id":"31ac2230-4c74-5ebe-ad67-a19f118d595d","place_name":"ASEAN Sculpture Garden","place_type":"park","osm_reference":"way/157282065","protection_context":"no protected status confirmed from included OSM tags","resolution_m":50,"raster_coverage":1.0,"interpretation":"Suggested search habitats, not predicted plant locations or probabilities of presence."},"features":[{"type":"Feature","geometry":{"type":"Polygon","coordinates":[[[101.68440502098056,3.1495379103340744],[101.68440502098056,3.149145401802793],[101.68492322937114,3.149145401802793],[101.68492322937114,3.1487528934155002],[101.68411370588478,3.1487528934155002],[101.68398659754848,3.1495379103340744],[101.68440502098056,3.1495379103340744]]]},"properties":{"place_id":"31ac2230-4c74-5ebe-ad67-a19f118d595d","habitat":"forest_interior","habitat_label":"Forest interior","resolution_m":50}},{"type":"Feature","geometry":{"type":"Polygon","coordinates":[[[101.68492322937114,3.1487528934155002],[101.68492322937114,3.149145401802793],[101.6839775,3.149594096517344],[101.6848153,3.1500206965169055],[101.685514,3.1490346965179983],[101.68421049999999,3.1481550965189435],[101.68411370588478,3.1487528934155002],[101.68492322937114,3.1487528934155002]]]},"properties":{"place_id":"31ac2230-4c74-5ebe-ad67-a19f118d595d","habitat":"forest_edge_opening","habitat_label":"Forest edge or opening","resolution_m":50}},{"type":"Feature","geometry":{"type":"Polygon","coordinates":[[[101.68417726005292,3.1483603851721793],[101.68440502098056,3.1482441664423653],[101.68421049999999,3.1481550965189435],[101.68417726005292,3.1483603851721793]]]},"properties":{"place_id":"31ac2230-4c74-5ebe-ad67-a19f118d595d","habitat":"open_grassland","habitat_label":"Open grassland or shrubland","resolution_m":50}},{"type":"Feature","geometry":{"type":"Polygon","coordinates":[[[101.68421049999999,3.1481550965189435],[101.68492322937114,3.149145401802793],[101.6839775,3.149594096517344],[101.6848153,3.1500206965169055],[101.685514,3.1490346965179983],[101.68421049999999,3.1481550965189435]]]},"properties":{"place_id":"31ac2230-4c74-5ebe-ad67-a19f118d595d","habitat":"disturbed_built_edge","habitat_label":"Disturbed, bare or built edge","resolution_m":50}}]}