{"type":"FeatureCollection","metadata":{"schema_version":1,"place_id":"31c4de11-f445-5dcb-8785-29e331fba596","place_name":"Blue Chair","place_type":"park","osm_reference":"way/510043562","protection_context":"no protected status confirmed from included OSM tags","resolution_m":50,"raster_coverage":1.0,"interpretation":"Suggested search habitats, not predicted plant locations or probabilities of presence."},"features":[{"type":"Feature","geometry":{"type":"Polygon","coordinates":[[[101.72223423349149,2.9519994139899453],[101.722091,2.9520382967314114],[101.72223423349149,2.9520518626339487],[101.72223423349149,2.9519994139899453]]]},"properties":{"place_id":"31c4de11-f445-5dcb-8785-29e331fba596","habitat":"forest_edge_opening","habitat_label":"Forest edge or opening","resolution_m":50}},{"type":"Feature","geometry":{"type":"Polygon","coordinates":[[[101.72280579999999,2.95210599673134],[101.72269549999999,2.951874196731587],[101.722091,2.9520382967314114],[101.72280579999999,2.95210599673134]]]},"properties":{"place_id":"31c4de11-f445-5dcb-8785-29e331fba596","habitat":"disturbed_built_edge","habitat_label":"Disturbed, bare or built edge","resolution_m":50}}]}