{"type":"FeatureCollection","metadata":{"schema_version":1,"place_id":"31ffe172-5fe6-5344-b5df-722d209c2bcd","place_name":"Taman Warisan Dunia Jonker Walk","place_type":"park","osm_reference":"way/1293044472","protection_context":"no protected status confirmed from included OSM tags","resolution_m":50,"raster_coverage":1.0,"interpretation":"Suggested search habitats, not predicted plant locations or probabilities of presence."},"features":[{"type":"Feature","geometry":{"type":"Polygon","coordinates":[[[102.24653479999998,2.196765397557022],[102.246955,2.197051297556704],[102.24660139999997,2.196698697557109],[102.24653479999998,2.196765397557022]]]},"properties":{"place_id":"31ffe172-5fe6-5344-b5df-722d209c2bcd","habitat":"disturbed_built_edge","habitat_label":"Disturbed, bare or built edge","resolution_m":50}}]}