{"type":"FeatureCollection","metadata":{"schema_version":1,"place_id":"322638bc-c428-5676-ab3a-bced36406aa0","place_name":"Hutan Simpanan Kekal Bukit Sungai Putih (Selatan)","place_type":"park","osm_reference":"relation/18152287","protection_context":"mapped protected boundary","resolution_m":50,"raster_coverage":1.0,"interpretation":"Suggested search habitats, not predicted plant locations or probabilities of presence."},"features":[{"type":"Feature","geometry":{"type":"MultiPolygon","coordinates":[[[[101.74814465301954,3.0753563360090106],[101.74814465301954,3.075748817788198],[101.74762644462898,3.075748817788198],[101.74762644462898,3.0761412997079933],[101.74866286141008,3.0761412997079933],[101.74866286141008,3.075748817788198],[101.74918106980064,3.075748817788198],[101.74918106980064,3.0753563360090106],[101.74814465301954,3.0753563360090106]]],[[[101.7471082362384,3.076926263969477],[101.7471082362384,3.0777112287936097],[101.74778573426416,3.0777112287936097],[101.7477564407097,3.0765337817684135],[101.74762644462898,3.076926263969477],[101.7471082362384,3.076926263969477]]],[[[101.7471082362384,3.078103711416713],[101.7471082362384,3.0777112287936097],[101.74659002784784,3.0777112287936097],[101.74659002784784,3.078103711416713],[101.7471082362384,3.078103711416713]]],[[[101.74762644462898,3.0796736433164695],[101.74762644462898,3.080366426024254],[101.74866286141008,3.080458610111005],[101.74866286141008,3.080066126643334],[101.74762644462898,3.0796736433164695]]],[[[101.74555361106673,3.0820285453901155],[101.7445171942856,3.081636061359037],[101.74399898589503,3.082421029562089],[101.74503540267617,3.082421029562089],[101.74503540267617,3.0827962915119356],[101.74555361106673,3.0828108845151467],[101.74555361106673,3.0820285453901155]]],[[[101.74503540267617,3.0828135138749784],[101.74548572972273,3.0828135138749784],[101.74503540267617,3.082801338743184],[101.74503540267617,3.0828135138749784]]],[[[101.74814465301954,3.0832059983288005],[101.74814465301954,3.0828135138749784],[101.74762644462898,3.0828135138749784],[101.74762644462898,3.0832059983288005],[101.74814465301954,3.0832059983288005]]],[[[101.74399898589503,3.0847759375537804],[101.74386534991653,3.0847759375537804],[101.74399898589503,3.084930568971746],[101.74399898589503,3.0847759375537804]]],[[[101.7471082362384,3.0847759375537804],[101.74659002784784,3.0847759375537804],[101.74659002784784,3.085168422712538],[101.7471082362384,3.085168422712538],[101.7471082362384,3.0847759375537804]]],[[[101.74762644462898,3.085168422712538],[101.74773150636861,3.085168422712538],[101.74762644462898,3.0848490249818123],[101.74762644462898,3.085168422712538]]],[[[101.74814465301954,3.085560908012338],[101.7481694,3.085512996586681],[101.74814465301954,3.0855189098729565],[101.74814465301954,3.085560908012338]]],[[[101.74866286141008,3.0741788915149115],[101.74873815809957,3.0737864102979735],[101.74866286141008,3.0737864102979735],[101.74866286141008,3.0741788915149115]]],[[[101.74918106980064,3.0753563360090106],[101.74929532590694,3.074963854370412],[101.74918106980064,3.074963854370412],[101.74918106980064,3.0753563360090106]]],[[[101.74918106980064,3.0796736433164695],[101.74866286141008,3.0796736433164695],[101.74866286141008,3.080066126643334],[101.74918106980064,3.080066126643334],[101.74918106980064,3.0796736433164695]]],[[[101.74866286141008,3.082938897161424],[101.74969927819122,3.0812435774688383],[101.74918106980064,3.0812435774688383],[101.74918106980064,3.0820285453901155],[101.74866286141008,3.0820285453901155],[101.74814465301954,3.0828135138749784],[101.74866286141008,3.082938897161424]]],[[[101.74866286141008,3.0867383647581654],[101.74872739999999,3.0864399965856704],[101.74866286141008,3.0863774475094976],[101.74866286141008,3.0867383647581654]]],[[[101.74918106980064,3.087915822774019],[101.75021748658178,3.087915822774019],[101.75021748658178,3.088308309061615],[101.75125390336288,3.087915822774019],[101.75177211175345,3.0887007954903973],[101.75280852853459,3.0887007954903973],[101.75207800000001,3.087686896584325],[101.74932789999998,3.0872141965848643],[101.74918106980064,3.086817208299533],[101.74918106980064,3.0871308506223123],[101.74866286141008,3.0871308506223123],[101.74918106980064,3.087915822774019]]],[[[101.75436315370625,3.090270742617748],[101.75488136209682,3.090270742617748],[101.75436315370625,3.091055717029011],[101.75539957048738,3.091055717029011],[101.75549153152356,3.090663229752733],[101.75436315370625,3.089679371432254],[101.75436315370625,3.090270742617748]]],[[[101.75591777887793,3.091055717029011],[101.75594167119041,3.091055717029011],[101.75591777887793,3.09103488476086],[101.75591777887793,3.091055717029011]]],[[[101.75695419565906,3.091938561249621],[101.75643598726849,3.0918406920055244],[101.75643598726849,3.092233179705796],[101.75683852169767,3.092233179705796],[101.75695419565906,3.091938561249621]]]]},"properties":{"place_id":"322638bc-c428-5676-ab3a-bced36406aa0","habitat":"forest_interior","habitat_label":"Forest interior","resolution_m":50}},{"type":"Feature","geometry":{"type":"MultiPolygon","coordinates":[[[[101.74555361106673,3.0820285453901155],[101.74577809061722,3.0820285453901155],[101.74555361106673,3.0817694106803475],[101.74555361106673,3.0820285453901155]]],[[[101.75155609999999,3.0887253965832056],[101.756363,3.093364096578181],[101.75683852169767,3.092233179705796],[101.75643598726849,3.092233179705796],[101.75643598726849,3.0918406920055244],[101.75684195052409,3.0918406920055244],[101.75549153152356,3.090663229752733],[101.75539957048738,3.091055717029011],[101.75436315370625,3.091055717029011],[101.75488136209682,3.090270742617748],[101.75436315370625,3.090270742617748],[101.75436315370625,3.089679371432254],[101.75280852853459,3.0883238597884275],[101.75280852853459,3.0887007954903973],[101.75177211175345,3.0887007954903973],[101.75125390336288,3.087915822774019],[101.75021748658178,3.088308309061615],[101.75021748658178,3.087915822774019],[101.74918106980064,3.087915822774019],[101.74918106980064,3.08752333662759],[101.74866286141008,3.08752333662759],[101.74918106980064,3.086817208299533],[101.74866286141008,3.0867383647581654],[101.7473234,3.084172596588146],[101.74866286141008,3.082938897161424],[101.74814465301954,3.0828135138749784],[101.74814465301954,3.082421029562089],[101.74918106980064,3.0820285453901155],[101.74918106980064,3.0812435774688383],[101.74995986483252,3.081636061359037],[101.7503475,3.081227396591332],[101.7499078,3.07998199659268],[101.7505918,3.0787288965940367],[101.7478102,3.0786928965940747],[101.74663719999998,3.08018609659248],[101.74762644462898,3.080366426024254],[101.74762644462898,3.0796736433164695],[101.74814465301954,3.0796736433164695],[101.74866286141008,3.080458610111005],[101.7481321446716,3.080458610111005],[101.74958859999998,3.0805888965920345],[101.7456429,3.0844216965878717],[101.7478788,3.0878253965842064],[101.75155609999999,3.0887253965832056]],[[101.74814465301954,3.0832059983288005],[101.74762644462898,3.0832059983288005],[101.74762644462898,3.0828135138749784],[101.74814465301954,3.0828135138749784],[101.74814465301954,3.0832059983288005]],[[101.74866286141008,3.0796736433164695],[101.74918106980064,3.0796736433164695],[101.74918106980064,3.080066126643334],[101.74866286141008,3.080066126643334],[101.74866286141008,3.0796736433164695]],[[101.7471082362384,3.085168422712538],[101.74659002784784,3.085168422712538],[101.74659002784784,3.0847759375537804],[101.7471082362384,3.0847759375537804],[101.7471082362384,3.085168422712538]]],[[[101.7471082362384,3.0777112287936097],[101.7471082362384,3.076926263969477],[101.74762644462898,3.076926263969477],[101.7477505,3.076294996596686],[101.749559,3.076307196596676],[101.7485937,3.0737395965994567],[101.74599129999997,3.0784335965943486],[101.7478039,3.078441396594358],[101.74778573426416,3.0777112287936097],[101.7471082362384,3.0777112287936097]],[[101.7471082362384,3.078103711416713],[101.74659002784784,3.078103711416713],[101.74659002784784,3.0777112287936097],[101.7471082362384,3.0777112287936097],[101.7471082362384,3.078103711416713]],[[101.74918106980064,3.075748817788198],[101.74866286141008,3.075748817788198],[101.74866286141008,3.0761412997079933],[101.74762644462898,3.0761412997079933],[101.74814465301954,3.0753563360090106],[101.74918106980064,3.0753563360090106],[101.74918106980064,3.075748817788198]]],[[[101.74583542360045,3.082421029562089],[101.74555361106673,3.0828108845151467],[101.74575289999997,3.0828164965895994],[101.74583542360045,3.082421029562089]]],[[[101.7457514,3.0828206965896148],[101.74398339999999,3.0827728965896655],[101.7434555,3.0843016965880192],[101.7442594,3.085231896587001],[101.7449746,3.085212596587016],[101.7448342933666,3.084383452536046],[101.74399898589503,3.084383452536046],[101.74399898589503,3.0839909676593154],[101.7445171942856,3.0839909676593154],[101.7445171942856,3.0835984829235734],[101.74503540267617,3.0835984829235734],[101.74503540267617,3.083927031915783],[101.7457514,3.0828206965896148]]],[[[101.74503540267617,3.082421029562089],[101.74399898589503,3.082421029562089],[101.74399898589503,3.0820285453901155],[101.74488641320193,3.081636061359037],[101.74364739999999,3.081760196590735],[101.7436045,3.082755996589654],[101.74503540267617,3.0827962915119356],[101.74503540267617,3.082421029562089]]],[[[101.75695419565906,3.0919580764858376],[101.7569602,3.0919437965797454],[101.75695419565906,3.091938561249621],[101.75695419565906,3.0919580764858376]]]]},"properties":{"place_id":"322638bc-c428-5676-ab3a-bced36406aa0","habitat":"forest_edge_opening","habitat_label":"Forest edge or opening","resolution_m":50}},{"type":"Feature","geometry":{"type":"MultiPolygon","coordinates":[[[[101.74814465301954,3.0796736433164695],[101.74866286141008,3.0796736433164695],[101.74866286141008,3.0792811601303933],[101.74814465301954,3.0792811601303933],[101.74814465301954,3.0796736433164695]]],[[[101.7471082362384,3.0802719617981773],[101.74673144367947,3.080066126643334],[101.74663719999998,3.08018609659248],[101.7471082362384,3.0802719617981773]]],[[[101.74607181945727,3.0847759375537804],[101.74587560220125,3.0847759375537804],[101.74607181945727,3.085074637826914],[101.74607181945727,3.0847759375537804]]],[[[101.75384494531569,3.089485768771592],[101.75414111252303,3.089485768771592],[101.75384494531569,3.0892275340304844],[101.75384494531569,3.089485768771592]]],[[[101.75384494531569,3.090270742617748],[101.75384494531569,3.0898782556240407],[101.75332673692513,3.0898782556240407],[101.75332673692513,3.090270742617748],[101.75384494531569,3.090270742617748]]],[[[101.75384494531569,3.090270742617748],[101.75384494531569,3.090663229752733],[101.75436315370625,3.090663229752733],[101.75436315370625,3.090270742617748],[101.75384494531569,3.090270742617748]]],[[[101.75539957048738,3.091448204446602],[101.75591777887793,3.091448204446602],[101.75591777887793,3.091055717029011],[101.75539957048738,3.091055717029011],[101.75539957048738,3.091448204446602]]],[[[101.75591777887793,3.0918406920055244],[101.75539957048738,3.0918406920055244],[101.75539957048738,3.092233179705796],[101.75591777887793,3.092233179705796],[101.75591777887793,3.0918406920055244]]],[[[101.75591777887793,3.0926256675474337],[101.75643598726849,3.0926256675474337],[101.75643598726849,3.092233179705796],[101.75591777887793,3.092233179705796],[101.75591777887793,3.0926256675474337]]]]},"properties":{"place_id":"322638bc-c428-5676-ab3a-bced36406aa0","habitat":"open_grassland","habitat_label":"Open grassland or shrubland","resolution_m":50}},{"type":"Feature","geometry":{"type":"MultiPolygon","coordinates":[[[[101.74555361106673,3.0820285453901155],[101.74577809061722,3.0820285453901155],[101.74555361106673,3.0817694106803475],[101.74555361106673,3.0820285453901155]]],[[[101.75643598726849,3.092233179705796],[101.75643598726849,3.0926256675474337],[101.75591777887793,3.0926256675474337],[101.75591777887793,3.0918406920055244],[101.75684195052409,3.0918406920055244],[101.75594167119041,3.091055717029011],[101.75488136209682,3.091448204446602],[101.75488136209682,3.091055717029011],[101.75384494531569,3.090663229752733],[101.75384494531569,3.0898782556240407],[101.75332673692513,3.0898782556240407],[101.75332673692513,3.0890932820603836],[101.75369097285619,3.0890932820603836],[101.75280852853459,3.0883238597884275],[101.75280852853459,3.0887007954903973],[101.75177211175345,3.0887007954903973],[101.75125390336288,3.087915822774019],[101.75021748658178,3.088308309061615],[101.75021748658178,3.087915822774019],[101.74918106980064,3.087915822774019],[101.74918106980064,3.08752333662759],[101.74866286141008,3.08752333662759],[101.74918106980064,3.086817208299533],[101.74866286141008,3.0867383647581654],[101.7473234,3.084172596588146],[101.74866286141008,3.082938897161424],[101.74814465301954,3.0828135138749784],[101.74814465301954,3.082421029562089],[101.74918106980064,3.0820285453901155],[101.74918106980064,3.0812435774688383],[101.74995986483252,3.081636061359037],[101.7503475,3.081227396591332],[101.7499078,3.07998199659268],[101.7505918,3.0787288965940367],[101.74889139999998,3.078450896594319],[101.7478102,3.0786928965940747],[101.74663719999998,3.08018609659248],[101.74762644462898,3.080366426024254],[101.74762644462898,3.0796736433164695],[101.74866286141008,3.0792811601303933],[101.74918106980064,3.080066126643334],[101.7481321446716,3.080458610111005],[101.74958859999998,3.0805888965920345],[101.7456429,3.0844216965878717],[101.7478788,3.0878253965842064],[101.75155609999999,3.0887253965832056],[101.756363,3.093364096578181],[101.75683852169767,3.092233179705796],[101.75643598726849,3.092233179705796]],[[101.74814465301954,3.0832059983288005],[101.74762644462898,3.0832059983288005],[101.74762644462898,3.0828135138749784],[101.74814465301954,3.0828135138749784],[101.74814465301954,3.0832059983288005]],[[101.7471082362384,3.085168422712538],[101.74659002784784,3.085168422712538],[101.74659002784784,3.0847759375537804],[101.7471082362384,3.0847759375537804],[101.7471082362384,3.085168422712538]]],[[[101.7471082362384,3.0777112287936097],[101.7471082362384,3.076926263969477],[101.74762644462898,3.076926263969477],[101.7477505,3.076294996596686],[101.749559,3.076307196596676],[101.7485937,3.0737395965994567],[101.74599129999997,3.0784335965943486],[101.7478039,3.078441396594358],[101.74778573426416,3.0777112287936097],[101.7471082362384,3.0777112287936097]],[[101.7471082362384,3.078103711416713],[101.74659002784784,3.078103711416713],[101.74659002784784,3.0777112287936097],[101.7471082362384,3.0777112287936097],[101.7471082362384,3.078103711416713]],[[101.74918106980064,3.075748817788198],[101.74866286141008,3.075748817788198],[101.74866286141008,3.0761412997079933],[101.74762644462898,3.0761412997079933],[101.74814465301954,3.0753563360090106],[101.74918106980064,3.0753563360090106],[101.74918106980064,3.075748817788198]]],[[[101.74583542360045,3.082421029562089],[101.74555361106673,3.0828108845151467],[101.74575289999997,3.0828164965895994],[101.74583542360045,3.082421029562089]]],[[[101.7457514,3.0828206965896148],[101.74398339999999,3.0827728965896655],[101.7434555,3.0843016965880192],[101.7442594,3.085231896587001],[101.7449746,3.085212596587016],[101.74484889999998,3.0842358965880563],[101.7457514,3.0828206965896148]]],[[[101.74503540267617,3.082421029562089],[101.74399898589503,3.082421029562089],[101.74399898589503,3.0820285453901155],[101.74488641320193,3.081636061359037],[101.74364739999999,3.081760196590735],[101.7436045,3.082755996589654],[101.74503540267617,3.0827962915119356],[101.74503540267617,3.082421029562089]]],[[[101.75695419565906,3.0919580764858376],[101.7569602,3.0919437965797454],[101.75695419565906,3.091938561249621],[101.75695419565906,3.0919580764858376]]]]},"properties":{"place_id":"322638bc-c428-5676-ab3a-bced36406aa0","habitat":"disturbed_built_edge","habitat_label":"Disturbed, bare or built edge","resolution_m":50}}]}