{"type":"FeatureCollection","metadata":{"schema_version":1,"place_id":"3271d1c2-1a60-57e1-9d1b-c63012855301","place_name":"Pulau Hulu Gentang Kecil","place_type":"wood","osm_reference":"way/724689151","protection_context":"no protected status confirmed from included OSM tags","resolution_m":50,"raster_coverage":1.0,"interpretation":"Suggested search habitats, not predicted plant locations or probabilities of presence."},"features":[{"type":"Feature","geometry":{"type":"Polygon","coordinates":[[[102.63419538366655,5.128424302847619],[102.63564459999999,5.1297263944313585],[102.6363198,5.129375694431705],[102.63438459999999,5.127799594433328],[102.63419538366655,5.128424302847619]]]},"properties":{"place_id":"3271d1c2-1a60-57e1-9d1b-c63012855301","habitat":"forest_edge_opening","habitat_label":"Forest edge or opening","resolution_m":50}},{"type":"Feature","geometry":{"type":"MultiPolygon","coordinates":[[[[102.63479920926878,5.128424302847619],[102.63449596375773,5.128424302847619],[102.63479920926878,5.128663934614297],[102.63479920926878,5.128424302847619]]],[[[102.63503578544918,5.128424302847619],[102.63488220000002,5.128061394433039],[102.63424249999998,5.127800894433308],[102.63410169999999,5.1284293944326516],[102.63428100087822,5.128030838217],[102.63503578544918,5.128424302847619]]],[[[102.63531741765934,5.128817767714299],[102.63564057570231,5.128817767714299],[102.63531741765934,5.128666832003719],[102.63531741765934,5.128817767714299]]],[[[102.63531741765934,5.128817767714299],[102.63496898489265,5.128817767714299],[102.6353033,5.129366394431704],[102.63531741765934,5.129365408109305],[102.63531741765934,5.128817767714299]]],[[[102.63556925472372,5.129604698155903],[102.63567009999998,5.12973169443135],[102.63579688394192,5.129604698155903],[102.63556925472372,5.129604698155903]]]]},"properties":{"place_id":"3271d1c2-1a60-57e1-9d1b-c63012855301","habitat":"permanent_water","habitat_label":"Permanent water","resolution_m":50}},{"type":"Feature","geometry":{"type":"MultiPolygon","coordinates":[[[[102.63428100087822,5.128030838217],[102.63412979999998,5.127901094433214],[102.63405991324879,5.128030838217],[102.63428100087822,5.128030838217]]],[[[102.63409604713794,5.128424302847619],[102.63415659999998,5.128440694432648],[102.63419538366655,5.128424302847619],[102.63409604713794,5.128424302847619]]],[[[102.63496898489265,5.128817767714299],[102.63520159370358,5.1292112328170525],[102.63531741765934,5.1292112328170525],[102.63531741765934,5.128817767714299],[102.63496898489265,5.128817767714299]]]]},"properties":{"place_id":"3271d1c2-1a60-57e1-9d1b-c63012855301","habitat":"seasonal_water_wetland","habitat_label":"Seasonal water or wetland","resolution_m":50}},{"type":"Feature","geometry":{"type":"MultiPolygon","coordinates":[[[[102.63428100087822,5.128030838217],[102.63428100087822,5.128406504379426],[102.63479920926878,5.128424302847619],[102.63479920926878,5.128030838217],[102.63428100087822,5.128030838217]]],[[[102.63503578544918,5.128424302847619],[102.63496898489265,5.128817767714299],[102.63531741765934,5.128817767714299],[102.63503578544918,5.128424302847619]]],[[[102.63531741765934,5.128817767714299],[102.63556925472372,5.129604698155903],[102.6363198,5.129375694431705],[102.63609319999999,5.129039094432068],[102.63531741765934,5.128817767714299]]]]},"properties":{"place_id":"3271d1c2-1a60-57e1-9d1b-c63012855301","habitat":"water_edge","habitat_label":"Water edge","resolution_m":50}}]}