{"type":"FeatureCollection","metadata":{"schema_version":1,"place_id":"3343badd-9c28-5c85-989c-1c665443ed18","place_name":"Taman Kejiranan Cangkat Bukit Belah 7","place_type":"park","osm_reference":"way/1057501659","protection_context":"no protected status confirmed from included OSM tags","resolution_m":50,"raster_coverage":1.0,"interpretation":"Suggested search habitats, not predicted plant locations or probabilities of presence."},"features":[{"type":"Feature","geometry":{"type":"Polygon","coordinates":[[[100.2465839,5.288225394269955],[100.2476545,5.28863069426952],[100.2465504,5.288064694270127],[100.2465839,5.288225394269955]]]},"properties":{"place_id":"3343badd-9c28-5c85-989c-1c665443ed18","habitat":"forest_edge_opening","habitat_label":"Forest edge or opening","resolution_m":50}},{"type":"Feature","geometry":{"type":"Polygon","coordinates":[[[100.2465839,5.288225394269955],[100.2476545,5.28863069426952],[100.2465504,5.288064694270127],[100.2465839,5.288225394269955]]]},"properties":{"place_id":"3343badd-9c28-5c85-989c-1c665443ed18","habitat":"disturbed_built_edge","habitat_label":"Disturbed, bare or built edge","resolution_m":50}}]}