{"type":"FeatureCollection","metadata":{"schema_version":1,"place_id":"335169f4-9ba4-5776-9d25-e076edfdef27","place_name":"Tasik Seksyen 7","place_type":"park","osm_reference":"way/465373015","protection_context":"no protected status confirmed from included OSM tags","resolution_m":50,"raster_coverage":1.0,"interpretation":"Suggested search habitats, not predicted plant locations or probabilities of presence."},"features":[{"type":"Feature","geometry":{"type":"Polygon","coordinates":[[[101.48985150000001,3.075804296597206],[101.4908631,3.0795354965931714],[101.4922585,3.079526996593182],[101.4942716,3.078696196594061],[101.4939903,3.0772772965956037],[101.4924196,3.074407896598711],[101.48985150000001,3.075804296597206]],[[101.49214970808258,3.0777112287936097],[101.49111329130146,3.0773187463112044],[101.49111329130146,3.075748817788198],[101.49214970808258,3.075748817788198],[101.49214970808258,3.0761412997079933],[101.49266791647312,3.0761412997079933],[101.49214970808258,3.076926263969477],[101.49266791647312,3.076926263969477],[101.49266791647312,3.0777112287936097],[101.4931861248637,3.0777112287936097],[101.4931861248637,3.078103711416713],[101.49214970808258,3.078496194180533],[101.49214970808258,3.0777112287936097]]]},"properties":{"place_id":"335169f4-9ba4-5776-9d25-e076edfdef27","habitat":"forest_edge_opening","habitat_label":"Forest edge or opening","resolution_m":50}},{"type":"Feature","geometry":{"type":"MultiPolygon","coordinates":[[[[101.49214970808258,3.074571372872385],[101.49251530469954,3.074571372872385],[101.49227280000001,3.0743725965987423],[101.49214970808258,3.074571372872385]]],[[[101.49266791647312,3.0761412997079933],[101.49266791647312,3.0765337817684135],[101.4931861248637,3.0765337817684135],[101.4931861248637,3.0761412997079933],[101.49266791647312,3.0761412997079933]]],[[[101.49059508291089,3.0765337817684135],[101.49059508291089,3.0773187463112044],[101.49111329130146,3.0773187463112044],[101.49111329130146,3.0765337817684135],[101.49059508291089,3.0765337817684135]]],[[[101.4931861248637,3.078496194180533],[101.4931861248637,3.0788886770850876],[101.49422254164482,3.078718404197498],[101.49422254164482,3.078496194180533],[101.4931861248637,3.078496194180533]]]]},"properties":{"place_id":"335169f4-9ba4-5776-9d25-e076edfdef27","habitat":"open_grassland","habitat_label":"Open grassland or shrubland","resolution_m":50}},{"type":"Feature","geometry":{"type":"Polygon","coordinates":[[[101.49059508291089,3.0765337817684135],[101.49059508291089,3.0753563360090106],[101.49111329130146,3.0753563360090106],[101.49111329130146,3.074963854370412],[101.49214970808258,3.074963854370412],[101.49214970808258,3.0753563360090106],[101.49266791647312,3.0753563360090106],[101.49266791647312,3.0761412997079933],[101.4931861248637,3.0761412997079933],[101.4931861248637,3.0773187463112044],[101.49370433325426,3.0773187463112044],[101.49370433325426,3.0777112287936097],[101.49266791647312,3.078103711416713],[101.4931861248637,3.0788886770850876],[101.49266791647312,3.0788886770850876],[101.49266791647312,3.0792811601303933],[101.491631499692,3.0792811601303933],[101.491631499692,3.078103711416713],[101.49111329130146,3.078103711416713],[101.49111329130146,3.0773187463112044],[101.4902862537148,3.076926263969477],[101.4908631,3.0795354965931714],[101.4922585,3.079526996593182],[101.4943398,3.078631496594154],[101.4923771,3.074386596598748],[101.49220639999999,3.074386596598748],[101.48987819999999,3.0755943965974524],[101.49013416993564,3.0765337817684135],[101.49059508291089,3.0765337817684135]]]},"properties":{"place_id":"335169f4-9ba4-5776-9d25-e076edfdef27","habitat":"disturbed_built_edge","habitat_label":"Disturbed, bare or built edge","resolution_m":50}},{"type":"Feature","geometry":{"type":"MultiPolygon","coordinates":[[[[101.49111329130146,3.075748817788198],[101.49059508291089,3.075748817788198],[101.49059508291089,3.0765337817684135],[101.49111329130146,3.0765337817684135],[101.49111329130146,3.075748817788198]]],[[[101.49266791647312,3.076926263969477],[101.49266791647312,3.0773187463112044],[101.4931861248637,3.0773187463112044],[101.4931861248637,3.076926263969477],[101.49266791647312,3.076926263969477]]],[[[101.49214970808258,3.078496194180533],[101.49214970808258,3.0788886770850876],[101.49266791647312,3.0788886770850876],[101.49266791647312,3.078496194180533],[101.49214970808258,3.078496194180533]]]]},"properties":{"place_id":"335169f4-9ba4-5776-9d25-e076edfdef27","habitat":"cropland","habitat_label":"Cropland","resolution_m":50}},{"type":"Feature","geometry":{"type":"Polygon","coordinates":[[[101.4931861248637,3.0788886770850876],[101.4931861248637,3.078103711416713],[101.49370433325426,3.078103711416713],[101.49370433325426,3.0777112287936097],[101.49266791647312,3.0773187463112044],[101.49214970808258,3.0753563360090106],[101.49111329130146,3.0753563360090106],[101.49059508291089,3.076926263969477],[101.491631499692,3.0773187463112044],[101.491631499692,3.0788886770850876],[101.4931861248637,3.0788886770850876]]]},"properties":{"place_id":"335169f4-9ba4-5776-9d25-e076edfdef27","habitat":"permanent_water","habitat_label":"Permanent water","resolution_m":50}},{"type":"Feature","geometry":{"type":"MultiPolygon","coordinates":[[[[101.49266791647312,3.075748817788198],[101.49214970808258,3.075748817788198],[101.49214970808258,3.0753563360090106],[101.49111329130146,3.0753563360090106],[101.49111329130146,3.0761412997079933],[101.49059508291089,3.0761412997079933],[101.49059508291089,3.0765337817684135],[101.49266791647312,3.0765337817684135],[101.49266791647312,3.075748817788198]]],[[[101.49111329130146,3.076926263969477],[101.49111329130146,3.0777112287936097],[101.491631499692,3.0777112287936097],[101.491631499692,3.076926263969477],[101.49111329130146,3.076926263969477]]],[[[101.491631499692,3.078496194180533],[101.491631499692,3.0788886770850876],[101.49266791647312,3.0788886770850876],[101.49266791647312,3.078496194180533],[101.491631499692,3.078496194180533]]]]},"properties":{"place_id":"335169f4-9ba4-5776-9d25-e076edfdef27","habitat":"seasonal_water_wetland","habitat_label":"Seasonal water or wetland","resolution_m":50}},{"type":"Feature","geometry":{"type":"Polygon","coordinates":[[[101.49111329130146,3.0788886770850876],[101.4917346,3.0795607965931397],[101.49422254164482,3.078718404197498],[101.4936082,3.076511496596462],[101.49214970808258,3.074571372872385],[101.49007687452033,3.0754711093798464],[101.49111329130146,3.0788886770850876]],[[101.491631499692,3.0777112287936097],[101.49111329130146,3.0777112287936097],[101.49111329130146,3.076926263969477],[101.49059508291089,3.076926263969477],[101.49111329130146,3.0753563360090106],[101.49214970808258,3.0753563360090106],[101.49214970808258,3.075748817788198],[101.49266791647312,3.075748817788198],[101.49266791647312,3.0773187463112044],[101.49370433325426,3.0777112287936097],[101.49370433325426,3.078103711416713],[101.4931861248637,3.078103711416713],[101.4931861248637,3.0788886770850876],[101.491631499692,3.0788886770850876],[101.491631499692,3.0777112287936097]]]},"properties":{"place_id":"335169f4-9ba4-5776-9d25-e076edfdef27","habitat":"water_edge","habitat_label":"Water edge","resolution_m":50}}]}