{"type":"FeatureCollection","metadata":{"schema_version":1,"place_id":"338558ab-6f3a-5fd9-a21a-71d416640682","place_name":"Duta Nusantara Park","place_type":"park","osm_reference":"way/810396867","protection_context":"no protected status confirmed from included OSM tags","resolution_m":50,"raster_coverage":1.0,"interpretation":"Suggested search habitats, not predicted plant locations or probabilities of presence."},"features":[{"type":"Feature","geometry":{"type":"Polygon","coordinates":[[[101.66497279999999,3.1679015964975843],[101.66578839999998,3.168105596497348],[101.66573509999998,3.1677799964977016],[101.66497279999999,3.1679015964975843]]]},"properties":{"place_id":"338558ab-6f3a-5fd9-a21a-71d416640682","habitat":"disturbed_built_edge","habitat_label":"Disturbed, bare or built edge","resolution_m":50}}]}