{"type":"FeatureCollection","metadata":{"schema_version":1,"place_id":"33e0ac83-3c42-54c4-abea-674feb5eab1b","place_name":"Taman Rekreasi MADANI Rapat Setia","place_type":"park","osm_reference":"way/287500455","protection_context":"no protected status confirmed from included OSM tags","resolution_m":50,"raster_coverage":1.0,"interpretation":"Suggested search habitats, not predicted plant locations or probabilities of presence."},"features":[{"type":"Feature","geometry":{"type":"Polygon","coordinates":[[[101.12733100112787,4.570326690697913],[101.12661930513534,4.571112987837098],[101.1268567,4.5715605950069795],[101.12774439999997,4.571159195007389],[101.12733100112787,4.570326690697913]]]},"properties":{"place_id":"33e0ac83-3c42-54c4-abea-674feb5eab1b","habitat":"forest_edge_opening","habitat_label":"Forest edge or opening","resolution_m":50}},{"type":"Feature","geometry":{"type":"Polygon","coordinates":[[[101.12681279273733,4.570326690697913],[101.12681279273733,4.571112987837098],[101.12733100112787,4.571112987837098],[101.12740322465915,4.570326690697913],[101.12681279273733,4.570326690697913]]]},"properties":{"place_id":"33e0ac83-3c42-54c4-abea-674feb5eab1b","habitat":"open_grassland","habitat_label":"Open grassland or shrubland","resolution_m":50}},{"type":"Feature","geometry":{"type":"Polygon","coordinates":[[[101.12637009999997,4.570452795008143],[101.1268567,4.5715605950069795],[101.12774439999997,4.571159195007389],[101.1272936,4.570059195008528],[101.12637009999997,4.570452795008143]]]},"properties":{"place_id":"33e0ac83-3c42-54c4-abea-674feb5eab1b","habitat":"disturbed_built_edge","habitat_label":"Disturbed, bare or built edge","resolution_m":50}}]}