{"type":"FeatureCollection","metadata":{"schema_version":1,"place_id":"347eaf45-746d-58ff-8a4b-24989db0d651","place_name":"Elata Haven","place_type":"park","osm_reference":"way/793493114","protection_context":"no protected status confirmed from included OSM tags","resolution_m":50,"raster_coverage":1.0,"interpretation":"Suggested search habitats, not predicted plant locations or probabilities of presence."},"features":[{"type":"Feature","geometry":{"type":"Polygon","coordinates":[[[103.73547383081959,1.5394800187934468],[103.73471024868591,1.5400796400356644],[103.7356221,1.5398988982827895],[103.73547383081959,1.5394800187934468]]]},"properties":{"place_id":"347eaf45-746d-58ff-8a4b-24989db0d651","habitat":"forest_edge_opening","habitat_label":"Forest edge or opening","resolution_m":50}},{"type":"Feature","geometry":{"type":"Polygon","coordinates":[[[103.7347103,1.5400798982825894],[103.7356221,1.5398988982827895],[103.73553639999997,1.539467598283241],[103.73462459999998,1.5396485982830712],[103.7347103,1.5400798982825894]]]},"properties":{"place_id":"347eaf45-746d-58ff-8a4b-24989db0d651","habitat":"disturbed_built_edge","habitat_label":"Disturbed, bare or built edge","resolution_m":50}}]}