{"type":"FeatureCollection","metadata":{"schema_version":1,"place_id":"34c88151-78a3-59b9-b2ca-1409efac8da8","place_name":"Central Park · OSM way/971658064","place_type":"park","osm_reference":"way/971658064","protection_context":"no protected status confirmed from included OSM tags","resolution_m":50,"raster_coverage":1.0,"interpretation":"Suggested search habitats, not predicted plant locations or probabilities of presence."},"features":[{"type":"Feature","geometry":{"type":"MultiPolygon","coordinates":[[[[101.61600151342657,2.886980978518675],[101.61496509664543,2.8873733948923683],[101.615483305036,2.88815822803558],[101.61561367652439,2.88815822803558],[101.61600151342657,2.886980978518675]]],[[[101.61496509664543,2.88815822803558],[101.61392867986433,2.8877658113979976],[101.61341047147376,2.8883340428314],[101.61496509664543,2.8886608042763866],[101.61496509664543,2.88815822803558]]]]},"properties":{"place_id":"34c88151-78a3-59b9-b2ca-1409efac8da8","habitat":"forest_edge_opening","habitat_label":"Forest edge or opening","resolution_m":50}},{"type":"Feature","geometry":{"type":"MultiPolygon","coordinates":[[[[101.61392867986433,2.886748702165543],[101.61496509664543,2.886980978518675],[101.61496509664543,2.8867829085802748],[101.61392867986433,2.886748702165543]]],[[[101.61392867986433,2.8873733948923683],[101.61392867986433,2.886980978518675],[101.61346759653819,2.886980978518675],[101.61341047147376,2.8873733948923683],[101.61392867986433,2.8873733948923683]]],[[[101.61341047147376,2.8877658113979976],[101.61341044127734,2.8873733948923683],[101.61325395611597,2.88815822803558],[101.61392867986433,2.888442963302894],[101.61392867986433,2.8877658113979976],[101.61341047147376,2.8877658113979976]]],[[[101.61496509664543,2.888550644805135],[101.61537659999999,2.888747296800123],[101.61545574451834,2.888550644805135],[101.61496509664543,2.888550644805135]]]]},"properties":{"place_id":"34c88151-78a3-59b9-b2ca-1409efac8da8","habitat":"open_grassland","habitat_label":"Open grassland or shrubland","resolution_m":50}},{"type":"Feature","geometry":{"type":"Polygon","coordinates":[[[101.61537659999999,2.888747296800123],[101.61608999999999,2.886923096802127],[101.61361969999997,2.8867622968023157],[101.61322279999999,2.888294596800651],[101.61537659999999,2.888747296800123]],[[101.61444688825488,2.88815822803558],[101.61392867986433,2.88815822803558],[101.61392867986433,2.8877658113979976],[101.61444688825488,2.8877658113979976],[101.61444688825488,2.88815822803558]],[[101.61444688825488,2.8873733948923683],[101.61392867986433,2.8873733948923683],[101.61392867986433,2.886980978518675],[101.61496509664543,2.886980978518675],[101.615483305036,2.8877658113979976],[101.61444688825488,2.8877658113979976],[101.61444688825488,2.8873733948923683]]]},"properties":{"place_id":"34c88151-78a3-59b9-b2ca-1409efac8da8","habitat":"disturbed_built_edge","habitat_label":"Disturbed, bare or built edge","resolution_m":50}},{"type":"Feature","geometry":{"type":"Polygon","coordinates":[[[101.615483305036,2.88815822803558],[101.615483305036,2.886980978518675],[101.61392867986433,2.886980978518675],[101.61392867986433,2.88815822803558],[101.615483305036,2.88815822803558]]]},"properties":{"place_id":"34c88151-78a3-59b9-b2ca-1409efac8da8","habitat":"permanent_water","habitat_label":"Permanent water","resolution_m":50}},{"type":"Feature","geometry":{"type":"Polygon","coordinates":[[[101.615483305036,2.88815822803558],[101.615483305036,2.8873733948923683],[101.61496509664543,2.8873733948923683],[101.61496509664543,2.88815822803558],[101.615483305036,2.88815822803558]]]},"properties":{"place_id":"34c88151-78a3-59b9-b2ca-1409efac8da8","habitat":"seasonal_water_wetland","habitat_label":"Seasonal water or wetland","resolution_m":50}},{"type":"Feature","geometry":{"type":"Polygon","coordinates":[[[101.61600151342657,2.886980978518675],[101.61361969999997,2.8867622968023157],[101.61322279999999,2.888294596800651],[101.61537659999999,2.888747296800123],[101.61600151342657,2.886980978518675]],[[101.61392867986433,2.886980978518675],[101.615483305036,2.886980978518675],[101.615483305036,2.88815822803558],[101.61392867986433,2.88815822803558],[101.61392867986433,2.886980978518675]]]},"properties":{"place_id":"34c88151-78a3-59b9-b2ca-1409efac8da8","habitat":"water_edge","habitat_label":"Water edge","resolution_m":50}}]}