{"type":"FeatureCollection","metadata":{"schema_version":1,"place_id":"353d0276-471d-58f5-ba09-73951cf29c72","place_name":"AU5 Public Park","place_type":"park","osm_reference":"way/557465261","protection_context":"no protected status confirmed from included OSM tags","resolution_m":50,"raster_coverage":1.0,"interpretation":"Suggested search habitats, not predicted plant locations or probabilities of presence."},"features":[{"type":"Feature","geometry":{"type":"Polygon","coordinates":[[[101.7553037,3.2020490964606956],[101.7558317,3.2020475964606945],[101.75582420000002,3.201146996461675],[101.75526179999997,3.201145496461641],[101.7553037,3.2020490964606956]]]},"properties":{"place_id":"353d0276-471d-58f5-ba09-73951cf29c72","habitat":"disturbed_built_edge","habitat_label":"Disturbed, bare or built edge","resolution_m":50}}]}