{"type":"FeatureCollection","metadata":{"schema_version":1,"place_id":"355abcb8-9ca0-5e4b-b807-96935412f288","place_name":"Taman Tamadun Islam (Mini Islam)","place_type":"park","osm_reference":"way/875028822","protection_context":"no protected status confirmed from included OSM tags","resolution_m":50,"raster_coverage":1.0,"interpretation":"Suggested search habitats, not predicted plant locations or probabilities of presence."},"features":[{"type":"Feature","geometry":{"type":"MultiPolygon","coordinates":[[[[103.1177694292713,5.3200699846478585],[103.11828563338211,5.3200699846478585],[103.1177694292713,5.319888953797999],[103.1177694292713,5.3200699846478585]]],[[[103.1203604712241,5.32164431422761],[103.1203604712241,5.322037897235387],[103.12087867961466,5.322037897235387],[103.1203017,5.32080139423688],[103.1199435,5.320561194237122],[103.11960159999998,5.320873494236816],[103.11828763766185,5.320070687541361],[103.11880584605242,5.320857148947501],[103.11932405444297,5.320857148947501],[103.11932405444297,5.321250731464987],[103.11880584605242,5.321250731464987],[103.11932405444297,5.322037897235387],[103.1203604712241,5.32164431422761]]],[[[103.11569659570905,5.322037897235387],[103.11621480409961,5.322037897235387],[103.11621480409961,5.32164431422761],[103.11725122088073,5.32164431422761],[103.1177694292713,5.320857148947501],[103.11725122088073,5.320857148947501],[103.11725122088073,5.320463566675129],[103.11621480409961,5.320857148947501],[103.11621480409961,5.320463566675129],[103.1153889789274,5.3200699846478585],[103.11466017892793,5.320538555548468],[103.11466017892793,5.321250731464987],[103.11393493669196,5.321250731464987],[103.11270836680693,5.322431480488334],[103.11362376214682,5.322431480488334],[103.11362376214682,5.322825063986476],[103.11521889999999,5.3228123942348295],[103.11569659570905,5.322713872787806],[103.11569659570905,5.322037897235387]]]]},"properties":{"place_id":"355abcb8-9ca0-5e4b-b807-96935412f288","habitat":"forest_edge_opening","habitat_label":"Forest edge or opening","resolution_m":50}},{"type":"Feature","geometry":{"type":"MultiPolygon","coordinates":[[[[103.11621480409961,5.320463566675129],[103.11621480409961,5.319813825249283],[103.11555150000001,5.319965494237741],[103.11393493669196,5.321250731464987],[103.1151783873185,5.321250731464987],[103.1151783873185,5.320463566675129],[103.11673301249017,5.321250731464987],[103.11673301249017,5.320857148947501],[103.11725122088073,5.320857148947501],[103.11725122088073,5.3200699846478585],[103.11621480409961,5.320463566675129]]],[[[103.11880584605242,5.321250731464987],[103.11932405444297,5.320669565969025],[103.1177694292713,5.319888953797999],[103.11828763766185,5.320857148947501],[103.11725122088073,5.320857148947501],[103.11725122088073,5.32164431422761],[103.1177694292713,5.32164431422761],[103.1177694292713,5.321250731464987],[103.11880584605242,5.321250731464987]]],[[[103.11362376214682,5.322037897235387],[103.11362376214682,5.321550281281565],[103.11311722343527,5.322037897235387],[103.11362376214682,5.322037897235387]]],[[[103.11414197053737,5.322037897235387],[103.11466017892793,5.322037897235387],[103.11466017892793,5.32164431422761],[103.11414197053737,5.32164431422761],[103.11414197053737,5.322037897235387]]],[[[103.1177694292713,5.322037897235387],[103.11828763766185,5.322037897235387],[103.11828763766185,5.32164431422761],[103.1177694292713,5.32164431422761],[103.1177694292713,5.322037897235387]]],[[[103.11932405444297,5.322037897235387],[103.1203604712241,5.322037897235387],[103.1203604712241,5.32164431422761],[103.11932405444297,5.32164431422761],[103.11932405444297,5.322037897235387]]],[[[103.1151783873185,5.322431480488334],[103.11621480409961,5.322431480488334],[103.11621480409961,5.32164431422761],[103.1151783873185,5.32164431422761],[103.1151783873185,5.322431480488334]]],[[[103.11310555375624,5.322431480488334],[103.11310555375624,5.322049130974855],[103.11270836680693,5.322431480488334],[103.11310555375624,5.322431480488334]]],[[[103.11466017892793,5.322825063986476],[103.11466017892793,5.322431480488334],[103.11414197053737,5.322431480488334],[103.11414197053737,5.322825063986476],[103.11466017892793,5.322825063986476]]]]},"properties":{"place_id":"355abcb8-9ca0-5e4b-b807-96935412f288","habitat":"open_grassland","habitat_label":"Open grassland or shrubland","resolution_m":50}},{"type":"Feature","geometry":{"type":"MultiPolygon","coordinates":[[[[103.1151783873185,5.320463566675129],[103.1151783873185,5.320205381291529],[103.11477681415595,5.320463566675129],[103.1151783873185,5.320463566675129]]],[[[103.1201528,5.322156794235493],[103.12042329999998,5.3227353942349005],[103.12113309999998,5.322409094235252],[103.1203604712241,5.320857148947501],[103.11880584605242,5.320463566675129],[103.11880584605242,5.320857148947501],[103.1177694292713,5.320857148947501],[103.1177694292713,5.321250731464987],[103.11725122088073,5.321250731464987],[103.11673301249017,5.320463566675129],[103.1177694292713,5.320463566675129],[103.1177694292713,5.3200699846478585],[103.11828563338211,5.3200699846478585],[103.11642179999998,5.3197664942379115],[103.1153889789274,5.3200699846478585],[103.11621480409961,5.320463566675129],[103.11569659570905,5.322431480488334],[103.1178702,5.322569394235084],[103.1201528,5.322156794235493]]],[[[103.11466017892793,5.322825063986476],[103.11466017892793,5.322431480488334],[103.11414197053737,5.322431480488334],[103.11414197053737,5.322037897235387],[103.1151783873185,5.32164431422761],[103.1151783873185,5.321250731464987],[103.11466017892793,5.321250731464987],[103.11466017892793,5.320538555548468],[103.11267749999999,5.322461194235192],[103.11312940000002,5.323034094234606],[103.11466017892793,5.322825063986476]]]]},"properties":{"place_id":"355abcb8-9ca0-5e4b-b807-96935412f288","habitat":"disturbed_built_edge","habitat_label":"Disturbed, bare or built edge","resolution_m":50}},{"type":"Feature","geometry":{"type":"MultiPolygon","coordinates":[[[[103.1177694292713,5.320463566675129],[103.1177694292713,5.3200699846478585],[103.11725122088073,5.3200699846478585],[103.11725122088073,5.320857148947501],[103.11828763766185,5.320857148947501],[103.11828763766185,5.320463566675129],[103.1177694292713,5.320463566675129]]],[[[103.11984226283354,5.320857148947501],[103.12037132975041,5.320857148947501],[103.1199435,5.320561194237122],[103.11984226283354,5.320857148947501]]],[[[103.1151783873185,5.32164431422761],[103.11569659570905,5.32164431422761],[103.11569659570905,5.321250731464987],[103.1151783873185,5.321250731464987],[103.1151783873185,5.32164431422761]]],[[[103.12087867961466,5.322431480488334],[103.1203604712241,5.322431480488334],[103.1203604712241,5.322037897235387],[103.11932405444297,5.322037897235387],[103.11932405444297,5.322336722837679],[103.1201528,5.322156794235493],[103.12042329999998,5.3227353942349005],[103.12113309999998,5.322409094235252],[103.12087867961466,5.32145251923348],[103.12087867961466,5.322431480488334]]],[[[103.1151783873185,5.322816977013521],[103.11617640000001,5.322617394235021],[103.1187803760378,5.322431480488334],[103.1151783873185,5.322431480488334],[103.1151783873185,5.322816977013521]]],[[[103.1127269300025,5.322825063986476],[103.11312940000002,5.323034094234606],[103.11510689685862,5.322825063986476],[103.1127269300025,5.322825063986476]]]]},"properties":{"place_id":"355abcb8-9ca0-5e4b-b807-96935412f288","habitat":"permanent_water","habitat_label":"Permanent water","resolution_m":50}},{"type":"Feature","geometry":{"type":"MultiPolygon","coordinates":[[[[103.1177694292713,5.320463566675129],[103.11725122088073,5.320463566675129],[103.11725122088073,5.320857148947501],[103.1177694292713,5.320857148947501],[103.1177694292713,5.320463566675129]]],[[[103.12087867961466,5.322037897235387],[103.11984226283354,5.322037897235387],[103.11984226283354,5.322229259795339],[103.12087867961466,5.322431480488334],[103.12087867961466,5.322037897235387]]]]},"properties":{"place_id":"355abcb8-9ca0-5e4b-b807-96935412f288","habitat":"seasonal_water_wetland","habitat_label":"Seasonal water or wetland","resolution_m":50}},{"type":"Feature","geometry":{"type":"Polygon","coordinates":[[[103.11362376214682,5.32164431422761],[103.1127269300025,5.322825063986476],[103.12087867961466,5.322037897235387],[103.12037132975041,5.320857148947501],[103.11960159999998,5.320873494236816],[103.11757649999998,5.319821294237865],[103.11621480409961,5.3200699846478585],[103.11621480409961,5.320857148947501],[103.1151783873185,5.320463566675129],[103.1151783873185,5.320857148947501],[103.11362376214682,5.32164431422761]],[[103.11673301249017,5.320857148947501],[103.11673301249017,5.321250731464987],[103.11621480409961,5.321250731464987],[103.11621480409961,5.320857148947501],[103.11673301249017,5.320857148947501]],[[103.11725122088073,5.321250731464987],[103.11725122088073,5.32164431422761],[103.11673301249017,5.32164431422761],[103.11673301249017,5.321250731464987],[103.11725122088073,5.321250731464987]],[[103.11466017892793,5.32164431422761],[103.11466017892793,5.322037897235387],[103.11414197053737,5.322037897235387],[103.11414197053737,5.32164431422761],[103.11466017892793,5.32164431422761]],[[103.1151783873185,5.321250731464987],[103.11569659570905,5.321250731464987],[103.11569659570905,5.32164431422761],[103.1151783873185,5.32164431422761],[103.1151783873185,5.321250731464987]],[[103.11828763766185,5.321250731464987],[103.11880584605242,5.321250731464987],[103.11880584605242,5.320857148947501],[103.11932405444297,5.320857148947501],[103.11932405444297,5.32164431422761],[103.11828763766185,5.32164431422761],[103.11828763766185,5.321250731464987]],[[103.11725122088073,5.3200699846478585],[103.1177694292713,5.3200699846478585],[103.11828763766185,5.320857148947501],[103.11725122088073,5.320857148947501],[103.11725122088073,5.3200699846478585]]]},"properties":{"place_id":"355abcb8-9ca0-5e4b-b807-96935412f288","habitat":"water_edge","habitat_label":"Water edge","resolution_m":50}}]}