{"type":"FeatureCollection","metadata":{"schema_version":1,"place_id":"35c299bd-b602-584c-8bad-28b1cde15455","place_name":"Attalea Garden","place_type":"park","osm_reference":"way/1010284513","protection_context":"no protected status confirmed from included OSM tags","resolution_m":50,"raster_coverage":1.0,"interpretation":"Suggested search habitats, not predicted plant locations or probabilities of presence."},"features":[{"type":"Feature","geometry":{"type":"Polygon","coordinates":[[[101.72900249999999,2.6524603970575353],[101.7294448,2.6521272970579126],[101.7296728,2.650190097060021],[101.7290706,2.650302197059895],[101.72900249999999,2.6524603970575353]]]},"properties":{"place_id":"35c299bd-b602-584c-8bad-28b1cde15455","habitat":"forest_edge_opening","habitat_label":"Forest edge or opening","resolution_m":50}},{"type":"Feature","geometry":{"type":"MultiPolygon","coordinates":[[[[101.7290716910194,2.6503772687816687],[101.7290830947963,2.6511619491067084],[101.72957039407306,2.6511619491067084],[101.72965661878817,2.6503772687816687],[101.7290716910194,2.6503772687816687]]],[[[101.7290052196142,2.6519466299160603],[101.72900314276848,2.6523389705023974],[101.72937737472887,2.6523389705023974],[101.72946830521921,2.6519466299160603],[101.7290052196142,2.6519466299160603]]]]},"properties":{"place_id":"35c299bd-b602-584c-8bad-28b1cde15455","habitat":"open_grassland","habitat_label":"Open grassland or shrubland","resolution_m":50}},{"type":"Feature","geometry":{"type":"Polygon","coordinates":[[[101.7296214385,2.6507696088836585],[101.7290059,2.651818097058261],[101.72932569999999,2.6525011970575143],[101.7296214385,2.6507696088836585]]]},"properties":{"place_id":"35c299bd-b602-584c-8bad-28b1cde15455","habitat":"disturbed_built_edge","habitat_label":"Disturbed, bare or built edge","resolution_m":50}}]}