{"type":"FeatureCollection","metadata":{"schema_version":1,"place_id":"35c65bd4-df9f-58f8-9f39-290d5b62a551","place_name":"Tanah Lapang Jalan Sungai","place_type":"park","osm_reference":"way/983796235","protection_context":"no protected status confirmed from included OSM tags","resolution_m":50,"raster_coverage":1.0,"interpretation":"Suggested search habitats, not predicted plant locations or probabilities of presence."},"features":[{"type":"Feature","geometry":{"type":"Polygon","coordinates":[[[100.32435299999999,5.408070594148521],[100.32530319999996,5.407950694148614],[100.32435559999999,5.407937694148661],[100.32435299999999,5.408070594148521]]]},"properties":{"place_id":"35c65bd4-df9f-58f8-9f39-290d5b62a551","habitat":"forest_edge_opening","habitat_label":"Forest edge or opening","resolution_m":50}},{"type":"Feature","geometry":{"type":"Polygon","coordinates":[[[100.32435299999999,5.408070594148521],[100.32530319999996,5.407950694148614],[100.32435559999999,5.407937694148661],[100.32435299999999,5.408070594148521]]]},"properties":{"place_id":"35c65bd4-df9f-58f8-9f39-290d5b62a551","habitat":"disturbed_built_edge","habitat_label":"Disturbed, bare or built edge","resolution_m":50}}]}