{"type":"FeatureCollection","metadata":{"schema_version":1,"place_id":"36e8b91c-ba98-59df-ad03-a68877f7eb2e","place_name":"Bukit Kiara Federal Park","place_type":"park","osm_reference":"relation/19352491","protection_context":"mapped protected boundary","resolution_m":50,"raster_coverage":1.0,"interpretation":"Suggested search habitats, not predicted plant locations or probabilities of presence."},"features":[{"type":"Feature","geometry":{"type":"MultiPolygon","coordinates":[[[[101.64363293297768,3.149930419009365],[101.6435458914903,3.1511079458994615],[101.64378953158293,3.1511079458994615],[101.64363293297768,3.149930419009365]]],[[[101.63206597353393,3.1592272348516524],[101.64191193295459,3.158958158328762],[101.64191193295459,3.1585656463363017],[101.64489556230045,3.1585656463363017],[101.64502118329796,3.1542480239472335],[101.6445029749074,3.1542480239472335],[101.64398476651682,3.151892964546562],[101.64354411809029,3.151892964546562],[101.64353489999999,3.153473996513177],[101.63921309999999,3.1534501965132153],[101.63983000000002,3.1521057965146406],[101.63900659999999,3.1513625965154635],[101.639374,3.150623496516241],[101.63884839999999,3.1496954965172534],[101.6400768,3.14965259651731],[101.64055869999997,3.148419496518636],[101.6393726,3.1472247965199407],[101.6336604,3.1473133965198614],[101.63362059870563,3.145220324406414],[101.63310239031506,3.145220324406414],[101.63310239031506,3.144827817458022],[101.63362059870563,3.144827817458022],[101.63362059870563,3.14375581645122],[101.6325841819245,3.1437368187711683],[101.6325841819245,3.1440428039925923],[101.63206597353393,3.1440428039925923],[101.63206597353393,3.145220324406414],[101.6325841819245,3.145220324406414],[101.63310239031506,3.1460053387346414],[101.6325841819245,3.1460053387346414],[101.63206597353393,3.1467903536382487],[101.6325841819245,3.1467903536382487],[101.63310239031506,3.147575369117379],[101.63206597353393,3.1479678770728112],[101.63206597353393,3.1546405343520276],[101.6325841819245,3.1546405343520276],[101.6325841819245,3.1558180664319355],[101.63176427592374,3.1562105774138085],[101.63206597353393,3.1592272348516524]]]]},"properties":{"place_id":"36e8b91c-ba98-59df-ad03-a68877f7eb2e","habitat":"forest_interior","habitat_label":"Forest interior","resolution_m":50}},{"type":"Feature","geometry":{"type":"MultiPolygon","coordinates":[[[[101.63362059870563,3.144827817458022],[101.63310239031506,3.144827817458022],[101.63310239031506,3.145220324406414],[101.63362059870563,3.145220324406414],[101.63364986409168,3.1460053387346414],[101.63362059870563,3.14375581645122],[101.63362059870563,3.144827817458022]]],[[[101.63983909939235,3.1479678770728112],[101.64011033167375,3.1479678770728112],[101.63983909939235,3.147694678178109],[101.63983909939235,3.1479678770728112]]],[[[101.6403573077829,3.1483603851721793],[101.64050001419524,3.1483603851721793],[101.6403573077829,3.1482166439826336],[101.6403573077829,3.1483603851721793]]],[[[101.64363293297768,3.149930419009365],[101.64355009999998,3.149244996517736],[101.64354855159036,3.149930419009365],[101.64363293297768,3.149930419009365]]],[[[101.63206597353393,3.1546405343520276],[101.63206597353393,3.1479678770728112],[101.63310239031506,3.147575369117379],[101.63206597353393,3.1463978461145135],[101.6325841819245,3.1463978461145135],[101.63310239031506,3.1456128314986143],[101.63206597353393,3.145220324406414],[101.63206597353393,3.1440428039925923],[101.6325841819245,3.1440428039925923],[101.6325841819245,3.1437368187711683],[101.6317701,3.143721896523695],[101.63176427592374,3.1562105774138085],[101.6325841819245,3.1558180664319355],[101.6325841819245,3.1546405343520276],[101.63206597353393,3.1546405343520276]]],[[[101.6435458914903,3.1511079458994615],[101.64398476651682,3.153070493598131],[101.6445029749074,3.153070493598131],[101.6445029749074,3.1542480239472335],[101.64502118329796,3.1542480239472335],[101.64502118329796,3.154870529639166],[101.64505359999998,3.1539359965126597],[101.6435458914903,3.1511079458994615]]],[[[101.6317781769546,3.1581731344882655],[101.63206597353393,3.157780622784635],[101.63177576119352,3.157780622784635],[101.6317781769546,3.1581731344882655]]],[[[101.63206597353393,3.1592272348516524],[101.63178059271566,3.1585656463363017],[101.63178470000001,3.1592329965069252],[101.63206597353393,3.1592272348516524]]],[[[101.64139372456404,3.158958158328762],[101.64488239999999,3.1589637965072552],[101.64489556230045,3.1585656463363017],[101.64191193295459,3.1585656463363017],[101.64191193295459,3.158958158328762],[101.64139372456404,3.158958158328762]]],[[[101.64087551617348,3.159046119068485],[101.6403573077829,3.158958158328762],[101.6403573077829,3.159056772481097],[101.64087551617348,3.159046119068485]]]]},"properties":{"place_id":"36e8b91c-ba98-59df-ad03-a68877f7eb2e","habitat":"forest_edge_opening","habitat_label":"Forest edge or opening","resolution_m":50}},{"type":"Feature","geometry":{"type":"MultiPolygon","coordinates":[[[[101.63362059870563,3.144827817458022],[101.63310239031506,3.144827817458022],[101.63310239031506,3.145220324406414],[101.63362059870563,3.145220324406414],[101.63364670259254,3.1456128314986143],[101.63364825159299,3.14443531065342],[101.63362059870563,3.144827817458022]]],[[[101.63983909939235,3.1479678770728112],[101.64011033167375,3.1479678770728112],[101.63983909939235,3.147694678178109],[101.63983909939235,3.1479678770728112]]],[[[101.6403573077829,3.1483603851721793],[101.64050001419524,3.1483603851721793],[101.6403573077829,3.1482166439826336],[101.6403573077829,3.1483603851721793]]],[[[101.64363293297768,3.149930419009365],[101.64355009999998,3.149244996517736],[101.64354855159036,3.149930419009365],[101.64363293297768,3.149930419009365]]],[[[101.63206597353393,3.1546405343520276],[101.63206597353393,3.147575369117379],[101.6325841819245,3.147575369117379],[101.6325841819245,3.1467903536382487],[101.63206597353393,3.1467903536382487],[101.63206597353393,3.1463978461145135],[101.6325841819245,3.1463978461145135],[101.63310239031506,3.1456128314986143],[101.63206597353393,3.145220324406414],[101.63206597353393,3.1440428039925923],[101.6325841819245,3.1440428039925923],[101.6325841819245,3.1437368187711683],[101.6317701,3.143721896523695],[101.63176427592374,3.1562105774138085],[101.6325841819245,3.1558180664319355],[101.6325841819245,3.1546405343520276],[101.63206597353393,3.1546405343520276]]],[[[101.6435458914903,3.1511079458994615],[101.64398476651682,3.153070493598131],[101.6445029749074,3.153070493598131],[101.6445029749074,3.1542480239472335],[101.64502118329796,3.1542480239472335],[101.64502118329796,3.154870529639166],[101.64505359999998,3.1539359965126597],[101.6435458914903,3.1511079458994615]]],[[[101.6317781769546,3.1581731344882655],[101.63206597353393,3.157780622784635],[101.63177576119352,3.157780622784635],[101.6317781769546,3.1581731344882655]]],[[[101.63206597353393,3.1592272348516524],[101.63178059271566,3.1585656463363017],[101.63178470000001,3.1592329965069252],[101.63206597353393,3.1592272348516524]]],[[[101.64139372456404,3.158958158328762],[101.64488239999999,3.1589637965072552],[101.64489556230045,3.1585656463363017],[101.64191193295459,3.1585656463363017],[101.64191193295459,3.158958158328762],[101.64139372456404,3.158958158328762]]],[[[101.64087551617348,3.159046119068485],[101.6403573077829,3.158958158328762],[101.6403573077829,3.159056772481097],[101.64087551617348,3.159046119068485]]]]},"properties":{"place_id":"36e8b91c-ba98-59df-ad03-a68877f7eb2e","habitat":"disturbed_built_edge","habitat_label":"Disturbed, bare or built edge","resolution_m":50}},{"type":"Feature","geometry":{"type":"Polygon","coordinates":[[[101.6325841819245,3.147575369117379],[101.6325841819245,3.147182861305864],[101.63206597353393,3.147182861305864],[101.63206597353393,3.147575369117379],[101.6325841819245,3.147575369117379]]]},"properties":{"place_id":"36e8b91c-ba98-59df-ad03-a68877f7eb2e","habitat":"permanent_water","habitat_label":"Permanent water","resolution_m":50}},{"type":"Feature","geometry":{"type":"Polygon","coordinates":[[[101.63176860893587,3.147575369117379],[101.63206597353393,3.147182861305864],[101.63176874504104,3.147182861305864],[101.63176860893587,3.147575369117379]]]},"properties":{"place_id":"36e8b91c-ba98-59df-ad03-a68877f7eb2e","habitat":"seasonal_water_wetland","habitat_label":"Seasonal water or wetland","resolution_m":50}},{"type":"Feature","geometry":{"type":"Polygon","coordinates":[[[101.6325841819245,3.147182861305864],[101.6325841819245,3.147575369117379],[101.63176860893587,3.147575369117379],[101.63176833672554,3.1483603851721793],[101.6325841819245,3.1483603851721793],[101.6325841819245,3.1479678770728112],[101.63362059870563,3.147575369117379],[101.6325841819245,3.1463978461145135],[101.6317690117948,3.1463978461145135],[101.63176874504104,3.147182861305864],[101.6325841819245,3.147182861305864]]]},"properties":{"place_id":"36e8b91c-ba98-59df-ad03-a68877f7eb2e","habitat":"water_edge","habitat_label":"Water edge","resolution_m":50}}]}