{"type":"FeatureCollection","metadata":{"schema_version":1,"place_id":"372b4a9d-028b-5a19-bd78-d631afd6cfd8","place_name":"Dataran Kota Belud","place_type":"park","osm_reference":"way/975148908","protection_context":"no protected status confirmed from included OSM tags","resolution_m":50,"raster_coverage":1.0,"interpretation":"Suggested search habitats, not predicted plant locations or probabilities of presence."},"features":[{"type":"Feature","geometry":{"type":"Polygon","coordinates":[[[116.4300247743836,6.353334419129551],[116.43054298277416,6.353334419129551],[116.43070075159919,6.353728708169782],[116.43065690000002,6.353228593211288],[116.4300247743836,6.353334419129551]]]},"properties":{"place_id":"372b4a9d-028b-5a19-bd78-d631afd6cfd8","habitat":"forest_edge_opening","habitat_label":"Forest edge or opening","resolution_m":50}},{"type":"Feature","geometry":{"type":"Polygon","coordinates":[[[116.42983929999998,6.353336593211168],[116.4300247743836,6.354122997504157],[116.43073527521302,6.354122997504157],[116.43054298277416,6.353334419129551],[116.42983929999998,6.353336593211168]]]},"properties":{"place_id":"372b4a9d-028b-5a19-bd78-d631afd6cfd8","habitat":"open_grassland","habitat_label":"Open grassland or shrubland","resolution_m":50}},{"type":"Feature","geometry":{"type":"Polygon","coordinates":[[[116.4299538,6.354276693210259],[116.43073979999998,6.35417469321036],[116.43065690000002,6.353228593211288],[116.42983929999998,6.353336593211168],[116.4299538,6.354276693210259]]]},"properties":{"place_id":"372b4a9d-028b-5a19-bd78-d631afd6cfd8","habitat":"disturbed_built_edge","habitat_label":"Disturbed, bare or built edge","resolution_m":50}}]}