{"type":"FeatureCollection","metadata":{"schema_version":1,"place_id":"374db7e5-2f78-549a-9e64-543f46632b35","place_name":"UMT Botanical Garden","place_type":"park","osm_reference":"way/1160652804","protection_context":"no protected status confirmed from included OSM tags","resolution_m":50,"raster_coverage":1.0,"interpretation":"Suggested search habitats, not predicted plant locations or probabilities of presence."},"features":[{"type":"Feature","geometry":{"type":"Polygon","coordinates":[[[103.08667692583766,5.411081163741188],[103.08714172891942,5.411387620744607],[103.08716250000002,5.41115199414539],[103.08667692583766,5.411081163741188]]]},"properties":{"place_id":"374db7e5-2f78-549a-9e64-543f46632b35","habitat":"forest_edge_opening","habitat_label":"Forest edge or opening","resolution_m":50}},{"type":"Feature","geometry":{"type":"Polygon","coordinates":[[[103.08615871744709,5.41178126013192],[103.08710702862955,5.41178126013192],[103.08716250000002,5.41115199414539],[103.0862377,5.411017094145538],[103.08615871744709,5.41178126013192]]]},"properties":{"place_id":"374db7e5-2f78-549a-9e64-543f46632b35","habitat":"open_grassland","habitat_label":"Open grassland or shrubland","resolution_m":50}},{"type":"Feature","geometry":{"type":"Polygon","coordinates":[[[103.0862557,5.411888094144682],[103.0870811,5.412075394144481],[103.08716250000002,5.41115199414539],[103.0862377,5.411017094145538],[103.0862557,5.411888094144682]]]},"properties":{"place_id":"374db7e5-2f78-549a-9e64-543f46632b35","habitat":"disturbed_built_edge","habitat_label":"Disturbed, bare or built edge","resolution_m":50}}]}