{"type":"FeatureCollection","metadata":{"schema_version":1,"place_id":"378bd5a4-a05c-5925-94a2-75f4a7635974","place_name":"Bandar Kinrara 5 Park","place_type":"park","osm_reference":"way/232975505","protection_context":"no protected status confirmed from included OSM tags","resolution_m":50,"raster_coverage":1.0,"interpretation":"Suggested search habitats, not predicted plant locations or probabilities of presence."},"features":[{"type":"Feature","geometry":{"type":"Polygon","coordinates":[[[101.63793519999997,3.036718696639537],[101.63880268261124,3.037678737125859],[101.63955750594039,3.037678737125859],[101.639513,3.036718196639539],[101.63793519999997,3.036718696639537]]]},"properties":{"place_id":"378bd5a4-a05c-5925-94a2-75f4a7635974","habitat":"forest_edge_opening","habitat_label":"Forest edge or opening","resolution_m":50}},{"type":"Feature","geometry":{"type":"Polygon","coordinates":[[[101.6379359,3.03699939663924],[101.63868419999997,3.0370020966392466],[101.63875549999999,3.037693296638472],[101.6395479,3.0376957966384865],[101.639513,3.036718196639539],[101.63793519999997,3.036718696639537],[101.6379359,3.03699939663924]]]},"properties":{"place_id":"378bd5a4-a05c-5925-94a2-75f4a7635974","habitat":"disturbed_built_edge","habitat_label":"Disturbed, bare or built edge","resolution_m":50}}]}