{"type":"FeatureCollection","metadata":{"schema_version":1,"place_id":"38565a19-3fd6-58a9-bfbc-94bf39005d92","place_name":"Bukit Permai Playground","place_type":"park","osm_reference":"way/555658039","protection_context":"no protected status confirmed from included OSM tags","resolution_m":50,"raster_coverage":1.0,"interpretation":"Suggested search habitats, not predicted plant locations or probabilities of presence."},"features":[{"type":"Feature","geometry":{"type":"Polygon","coordinates":[[[101.75962489999998,3.111602796558447],[101.7600631,3.1113964965586653],[101.7597696,3.110921996559183],[101.75962489999998,3.111602796558447]]]},"properties":{"place_id":"38565a19-3fd6-58a9-bfbc-94bf39005d92","habitat":"forest_edge_opening","habitat_label":"Forest edge or opening","resolution_m":50}},{"type":"Feature","geometry":{"type":"Polygon","coordinates":[[[101.75962489999998,3.111602796558447],[101.7600631,3.1113964965586653],[101.7597696,3.110921996559183],[101.75962489999998,3.111602796558447]]]},"properties":{"place_id":"38565a19-3fd6-58a9-bfbc-94bf39005d92","habitat":"disturbed_built_edge","habitat_label":"Disturbed, bare or built edge","resolution_m":50}}]}