{"type":"FeatureCollection","metadata":{"schema_version":1,"place_id":"386e3d1c-0e60-5755-90c4-a9207115fa24","place_name":"Taman Rekreasi Rajunah","place_type":"park","osm_reference":"way/527048018","protection_context":"no protected status confirmed from included OSM tags","resolution_m":50,"raster_coverage":1.0,"interpretation":"Suggested search habitats, not predicted plant locations or probabilities of presence."},"features":[{"type":"Feature","geometry":{"type":"Polygon","coordinates":[[[116.45284160000001,6.279815693282741],[116.45300099999997,6.28018409328237],[116.45302700000002,6.280383093282155],[116.45329739999998,6.279770493282752],[116.45284160000001,6.279815693282741]]]},"properties":{"place_id":"386e3d1c-0e60-5755-90c4-a9207115fa24","habitat":"forest_edge_opening","habitat_label":"Forest edge or opening","resolution_m":50}},{"type":"Feature","geometry":{"type":"Polygon","coordinates":[[[116.45284160000001,6.279815693282741],[116.45300099999997,6.28018409328237],[116.45302700000002,6.280383093282155],[116.45329739999998,6.279770493282752],[116.45284160000001,6.279815693282741]]]},"properties":{"place_id":"386e3d1c-0e60-5755-90c4-a9207115fa24","habitat":"disturbed_built_edge","habitat_label":"Disturbed, bare or built edge","resolution_m":50}},{"type":"Feature","geometry":{"type":"Polygon","coordinates":[[[116.45315024323732,6.279607518148065],[116.45312900000002,6.279592193282952],[116.45307263893831,6.279607518148065],[116.45315024323732,6.279607518148065]]]},"properties":{"place_id":"386e3d1c-0e60-5755-90c4-a9207115fa24","habitat":"permanent_water","habitat_label":"Permanent water","resolution_m":50}},{"type":"Feature","geometry":{"type":"Polygon","coordinates":[[[116.45315024323732,6.279607518148065],[116.45312900000002,6.279592193282952],[116.45307263893831,6.279607518148065],[116.45315024323732,6.279607518148065]]]},"properties":{"place_id":"386e3d1c-0e60-5755-90c4-a9207115fa24","habitat":"seasonal_water_wetland","habitat_label":"Seasonal water or wetland","resolution_m":50}},{"type":"Feature","geometry":{"type":"Polygon","coordinates":[[[116.45329739999998,6.279770493282752],[116.45280829999999,6.279679393282822],[116.45302700000002,6.280383093282155],[116.45329739999998,6.279770493282752]]]},"properties":{"place_id":"386e3d1c-0e60-5755-90c4-a9207115fa24","habitat":"water_edge","habitat_label":"Water edge","resolution_m":50}}]}