{"type":"FeatureCollection","metadata":{"schema_version":1,"place_id":"39395cf5-69e4-5bba-9c34-b3bbf7529539","place_name":"Hutan Simpanan Kekal Chabang Tongkat","place_type":"wood","osm_reference":"way/964380019","protection_context":"no protected status confirmed from included OSM tags","resolution_m":50,"raster_coverage":1.0,"interpretation":"Suggested search habitats, not predicted plant locations or probabilities of presence."},"features":[{"type":"Feature","geometry":{"type":"MultiPolygon","coordinates":[[[[102.3049627,5.840970893714657],[102.3067732980439,5.8406065801183695],[102.3067732980439,5.840212658102352],[102.30780971482501,5.840424163764249],[102.30832792321557,5.839818736356014],[102.3103872,5.839929193715663],[102.3117434,5.837896993717695],[102.31572589999999,5.836633293718943],[102.3144556,5.829887793725648],[102.31667000000002,5.816840593738614],[102.32456649999999,5.818804493736666],[102.3246866,5.813288393742164],[102.32779370000002,5.809684993745721],[102.32957446722858,5.809207308605042],[102.32957446722858,5.807911968787393],[102.33009267561911,5.807911968787393],[102.33009267561911,5.807518069091083],[102.33112909240025,5.807518069091083],[102.33112909240025,5.807911968787393],[102.33164730079082,5.807911968787393],[102.33164730079082,5.808651278096812],[102.33282339999997,5.808335793747094],[102.3311239,5.803485593751886],[102.3321539,5.801743593753633],[102.33512359999999,5.8029732937524265],[102.33575879999998,5.801128793754256],[102.3369604,5.801299593754105],[102.3381792,5.7996942937556675],[102.33723509999999,5.7993014937560705],[102.3364798,5.79827679375708],[102.33587899999999,5.7985670937568035],[102.3353468,5.798259693757082],[102.33447129999999,5.798396293756992],[102.3338877,5.799540593755858],[102.3302828,5.8006676937547255],[102.329373,5.800394493754998],[102.3297163,5.799950393755436],[102.3302828,5.800138293755236],[102.33345849999999,5.799233093756121],[102.33351,5.797969293757406],[102.3343683,5.797183693758155],[102.3365656,5.797012993758343],[102.33740669999999,5.796534793758822],[102.33625659999998,5.794263293761079],[102.3372866,5.793016593762327],[102.3343512,5.789857093765489],[102.3377672,5.792709193762625],[102.3381449,5.792521293762808],[102.3380419,5.7904377937649025],[102.33714919999998,5.787602693767693],[102.33313239999998,5.7857240937695975],[102.3342138,5.784596893770707],[102.33416229999999,5.783469693771847],[102.3317934,5.783486693771816],[102.33153589999999,5.782342493772942],[102.33086639999999,5.782274193773029],[102.33072910000001,5.780480893774806],[102.31649629999998,5.781294093774003],[102.31409229999998,5.7791885937761025],[102.31229780000001,5.775668193779592],[102.3138045,5.772400493782853],[102.3133643,5.77132249378395],[102.31053709999999,5.772669993782591],[102.30688019999997,5.773680693781574],[102.297518,5.772552093782691],[102.29235439999998,5.775718793779531],[102.2891039,5.784595393770718],[102.2894764,5.786987193768317],[102.2904244,5.788115693767219],[102.2909154,5.78980009376552],[102.2896564,5.790416493764921],[102.29039670000002,5.795646793759712],[102.2866309,5.799361293756002],[102.28221059999998,5.7989556937564295],[102.28241750368755,5.80082181526202],[102.2829357120781,5.80082181526202],[102.2829357120781,5.801215710402709],[102.28244882216457,5.801215710402709],[102.28251099999999,5.801805593753555],[102.2807836,5.802003501487592],[102.2807836,5.8039510937514605],[102.2787774,5.804121893751264],[102.2781873,5.804986393750424],[102.27733969999998,5.805007793750404],[102.27652439999999,5.802787393752582],[102.2741712,5.800715993754653],[102.27261209999999,5.804465493750928],[102.2716028,5.8040266937513785],[102.2735099,5.800524893754858],[102.27047319999997,5.801634893753748],[102.26916118999145,5.807124169662898],[102.26946229392352,5.807518069091083],[102.26907256958279,5.807518069091083],[102.26854084713072,5.809881471291505],[102.26946229392352,5.809487570254279],[102.2699805023141,5.810275372596971],[102.26946229392352,5.810275372596971],[102.26946229392352,5.810669274170695],[102.26894408553297,5.810669274170695],[102.26894408553297,5.810275372596971],[102.26770638405502,5.810669274170695],[102.26790766875185,5.8118509805016005],[102.26738946036129,5.8118509805016005],[102.26738946036129,5.8122448831485425],[102.26687125197073,5.8122448831485425],[102.26687125197073,5.8118509805016005],[102.26583483518961,5.811283476005814],[102.26180337553328,5.812638786063837],[102.26168916806512,5.8142144004089],[102.26220737645568,5.8142144004089],[102.26220737645568,5.8146083046662325],[102.26168916806512,5.8146083046662325],[102.2613779,5.816464893738981],[102.26302590000002,5.817318793738174],[102.26545403200116,5.82248644621506],[102.26635304358017,5.82248644621506],[102.26635304358017,5.822092536584907],[102.26738946036129,5.82248644621506],[102.26738946036129,5.822880356114052],[102.26687125197073,5.822880356114052],[102.26687125197073,5.8232742662818975],[102.26738946036129,5.8232742662818975],[102.26738946036129,5.824062087424234],[102.26637946248306,5.8244559983987605],[102.27153512748576,5.83138344543806],[102.2725715442669,5.829970780288377],[102.27412616943857,5.829970780288377],[102.27412616943857,5.830364695298828],[102.27464437782913,5.830364695298828],[102.27464437782913,5.831152526127384],[102.27412616943857,5.831152526127384],[102.27412616943857,5.831546441945524],[102.27360796104801,5.831546441945524],[102.27360796104801,5.8319403580329325],[102.27308975265746,5.8319403580329325],[102.27308975265746,5.832912129987189],[102.27412616943857,5.833122107910949],[102.27516258621971,5.8342668628655385],[102.2777536281725,5.834303860213042],[102.2777536281725,5.834647269600773],[102.27827183656306,5.834635987435245],[102.27879004495361,5.833909942509639],[102.27930825334418,5.833909942509639],[102.2803446701253,5.835091696428064],[102.28138108690642,5.835091696428064],[102.28241750368755,5.83627345277141],[102.28345392046866,5.83627345277141],[102.28437011036266,5.83745521154018],[102.28449033724979,5.837061291681068],[102.28552675403091,5.837061291681068],[102.28604496242146,5.83627345277141],[102.28708137920259,5.836667372091484],[102.28708137920259,5.835879533720829],[102.28790553589613,5.83548561493972],[102.2877279,5.834310793721257],[102.28844520377436,5.832728191015627],[102.28759958759316,5.832334274389628],[102.28759958759316,5.8319403580329325],[102.28811779598371,5.8319403580329325],[102.28811779598371,5.831152526127384],[102.28863600437427,5.831152526127384],[102.28863600437427,5.83075861057849],[102.28933790529163,5.83075861057849],[102.29119549999999,5.826660193728855],[102.292586,5.827804393727718],[102.29284762348955,5.83075861057849],[102.29381808827988,5.83075861057849],[102.29381808827988,5.831152526127384],[102.29433629667044,5.831152526127384],[102.29433629667044,5.832334274389628],[102.29381808827988,5.832334274389628],[102.29433629667044,5.833122107910949],[102.29351124777341,5.833516025075612],[102.29381808827988,5.834303860213042],[102.29433629667044,5.834303860213042],[102.29433629667044,5.83548561493972],[102.29485450506101,5.83548561493972],[102.29485450506101,5.837061291681068],[102.29589092184212,5.836667372091484],[102.29589092184212,5.837061291681068],[102.29640913023268,5.837061291681068],[102.29640913023268,5.8378491316688415],[102.29598605549054,5.8378491316688415],[102.29692733862325,5.838176476126029],[102.29692733862325,5.83745521154018],[102.29796375540435,5.837061291681068],[102.29796375540435,5.83745521154018],[102.29848196379491,5.83745521154018],[102.29848196379491,5.838243052067069],[102.29796375540435,5.838536904863715],[102.30159121413828,5.839798407223131],[102.30159121413828,5.839424814879335],[102.30107300574772,5.839424814879335],[102.30107300574772,5.8386369727348795],[102.30210942252886,5.838243052067069],[102.30210942252886,5.8386369727348795],[102.30262763091942,5.8386369727348795],[102.30262763091942,5.839424814879335],[102.301649670635,5.839818736356014],[102.3049627,5.840970893714657]],[[102.3093643399967,5.83745521154018],[102.31040075677781,5.837061291681068],[102.31040075677781,5.83745521154018],[102.31091896516838,5.83745521154018],[102.31091896516838,5.838243052067069],[102.30988254838726,5.8386369727348795],[102.30988254838726,5.838243052067069],[102.3093643399967,5.838243052067069],[102.3093643399967,5.83745521154018]],[[102.29951838057605,5.836667372091484],[102.29900017218549,5.836667372091484],[102.29900017218549,5.83627345277141],[102.29951838057605,5.83627345277141],[102.30003658896662,5.83548561493972],[102.30107300574772,5.83548561493972],[102.30107300574772,5.835879533720829],[102.30159121413828,5.835879533720829],[102.30159121413828,5.837061291681068],[102.30107300574772,5.837061291681068],[102.30055479735717,5.8378491316688415],[102.29951838057605,5.83745521154018],[102.29951838057605,5.836667372091484]],[[102.30729150643447,5.816577829980215],[102.30832792321557,5.816183924380379],[102.30884613160613,5.8169717358486075],[102.30780971482501,5.817365641985577],[102.30729150643447,5.816577829980215]],[[102.28863600437427,5.798064556774815],[102.2896724211554,5.797670663776079],[102.29019062954596,5.798458450041229],[102.28915421276483,5.798852343575341],[102.28863600437427,5.798064556774815]]],[[[102.27308975265746,5.831546441945524],[102.27360796104801,5.831546441945524],[102.27360796104801,5.831152526127384],[102.27308975265746,5.831152526127384],[102.27308975265746,5.831546441945524]]],[[[102.29485450506101,5.837061291681068],[102.29474889999999,5.837418893718159],[102.29485450506101,5.837455619327712],[102.29485450506101,5.837061291681068]]],[[[102.28836309999998,5.838511793717073],[102.28811779598371,5.8378491316688415],[102.28759958759316,5.8378491316688415],[102.28811779598371,5.837061291681068],[102.28708137920259,5.836667372091484],[102.28656317081203,5.8386369727348795],[102.28708137920259,5.8386369727348795],[102.2877290494109,5.839424814879335],[102.28836309999998,5.838511793717073]]],[[[102.29744554701381,5.838243052067069],[102.29711877851943,5.838243052067069],[102.29744554701381,5.83835669046666],[102.29744554701381,5.838243052067069]]]]},"properties":{"place_id":"39395cf5-69e4-5bba-9c34-b3bbf7529539","habitat":"forest_interior","habitat_label":"Forest interior","resolution_m":50}},{"type":"Feature","geometry":{"type":"MultiPolygon","coordinates":[[[[102.28759958759316,5.798046741436533],[102.28757882405722,5.798064556774815],[102.28759958759316,5.798064556774815],[102.28759958759316,5.798046741436533]]],[[[102.28241750368755,5.799640131446733],[102.28224122545932,5.7992462373771705],[102.28228274480037,5.799640131446733],[102.28241750368755,5.799640131446733]]],[[[102.27308975265746,5.800741259074655],[102.27293332528082,5.80082181526202],[102.27308975265746,5.80082181526202],[102.27308975265746,5.800741259074655]]],[[[102.2829357120781,5.801215710402709],[102.2829357120781,5.80082181526202],[102.28241750368755,5.80082181526202],[102.28236578348246,5.800427920389139],[102.28244882216457,5.801215710402709],[102.2829357120781,5.801215710402709]]],[[[102.28189929529698,5.802003501487592],[102.2807836,5.801826993753556],[102.2807836,5.802003501487592],[102.28189929529698,5.802003501487592]]],[[[102.28086287851586,5.802791293643936],[102.2807836,5.802397397431822],[102.2807836,5.802791293643936],[102.28086287851586,5.802791293643936]]],[[[102.26946229392352,5.807518069091083],[102.26916118999145,5.807124169662898],[102.26907256958279,5.807518069091083],[102.26946229392352,5.807518069091083]]],[[[102.26946229392352,5.809487570254279],[102.26854084713072,5.809881471291505],[102.26894408553297,5.810669274170695],[102.2699805023141,5.810275372596971],[102.26946229392352,5.809487570254279]]],[[[102.26583483518961,5.811457078122991],[102.26738946036129,5.8122448831485425],[102.26738946036129,5.8118509805016005],[102.26790766875185,5.8118509805016005],[102.26790766875185,5.810669274170695],[102.26583483518961,5.811457078122991]]],[[[102.26220737645568,5.812638786063837],[102.26180710000001,5.812605293742842],[102.26180337553328,5.812638786063837],[102.26220737645568,5.812638786063837]]],[[[102.26220737645568,5.8146083046662325],[102.26167196522367,5.813820496420014],[102.26154055491408,5.815002209192026],[102.26168916806512,5.8146083046662325],[102.26220737645568,5.8146083046662325]]],[[[102.26687125197073,5.822880356114052],[102.26738946036129,5.822880356114052],[102.26687125197073,5.822092536584907],[102.26545403200116,5.82248644621506],[102.26583483518961,5.823296891745855],[102.26635304358017,5.8232742662818975],[102.26637946248306,5.8244559983987605],[102.26738946036129,5.824062087424234],[102.26738946036129,5.8232742662818975],[102.26687125197073,5.8232742662818975],[102.26687125197073,5.822880356114052]]],[[[102.27412616943857,5.829970780288377],[102.2725715442669,5.829970780288377],[102.2725715442669,5.830364695298828],[102.27205333587634,5.830364695298828],[102.27205333587634,5.831152526127384],[102.27153512748576,5.831152526127384],[102.27308975265746,5.832912129987189],[102.27308975265746,5.8319403580329325],[102.27464437782913,5.831152526127384],[102.27464437782913,5.830364695298828],[102.27412616943857,5.830364695298828],[102.27412616943857,5.829970780288377]],[[102.27308975265746,5.831546441945524],[102.27308975265746,5.831152526127384],[102.27360796104801,5.831152526127384],[102.27360796104801,5.831546441945524],[102.27308975265746,5.831546441945524]]],[[[102.27516258621971,5.833909942509639],[102.27464437782913,5.833909942509639],[102.27412616943857,5.833122107910949],[102.27331223712896,5.833122107910949],[102.27516258621971,5.8342668628655385],[102.27516258621971,5.833909942509639]]],[[[102.27827183656306,5.834303860213042],[102.27827183656306,5.834635987435245],[102.27917919999999,5.834327893721231],[102.27982646173474,5.834609836695364],[102.27930825334418,5.833909942509639],[102.27827183656306,5.834303860213042]]],[[[102.27523218602458,5.834303860213042],[102.275952,5.834686493720888],[102.2777536281725,5.834647269600773],[102.2777536281725,5.834303860213042],[102.27523218602458,5.834303860213042]]],[[[102.28189929529698,5.835879533720829],[102.28138108690642,5.835091696428064],[102.2803446701253,5.835091696428064],[102.2803446701253,5.834697778185846],[102.27989128060791,5.834697778185846],[102.2800718,5.834942693720643],[102.28397212885922,5.837217439482869],[102.28345392046866,5.83627345277141],[102.28241750368755,5.83627345277141],[102.28241750368755,5.835879533720829],[102.28189929529698,5.835879533720829]]],[[[102.28656317081203,5.8378491316688415],[102.28708137920259,5.8378491316688415],[102.28708137920259,5.836667372091484],[102.28656317081203,5.836667372091484],[102.28656317081203,5.83627345277141],[102.28604496242146,5.83627345277141],[102.28552675403091,5.837061291681068],[102.28449033724979,5.837061291681068],[102.28437011036266,5.83745521154018],[102.28759958759316,5.83938465018002],[102.28708137920259,5.8386369727348795],[102.28656317081203,5.8386369727348795],[102.28656317081203,5.8378491316688415]]],[[[102.29381808827988,5.774821150525509],[102.2938112778165,5.7748253272084105],[102.29381808827988,5.7748253272084105],[102.29381808827988,5.774821150525509]]],[[[102.33786580147753,5.792550079142772],[102.33786580147753,5.792660141022814],[102.33808703816119,5.792550079142772],[102.33786580147753,5.792550079142772]]],[[[102.2896724211554,5.797670663776079],[102.28863600437427,5.798064556774815],[102.28915421276483,5.798852343575341],[102.29019062954596,5.798458450041229],[102.2896724211554,5.797670663776079]]],[[[102.33112909240025,5.807518069091083],[102.33009267561911,5.807518069091083],[102.33009267561911,5.807911968787393],[102.32957446722858,5.807911968787393],[102.32957446722858,5.809207308605042],[102.33164730079082,5.808651278096812],[102.33164730079082,5.807911968787393],[102.33112909240025,5.807911968787393],[102.33112909240025,5.807518069091083]]],[[[102.30832792321557,5.816183924380379],[102.30729150643447,5.816577829980215],[102.30780971482501,5.817365641985577],[102.30884613160613,5.8169717358486075],[102.30832792321557,5.816183924380379]]],[[[102.28863600437427,5.83075861057849],[102.28863600437427,5.831152526127384],[102.28811779598371,5.831152526127384],[102.28811779598371,5.8319403580329325],[102.28759958759316,5.8319403580329325],[102.28811779598371,5.832728191015627],[102.28933790529163,5.83075861057849],[102.28863600437427,5.83075861057849]]],[[[102.29433629667044,5.832334274389628],[102.29433629667044,5.831152526127384],[102.29381808827988,5.831152526127384],[102.29381808827988,5.83075861057849],[102.29284762348955,5.83075861057849],[102.29351124777341,5.833516025075612],[102.29433629667044,5.833122107910949],[102.29433629667044,5.832728191015627],[102.29381808827988,5.832728191015627],[102.29381808827988,5.832334274389628],[102.29433629667044,5.832334274389628]]],[[[102.29363616467919,5.833909942509639],[102.29463549992545,5.837061291681068],[102.29485450506101,5.837061291681068],[102.29485450506101,5.83548561493972],[102.29433629667044,5.83548561493972],[102.29433629667044,5.834303860213042],[102.29363616467919,5.833909942509639]]],[[[102.30159121413828,5.835879533720829],[102.30107300574772,5.835879533720829],[102.30107300574772,5.83548561493972],[102.30003658896662,5.83548561493972],[102.30003658896662,5.835879533720829],[102.29900017218549,5.83627345277141],[102.30003658896662,5.8378491316688415],[102.30159121413828,5.837061291681068],[102.30159121413828,5.835879533720829]],[[102.30055479735717,5.83627345277141],[102.30055479735717,5.836667372091484],[102.30003658896662,5.836667372091484],[102.30003658896662,5.83627345277141],[102.30055479735717,5.83627345277141]]],[[[102.28790553589613,5.83548561493972],[102.28708137920259,5.835879533720829],[102.28708137920259,5.836667372091484],[102.28811779598371,5.837061291681068],[102.28759958759316,5.8378491316688415],[102.28832246583829,5.838243052067069],[102.28790553589613,5.83548561493972]]],[[[102.29537271345156,5.837061291681068],[102.29485450506101,5.837061291681068],[102.29485450506101,5.837455619327712],[102.29640913023268,5.8378491316688415],[102.29640913023268,5.837061291681068],[102.29589092184212,5.837061291681068],[102.29589092184212,5.836667372091484],[102.29537271345156,5.836667372091484],[102.29537271345156,5.837061291681068]]],[[[102.29796375540435,5.837061291681068],[102.29692733862325,5.83745521154018],[102.29692733862325,5.838176476126029],[102.29796375540435,5.838536904863715],[102.29848196379491,5.838243052067069],[102.29848196379491,5.83745521154018],[102.29796375540435,5.83745521154018],[102.29796375540435,5.837061291681068]]],[[[102.31040075677781,5.837061291681068],[102.3093643399967,5.83745521154018],[102.3093643399967,5.838243052067069],[102.30988254838726,5.838243052067069],[102.30988254838726,5.8386369727348795],[102.31091896516838,5.838243052067069],[102.31091896516838,5.83745521154018],[102.31040075677781,5.83745521154018],[102.31040075677781,5.837061291681068]]],[[[102.30210942252886,5.838243052067069],[102.30107300574772,5.8386369727348795],[102.30107300574772,5.839424814879335],[102.30159121413828,5.839424814879335],[102.301649670635,5.839818736356014],[102.30262763091942,5.839424814879335],[102.30262763091942,5.8386369727348795],[102.30210942252886,5.8386369727348795],[102.30210942252886,5.838243052067069]]],[[[102.28766681479452,5.839424814879335],[102.28771079999997,5.839451093716142],[102.2877290494109,5.839424814879335],[102.28766681479452,5.839424814879335]]],[[[102.30832792321557,5.840212658102352],[102.30780971482501,5.840424163764249],[102.30988254838726,5.839818736356014],[102.30832792321557,5.839818736356014],[102.30832792321557,5.840212658102352]]],[[[102.30729150643447,5.840212658102352],[102.3067732980439,5.840212658102352],[102.3067732980439,5.8406065801183695],[102.30625508965333,5.840722708033226],[102.30729150643447,5.840523678503364],[102.30729150643447,5.840212658102352]]]]},"properties":{"place_id":"39395cf5-69e4-5bba-9c34-b3bbf7529539","habitat":"forest_edge_opening","habitat_label":"Forest edge or opening","resolution_m":50}},{"type":"Feature","geometry":{"type":"MultiPolygon","coordinates":[[[[102.28241750368755,5.80082181526202],[102.28240730282353,5.80082181526202],[102.28241750368755,5.800918591117302],[102.28241750368755,5.80082181526202]]],[[[102.26946229392352,5.809881471291505],[102.26894408553297,5.809881471291505],[102.26894408553297,5.810275372596971],[102.26946229392352,5.810275372596971],[102.26946229392352,5.809881471291505]]],[[[102.26738946036129,5.810773281622497],[102.26687125197073,5.810943346366925],[102.26687125197073,5.8118509805016005],[102.26738946036129,5.8118509805016005],[102.26738946036129,5.810773281622497]]],[[[102.26168916806512,5.8146083046662325],[102.26162816178716,5.8142144004089],[102.26158435835062,5.8146083046662325],[102.26168916806512,5.8146083046662325]]],[[[102.26687125197073,5.82248644621506],[102.26635304358017,5.82248644621506],[102.26635304358017,5.822880356114052],[102.26687125197073,5.822880356114052],[102.26687125197073,5.82248644621506]]],[[[102.26583483518961,5.822880356114052],[102.26563911809755,5.822880356114052],[102.26583483518961,5.823296891745855],[102.26583483518961,5.822880356114052]]],[[[102.26635304358017,5.824062087424234],[102.26687125197073,5.824062087424234],[102.26687125197073,5.823668176718619],[102.2660092902903,5.823668176718619],[102.26635304358017,5.824399772139554],[102.26635304358017,5.824062087424234]]],[[[102.2725715442669,5.830364695298828],[102.2725715442669,5.831152526127384],[102.27308975265746,5.831152526127384],[102.27308975265746,5.83075861057849],[102.27412616943857,5.831152526127384],[102.27412616943857,5.830364695298828],[102.2725715442669,5.830364695298828]]],[[[102.2725715442669,5.831546441945524],[102.2725715442669,5.831152526127384],[102.27205333587634,5.831152526127384],[102.2725715442669,5.832423052007155],[102.2725715442669,5.8319403580329325],[102.27308975265746,5.8319403580329325],[102.27308975265746,5.831546441945524],[102.2725715442669,5.831546441945524]]],[[[102.27412616943857,5.833516025075612],[102.27375010119196,5.833516025075612],[102.27412616943857,5.8337159324095476],[102.27412616943857,5.833516025075612]]],[[[102.27930825334418,5.834353579093819],[102.27879004495361,5.834303860213042],[102.27879004495361,5.834464531349347],[102.27930825334418,5.834353579093819]]],[[[102.28104079264867,5.83548561493972],[102.28138108690642,5.835676280050743],[102.28138108690642,5.83548561493972],[102.28104079264867,5.83548561493972]]],[[[102.28189929529698,5.835879533720829],[102.28173274681718,5.835879533720829],[102.28189929529698,5.835979037033342],[102.28189929529698,5.835879533720829]]],[[[102.28345392046866,5.836667372091484],[102.28305142858993,5.836667372091484],[102.28345392046866,5.836907838620762],[102.28345392046866,5.836667372091484]]],[[[102.28656317081203,5.836667372091484],[102.28604496242146,5.836667372091484],[102.28604496242146,5.837061291681068],[102.28656317081203,5.837061291681068],[102.28656317081203,5.836667372091484]]],[[[102.28604496242146,5.838243052067069],[102.28604496242146,5.83745521154018],[102.28449033724979,5.83745521154018],[102.2856887921354,5.838243052067069],[102.28604496242146,5.838243052067069]]],[[[102.28656317081203,5.8386369727348795],[102.28634813302176,5.8386369727348795],[102.28656317081203,5.838765446291024],[102.28656317081203,5.8386369727348795]]],[[[102.28708137920259,5.839030893672295],[102.28700747390815,5.839030893672295],[102.28708137920259,5.839075048152247],[102.28708137920259,5.839030893672295]]],[[[102.2896724211554,5.798064556774815],[102.28915421276483,5.798064556774815],[102.28915421276483,5.798458450041229],[102.2896724211554,5.798458450041229],[102.2896724211554,5.798064556774815]]],[[[102.33112909240025,5.807911968787393],[102.33009267561911,5.807911968787393],[102.33009267561911,5.8090683009278825],[102.33112909240025,5.808790285673768],[102.33112909240025,5.807911968787393]]],[[[102.30832792321557,5.816577829980215],[102.30780971482501,5.816577829980215],[102.30780971482501,5.8169717358486075],[102.30832792321557,5.8169717358486075],[102.30832792321557,5.816577829980215]]],[[[102.28863600437427,5.831152526127384],[102.28863600437427,5.831546441945524],[102.28898082468473,5.831546441945524],[102.28915936498817,5.831152526127384],[102.28863600437427,5.831152526127384]]],[[[102.2928825082886,5.831152526127384],[102.29313649705605,5.832334274389628],[102.29381808827988,5.832334274389628],[102.29381808827988,5.831152526127384],[102.2928825082886,5.831152526127384]]],[[[102.28811779598371,5.8319403580329325],[102.28811779598371,5.832334274389628],[102.2886237440778,5.832334274389628],[102.28880228438125,5.8319403580329325],[102.28811779598371,5.8319403580329325]]],[[[102.29381808827988,5.832728191015627],[102.2932998798893,5.832728191015627],[102.29338633086762,5.833122107910949],[102.29381808827988,5.833122107910949],[102.29381808827988,5.832728191015627]]],[[[102.29376108158496,5.834303860213042],[102.29381808827988,5.834483627374104],[102.29381808827988,5.834303860213042],[102.29376108158496,5.834303860213042]]],[[[102.29413583230232,5.83548561493972],[102.29433629667044,5.836117768733363],[102.29433629667044,5.83548561493972],[102.29413583230232,5.83548561493972]]],[[[102.28759958759316,5.835879533720829],[102.28759958759316,5.836667372091484],[102.28808422015706,5.836667372091484],[102.28796509731643,5.835879533720829],[102.28759958759316,5.835879533720829]]],[[[102.30003658896662,5.83627345277141],[102.29951838057605,5.83627345277141],[102.29951838057605,5.836667372091484],[102.30003658896662,5.836667372091484],[102.30003658896662,5.83745521154018],[102.30055479735717,5.83745521154018],[102.30055479735717,5.837061291681068],[102.30107300574772,5.837061291681068],[102.30107300574772,5.835879533720829],[102.30003658896662,5.835879533720829],[102.30003658896662,5.83627345277141]]],[[[102.29589092184212,5.837061291681068],[102.29537271345156,5.837061291681068],[102.29537271345156,5.837635833442663],[102.29589092184212,5.837816047614033],[102.29589092184212,5.837061291681068]]],[[[102.28820334299768,5.83745521154018],[102.28811779598371,5.8378491316688415],[102.28826290441798,5.8378491316688415],[102.28820334299768,5.83745521154018]]],[[[102.29796375540435,5.83745521154018],[102.29744554701381,5.83745521154018],[102.29744554701381,5.838243052067069],[102.29796375540435,5.838243052067069],[102.29796375540435,5.83745521154018]]],[[[102.31040075677781,5.83745521154018],[102.30988254838726,5.83745521154018],[102.30988254838726,5.838243052067069],[102.31040075677781,5.838243052067069],[102.31040075677781,5.83745521154018]]],[[[102.30210942252886,5.8386369727348795],[102.30159121413828,5.8386369727348795],[102.30159121413828,5.839424814879335],[102.30210942252886,5.839424814879335],[102.30210942252886,5.8386369727348795]]],[[[102.30832792321557,5.840212658102352],[102.30832792321557,5.840324649042349],[102.30891109979818,5.840212658102352],[102.30832792321557,5.840212658102352]]],[[[102.3067732980439,5.8406065801183695],[102.3067732980439,5.840623193259689],[102.30685980851653,5.8406065801183695],[102.3067732980439,5.8406065801183695]]]]},"properties":{"place_id":"39395cf5-69e4-5bba-9c34-b3bbf7529539","habitat":"open_grassland","habitat_label":"Open grassland or shrubland","resolution_m":50}},{"type":"Feature","geometry":{"type":"MultiPolygon","coordinates":[[[[102.26158435835062,5.8146083046662325],[102.26168916806512,5.8142144004089],[102.26162816178716,5.8142144004089],[102.26158435835062,5.8146083046662325]]],[[[102.26687125197073,5.8232742662818975],[102.26687125197073,5.822880356114052],[102.26583483518961,5.82248644621506],[102.2661943763867,5.824062087424234],[102.26738946036129,5.823668176718619],[102.26738946036129,5.8232742662818975],[102.26687125197073,5.8232742662818975]]],[[[102.2725715442669,5.832334274389628],[102.2724774788392,5.832334274389628],[102.2725715442669,5.832423052007155],[102.2725715442669,5.832334274389628]]],[[[102.27308975265746,5.832728191015627],[102.27289485798408,5.832728191015627],[102.27308975265746,5.832912129987189],[102.27308975265746,5.832728191015627]]],[[[102.28086287851586,5.835385930597249],[102.2803446701253,5.835091696428064],[102.2803446701253,5.835095581290141],[102.28086287851586,5.835385930597249]]],[[[102.28138108690642,5.83548561493972],[102.28104079264867,5.83548561493972],[102.28138108690642,5.835676280050743],[102.28138108690642,5.83548561493972]]],[[[102.2829357120781,5.83627345277141],[102.28241750368755,5.83627345277141],[102.28241750368755,5.835879533720829],[102.28173274681718,5.835879533720829],[102.2829357120781,5.8365982379251475],[102.2829357120781,5.83627345277141]]],[[[102.28345392046866,5.836667372091484],[102.28305142858993,5.836667372091484],[102.28345392046866,5.836907838620762],[102.28345392046866,5.836667372091484]]],[[[102.28397212885922,5.837061291681068],[102.2837107694763,5.837061291681068],[102.28397212885922,5.837217439482869],[102.28397212885922,5.837061291681068]]],[[[102.28656317081203,5.837061291681068],[102.28656317081203,5.836667372091484],[102.28552675403091,5.837061291681068],[102.28552675403091,5.8378491316688415],[102.28604496242146,5.8378491316688415],[102.28604496242146,5.838243052067069],[102.28708137920259,5.8378491316688415],[102.28708137920259,5.837061291681068],[102.28656317081203,5.837061291681068]]],[[[102.28449033724979,5.83745521154018],[102.28437011036266,5.83745521154018],[102.28449033724979,5.8375270405114685],[102.28449033724979,5.83745521154018]]],[[[102.28552675403091,5.8378491316688415],[102.28502945124904,5.8378491316688415],[102.28552675403091,5.8381462430681985],[102.28552675403091,5.8378491316688415]]],[[[102.28604496242146,5.838243052067069],[102.2856887921354,5.838243052067069],[102.28604496242146,5.838455844596345],[102.28604496242146,5.838243052067069]]],[[[102.28656317081203,5.8386369727348795],[102.28634813302176,5.8386369727348795],[102.28656317081203,5.838765446291024],[102.28656317081203,5.8386369727348795]]],[[[102.28708137920259,5.839030893672295],[102.28700747390815,5.839030893672295],[102.28708137920259,5.839075048152247],[102.28708137920259,5.839030893672295]]],[[[102.28766681479452,5.839424814879335],[102.28771079999997,5.839451093716142],[102.2877290494109,5.839424814879335],[102.28766681479452,5.839424814879335]]]]},"properties":{"place_id":"39395cf5-69e4-5bba-9c34-b3bbf7529539","habitat":"disturbed_built_edge","habitat_label":"Disturbed, bare or built edge","resolution_m":50}}]}