{"type":"FeatureCollection","metadata":{"schema_version":1,"place_id":"3944cc88-a6b5-57ab-9ba4-ae052048dc96","place_name":"Padang Bola","place_type":"park","osm_reference":"way/447246011","protection_context":"no protected status confirmed from included OSM tags","resolution_m":50,"raster_coverage":1.0,"interpretation":"Suggested search habitats, not predicted plant locations or probabilities of presence."},"features":[{"type":"Feature","geometry":{"type":"Polygon","coordinates":[[[101.49072579999999,3.2046920964578294],[101.49162779999999,3.2044905343438437],[101.49162779999999,3.203414396459227],[101.49072579999999,3.203414396459227],[101.49072579999999,3.2046920964578294]]]},"properties":{"place_id":"3944cc88-a6b5-57ab-9ba4-ae052048dc96","habitat":"forest_edge_opening","habitat_label":"Forest edge or opening","resolution_m":50}},{"type":"Feature","geometry":{"type":"Polygon","coordinates":[[[101.49111329130146,3.203705476753533],[101.49111329130146,3.2044905343438437],[101.49162779999999,3.2044905343438437],[101.49162779999999,3.203705476753533],[101.49111329130146,3.203705476753533]]]},"properties":{"place_id":"3944cc88-a6b5-57ab-9ba4-ae052048dc96","habitat":"open_grassland","habitat_label":"Open grassland or shrubland","resolution_m":50}},{"type":"Feature","geometry":{"type":"Polygon","coordinates":[[[101.49072579999999,3.2046920964578294],[101.49162779999999,3.2046919964578318],[101.49162779999999,3.203414396459227],[101.49072579999999,3.203414396459227],[101.49072579999999,3.2046920964578294]]]},"properties":{"place_id":"3944cc88-a6b5-57ab-9ba4-ae052048dc96","habitat":"disturbed_built_edge","habitat_label":"Disturbed, bare or built edge","resolution_m":50}}]}