{"type":"FeatureCollection","metadata":{"schema_version":1,"place_id":"3a0f1e6b-3060-56e7-93c4-fdb444bbe464","place_name":"Permaisuri Recreation Park Desa Murni","place_type":"park","osm_reference":"way/1234580842","protection_context":"no protected status confirmed from included OSM tags","resolution_m":50,"raster_coverage":1.0,"interpretation":"Suggested search habitats, not predicted plant locations or probabilities of presence."},"features":[{"type":"Feature","geometry":{"type":"Polygon","coordinates":[[[114.04727894504971,4.468901347448936],[114.0471995,4.468404695114527],[114.04632439999997,4.468458695114458],[114.04629413229932,4.468901347448936],[114.04727894504971,4.468901347448936]]]},"properties":{"place_id":"3a0f1e6b-3060-56e7-93c4-fdb444bbe464","habitat":"forest_edge_opening","habitat_label":"Forest edge or opening","resolution_m":50}},{"type":"Feature","geometry":{"type":"Polygon","coordinates":[[[114.04630334622746,4.46850825273667],[114.04629050634094,4.470080632816831],[114.04727998800556,4.470080632816831],[114.0472782691302,4.46850825273667],[114.04630334622746,4.46850825273667]]]},"properties":{"place_id":"3a0f1e6b-3060-56e7-93c4-fdb444bbe464","habitat":"open_grassland","habitat_label":"Open grassland or shrubland","resolution_m":50}},{"type":"Feature","geometry":{"type":"Polygon","coordinates":[[[114.046304,4.470119995112739],[114.04726580000002,4.470139595112708],[114.0471995,4.468404695114527],[114.04632439999997,4.468458695114458],[114.046304,4.470119995112739]]]},"properties":{"place_id":"3a0f1e6b-3060-56e7-93c4-fdb444bbe464","habitat":"disturbed_built_edge","habitat_label":"Disturbed, bare or built edge","resolution_m":50}}]}