{"type":"FeatureCollection","metadata":{"schema_version":1,"place_id":"3a12581a-35c4-55d5-8a34-07e4639c5e3e","place_name":"Taman Poket Persiaran Midlands","place_type":"park","osm_reference":"way/31297272","protection_context":"no protected status confirmed from included OSM tags","resolution_m":50,"raster_coverage":1.0,"interpretation":"Suggested search habitats, not predicted plant locations or probabilities of presence."},"features":[{"type":"Feature","geometry":{"type":"Polygon","coordinates":[[[100.3062458,5.436388794119929],[100.3061971,5.436883394119418],[100.30651749999998,5.436649794119636],[100.3062458,5.436388794119929]]]},"properties":{"place_id":"3a12581a-35c4-55d5-8a34-07e4639c5e3e","habitat":"forest_edge_opening","habitat_label":"Forest edge or opening","resolution_m":50}},{"type":"Feature","geometry":{"type":"Polygon","coordinates":[[[100.3062458,5.436388794119929],[100.3061971,5.436883394119418],[100.30651749999998,5.436649794119636],[100.3062458,5.436388794119929]]]},"properties":{"place_id":"3a12581a-35c4-55d5-8a34-07e4639c5e3e","habitat":"disturbed_built_edge","habitat_label":"Disturbed, bare or built edge","resolution_m":50}}]}