{"type":"FeatureCollection","metadata":{"schema_version":1,"place_id":"3ab30440-ef58-5816-b1a9-8e635dda439d","place_name":"Taman Eko Rimba Kanching","place_type":"park","osm_reference":"way/923738084","protection_context":"mapped protected boundary","resolution_m":50,"raster_coverage":1.0,"interpretation":"Suggested search habitats, not predicted plant locations or probabilities of presence."},"features":[{"type":"Feature","geometry":{"type":"Polygon","coordinates":[[[101.61890246518351,3.2987017424438574],[101.6182967,3.3056417963489544],[101.62030659999999,3.305795696348782],[101.62086962410032,3.299094307152288],[101.61890246518351,3.2987017424438574]]]},"properties":{"place_id":"3ab30440-ef58-5816-b1a9-8e635dda439d","habitat":"forest_interior","habitat_label":"Forest interior","resolution_m":50}},{"type":"Feature","geometry":{"type":"MultiPolygon","coordinates":[[[[101.6193602331808,3.2987017424438574],[101.61891640000002,3.2985420963565883],[101.61890246518351,3.2987017424438574],[101.6193602331808,3.2987017424438574]]],[[[101.62014718055104,3.2988876909651874],[101.62086962410032,3.299094307152288],[101.6208768,3.2990088963561166],[101.62014718055104,3.2988876909651874]]],[[[101.6206653889416,3.3010571329583787],[101.6206653889416,3.301525209170554],[101.62070471489011,3.3010571329583787],[101.6206653889416,3.3010571329583787]]]]},"properties":{"place_id":"3ab30440-ef58-5816-b1a9-8e635dda439d","habitat":"forest_edge_opening","habitat_label":"Forest edge or opening","resolution_m":50}},{"type":"Feature","geometry":{"type":"MultiPolygon","coordinates":[[[[101.6193602331808,3.2987017424438574],[101.61891640000002,3.2985420963565883],[101.61890246518351,3.2987017424438574],[101.6193602331808,3.2987017424438574]]],[[[101.62014718055104,3.2988876909651874],[101.62086962410032,3.299094307152288],[101.6208768,3.2990088963561166],[101.62014718055104,3.2988876909651874]]]]},"properties":{"place_id":"3ab30440-ef58-5816-b1a9-8e635dda439d","habitat":"disturbed_built_edge","habitat_label":"Disturbed, bare or built edge","resolution_m":50}}]}