{"type":"FeatureCollection","metadata":{"schema_version":1,"place_id":"3ae8a4b8-9471-5949-97ef-e5616510689e","place_name":"Starfresh AgroPark","place_type":"park","osm_reference":"way/623583586","protection_context":"no protected status confirmed from included OSM tags","resolution_m":50,"raster_coverage":1.0,"interpretation":"Suggested search habitats, not predicted plant locations or probabilities of presence."},"features":[{"type":"Feature","geometry":{"type":"MultiPolygon","coordinates":[[[[102.02893175944601,2.724139355586183],[102.02890839376275,2.72492408206672],[102.02901360070341,2.72492408206672],[102.02953180909394,2.724139355586183],[102.02893175944601,2.724139355586183]]],[[[102.02953180909394,2.72492408206672],[102.03005001748451,2.72492408206672],[102.03005001748451,2.7245317187642266],[102.02953180909394,2.7245317187642266],[102.02953180909394,2.72492408206672]]],[[[102.02889806770175,2.7253164454936796],[102.02887309999998,2.7281179969750062],[102.03085789999997,2.7278669969752682],[102.03311359999998,2.7262977969769904],[102.03304979999999,2.724285396979174],[102.03212285104675,2.7243238900027196],[102.03264105943731,2.7245317187642266],[102.03264105943731,2.72492408206672],[102.03212285104675,2.72492408206672],[102.03212285104675,2.725708809045123],[102.03264105943731,2.725708809045123],[102.03212285104675,2.726493536521538],[102.03108643426565,2.7261011727210698],[102.0316046426562,2.7253164454936796],[102.03056822587507,2.7253164454936796],[102.03056822587507,2.72492408206672],[102.03005001748451,2.72492408206672],[102.02953180909394,2.725708809045123],[102.02901360070341,2.725708809045123],[102.02889806770175,2.7253164454936796]],[[102.03005001748451,2.725708809045123],[102.03056822587507,2.726493536521538],[102.02953180909394,2.7268859004465433],[102.02901360070341,2.7261011727210698],[102.03005001748451,2.725708809045123]]]]},"properties":{"place_id":"3ae8a4b8-9471-5949-97ef-e5616510689e","habitat":"forest_interior","habitat_label":"Forest interior","resolution_m":50}},{"type":"Feature","geometry":{"type":"MultiPolygon","coordinates":[[[[102.0316046426562,2.7253164454936796],[102.03108643426565,2.7261011727210698],[102.03212285104675,2.726493536521538],[102.03212285104675,2.7261011727210698],[102.03264105943731,2.7261011727210698],[102.03264105943731,2.725708809045123],[102.03212285104675,2.725708809045123],[102.03212285104675,2.72492408206672],[102.03264105943731,2.72492408206672],[102.03264105943731,2.7245317187642266],[102.0308558,2.724229096979235],[102.0296224,2.7234535969800793],[102.0294972,2.723862396979664],[102.02899609999999,2.7235337969799946],[102.02893175944601,2.724139355586183],[102.02953180909394,2.724139355586183],[102.03056822587507,2.7253164454936796],[102.0316046426562,2.7253164454936796]]],[[[102.02901360070341,2.7245317187642266],[102.02901360070341,2.725708809045123],[102.03005001748451,2.7253164454936796],[102.02953180909394,2.7245317187642266],[102.02901360070341,2.7245317187642266]]],[[[102.03056822587507,2.726493536521538],[102.03005001748451,2.725708809045123],[102.02901360070341,2.7261011727210698],[102.02953180909394,2.7268859004465433],[102.03056822587507,2.726493536521538]]],[[[102.02901360070341,2.7272782644961056],[102.02887611693212,2.7276706286702423],[102.02901360070341,2.7276706286702423],[102.02901360070341,2.7272782644961056]]]]},"properties":{"place_id":"3ae8a4b8-9471-5949-97ef-e5616510689e","habitat":"forest_edge_opening","habitat_label":"Forest edge or opening","resolution_m":50}},{"type":"Feature","geometry":{"type":"MultiPolygon","coordinates":[[[[102.02974239818344,2.723746992532569],[102.0300351,2.72361729697993],[102.0296224,2.7234535969800793],[102.02974239818344,2.723746992532569]]],[[[102.03212285104675,2.725708809045123],[102.0316046426562,2.725708809045123],[102.0316046426562,2.7261011727210698],[102.03212285104675,2.7261011727210698],[102.03212285104675,2.725708809045123]]]]},"properties":{"place_id":"3ae8a4b8-9471-5949-97ef-e5616510689e","habitat":"open_grassland","habitat_label":"Open grassland or shrubland","resolution_m":50}},{"type":"Feature","geometry":{"type":"MultiPolygon","coordinates":[[[[102.0316046426562,2.72492408206672],[102.03212285104675,2.72492408206672],[102.03212285104675,2.7245317187642266],[102.0296224,2.7234535969800793],[102.0294972,2.723862396979664],[102.02899609999999,2.7235337969799946],[102.02901360070341,2.724139355586183],[102.02953180909394,2.724139355586183],[102.03056822587507,2.7253164454936796],[102.0316046426562,2.7253164454936796],[102.0316046426562,2.72492408206672]]],[[[102.03005001748451,2.726493536521538],[102.03056822587507,2.726493536521538],[102.03056822587507,2.7261011727210698],[102.02953180909394,2.725708809045123],[102.02901360070341,2.726493536521538],[102.02953180909394,2.726493536521538],[102.02953180909394,2.7268859004465433],[102.03005001748451,2.7268859004465433],[102.03005001748451,2.726493536521538]]]]},"properties":{"place_id":"3ae8a4b8-9471-5949-97ef-e5616510689e","habitat":"disturbed_built_edge","habitat_label":"Disturbed, bare or built edge","resolution_m":50}},{"type":"Feature","geometry":{"type":"MultiPolygon","coordinates":[[[[102.03212285104675,2.7245317187642266],[102.0316046426562,2.7245317187642266],[102.0316046426562,2.72492408206672],[102.03212285104675,2.72492408206672],[102.03212285104675,2.7245317187642266]]],[[[102.02953180909394,2.72492408206672],[102.02901360070341,2.72492408206672],[102.02901360070341,2.7253164454936796],[102.02953180909394,2.7253164454936796],[102.02953180909394,2.72492408206672]]]]},"properties":{"place_id":"3ae8a4b8-9471-5949-97ef-e5616510689e","habitat":"cropland","habitat_label":"Cropland","resolution_m":50}}]}