{"type":"FeatureCollection","metadata":{"schema_version":1,"place_id":"3b83074e-a758-527d-8a94-a9814a6796ed","place_name":"Section 51 Park","place_type":"park","osm_reference":"relation/17069642","protection_context":"no protected status confirmed from included OSM tags","resolution_m":50,"raster_coverage":1.0,"interpretation":"Suggested search habitats, not predicted plant locations or probabilities of presence."},"features":[{"type":"Feature","geometry":{"type":"Polygon","coordinates":[[[101.62323919999999,3.0913433965803594],[101.6221353,3.0917024965800026],[101.62323829999997,3.0915917965801123],[101.62323919999999,3.0913433965803594]]]},"properties":{"place_id":"3b83074e-a758-527d-8a94-a9814a6796ed","habitat":"forest_edge_opening","habitat_label":"Forest edge or opening","resolution_m":50}},{"type":"Feature","geometry":{"type":"Polygon","coordinates":[[[101.6221353,3.0917024965800026],[101.6231384,3.091708296579987],[101.62323919999999,3.0913433965803594],[101.6221317,3.0913541965803573],[101.6221353,3.0917024965800026]]]},"properties":{"place_id":"3b83074e-a758-527d-8a94-a9814a6796ed","habitat":"disturbed_built_edge","habitat_label":"Disturbed, bare or built edge","resolution_m":50}}]}