{"type":"FeatureCollection","metadata":{"schema_version":1,"place_id":"3ba95109-913d-58f4-8fdd-c1f41a8f0d86","place_name":"Hutan Bukit Wang Pisang","place_type":"wood","osm_reference":"way/1316478502","protection_context":"no protected status confirmed from included OSM tags","resolution_m":50,"raster_coverage":1.0,"interpretation":"Suggested search habitats, not predicted plant locations or probabilities of presence."},"features":[{"type":"Feature","geometry":{"type":"Polygon","coordinates":[[[100.23912181970695,6.564716000317418],[100.23876346668094,6.565110449724085],[100.23908609999998,6.566218393005384],[100.23989079999998,6.566458293005164],[100.240379,6.5660105930056],[100.24171286165974,6.5670827013217945],[100.24303439999998,6.565253893006325],[100.24211699999998,6.565349793006221],[100.23894852244625,6.562743757847406],[100.23662919999998,6.563087493008381],[100.23723809999998,6.5640360930074495],[100.23912181970695,6.564716000317418]]]},"properties":{"place_id":"3ba95109-913d-58f4-8fdd-c1f41a8f0d86","habitat":"forest_interior","habitat_label":"Forest interior","resolution_m":50}},{"type":"Feature","geometry":{"type":"MultiPolygon","coordinates":[[[[100.23860361131638,6.562743757847406],[100.23894852244625,6.562743757847406],[100.2387348,6.562655793008797],[100.23860361131638,6.562743757847406]]],[[[100.2396400280975,6.563532653922822],[100.24011219740575,6.563532653922822],[100.23948579999998,6.5629648930085],[100.23912181970695,6.562815084318766],[100.2396400280975,6.563532653922822]]],[[[100.23860361131638,6.564321551214998],[100.2381071,6.564470493007087],[100.23860361131638,6.56470374845576],[100.23860361131638,6.564321551214998]]],[[[100.23876346668094,6.565110449724085],[100.23912181970695,6.564716000317418],[100.23862969082079,6.564716000317418],[100.23876346668094,6.565110449724085]]],[[[100.24274927844087,6.5655048994350205],[100.24274927844087,6.56589934945024],[100.2422310700503,6.56589934945024],[100.2422310700503,6.566688250393607],[100.24171286165974,6.566688250393607],[100.24171470000002,6.567167093004451],[100.2425033,6.566793993004815],[100.24235310000002,6.566223793005373],[100.2430183,6.565722793005865],[100.24274927844087,6.5655048994350205]]]]},"properties":{"place_id":"3ba95109-913d-58f4-8fdd-c1f41a8f0d86","habitat":"forest_edge_opening","habitat_label":"Forest edge or opening","resolution_m":50}},{"type":"Feature","geometry":{"type":"MultiPolygon","coordinates":[[[[100.2396400280975,6.563138205733029],[100.23967701196993,6.563138205733029],[100.2396400280975,6.5631046838956],[100.2396400280975,6.563138205733029]]],[[[100.24274927844087,6.56589934945024],[100.24274927844087,6.565925408402241],[100.24278387807551,6.56589934945024],[100.24274927844087,6.56589934945024]]],[[[100.24171286165974,6.5670827013217945],[100.24171470000002,6.567167093004451],[100.24189307379315,6.5670827013217945],[100.24171286165974,6.5670827013217945]]]]},"properties":{"place_id":"3ba95109-913d-58f4-8fdd-c1f41a8f0d86","habitat":"open_grassland","habitat_label":"Open grassland or shrubland","resolution_m":50}}]}