{"type":"FeatureCollection","metadata":{"schema_version":1,"place_id":"3bf14ec1-ed4d-5943-a55a-5ec99fa5f368","place_name":"Dataran Ipoh","place_type":"park","osm_reference":"way/156177648","protection_context":"no protected status confirmed from included OSM tags","resolution_m":50,"raster_coverage":1.0,"interpretation":"Suggested search habitats, not predicted plant locations or probabilities of presence."},"features":[{"type":"Feature","geometry":{"type":"Polygon","coordinates":[[[101.09105641378864,4.599420245276876],[101.09148491478098,4.599420245276876],[101.09157462217921,4.5986796289656455],[101.09157462217921,4.597946056354974],[101.09105641378864,4.597883698062094],[101.09105641378864,4.599420245276876]]]},"properties":{"place_id":"3bf14ec1-ed4d-5943-a55a-5ec99fa5f368","habitat":"open_grassland","habitat_label":"Open grassland or shrubland","resolution_m":50}},{"type":"Feature","geometry":{"type":"Polygon","coordinates":[[[101.0914422,4.599772894977605],[101.0916622,4.597956594979535],[101.0908129,4.597854394979634],[101.0905932,4.599670794977734],[101.0914422,4.599772894977605]]]},"properties":{"place_id":"3bf14ec1-ed4d-5943-a55a-5ec99fa5f368","habitat":"disturbed_built_edge","habitat_label":"Disturbed, bare or built edge","resolution_m":50}}]}