{"type":"FeatureCollection","metadata":{"schema_version":1,"place_id":"3bfe2b2a-438e-5ea5-92b4-67a9b13bd8e3","place_name":"Dataran Sungai Petani","place_type":"park","osm_reference":"way/558214704","protection_context":"no protected status confirmed from included OSM tags","resolution_m":50,"raster_coverage":1.0,"interpretation":"Suggested search habitats, not predicted plant locations or probabilities of presence."},"features":[{"type":"Feature","geometry":{"type":"Polygon","coordinates":[[[100.4888711,5.643449293911691],[100.4888296,5.644199393910906],[100.48895159999998,5.644188693910939],[100.4888711,5.643449293911691]]]},"properties":{"place_id":"3bfe2b2a-438e-5ea5-92b4-67a9b13bd8e3","habitat":"disturbed_built_edge","habitat_label":"Disturbed, bare or built edge","resolution_m":50}}]}