{"type":"FeatureCollection","metadata":{"schema_version":1,"place_id":"3c507e30-413d-57a0-9da1-34ab0e4fa299","place_name":"Taman Rekreasi Putra Bistari 2","place_type":"park","osm_reference":"way/723560031","protection_context":"no protected status confirmed from included OSM tags","resolution_m":50,"raster_coverage":1.0,"interpretation":"Suggested search habitats, not predicted plant locations or probabilities of presence."},"features":[{"type":"Feature","geometry":{"type":"MultiPolygon","coordinates":[[[[101.57558125896284,3.019625342142146],[101.57558125896284,3.0200178041386088],[101.57581449514018,3.0200178041386088],[101.57606222049607,3.019625342142146],[101.57558125896284,3.019625342142146]]],[[[101.57558125896284,3.0204102662731103],[101.57558125896284,3.020790200762222],[101.57572315744967,3.0204102662731103],[101.57558125896284,3.0204102662731103]]],[[[101.57558125896284,3.02119519095631],[101.57557658006883,3.020802728545672],[101.57506305057227,3.020802728545672],[101.57506305057227,3.02119519095631],[101.57558125896284,3.02119519095631]]]]},"properties":{"place_id":"3c507e30-413d-57a0-9da1-34ab0e4fa299","habitat":"forest_interior","habitat_label":"Forest interior","resolution_m":50}},{"type":"Feature","geometry":{"type":"Polygon","coordinates":[[[101.57557658006883,3.020802728545672],[101.57558125896284,3.019625342142146],[101.57634699999998,3.0195423966581547],[101.57554229999998,3.0190280966587184],[101.5748557,3.0197137966579537],[101.5745338,3.0211226966564566],[101.57593389999998,3.021936996655564],[101.57558125896284,3.0209448232830867],[101.57506305057227,3.02119519095631],[101.57506305057227,3.020802728545672],[101.57557658006883,3.020802728545672]]]},"properties":{"place_id":"3c507e30-413d-57a0-9da1-34ab0e4fa299","habitat":"forest_edge_opening","habitat_label":"Forest edge or opening","resolution_m":50}},{"type":"Feature","geometry":{"type":"Polygon","coordinates":[[[101.57557658006883,3.020802728545672],[101.57558125896284,3.019625342142146],[101.57634699999998,3.0195423966581547],[101.57554229999998,3.0190280966587184],[101.5748557,3.0197137966579537],[101.5745338,3.0211226966564566],[101.57593389999998,3.021936996655564],[101.57567024537164,3.02119519095631],[101.57506305057227,3.02119519095631],[101.57506305057227,3.020802728545672],[101.57557658006883,3.020802728545672]]]},"properties":{"place_id":"3c507e30-413d-57a0-9da1-34ab0e4fa299","habitat":"disturbed_built_edge","habitat_label":"Disturbed, bare or built edge","resolution_m":50}}]}