{"type":"FeatureCollection","metadata":{"schema_version":1,"place_id":"3d0de75c-9ada-555a-b2f4-3057424167ca","place_name":"Pulau Hilir Kenerang Besar","place_type":"wood","osm_reference":"way/724666657","protection_context":"no protected status confirmed from included OSM tags","resolution_m":50,"raster_coverage":1.0,"interpretation":"Suggested search habitats, not predicted plant locations or probabilities of presence."},"features":[{"type":"Feature","geometry":{"type":"Polygon","coordinates":[[[102.65293650293842,5.04619529787265],[102.65293650293842,5.045801882172407],[102.65241829454784,5.045801882172407],[102.65241829454784,5.04619529787265],[102.65293650293842,5.04619529787265]]]},"properties":{"place_id":"3d0de75c-9ada-555a-b2f4-3057424167ca","habitat":"forest_interior","habitat_label":"Forest interior","resolution_m":50}},{"type":"Feature","geometry":{"type":"Polygon","coordinates":[[[102.65190008615728,5.04619529787265],[102.65302599999998,5.04680669451617],[102.65373209999998,5.046492094516487],[102.6529878,5.045922294517071],[102.65267859999997,5.044913094518108],[102.65190008615728,5.04619529787265]],[[102.65241829454784,5.045801882172407],[102.65293650293842,5.045801882172407],[102.65293650293842,5.04619529787265],[102.65241829454784,5.04619529787265],[102.65241829454784,5.045801882172407]]]},"properties":{"place_id":"3d0de75c-9ada-555a-b2f4-3057424167ca","habitat":"forest_edge_opening","habitat_label":"Forest edge or opening","resolution_m":50}},{"type":"Feature","geometry":{"type":"MultiPolygon","coordinates":[[[[102.65279347270452,5.045015051468431],[102.65267859999997,5.044913094518108],[102.6524855504052,5.045015051468431],[102.65279347270452,5.045015051468431]]],[[[102.65241829454784,5.045408466704339],[102.65241829454784,5.045162234992445],[102.6522206390792,5.045408466704339],[102.65241829454784,5.045408466704339]]],[[[102.65293650293842,5.045801882172407],[102.65302259999999,5.045444094517546],[102.65293650293842,5.045309294719049],[102.65293650293842,5.045801882172407]]],[[[102.65190008615728,5.045807933744948],[102.6518767,5.046116694516857],[102.6518834,5.046183494516802],[102.6519088,5.046223594516759],[102.65241829454784,5.046285912614198],[102.65190008615728,5.04619529787265],[102.65190008615728,5.045807933744948]]],[[[102.65345471132896,5.046524884375156],[102.6537368,5.046466694516516],[102.65345471132896,5.046173185735433],[102.65345471132896,5.046524884375156]]],[[[102.6528738504144,5.046588713805086],[102.65302599999998,5.04680669451617],[102.65328440776972,5.046588713805086],[102.6528738504144,5.046588713805086]]]]},"properties":{"place_id":"3d0de75c-9ada-555a-b2f4-3057424167ca","habitat":"permanent_water","habitat_label":"Permanent water","resolution_m":50}},{"type":"Feature","geometry":{"type":"Polygon","coordinates":[[[102.65368849999999,5.046349794516637],[102.65345471132896,5.046524884375156],[102.65371399999998,5.046509494516468],[102.65368849999999,5.046349794516637]]]},"properties":{"place_id":"3d0de75c-9ada-555a-b2f4-3057424167ca","habitat":"seasonal_water_wetland","habitat_label":"Seasonal water or wetland","resolution_m":50}},{"type":"Feature","geometry":{"type":"Polygon","coordinates":[[[102.65190008615728,5.04619529787265],[102.65345471132896,5.046524884375156],[102.65279347270452,5.045015051468431],[102.65191960000001,5.045757294517249],[102.65190008615728,5.04619529787265]]]},"properties":{"place_id":"3d0de75c-9ada-555a-b2f4-3057424167ca","habitat":"water_edge","habitat_label":"Water edge","resolution_m":50}}]}