{"type":"FeatureCollection","metadata":{"schema_version":1,"place_id":"3d7ffb73-512c-5150-928a-7629a845b101","place_name":"Kuala Gandah Elephant Sanctuary","place_type":"park","osm_reference":"way/257431258","protection_context":"no protected status confirmed from included OSM tags","resolution_m":50,"raster_coverage":1.0,"interpretation":"Suggested search habitats, not predicted plant locations or probabilities of presence."},"features":[{"type":"Feature","geometry":{"type":"MultiPolygon","coordinates":[[[[102.14405586340786,3.59120551631164],[102.14405586340786,3.5908128343182897],[102.14509228018898,3.59120551631164],[102.14509228018898,3.5919908807915615],[102.14457407179842,3.5919908807915615],[102.14457407179842,3.592776245929232],[102.14509228018898,3.59285396638199],[102.1463331,3.591569296041909],[102.14614179999998,3.590760996042759],[102.1447843,3.5899396960436802],[102.1442669,3.5901810960434033],[102.14390699999997,3.5893503960442814],[102.1429847,3.589855496043749],[102.14361189483049,3.59120551631164],[102.14405586340786,3.59120551631164]]],[[[102.1435376550173,3.59316892874477],[102.1435376550173,3.592776245929232],[102.14405586340786,3.592776245929232],[102.14405586340786,3.5919908807915615],[102.14292839999999,3.591674096041806],[102.14291089999999,3.593286096040071],[102.14407789999998,3.593904196039417],[102.14440879011357,3.593561611724798],[102.1435376550173,3.59316892874477]]],[[[102.14457407179842,3.59316892874477],[102.14457407179842,3.5933904887601686],[102.14478806891087,3.59316892874477],[102.14457407179842,3.59316892874477]]]]},"properties":{"place_id":"3d7ffb73-512c-5150-928a-7629a845b101","habitat":"forest_interior","habitat_label":"Forest interior","resolution_m":50}},{"type":"Feature","geometry":{"type":"Polygon","coordinates":[[[102.1435376550173,3.5919908807915615],[102.14405586340786,3.5919908807915615],[102.14405586340786,3.592776245929232],[102.1435376550173,3.592776245929232],[102.1435376550173,3.59316892874477],[102.14440879011357,3.593561611724798],[102.14509228018898,3.59285396638199],[102.14457407179842,3.592776245929232],[102.14509228018898,3.59120551631164],[102.14405586340786,3.5908128343182897],[102.1435376550173,3.5919908807915615]]]},"properties":{"place_id":"3d7ffb73-512c-5150-928a-7629a845b101","habitat":"forest_edge_opening","habitat_label":"Forest edge or opening","resolution_m":50}},{"type":"Feature","geometry":{"type":"Polygon","coordinates":[[[102.1435376550173,3.5919908807915615],[102.14405586340786,3.5919908807915615],[102.14405586340786,3.592776245929232],[102.1435376550173,3.592776245929232],[102.1435376550173,3.59316892874477],[102.14440879011357,3.593561611724798],[102.14509228018898,3.59285396638199],[102.14457407179842,3.592776245929232],[102.14509228018898,3.59120551631164],[102.14405586340786,3.5908128343182897],[102.1435376550173,3.5919908807915615]]]},"properties":{"place_id":"3d7ffb73-512c-5150-928a-7629a845b101","habitat":"disturbed_built_edge","habitat_label":"Disturbed, bare or built edge","resolution_m":50}}]}