{"type":"FeatureCollection","metadata":{"schema_version":1,"place_id":"3ddd06c4-8de7-5c73-aead-2b79657df00b","place_name":"Urban Community Forest Bukit Persekutuan","place_type":"park","osm_reference":"relation/19349196","protection_context":"mapped protected boundary","resolution_m":50,"raster_coverage":1.0,"interpretation":"Suggested search habitats, not predicted plant locations or probabilities of presence."},"features":[{"type":"Feature","geometry":{"type":"MultiPolygon","coordinates":[[[[101.67766831190329,3.1365852047295615],[101.67766831190329,3.1361927009403834],[101.67739073935249,3.1361927009403834],[101.67721531179184,3.1365852047295615],[101.67766831190329,3.1365852047295615]]],[[[101.67404085316934,3.140510250511912],[101.67404085316934,3.1401177452878133],[101.6735226447788,3.140375424058488],[101.6735226447788,3.140510250511912],[101.67404085316934,3.140510250511912]]],[[[101.67507726995048,3.140510250511912],[101.67507726995048,3.1401177452878133],[101.67455906155992,3.1401177452878133],[101.67455906155992,3.140510250511912],[101.67507726995048,3.140510250511912]]],[[[101.67507726995048,3.141295261390902],[101.67507726995048,3.140902755879602],[101.67455906155992,3.140902755879602],[101.67455906155992,3.141295261390902],[101.67507726995048,3.141295261390902]]],[[[101.67455906155992,3.1416877670458296],[101.6735226447788,3.140510250511912],[101.67300443638824,3.1406340642694603],[101.6732016170167,3.1428652848725607],[101.6735226447788,3.142080272844403],[101.67455906155992,3.1416877670458296]]],[[[101.67404085316934,3.143650297475518],[101.67404085316934,3.1432577911021795],[101.6735226447788,3.1432577911021795],[101.6735226447788,3.143650297475518],[101.67404085316934,3.143650297475518]]],[[[101.67455906155992,3.1456128314986143],[101.67481689692403,3.145220324406414],[101.67455906155992,3.145220324406414],[101.67455906155992,3.1456128314986143]]],[[[101.67455906155992,3.1456128314986143],[101.67404085316934,3.1456128314986143],[101.67369941881435,3.145220324406414],[101.67380559999998,3.1457092965215634],[101.67455906155992,3.1459251353978375],[101.67455906155992,3.1456128314986143]]],[[[101.68233218741833,3.1326601732882797],[101.6822576,3.1325527965358027],[101.68205378709929,3.1326601732882797],[101.68233218741833,3.1326601732882797]]],[[[101.67974114546553,3.1342301841450224],[101.67974114546553,3.133837681215928],[101.68077756224665,3.133445178430119],[101.67922293707495,3.133445178430119],[101.67919734190754,3.1330526757875754],[101.67818652029383,3.1330526757875754],[101.67818652029383,3.133445178430119],[101.67715010351272,3.133127388938793],[101.67715010351272,3.133445178430119],[101.67663189512216,3.133445178430119],[101.67663189512216,3.1330526757875754],[101.6761647052435,3.1330526757875754],[101.6756566162357,3.133837681215928],[101.67715010351272,3.134622687217418],[101.67715010351272,3.1350151904331334],[101.67766831190329,3.1350151904331334],[101.67818652029383,3.1342301841450224],[101.67974114546553,3.1342301841450224]]],[[[101.67818652029383,3.1354076937921875],[101.67818652029383,3.1350151904331334],[101.67766831190329,3.1350151904331334],[101.67774159447376,3.1354076937921875],[101.67818652029383,3.1354076937921875]]],[[[101.680799442652,3.1354076937921875],[101.68077756224665,3.135724364721725],[101.68128341421225,3.1354076937921875],[101.680799442652,3.1354076937921875]]],[[[101.68064988202406,3.1358001972945986],[101.68025935385609,3.135829996383206],[101.68025935385609,3.136072351587449],[101.68064988202406,3.1358001972945986]]],[[[101.68285039580888,3.137762716957631],[101.68323089957198,3.1365852047295615],[101.68234290641082,3.1361927009403834],[101.68181397902777,3.13697770866215],[101.68129577063719,3.13697770866215],[101.68129577063719,3.137762716957631],[101.68181397902777,3.137762716957631],[101.68233218741833,3.138547725826972],[101.68336860419944,3.138155221320561],[101.68336860419944,3.137762716957631],[101.68285039580888,3.137762716957631]]],[[[101.68233218741833,3.1389402304768845],[101.68233218741833,3.138547725826972],[101.68181397902777,3.138547725826972],[101.68181397902777,3.1389402304768845],[101.68233218741833,3.1389402304768845]]],[[[101.67758699999999,3.143693796523752],[101.67766831190329,3.1428652848725607],[101.67818652029383,3.1428652848725607],[101.67818652029383,3.1416877670458296],[101.67870472868441,3.1416877670458296],[101.67870472868441,3.141295261390902],[101.68025935385609,3.140510250511912],[101.68025935385609,3.1397252402072877],[101.68129577063719,3.1393327352703175],[101.68077756224665,3.138547725826972],[101.68025935385609,3.1385764588742897],[101.68025935385609,3.1389402304768845],[101.67922293707495,3.1389402304768845],[101.67922293707495,3.1393327352703175],[101.67818652029383,3.1389402304768845],[101.68012320303166,3.1361927009403834],[101.67922293707495,3.1358001972945986],[101.67922293707495,3.1354076937921875],[101.67818652029383,3.1354076937921875],[101.67818652029383,3.1358001972945986],[101.67766831190329,3.1358001972945986],[101.67870472868441,3.13697770866215],[101.67818652029383,3.13697770866215],[101.67818652029383,3.137370212738167],[101.67715010351272,3.13697770866215],[101.67715010351272,3.138547725826972],[101.67507726995048,3.1397252402072877],[101.67559547834104,3.140510250511912],[101.67663189512216,3.140510250511912],[101.67663189512216,3.1401177452878133],[101.67766831190329,3.140510250511912],[101.67766831190329,3.141295261390902],[101.67715010351272,3.141295261390902],[101.67715010351272,3.1416877670458296],[101.67663189512216,3.1416877670458296],[101.6761136867316,3.140902755879602],[101.67507726995048,3.141295261390902],[101.67507726995048,3.1416877670458296],[101.67559547834104,3.1416877670458296],[101.67559547834104,3.1432577911021795],[101.6761136867316,3.1432577911021795],[101.6761136867316,3.143650297475518],[101.67697549999998,3.14330409652416],[101.67758699999999,3.143693796523752]]]]},"properties":{"place_id":"3ddd06c4-8de7-5c73-aead-2b79657df00b","habitat":"forest_interior","habitat_label":"Forest interior","resolution_m":50}},{"type":"Feature","geometry":{"type":"MultiPolygon","coordinates":[[[[101.6761136867316,3.133445178430119],[101.6761136867316,3.133131500156964],[101.67591066073959,3.133445178430119],[101.6761136867316,3.133445178430119]]],[[[101.67774159447376,3.1354076937921875],[101.67739073935249,3.1361927009403834],[101.67818652029383,3.1358001972945986],[101.67818652029383,3.1354076937921875],[101.67774159447376,3.1354076937921875]]],[[[101.67766831190329,3.1350151904331334],[101.67715010351272,3.1350151904331334],[101.67715010351272,3.134622687217418],[101.6756566162357,3.133837681215928],[101.67548909999998,3.134096496534107],[101.67766831190329,3.135324105114904],[101.67766831190329,3.1350151904331334]]],[[[101.6761136867316,3.1393327352703175],[101.6761136867316,3.1390436304294296],[101.67561176465843,3.1393327352703175],[101.6761136867316,3.1393327352703175]]],[[[101.6735226447788,3.140510250511912],[101.6735226447788,3.140375424058488],[101.67325250811597,3.140510250511912],[101.6735226447788,3.140510250511912]]],[[[101.67404085316934,3.1401177452878133],[101.67404085316934,3.140510250511912],[101.6735226447788,3.140510250511912],[101.67404085316934,3.141295261390902],[101.67455906155992,3.141295261390902],[101.67455906155992,3.140902755879602],[101.67507726995048,3.140902755879602],[101.67507726995048,3.141295261390902],[101.6761136867316,3.140902755879602],[101.67663189512216,3.1416877670458296],[101.67766831190329,3.141295261390902],[101.67766831190329,3.140510250511912],[101.67715010351272,3.140510250511912],[101.67715010351272,3.1401177452878133],[101.67663189512216,3.1401177452878133],[101.67663189512216,3.140510250511912],[101.67559547834104,3.140510250511912],[101.67559547834104,3.1401177452878133],[101.67507726995048,3.1401177452878133],[101.67559547834104,3.139340863838013],[101.67404085316934,3.1401177452878133]],[[101.67507726995048,3.140510250511912],[101.67455906155992,3.140510250511912],[101.67455906155992,3.1401177452878133],[101.67507726995048,3.1401177452878133],[101.67507726995048,3.140510250511912]]],[[[101.67300443638824,3.141295261390902],[101.67300443638824,3.1406340642694603],[101.6727409,3.140765596526923],[101.67300443638824,3.141295261390902]]],[[[101.67300443638824,3.1416877670458296],[101.67294324425956,3.1416877670458296],[101.67300443638824,3.1419666462627123],[101.67300443638824,3.1416877670458296]]],[[[101.6748147,3.144610596522771],[101.6761136867316,3.1432577911021795],[101.67559547834104,3.1432577911021795],[101.67559547834104,3.1416877670458296],[101.67455906155992,3.141295261390902],[101.6732016170167,3.1428652848725607],[101.67404085316934,3.1456128314986143],[101.67455906155992,3.1456128314986143],[101.6748147,3.144610596522771]],[[101.67404085316934,3.1432577911021795],[101.67404085316934,3.143650297475518],[101.6735226447788,3.143650297475518],[101.6735226447788,3.1432577911021795],[101.67404085316934,3.1432577911021795]]],[[[101.67487949088121,3.1456128314986143],[101.67455906155992,3.1459251353978375],[101.67482079999999,3.1460541965211815],[101.67487949088121,3.1456128314986143]]],[[[101.67766831190329,3.133251925544507],[101.67818652029383,3.133445178430119],[101.67818652029383,3.1330526757875754],[101.67919734190754,3.1330526757875754],[101.67903589999997,3.1325476965357923],[101.67766831190329,3.133251925544507]]],[[[101.67663189512216,3.1330526757875754],[101.67663189512216,3.133445178430119],[101.67715010351272,3.133445178430119],[101.67715010351272,3.133127388938793],[101.67625549999998,3.1329123965353927],[101.6761647052435,3.1330526757875754],[101.67663189512216,3.1330526757875754]]],[[[101.68233218741833,3.1326601732882797],[101.67999489999997,3.132872496535462],[101.67922293707495,3.133445178430119],[101.68077756224665,3.1335199682269668],[101.68233218741833,3.1326601732882797]]],[[[101.67766831190329,3.134622687217418],[101.67818652029383,3.1354076937921875],[101.67922293707495,3.1354076937921875],[101.67922293707495,3.1358001972945986],[101.67967689524174,3.1358001972945986],[101.67899799999999,3.134961896533183],[101.68038545514008,3.133837681215928],[101.67766831190329,3.134622687217418]]],[[[101.680799442652,3.1354076937921875],[101.6819027,3.1349266965332307],[101.68169889999999,3.134704396533459],[101.680799442652,3.1354076937921875]]],[[[101.6802974643278,3.1358001972945986],[101.68077756224665,3.135724364721725],[101.68077756224665,3.1354248023680458],[101.6802974643278,3.1358001972945986]]],[[[101.67974114546553,3.1361927009403834],[101.68025935385609,3.135829996383206],[101.67974114546553,3.13587953359155],[101.67974114546553,3.1361927009403834]]],[[[101.67766831190329,3.137370212738167],[101.67870472868441,3.13697770866215],[101.67818652029383,3.1361927009403834],[101.67721531179184,3.1365852047295615],[101.6761614781117,3.1389402304768845],[101.67715010351272,3.138547725826972],[101.67715010351272,3.13697770866215],[101.67766831190329,3.13697770866215],[101.67766831190329,3.137370212738167]]],[[[101.68181397902777,3.13697770866215],[101.68233218741833,3.136198783721462],[101.6808616,3.1372280965307335],[101.68165059999998,3.1384659965293857],[101.680925,3.1386935965291443],[101.68039879999999,3.1381545965297435],[101.68129577063719,3.1393327352703175],[101.68077756224665,3.1393327352703175],[101.68077756224665,3.1397252402072877],[101.68025935385609,3.1397252402072877],[101.68025935385609,3.140510250511912],[101.67818652029383,3.1416877670458296],[101.67818652029383,3.1428652848725607],[101.67766831190329,3.1428652848725607],[101.67766831190329,3.1432577911021795],[101.67883429999999,3.1425380965249805],[101.681887,3.1393611965284345],[101.6839479,3.1384136965294642],[101.68324302288008,3.13697770866215],[101.68285039580888,3.13697770866215],[101.68285039580888,3.137762716957631],[101.68336860419944,3.137762716957631],[101.68336860419944,3.138155221320561],[101.68233218741833,3.138547725826972],[101.68233218741833,3.138155221320561],[101.68129577063719,3.137762716957631],[101.68129577063719,3.13697770866215],[101.68181397902777,3.13697770866215]],[[101.68233218741833,3.1389402304768845],[101.68181397902777,3.1389402304768845],[101.68181397902777,3.138547725826972],[101.68233218741833,3.138547725826972],[101.68233218741833,3.1389402304768845]]],[[[101.68239419999999,3.136012096532035],[101.68285039580888,3.1365852047295615],[101.68323089957198,3.1365852047295615],[101.683221,3.1362646965317995],[101.68239419999999,3.136012096532035]]],[[[101.67870472868441,3.138155221320561],[101.67870472868441,3.138547725826972],[101.67818652029383,3.138547725826972],[101.67870472868441,3.1393327352703175],[101.67922293707495,3.1393327352703175],[101.67922293707495,3.1389402304768845],[101.68025935385609,3.1389402304768845],[101.68025935385609,3.1385764588742897],[101.67870472868441,3.138155221320561]]]]},"properties":{"place_id":"3ddd06c4-8de7-5c73-aead-2b79657df00b","habitat":"forest_edge_opening","habitat_label":"Forest edge or opening","resolution_m":50}},{"type":"Feature","geometry":{"type":"MultiPolygon","coordinates":[[[[101.6761136867316,3.133445178430119],[101.6761136867316,3.133131500156964],[101.67591066073959,3.133445178430119],[101.6761136867316,3.133445178430119]]],[[[101.67774159447376,3.1354076937921875],[101.67739073935249,3.1361927009403834],[101.67818652029383,3.1358001972945986],[101.67818652029383,3.1354076937921875],[101.67774159447376,3.1354076937921875]]],[[[101.67766831190329,3.1350151904331334],[101.67715010351272,3.1350151904331334],[101.67715010351272,3.134622687217418],[101.6756566162357,3.133837681215928],[101.67548909999998,3.134096496534107],[101.67766831190329,3.135324105114904],[101.67766831190329,3.1350151904331334]]],[[[101.6761136867316,3.1393327352703175],[101.6761136867316,3.1390436304294296],[101.67561176465843,3.1393327352703175],[101.6761136867316,3.1393327352703175]]],[[[101.6735226447788,3.140510250511912],[101.6735226447788,3.140375424058488],[101.67325250811597,3.140510250511912],[101.6735226447788,3.140510250511912]]],[[[101.67404085316934,3.1401177452878133],[101.67404085316934,3.140510250511912],[101.6735226447788,3.140510250511912],[101.67404085316934,3.141295261390902],[101.67455906155992,3.141295261390902],[101.67455906155992,3.140902755879602],[101.67507726995048,3.140902755879602],[101.67507726995048,3.141295261390902],[101.6761136867316,3.140902755879602],[101.67663189512216,3.1416877670458296],[101.67766831190329,3.141295261390902],[101.67766831190329,3.140510250511912],[101.67715010351272,3.140510250511912],[101.67715010351272,3.1401177452878133],[101.67663189512216,3.1401177452878133],[101.67663189512216,3.140510250511912],[101.67559547834104,3.140510250511912],[101.67559547834104,3.1401177452878133],[101.67507726995048,3.1401177452878133],[101.67559547834104,3.139340863838013],[101.67404085316934,3.1401177452878133]],[[101.67507726995048,3.140510250511912],[101.67455906155992,3.140510250511912],[101.67455906155992,3.1401177452878133],[101.67507726995048,3.1401177452878133],[101.67507726995048,3.140510250511912]]],[[[101.67300443638824,3.141295261390902],[101.67300443638824,3.1406340642694603],[101.6727409,3.140765596526923],[101.67300443638824,3.141295261390902]]],[[[101.67300443638824,3.1416877670458296],[101.67294324425956,3.1416877670458296],[101.67300443638824,3.1419666462627123],[101.67300443638824,3.1416877670458296]]],[[[101.67404085316934,3.1456128314986143],[101.67455906155992,3.1456128314986143],[101.67491719999997,3.1444819965228934],[101.67612871133085,3.143650297475518],[101.6761136867316,3.1432577911021795],[101.67559547834104,3.1432577911021795],[101.67559547834104,3.1416877670458296],[101.67507726995048,3.1416877670458296],[101.67507726995048,3.141295261390902],[101.6735226447788,3.142080272844403],[101.6732877412691,3.1432577911021795],[101.67404085316934,3.1456128314986143]],[[101.67404085316934,3.1432577911021795],[101.67404085316934,3.143650297475518],[101.6735226447788,3.143650297475518],[101.6735226447788,3.1432577911021795],[101.67404085316934,3.1432577911021795]]],[[[101.67487949088121,3.1456128314986143],[101.67455906155992,3.1459251353978375],[101.67482079999999,3.1460541965211815],[101.67487949088121,3.1456128314986143]]],[[[101.67766831190329,3.133251925544507],[101.67818652029383,3.133445178430119],[101.67818652029383,3.1330526757875754],[101.67919734190754,3.1330526757875754],[101.67903589999997,3.1325476965357923],[101.67766831190329,3.133251925544507]]],[[[101.67663189512216,3.1330526757875754],[101.67663189512216,3.133445178430119],[101.67715010351272,3.133445178430119],[101.67715010351272,3.133127388938793],[101.67625549999998,3.1329123965353927],[101.6761647052435,3.1330526757875754],[101.67663189512216,3.1330526757875754]]],[[[101.68233218741833,3.1326601732882797],[101.67999489999997,3.132872496535462],[101.67922293707495,3.133445178430119],[101.68077756224665,3.1335199682269668],[101.68233218741833,3.1326601732882797]]],[[[101.67766831190329,3.134622687217418],[101.67818652029383,3.1354076937921875],[101.67922293707495,3.1354076937921875],[101.67922293707495,3.1358001972945986],[101.67967689524174,3.1358001972945986],[101.67899799999999,3.134961896533183],[101.68038545514008,3.133837681215928],[101.67766831190329,3.134622687217418]]],[[[101.680799442652,3.1354076937921875],[101.6819027,3.1349266965332307],[101.68169889999999,3.134704396533459],[101.680799442652,3.1354076937921875]]],[[[101.6802974643278,3.1358001972945986],[101.68077756224665,3.135724364721725],[101.68077756224665,3.1354248023680458],[101.6802974643278,3.1358001972945986]]],[[[101.67974114546553,3.1361927009403834],[101.68025935385609,3.135829996383206],[101.67974114546553,3.13587953359155],[101.67974114546553,3.1361927009403834]]],[[[101.67766831190329,3.137370212738167],[101.67870472868441,3.13697770866215],[101.67818652029383,3.1361927009403834],[101.67721531179184,3.1365852047295615],[101.6761614781117,3.1389402304768845],[101.67715010351272,3.138547725826972],[101.67715010351272,3.13697770866215],[101.67766831190329,3.13697770866215],[101.67766831190329,3.137370212738167]]],[[[101.68181397902777,3.13697770866215],[101.68233218741833,3.136198783721462],[101.6808616,3.1372280965307335],[101.68165059999998,3.1384659965293857],[101.680925,3.1386935965291443],[101.68039879999999,3.1381545965297435],[101.68129577063719,3.1393327352703175],[101.68077756224665,3.1393327352703175],[101.68077756224665,3.1397252402072877],[101.68025935385609,3.1397252402072877],[101.68025935385609,3.140510250511912],[101.67818652029383,3.1416877670458296],[101.67818652029383,3.1428652848725607],[101.67766831190329,3.1428652848725607],[101.67766831190329,3.1432577911021795],[101.67883429999999,3.1425380965249805],[101.681887,3.1393611965284345],[101.6839479,3.1384136965294642],[101.68324302288008,3.13697770866215],[101.68285039580888,3.13697770866215],[101.68285039580888,3.137762716957631],[101.68336860419944,3.137762716957631],[101.68336860419944,3.138155221320561],[101.68233218741833,3.138547725826972],[101.68233218741833,3.138155221320561],[101.68129577063719,3.137762716957631],[101.68129577063719,3.13697770866215],[101.68181397902777,3.13697770866215]],[[101.68233218741833,3.1389402304768845],[101.68181397902777,3.1389402304768845],[101.68181397902777,3.138547725826972],[101.68233218741833,3.138547725826972],[101.68233218741833,3.1389402304768845]]],[[[101.68239419999999,3.136012096532035],[101.68285039580888,3.1365852047295615],[101.68323089957198,3.1365852047295615],[101.683221,3.1362646965317995],[101.68239419999999,3.136012096532035]]],[[[101.67870472868441,3.138155221320561],[101.67870472868441,3.138547725826972],[101.67818652029383,3.138547725826972],[101.67870472868441,3.1393327352703175],[101.67922293707495,3.1393327352703175],[101.67922293707495,3.1389402304768845],[101.68025935385609,3.1389402304768845],[101.68025935385609,3.1385764588742897],[101.67870472868441,3.138155221320561]]]]},"properties":{"place_id":"3ddd06c4-8de7-5c73-aead-2b79657df00b","habitat":"disturbed_built_edge","habitat_label":"Disturbed, bare or built edge","resolution_m":50}}]}