{"type":"FeatureCollection","metadata":{"schema_version":1,"place_id":"3e3262d8-306a-5b13-8d4d-c67adae4ed98","place_name":"Taman Eko Rimba Bukit Bauk","place_type":"park","osm_reference":"way/471137932","protection_context":"no protected status confirmed from included OSM tags","resolution_m":50,"raster_coverage":1.0,"interpretation":"Suggested search habitats, not predicted plant locations or probabilities of presence."},"features":[{"type":"Feature","geometry":{"type":"Polygon","coordinates":[[[103.3860353,4.7085836948646635],[103.3850876,4.7119368948612],[103.3874567,4.713321994859782],[103.38842941717546,4.712267070175437],[103.3877560007534,4.711480619942399],[103.38827420914396,4.711480619942399],[103.38827420914396,4.711087395150645],[103.38915458234318,4.711480619942399],[103.3903470427062,4.709907722074228],[103.39117798245533,4.709907722074228],[103.3933780450863,4.7087280509456875],[103.392938084659,4.7087280509456875],[103.392938084659,4.707941604608572],[103.39241987626845,4.707941604608572],[103.392938084659,4.70715515913681],[103.39397450144011,4.707548381764531],[103.39397450144011,4.708334827668952],[103.394267,4.708251394865031],[103.39344229088509,4.70518904924237],[103.392938084659,4.70518904924237],[103.39323359999997,4.704414194868999],[103.3886231,4.704319294869069],[103.3860353,4.7085836948646635]]]},"properties":{"place_id":"3e3262d8-306a-5b13-8d4d-c67adae4ed98","habitat":"forest_interior","habitat_label":"Forest interior","resolution_m":50}},{"type":"Feature","geometry":{"type":"MultiPolygon","coordinates":[[[[103.392938084659,4.70518904924237],[103.39344229088509,4.70518904924237],[103.39333638493893,4.704795827912187],[103.392938084659,4.704795827912187],[103.392938084659,4.70518904924237]]],[[[103.3877560007534,4.705975492551388],[103.3877560007534,4.705748172947501],[103.38761805446393,4.705975492551388],[103.3877560007534,4.705975492551388]]],[[[103.39345629304957,4.706368714530257],[103.39376000872353,4.706368714530257],[103.39345629304957,4.705241038310547],[103.39345629304957,4.706368714530257]]],[[[103.38671958397227,4.707941604608572],[103.38671958397227,4.7074560702529995],[103.38642494378502,4.707941604608572],[103.38671958397227,4.707941604608572]]],[[[103.39397450144011,4.707548381764531],[103.39345629304957,4.707548381764531],[103.39345629304957,4.70715515913681],[103.39241987626845,4.707548381764531],[103.39241987626845,4.707941604608572],[103.392938084659,4.707941604608572],[103.392938084659,4.7087280509456875],[103.39411139929665,4.708334827668952],[103.39397450144011,4.707548381764531]]],[[[103.3862013755817,4.708334827668952],[103.3862013755817,4.708310020435921],[103.38618632164923,4.708334827668952],[103.3862013755817,4.708334827668952]]],[[[103.38568316719115,4.709907722074228],[103.38568316719115,4.709829627113245],[103.38566109554759,4.709907722074228],[103.38568316719115,4.709907722074228]]],[[[103.3903470427062,4.709907722074228],[103.3903470427062,4.710300946216578],[103.38982883431564,4.710300946216578],[103.38982883431564,4.710694170575378],[103.39117798245533,4.709907722074228],[103.3903470427062,4.709907722074228]]],[[[103.38915458234318,4.711480619942399],[103.38879241753452,4.711087395150645],[103.38827420914396,4.711087395150645],[103.3877560007534,4.711873844950656],[103.38827420914396,4.711873844950656],[103.38842941717546,4.712267070175437],[103.38915458234318,4.711480619942399]]]]},"properties":{"place_id":"3e3262d8-306a-5b13-8d4d-c67adae4ed98","habitat":"forest_edge_opening","habitat_label":"Forest edge or opening","resolution_m":50}},{"type":"Feature","geometry":{"type":"Polygon","coordinates":[[[103.38879241753452,4.711480619942399],[103.38827420914396,4.711480619942399],[103.38827420914396,4.711873844950656],[103.3887919997593,4.711873844950656],[103.38879241753452,4.711480619942399]]]},"properties":{"place_id":"3e3262d8-306a-5b13-8d4d-c67adae4ed98","habitat":"open_grassland","habitat_label":"Open grassland or shrubland","resolution_m":50}},{"type":"Feature","geometry":{"type":"MultiPolygon","coordinates":[[[[103.3877560007534,4.705975492551388],[103.3877560007534,4.705748172947501],[103.38761805446393,4.705975492551388],[103.3877560007534,4.705975492551388]]],[[[103.38671958397227,4.707548381764531],[103.38671958397227,4.7074560702529995],[103.3866635659208,4.707548381764531],[103.38671958397227,4.707548381764531]]],[[[103.39397450144011,4.708334827668952],[103.39397450144011,4.707548381764531],[103.392938084659,4.70715515913681],[103.392938084659,4.707548381764531],[103.39241987626845,4.707548381764531],[103.39241987626845,4.707941604608572],[103.392938084659,4.707941604608572],[103.392938084659,4.7087280509456875],[103.39397450144011,4.708334827668952]]],[[[103.3903470427062,4.709907722074228],[103.3903470427062,4.710300946216578],[103.38982883431564,4.710300946216578],[103.38982883431564,4.710694170575378],[103.39117798245533,4.709907722074228],[103.3903470427062,4.709907722074228]]]]},"properties":{"place_id":"3e3262d8-306a-5b13-8d4d-c67adae4ed98","habitat":"disturbed_built_edge","habitat_label":"Disturbed, bare or built edge","resolution_m":50}}]}