{"type":"FeatureCollection","metadata":{"schema_version":1,"place_id":"3e8dc051-1de9-5190-af6b-46fe0f5d7eac","place_name":"Hutan Simpanan Kekal Senaling Inas","place_type":"park","osm_reference":"relation/19191871","protection_context":"mapped protected boundary","resolution_m":50,"raster_coverage":1.0,"interpretation":"Suggested search habitats, not predicted plant locations or probabilities of presence."},"features":[{"type":"Feature","geometry":{"type":"MultiPolygon","coordinates":[[[[102.21660503808634,2.6280140824941975],[102.21676657399723,2.6280140824941975],[102.21660503808634,2.627844482484833],[102.21660503808634,2.6280140824941975]]],[[[102.21608682969577,2.62879874907697],[102.21608682969577,2.629583416139947],[102.21660503808634,2.629583416139947],[102.21660503808634,2.629191082548425],[102.21751393117319,2.62879874907697],[102.2171232464769,2.62838856064204],[102.21608682969577,2.62879874907697]]],[[[102.21788760976116,2.629191082548425],[102.21764145486748,2.6289326390300864],[102.21764145486748,2.629191082548425],[102.21788760976116,2.629191082548425]]],[[[102.21826128834915,2.629583416139947],[102.21815966325802,2.62947671764902],[102.21815966325802,2.629583416139947],[102.21826128834915,2.629583416139947]]],[[[102.2145322045241,2.629583416139947],[102.21401399613353,2.629583416139947],[102.21401399613353,2.629975749851556],[102.2145322045241,2.629975749851556],[102.2145322045241,2.629583416139947]]],[[[102.21815966325802,2.629975749851556],[102.21815966325802,2.6303680836832704],[102.21900864552511,2.6303680836832704],[102.21863496693712,2.629975749851556],[102.21815966325802,2.629975749851556]]],[[[102.21815966325802,2.630760417635107],[102.21815966325802,2.6303680836832704],[102.21764145486748,2.6303680836832704],[102.21764145486748,2.630760417635107],[102.21815966325802,2.630760417635107]]],[[[102.21919608003914,2.630760417635107],[102.21938232411307,2.630760417635107],[102.21919608003914,2.63056487557974],[102.21919608003914,2.630760417635107]]],[[[102.21971428842971,2.630969619202893],[102.22023249682027,2.631152751707084],[102.22023249682027,2.6315450858992206],[102.22138182787309,2.6315450858992206],[102.21971428842971,2.630969619202893]]],[[[102.22230533038251,2.6350760990385647],[102.22230533038251,2.6346837637641887],[102.22178712199195,2.6346837637641887],[102.22178712199195,2.6350760990385647],[102.22230533038251,2.6350760990385647]]],[[[102.22230533038251,2.6354684344332804],[102.22178712199195,2.6354684344332804],[102.22178712199195,2.6358607699483523],[102.22230533038251,2.6358607699483523],[102.22230533038251,2.6354684344332804]]],[[[102.24769754151998,2.676664324141448],[102.24769754151998,2.6762719760108578],[102.24717933312944,2.6762719760108578],[102.24717933312944,2.6754872801163523],[102.24769754151998,2.6754872801163523],[102.24717933312944,2.674702584710628],[102.24821574991054,2.6743102371910132],[102.2483933,2.6603795970488995],[102.25909812611232,2.660360016946778],[102.25857991772176,2.6601858076908003],[102.25857991772176,2.659401121787478],[102.26013454289344,2.6586164363699805],[102.26013454289344,2.658224093843371],[102.25909812611232,2.658224093843371],[102.25909812611232,2.6578317514381644],[102.25806170933119,2.6578317514381644],[102.25806170933119,2.658224093843371],[102.25754350094064,2.658224093843371],[102.25650708415952,2.656654724950775],[102.25855631970228,2.65587004123253],[102.25759329999998,2.655278197054467],[102.2594923,2.6477250970627293],[102.26143419999998,2.6435050970673375],[102.263757,2.633934497077802],[102.2631669,2.633934497077802],[102.25955129999998,2.628768597083422],[102.2461215,2.6365146970749778],[102.24956269999998,2.6424547970684964],[102.24731239999998,2.6522558970577803],[102.24220269999998,2.653536597056372],[102.2416448,2.6500212970602286],[102.2250098,2.644785897065914],[102.22834116399542,2.6374301132125715],[102.226450997507,2.6374301132125715],[102.226450997507,2.637822449329699],[102.22437816394475,2.6382147855672917],[102.22385995555419,2.6389994584039442],[102.22075070521082,2.6389994584039442],[102.21919608003914,2.640568805523623],[102.21764145486748,2.640568805523623],[102.21764145486748,2.640961142604976],[102.2171232464769,2.640961142604976],[102.2171232464769,2.640568805523623],[102.21660503808634,2.640568805523623],[102.21505041291466,2.6389994584039442],[102.2145322045241,2.6389994584039442],[102.2145322045241,2.6397841317226733],[102.21349578774297,2.6401764685628613],[102.21349578774297,2.6397841317226733],[102.21245937096187,2.63939179500304],[102.21245937096187,2.6386071219253675],[102.21194116257129,2.6386071219253675],[102.21194116257129,2.6389994584039442],[102.21090474579016,2.6386071219253675],[102.21090474579016,2.637822449329699],[102.21142295418073,2.637822449329699],[102.21142295418073,2.636253105583799],[102.21090474579016,2.636253105583799],[102.21090474579016,2.6358607699483523],[102.21142295418073,2.6358607699483523],[102.21142295418073,2.6350760990385647],[102.21038653739963,2.6346837637641887],[102.21038653739963,2.633506758662913],[102.20986832900905,2.633506758662913],[102.20986832900905,2.629975749851556],[102.21194116257129,2.62879874907697],[102.21194116257129,2.6280140824941975],[102.21142295418073,2.6280140824941975],[102.21142295418073,2.627621749382841],[102.21194116257129,2.627621749382841],[102.21349578774297,2.6260524181372054],[102.21401399613353,2.6260524181372054],[102.21401399613353,2.626444750768683],[102.2145322045241,2.626444750768683],[102.2145322045241,2.6272294163914833],[102.21505041291466,2.6272294163914833],[102.2145322045241,2.6280140824941975],[102.21349578774297,2.627621749382841],[102.21349578774297,2.6284064157255678],[102.21401399613353,2.6284064157255678],[102.21401399613353,2.62879874907697],[102.21639289540929,2.627621749382841],[102.20998670000002,2.6210920970918323],[102.21044539999998,2.620006997093018],[102.2068432,2.6183885970947536],[102.20600899999998,2.6208402970920743],[102.20480339999999,2.619568897093465],[102.205435,2.6189833970941145],[102.20152969999998,2.6149160970985417],[102.19987210000001,2.6140693970994815],[102.199899,2.6137317970998573],[102.19467939999998,2.6114703971023268],[102.19459889999999,2.6106289971032473],[102.19331679999999,2.6110630971027637],[102.18918079999997,2.609701897104273],[102.1888429,2.6083193971057703],[102.18738909999999,2.60756909710657],[102.1868956,2.6054683971088832],[102.1859568,2.6048306971095756],[102.1811825,2.6054630971088693],[102.1788436,2.604444897110005],[102.17747029999998,2.602815797111793],[102.17498659999998,2.602842597111756],[102.17550689999997,2.601406397113303],[102.17306079999999,2.6013340971134067],[102.172417,2.60044719711439],[102.17133069999997,2.6015188971132095],[102.16854660000001,2.601910097112798],[102.1690153,2.5997444971151253],[102.1678793,2.601699897113007],[102.16271260000002,2.6078515971062832],[102.1647987799944,2.6099668832948626],[102.16582061581141,2.610359211024206],[102.16556741811979,2.6107515388727536],[102.1677256,2.6129546971006894],[102.1662331,2.614542997098954],[102.1633644,2.6165352970967737],[102.1610751,2.615112297098344],[102.16088409999999,2.614191097099367],[102.1596336,2.6127993971008876],[102.1582649,2.612184797101562],[102.15973019999998,2.6254246970870927],[102.1608352,2.6536223970562793],[102.1666932,2.6542439970556004],[102.1714139,2.663096397045965],[102.17888110000001,2.667940597040651],[102.18456739999998,2.6641466970447865],[102.2032356,2.6883674970183495],[102.210027,2.677328897030432],[102.2407611,2.6956361970104195],[102.242412,2.6978358970080594],[102.24806069999998,2.6885174970182044],[102.24820080781987,2.676664324141448],[102.24769754151998,2.676664324141448]],[[102.24666112473886,2.669209730544299],[102.24717933312944,2.669994422532597],[102.2461429163483,2.670386768709651],[102.24562470795773,2.6696020764774855],[102.24666112473886,2.669209730544299]],[[102.25547066737839,2.6535159929882726],[102.25650708415952,2.6550853579994604],[102.25495245898783,2.65587004123253],[102.25495245898783,2.6554776995553566],[102.25443425059727,2.6554776995553566],[102.25443425059727,2.653908334059245],[102.25547066737839,2.6535159929882726]],[[102.2502885834728,2.6507696088836585],[102.2502885834728,2.6511619491067084],[102.25080679186334,2.6511619491067084],[102.25080679186334,2.6519466299160603],[102.24977037508222,2.6523389705023974],[102.24977037508222,2.6519466299160603],[102.24925216669168,2.6519466299160603],[102.24925216669168,2.6511619491067084],[102.2502885834728,2.6507696088836585]],[[102.25236141703503,2.636253105583799],[102.25236141703503,2.6358607699483523],[102.25391604220671,2.6358607699483523],[102.25391604220671,2.6354684344332804],[102.25495245898783,2.6358607699483523],[102.25495245898783,2.63664544133964],[102.25443425059727,2.63664544133964],[102.25443425059727,2.637037777215891],[102.25287962542559,2.637037777215891],[102.25287962542559,2.637822449329699],[102.25184320864447,2.6382147855672917],[102.25184320864447,2.637822449329699],[102.25132500025391,2.637822449329699],[102.25132500025391,2.637037777215891],[102.25184320864447,2.637037777215891],[102.25184320864447,2.636253105583799],[102.25236141703503,2.636253105583799]],[[102.20986832900905,2.6272294163914833],[102.21038653739963,2.6280140824941975],[102.2093501206185,2.6284064157255678],[102.20883191222792,2.627621749382841],[102.20986832900905,2.6272294163914833]],[[102.20986832900905,2.623306093073744],[102.21038653739963,2.624090756778327],[102.2093501206185,2.624483088810362],[102.20883191222792,2.623698424866127],[102.20986832900905,2.623306093073744]],[[102.16582061581141,2.6072205925256546],[102.16582061581141,2.6068282657492943],[102.16633882420196,2.6068282657492943],[102.16633882420196,2.6072205925256546],[102.16685703259253,2.6072205925256546],[102.16685703259253,2.6080052464355736],[102.16530240742084,2.6087899008218747],[102.16478419903028,2.6080052464355736],[102.16530240742084,2.6080052464355736],[102.16530240742084,2.6072205925256546],[102.16582061581141,2.6072205925256546]]],[[[102.22178712199195,2.631684952655401],[102.22230533038251,2.632329754644041],[102.22282353877308,2.632329754644041],[102.22282353877308,2.6320426195314734],[102.22178712199195,2.631684952655401]]],[[[102.22334174716363,2.632329754644041],[102.22365557437406,2.632329754644041],[102.22334174716363,2.632221453006969],[102.22334174716363,2.632329754644041]]],[[[102.22385995555419,2.6327220891967618],[102.22437816394475,2.632579120032889],[102.22385995555419,2.632400286507441],[102.22385995555419,2.6327220891967618]]],[[[102.22541458072588,2.633114423869713],[102.22553300036427,2.633114423869713],[102.22541458072588,2.6330138145742197],[102.22541458072588,2.633114423869713]]],[[[102.22593278911643,2.633506758662913],[102.22599478806649,2.633506758662913],[102.22593278911643,2.633454084353146],[102.22593278911643,2.633506758662913]]],[[[102.22645657576871,2.633899093576381],[102.226450997507,2.633894354283521],[102.226450997507,2.633899093576381],[102.22645657576871,2.633899093576381]]],[[[102.22748741428812,2.6350760990385647],[102.22748741428812,2.6358607699483523],[102.22850746599313,2.6358607699483523],[102.22784193887541,2.6350760990385647],[102.22748741428812,2.6350760990385647]]],[[[102.22852383106924,2.636253105583799],[102.22853469016547,2.636253105583799],[102.22852383106924,2.636096611907361],[102.22852383106924,2.636253105583799]]],[[[102.25857991772176,2.656262383030996],[102.25961633450288,2.656262383030996],[102.26013454289344,2.6570470669918835],[102.260652751284,2.6570470669918835],[102.2611391,2.65640889705324],[102.25857991772176,2.655874964581024],[102.25857991772176,2.656262383030996]]],[[[102.26168916806512,2.657439409154341],[102.26219837364602,2.657439409154341],[102.26168916806512,2.657284004612468],[102.26168916806512,2.657439409154341]]],[[[102.25961633450288,2.65900877901801],[102.25961633450288,2.659401121787478],[102.26013454289344,2.659401121787478],[102.26013454289344,2.65900877901801],[102.25961633450288,2.65900877901801]]],[[[102.2600931,2.6603581970489145],[102.26004209999999,2.680075097027414],[102.26479841840849,2.679777077730986],[102.26479841840849,2.6794107644795693],[102.2660717,2.679697297027831],[102.27492839999998,2.676385697031435],[102.28086287851586,2.671986129132764],[102.2803446701253,2.6719561546376562],[102.2803446701253,2.6715638079726505],[102.28086287851586,2.6715638079726505],[102.28086287851586,2.670779115008666],[102.2803446701253,2.670779115008666],[102.2803446701253,2.670386768709651],[102.28086287851586,2.6702074086665184],[102.279759,2.669775897038658],[102.27827183656306,2.669765373174024],[102.27723541978195,2.6700000181062293],[102.27723541978195,2.670386768709651],[102.27619900300081,2.670389423326219],[102.27619900300081,2.670779115008666],[102.27568079461025,2.670779115008666],[102.27568079461025,2.670386768709651],[102.273488,2.670330597038024],[102.2735775457366,2.668425039043629],[102.27308975265746,2.668425039043629],[102.27336858952651,2.6676403480304405],[102.27075219999998,2.66568999704311],[102.271044514576,2.662147524575535],[102.27101691909522,2.6617551809554953],[102.27049871070464,2.6617551809554953],[102.27049871070464,2.6609791462215133],[102.26220737645568,2.657442156723598],[102.26168916806512,2.658224093843371],[102.26117095967456,2.658224093843371],[102.26117095967456,2.6578317514381644],[102.26013454289344,2.6578317514381644],[102.26117095967456,2.65900877901801],[102.260652751284,2.65900877901801],[102.260652751284,2.659401121787478],[102.26013454289344,2.659401121787478],[102.26013454289344,2.6601858076908003],[102.25961633450288,2.6601858076908003],[102.2600931,2.6603581970489145]],[[102.2699805023141,2.6758796280024986],[102.2699805023141,2.6762719760108578],[102.27101691909522,2.6762719760108578],[102.27101691909522,2.676664324141448],[102.27153512748576,2.676664324141448],[102.27101691909522,2.6774490207693944],[102.27049871070464,2.6774490207693944],[102.27049871070464,2.6770566723942886],[102.2699805023141,2.6770566723942886],[102.2699805023141,2.6774490207693944],[102.26894408553297,2.6770566723942886],[102.26894408553297,2.6762719760108578],[102.2699805023141,2.6758796280024986]],[[102.26790766875185,2.6754872801163523],[102.2684258771424,2.6762719760108578],[102.26738946036129,2.676664324141448],[102.26687125197073,2.6758796280024986],[102.26790766875185,2.6754872801163523]]]]},"properties":{"place_id":"3e8dc051-1de9-5190-af6b-46fe0f5d7eac","habitat":"forest_interior","habitat_label":"Forest interior","resolution_m":50}},{"type":"Feature","geometry":{"type":"MultiPolygon","coordinates":[[[[102.16685703259253,2.6072205925256546],[102.16582061581141,2.6068282657492943],[102.16478419903028,2.608397573569167],[102.16582061581141,2.6087899008218747],[102.16582061581141,2.608397573569167],[102.16685703259253,2.6080052464355736],[102.16685703259253,2.6072205925256546]]],[[[102.16556741811979,2.6107515388727536],[102.16582061581141,2.610359211024206],[102.1647987799944,2.6099668832948626],[102.16556741811979,2.6107515388727536]]],[[[102.20986832900905,2.623306093073744],[102.20883191222792,2.623698424866127],[102.2093501206185,2.624483088810362],[102.21038653739963,2.624090756778327],[102.20986832900905,2.623306093073744]]],[[[102.20986832900905,2.6272294163914833],[102.20883191222792,2.627621749382841],[102.2093501206185,2.6284064157255678],[102.21038653739963,2.6280140824941975],[102.20986832900905,2.6272294163914833]]],[[[102.21863496693712,2.629975749851556],[102.2171232464769,2.62879874907697],[102.2171232464769,2.629191082548425],[102.21608682969577,2.629583416139947],[102.21608682969577,2.62879874907697],[102.2171232464769,2.6284064157255678],[102.21639289540929,2.627621749382841],[102.21401399613353,2.62879874907697],[102.21401399613353,2.6284064157255678],[102.21349578774297,2.6284064157255678],[102.21349578774297,2.627621749382841],[102.2145322045241,2.6280140824941975],[102.21505041291466,2.6272294163914833],[102.2145322045241,2.6272294163914833],[102.2145322045241,2.626444750768683],[102.21349578774297,2.6260524181372054],[102.21349578774297,2.626444750768683],[102.21142295418073,2.627621749382841],[102.21142295418073,2.6280140824941975],[102.21194116257129,2.6280140824941975],[102.21194116257129,2.62879874907697],[102.20986832900905,2.629975749851556],[102.20986832900905,2.633506758662913],[102.21038653739963,2.633506758662913],[102.21038653739963,2.6346837637641887],[102.21142295418073,2.6350760990385647],[102.21142295418073,2.6358607699483523],[102.21090474579016,2.6358607699483523],[102.21090474579016,2.636253105583799],[102.21142295418073,2.636253105583799],[102.21142295418073,2.637822449329699],[102.21090474579016,2.637822449329699],[102.21090474579016,2.6386071219253675],[102.21142295418073,2.6386071219253675],[102.21142295418073,2.6389994584039442],[102.21245937096187,2.6386071219253675],[102.21245937096187,2.63939179500304],[102.21297757935243,2.63939179500304],[102.21349578774297,2.6401764685628613],[102.21401399613353,2.6401764685628613],[102.21401399613353,2.6397841317226733],[102.2145322045241,2.6397841317226733],[102.2145322045241,2.6389994584039442],[102.21505041291466,2.6389994584039442],[102.21505041291466,2.63939179500304],[102.21556862130524,2.63939179500304],[102.2171232464769,2.640961142604976],[102.21764145486748,2.640961142604976],[102.21764145486748,2.640568805523623],[102.21919608003914,2.640568805523623],[102.22075070521082,2.6389994584039442],[102.22385995555419,2.6389994584039442],[102.22437816394475,2.6382147855672917],[102.22541458072588,2.6382147855672917],[102.22541458072588,2.637822449329699],[102.226450997507,2.637822449329699],[102.226450997507,2.6374301132125715],[102.22834116399542,2.6374301132125715],[102.22857979999999,2.6369031970745396],[102.22850746599313,2.6358607699483523],[102.22748741428812,2.6358607699483523],[102.22748741428812,2.6350760990385647],[102.22784193887541,2.6350760990385647],[102.2252619,2.63288409707893],[102.22385995555419,2.6327220891967618],[102.22385995555419,2.632400286507441],[102.22282353877308,2.6320426195314734],[102.22230533038251,2.632329754644041],[102.22230533038251,2.6319374202115333],[102.22138182787309,2.6315450858992206],[102.22023249682027,2.6315450858992206],[102.22023249682027,2.631152751707084],[102.21971428842971,2.631152751707084],[102.21900864552511,2.6303680836832704],[102.21815966325802,2.6303680836832704],[102.21815966325802,2.629975749851556],[102.21863496693712,2.629975749851556]],[[102.21815966325802,2.630760417635107],[102.21764145486748,2.630760417635107],[102.21764145486748,2.6303680836832704],[102.21815966325802,2.6303680836832704],[102.21815966325802,2.630760417635107]],[[102.22023249682027,2.6386071219253675],[102.22023249682027,2.6389994584039442],[102.21919608003914,2.6389994584039442],[102.21919608003914,2.63939179500304],[102.21867787164858,2.63939179500304],[102.21867787164858,2.6397841317226733],[102.21764145486748,2.6397841317226733],[102.21764145486748,2.6401764685628613],[102.2171232464769,2.6401764685628613],[102.2171232464769,2.6397841317226733],[102.21660503808634,2.6397841317226733],[102.21505041291466,2.6382147855672917],[102.21349578774297,2.6389994584039442],[102.21349578774297,2.6382147855672917],[102.21401399613353,2.6382147855672917],[102.21401399613353,2.637822449329699],[102.21349578774297,2.637822449329699],[102.21349578774297,2.6374301132125715],[102.21245937096187,2.637822449329699],[102.21245937096187,2.636253105583799],[102.21297757935243,2.636253105583799],[102.21297757935243,2.6358607699483523],[102.21245937096187,2.6358607699483523],[102.21245937096187,2.6350760990385647],[102.21349578774297,2.6350760990385647],[102.21349578774297,2.6354684344332804],[102.21556862130524,2.6350760990385647],[102.21556862130524,2.6354684344332804],[102.21608682969577,2.6354684344332804],[102.21608682969577,2.6350760990385647],[102.21660503808634,2.6350760990385647],[102.21608682969577,2.633506758662913],[102.21660503808634,2.633506758662913],[102.21660503808634,2.633114423869713],[102.21764145486748,2.633506758662913],[102.21815966325802,2.6327220891967618],[102.21919608003914,2.6327220891967618],[102.21919608003914,2.633899093576381],[102.21971428842971,2.633899093576381],[102.21971428842971,2.6346837637641887],[102.21919608003914,2.6346837637641887],[102.21919608003914,2.6350760990385647],[102.21971428842971,2.6350760990385647],[102.21971428842971,2.6354684344332804],[102.21764145486748,2.6354684344332804],[102.21660503808634,2.63664544133964],[102.2171232464769,2.63664544133964],[102.2171232464769,2.637037777215891],[102.22023249682027,2.63664544133964],[102.22023249682027,2.637037777215891],[102.22075070521082,2.637037777215891],[102.22075070521082,2.6374301132125715],[102.22023249682027,2.6374301132125715],[102.22023249682027,2.637822449329699],[102.22075070521082,2.637822449329699],[102.22075070521082,2.6386071219253675],[102.22023249682027,2.6386071219253675]],[[102.22075070521082,2.6354684344332804],[102.22075070521082,2.6358607699483523],[102.21971428842971,2.6358607699483523],[102.21971428842971,2.6354684344332804],[102.22075070521082,2.6354684344332804]],[[102.22075070521082,2.63664544133964],[102.22178712199195,2.63664544133964],[102.22230533038251,2.6374301132125715],[102.22126891360138,2.6374301132125715],[102.22075070521082,2.63664544133964]],[[102.22541458072588,2.6354684344332804],[102.22593278911643,2.6354684344332804],[102.226450997507,2.636253105583799],[102.22748741428812,2.636253105583799],[102.22748741428812,2.63664544133964],[102.226450997507,2.63664544133964],[102.226450997507,2.637037777215891],[102.22437816394475,2.6374301132125715],[102.22385995555419,2.6382147855672917],[102.22282353877308,2.6382147855672917],[102.22282353877308,2.637822449329699],[102.22334174716363,2.637822449329699],[102.22334174716363,2.6374301132125715],[102.22282353877308,2.6374301132125715],[102.22282353877308,2.637037777215891],[102.22334174716363,2.637037777215891],[102.22282353877308,2.636253105583799],[102.22385995555419,2.6358607699483523],[102.22385995555419,2.6350760990385647],[102.22437816394475,2.6350760990385647],[102.22489637233532,2.6358607699483523],[102.22541458072588,2.6358607699483523],[102.22541458072588,2.6354684344332804]],[[102.22334174716363,2.6350760990385647],[102.22334174716363,2.6346837637641887],[102.22385995555419,2.6346837637641887],[102.22385995555419,2.6350760990385647],[102.22334174716363,2.6350760990385647]],[[102.22230533038251,2.6354684344332804],[102.22230533038251,2.6358607699483523],[102.22178712199195,2.6358607699483523],[102.22178712199195,2.6354684344332804],[102.22230533038251,2.6354684344332804]],[[102.22230533038251,2.6346837637641887],[102.22230533038251,2.6350760990385647],[102.22178712199195,2.6350760990385647],[102.22178712199195,2.6346837637641887],[102.22230533038251,2.6346837637641887]],[[102.21401399613353,2.631152751707084],[102.21401399613353,2.630760417635107],[102.21505041291466,2.6303680836832704],[102.21505041291466,2.631152751707084],[102.2145322045241,2.631152751707084],[102.2145322045241,2.6315450858992206],[102.21556862130524,2.6319374202115333],[102.21556862130524,2.632329754644041],[102.21505041291466,2.632329754644041],[102.21505041291466,2.6327220891967618],[102.21556862130524,2.6327220891967618],[102.21556862130524,2.633114423869713],[102.21505041291466,2.633114423869713],[102.21505041291466,2.633506758662913],[102.21556862130524,2.633506758662913],[102.21556862130524,2.6342914286101333],[102.21505041291466,2.6342914286101333],[102.21505041291466,2.6346837637641887],[102.2145322045241,2.6346837637641887],[102.2145322045241,2.633506758662913],[102.21349578774297,2.633114423869713],[102.21349578774297,2.6327220891967618],[102.21401399613353,2.6327220891967618],[102.21401399613353,2.632329754644041],[102.21349578774297,2.632329754644041],[102.21349578774297,2.631152751707084],[102.21401399613353,2.631152751707084]],[[102.21349578774297,2.633506758662913],[102.21142295418073,2.633899093576381],[102.21090474579016,2.633114423869713],[102.21142295418073,2.633114423869713],[102.21142295418073,2.6327220891967618],[102.21194116257129,2.6327220891967618],[102.21194116257129,2.6319374202115333],[102.21245937096187,2.6319374202115333],[102.21245937096187,2.6327220891967618],[102.21297757935243,2.6327220891967618],[102.21349578774297,2.633506758662913]],[[102.22178712199195,2.632329754644041],[102.22178712199195,2.6327220891967618],[102.22230533038251,2.6327220891967618],[102.22230533038251,2.633506758662913],[102.22178712199195,2.633506758662913],[102.22178712199195,2.6342914286101333],[102.22075070521082,2.6346837637641887],[102.22075070521082,2.6342914286101333],[102.22023249682027,2.6342914286101333],[102.22023249682027,2.633899093576381],[102.22075070521082,2.633899093576381],[102.22075070521082,2.632329754644041],[102.22178712199195,2.632329754644041]],[[102.226450997507,2.6342914286101333],[102.226450997507,2.6346837637641887],[102.22593278911643,2.6346837637641887],[102.22593278911643,2.6342914286101333],[102.226450997507,2.6342914286101333]],[[102.22334174716363,2.633899093576381],[102.22334174716363,2.633506758662913],[102.22437816394475,2.633506758662913],[102.22385995555419,2.6342914286101333],[102.22282353877308,2.6342914286101333],[102.22282353877308,2.633899093576381],[102.22334174716363,2.633899093576381]],[[102.22282353877308,2.633506758662913],[102.22282353877308,2.633114423869713],[102.22334174716363,2.633114423869713],[102.22334174716363,2.633506758662913],[102.22282353877308,2.633506758662913]],[[102.22437816394475,2.633114423869713],[102.22489637233532,2.633114423869713],[102.22489637233532,2.633506758662913],[102.22437816394475,2.633506758662913],[102.22437816394475,2.633114423869713]],[[102.21660503808634,2.6319374202115333],[102.21660503808634,2.632329754644041],[102.21608682969577,2.632329754644041],[102.21608682969577,2.6319374202115333],[102.21660503808634,2.6319374202115333]],[[102.21764145486748,2.6315450858992206],[102.21764145486748,2.632329754644041],[102.2171232464769,2.632329754644041],[102.2171232464769,2.6315450858992206],[102.21764145486748,2.6315450858992206]],[[102.21919608003914,2.631152751707084],[102.21919608003914,2.6315450858992206],[102.21867787164858,2.6315450858992206],[102.21867787164858,2.631152751707084],[102.21919608003914,2.631152751707084]],[[102.21297757935243,2.630760417635107],[102.21194116257129,2.631152751707084],[102.21142295418073,2.6303680836832704],[102.21245937096187,2.629975749851556],[102.21297757935243,2.630760417635107]],[[102.21090474579016,2.6303680836832704],[102.21090474579016,2.629975749851556],[102.21142295418073,2.629975749851556],[102.21142295418073,2.6303680836832704],[102.21090474579016,2.6303680836832704]],[[102.21660503808634,2.6303680836832704],[102.21660503808634,2.630760417635107],[102.21556862130524,2.630760417635107],[102.21556862130524,2.6303680836832704],[102.21660503808634,2.6303680836832704]],[[102.2145322045241,2.629583416139947],[102.2145322045241,2.629975749851556],[102.21401399613353,2.629975749851556],[102.21401399613353,2.629583416139947],[102.2145322045241,2.629583416139947]]],[[[102.21505041291466,2.63664544133964],[102.21608682969577,2.636253105583799],[102.21556862130524,2.6354684344332804],[102.2145322045241,2.6358607699483523],[102.21505041291466,2.63664544133964]]],[[[102.25443425059727,2.63664544133964],[102.25495245898783,2.63664544133964],[102.25495245898783,2.6358607699483523],[102.25443425059727,2.6358607699483523],[102.25443425059727,2.6354684344332804],[102.25391604220671,2.6354684344332804],[102.25391604220671,2.6358607699483523],[102.25236141703503,2.6358607699483523],[102.25236141703503,2.636253105583799],[102.25184320864447,2.636253105583799],[102.25184320864447,2.637037777215891],[102.25132500025391,2.637037777215891],[102.25132500025391,2.637822449329699],[102.25236141703503,2.6382147855672917],[102.25236141703503,2.637822449329699],[102.25287962542559,2.637822449329699],[102.25287962542559,2.637037777215891],[102.25443425059727,2.637037777215891],[102.25443425059727,2.63664544133964]]],[[[102.21971428842971,2.6374301132125715],[102.21867787164858,2.637822449329699],[102.21919608003914,2.6386071219253675],[102.22023249682027,2.6382147855672917],[102.21971428842971,2.6374301132125715]]],[[[102.21867787164858,2.6382147855672917],[102.21764145486748,2.637822449329699],[102.2171232464769,2.6386071219253675],[102.21867787164858,2.63939179500304],[102.21867787164858,2.6389994584039442],[102.21919608003914,2.6389994584039442],[102.21867787164858,2.6382147855672917]]],[[[102.2502885834728,2.6507696088836585],[102.24925216669168,2.6511619491067084],[102.24925216669168,2.6519466299160603],[102.24977037508222,2.6519466299160603],[102.24977037508222,2.6523389705023974],[102.25080679186334,2.6519466299160603],[102.25080679186334,2.6511619491067084],[102.2502885834728,2.6511619491067084],[102.2502885834728,2.6507696088836585]]],[[[102.25650708415952,2.654693016564821],[102.25598887576895,2.654693016564821],[102.25598887576895,2.653908334059245],[102.25547066737839,2.653908334059245],[102.25547066737839,2.6535159929882726],[102.25443425059727,2.653908334059245],[102.25443425059727,2.6554776995553566],[102.25495245898783,2.6554776995553566],[102.25495245898783,2.65587004123253],[102.25547066737839,2.65587004123253],[102.25650708415952,2.654693016564821]]],[[[102.26013454289344,2.6578317514381644],[102.26117095967456,2.6578317514381644],[102.26117095967456,2.658224093843371],[102.26168916806512,2.658224093843371],[102.26220737645568,2.657442156723598],[102.26094599999999,2.657057197052557],[102.26106587869104,2.656654724950775],[102.26013454289344,2.6570470669918835],[102.25961633450288,2.656262383030996],[102.25857991772176,2.656262383030996],[102.25855631970228,2.65587004123253],[102.25650708415952,2.656654724950775],[102.25754350094064,2.658224093843371],[102.25806170933119,2.658224093843371],[102.25806170933119,2.6578317514381644],[102.26013454289344,2.658224093843371],[102.26013454289344,2.6578317514381644]]],[[[102.25961633450288,2.65900877901801],[102.25857991772176,2.659401121787478],[102.25857991772176,2.6601858076908003],[102.26013454289344,2.6601858076908003],[102.26013454289344,2.659401121787478],[102.25961633450288,2.659401121787478],[102.25961633450288,2.65900877901801]]],[[[102.24666112473886,2.669209730544299],[102.24562470795773,2.6696020764774855],[102.2461429163483,2.670386768709651],[102.24717933312944,2.669994422532597],[102.24666112473886,2.669209730544299]]],[[[102.24826573544156,2.67117146142966],[102.24821574991054,2.6715638079726505],[102.2482610977543,2.6715638079726505],[102.24826573544156,2.67117146142966]]],[[[102.24821574991054,2.6743102371910132],[102.24717933312944,2.674702584710628],[102.24717933312944,2.675094932352401],[102.24769754151998,2.675094932352401],[102.24769754151998,2.6754872801163523],[102.24717933312944,2.6754872801163523],[102.24717933312944,2.6762719760108578],[102.24769754151998,2.6762719760108578],[102.24769754151998,2.676664324141448],[102.24820080781987,2.676664324141448],[102.24823327163071,2.673917889793539],[102.24821574991054,2.6743102371910132]]],[[[102.260652751284,2.658224093843371],[102.25961633450288,2.6586164363699805],[102.26013454289344,2.659401121787478],[102.26117095967456,2.65900877901801],[102.260652751284,2.658224093843371]]],[[[102.26790766875185,2.6597934646784016],[102.26797036946205,2.6597934646784016],[102.26790766875185,2.6597640607997097],[102.26790766875185,2.6597934646784016]]],[[[102.2684258771424,2.6601858076908003],[102.26880699995178,2.6601858076908003],[102.2684258771424,2.6600070777908456],[102.2684258771424,2.6601858076908003]]],[[[102.26964363044148,2.6605781508246906],[102.26894408553297,2.6602500948285903],[102.26894408553297,2.6605781508246906],[102.26964363044148,2.6605781508246906]]],[[[102.27101691909522,2.662147524575535],[102.271117,2.661269097047938],[102.27049871070464,2.6609791462215133],[102.27049871070464,2.6617551809554953],[102.27101691909522,2.6617551809554953],[102.27101691909522,2.662147524575535]]],[[[102.27308975265746,2.6676403480304405],[102.27308975265746,2.668425039043629],[102.2735775457366,2.668425039043629],[102.2736061,2.667817397040781],[102.27308975265746,2.6676403480304405]]],[[[102.27827183656306,2.669994422532597],[102.2778654,2.6697624970386618],[102.27725026099333,2.669994422532597],[102.27827183656306,2.669994422532597]]],[[[102.27619900300081,2.670389423326219],[102.27516258621971,2.670366934028673],[102.27568079461025,2.670386768709651],[102.27568079461025,2.670779115008666],[102.27619900300081,2.670779115008666],[102.27619900300081,2.670389423326219]]],[[[102.27723541978195,2.670386768709651],[102.27723541978195,2.6700000181062293],[102.27620963637787,2.670386768709651],[102.27723541978195,2.670386768709651]]],[[[102.26013454289344,2.6715638079726505],[102.26006614501348,2.670779115008666],[102.26006411531759,2.6715638079726505],[102.26013454289344,2.6715638079726505]]],[[[102.28086287851586,2.670224604763581],[102.28086949999998,2.6702099970381927],[102.28086287851586,2.6702074086665184],[102.28086287851586,2.670224604763581]]],[[[102.2803446701253,2.670386768709651],[102.2803446701253,2.670779115008666],[102.28086287851586,2.670779115008666],[102.28086287851586,2.6715638079726505],[102.2803446701253,2.6715638079726505],[102.2803446701253,2.6719561546376562],[102.28086287851586,2.671986129132764],[102.281414,2.6711128970371827],[102.2803446701253,2.670386768709651]]],[[[102.2803446701253,2.6723485014246955],[102.2803446701253,2.6723703060006967],[102.28037408187168,2.6723485014246955],[102.2803446701253,2.6723485014246955]]],[[[102.26013454289344,2.6743102371910132],[102.26006107077376,2.6727408483337847],[102.26005701138193,2.6743102371910132],[102.26013454289344,2.6743102371910132]]],[[[102.26790766875185,2.6754872801163523],[102.26687125197073,2.6758796280024986],[102.26738946036129,2.676664324141448],[102.2684258771424,2.6762719760108578],[102.26790766875185,2.6754872801163523]]],[[[102.27101691909522,2.6770566723942886],[102.27153512748576,2.6770566723942886],[102.27101691909522,2.6762719760108578],[102.2699805023141,2.6762719760108578],[102.2699805023141,2.6758796280024986],[102.26894408553297,2.6762719760108578],[102.26894408553297,2.6770566723942886],[102.26946229392352,2.6770566723942886],[102.26946229392352,2.6774490207693944],[102.2699805023141,2.6774490207693944],[102.2699805023141,2.6770566723942886],[102.27101691909522,2.6774490207693944],[102.27101691909522,2.6770566723942886]]],[[[102.26531662679905,2.6794107644795693],[102.26479841840849,2.6794107644795693],[102.26479841840849,2.679777077730986],[102.26531662679905,2.6797446080629785],[102.26531662679905,2.6794107644795693]]],[[[102.26428021001792,2.679809547399833],[102.26438289215231,2.6798031135886577],[102.26428021001792,2.6798031135886577],[102.26428021001792,2.679809547399833]]]]},"properties":{"place_id":"3e8dc051-1de9-5190-af6b-46fe0f5d7eac","habitat":"forest_edge_opening","habitat_label":"Forest edge or opening","resolution_m":50}},{"type":"Feature","geometry":{"type":"MultiPolygon","coordinates":[[[[102.16633882420196,2.6072205925256546],[102.16582061581141,2.6072205925256546],[102.16582061581141,2.6080052464355736],[102.16633882420196,2.6080052464355736],[102.16633882420196,2.6072205925256546]]],[[[102.16530240742084,2.608397573569167],[102.16582061581141,2.608397573569167],[102.16582061581141,2.6080052464355736],[102.16530240742084,2.6080052464355736],[102.16530240742084,2.608397573569167]]],[[[102.16530240742084,2.610359211024206],[102.16518309905709,2.610359211024206],[102.16530240742084,2.6104810056300485],[102.16530240742084,2.610359211024206]]],[[[102.20986832900905,2.623698424866127],[102.2093501206185,2.623698424866127],[102.2093501206185,2.624090756778327],[102.20986832900905,2.624090756778327],[102.20986832900905,2.623698424866127]]],[[[102.21401399613353,2.6272294163914833],[102.21401399613353,2.626444750768683],[102.21349578774297,2.626444750768683],[102.21297757935243,2.6272294163914833],[102.21401399613353,2.6272294163914833]]],[[[102.2145322045241,2.627621749382841],[102.2145322045241,2.6272294163914833],[102.21401399613353,2.6272294163914833],[102.21401399613353,2.627621749382841],[102.2145322045241,2.627621749382841]]],[[[102.20986832900905,2.627621749382841],[102.2093501206185,2.627621749382841],[102.2093501206185,2.6280140824941975],[102.20986832900905,2.6280140824941975],[102.20986832900905,2.627621749382841]]],[[[102.21660503808634,2.6280140824941975],[102.21608682969577,2.6280140824941975],[102.21608682969577,2.6284064157255678],[102.21660503808634,2.6284064157255678],[102.21660503808634,2.6280140824941975]]],[[[102.21505041291466,2.62879874907697],[102.2145322045241,2.62879874907697],[102.2145322045241,2.629583416139947],[102.21556862130524,2.629583416139947],[102.21556862130524,2.62879874907697],[102.21608682969577,2.62879874907697],[102.21608682969577,2.6284064157255678],[102.21505041291466,2.6284064157255678],[102.21505041291466,2.62879874907697]]],[[[102.2171232464769,2.629975749851556],[102.21815966325802,2.629975749851556],[102.21815966325802,2.629583416139947],[102.2171232464769,2.629191082548425],[102.2171232464769,2.629975749851556]]],[[[102.21142295418073,2.637822449329699],[102.21142295418073,2.6386071219253675],[102.21245937096187,2.6382147855672917],[102.21349578774297,2.6397841317226733],[102.21401399613353,2.6397841317226733],[102.21401399613353,2.6389994584039442],[102.21505041291466,2.6386071219253675],[102.21505041291466,2.6389994584039442],[102.21556862130524,2.6389994584039442],[102.21556862130524,2.63939179500304],[102.21764145486748,2.640568805523623],[102.21764145486748,2.6401764685628613],[102.21919608003914,2.6401764685628613],[102.21919608003914,2.63939179500304],[102.22023249682027,2.63939179500304],[102.22075070521082,2.6386071219253675],[102.22385995555419,2.6386071219253675],[102.22437816394475,2.637822449329699],[102.22541458072588,2.637822449329699],[102.22541458072588,2.6374301132125715],[102.226450997507,2.6374301132125715],[102.226450997507,2.637037777215891],[102.22851884974655,2.637037777215891],[102.22852383106924,2.636253105583799],[102.226450997507,2.6358607699483523],[102.22593278911643,2.6350760990385647],[102.22748741428812,2.6350760990385647],[102.22748741428812,2.634774894598713],[102.22593278911643,2.633899093576381],[102.22593278911643,2.633506758662913],[102.22541458072588,2.633506758662913],[102.22541458072588,2.633114423869713],[102.22489637233532,2.633114423869713],[102.22489637233532,2.632757953583317],[102.22334174716363,2.633114423869713],[102.22334174716363,2.632329754644041],[102.22230533038251,2.6327220891967618],[102.22178712199195,2.6319374202115333],[102.22023249682027,2.6319374202115333],[102.22023249682027,2.633899093576381],[102.21971428842971,2.633899093576381],[102.21971428842971,2.6327220891967618],[102.21919608003914,2.6327220891967618],[102.21919608003914,2.632329754644041],[102.21815966325802,2.632329754644041],[102.21815966325802,2.6319374202115333],[102.21971428842971,2.6319374202115333],[102.21971428842971,2.631152751707084],[102.21919608003914,2.631152751707084],[102.21919608003914,2.630760417635107],[102.21815966325802,2.630760417635107],[102.21815966325802,2.6315450858992206],[102.21764145486748,2.6315450858992206],[102.21660503808634,2.629975749851556],[102.21556862130524,2.629975749851556],[102.21556862130524,2.6303680836832704],[102.21505041291466,2.6303680836832704],[102.21505041291466,2.629975749851556],[102.2145322045241,2.629975749851556],[102.2145322045241,2.6303680836832704],[102.21349578774297,2.6303680836832704],[102.21349578774297,2.6284064157255678],[102.21297757935243,2.6284064157255678],[102.21297757935243,2.627621749382841],[102.21194116257129,2.627621749382841],[102.21194116257129,2.6280140824941975],[102.21245937096187,2.6280140824941975],[102.21245937096187,2.629191082548425],[102.21142295418073,2.629191082548425],[102.21142295418073,2.629583416139947],[102.21038653739963,2.629975749851556],[102.21038653739963,2.633506758662913],[102.21090474579016,2.633506758662913],[102.21090474579016,2.6346837637641887],[102.21142295418073,2.6346837637641887],[102.21142295418073,2.6342914286101333],[102.21245937096187,2.6346837637641887],[102.21245937096187,2.6350760990385647],[102.21194116257129,2.6350760990385647],[102.21194116257129,2.6358607699483523],[102.21245937096187,2.6358607699483523],[102.21245937096187,2.636253105583799],[102.21194116257129,2.636253105583799],[102.21194116257129,2.637822449329699],[102.21142295418073,2.637822449329699]],[[102.22541458072588,2.6350760990385647],[102.22541458072588,2.6346837637641887],[102.22593278911643,2.6346837637641887],[102.22593278911643,2.6350760990385647],[102.22541458072588,2.6350760990385647]],[[102.22541458072588,2.6354684344332804],[102.22489637233532,2.6354684344332804],[102.22489637233532,2.6350760990385647],[102.22541458072588,2.6350760990385647],[102.22541458072588,2.6354684344332804]],[[102.22437816394475,2.6350760990385647],[102.22437816394475,2.6346837637641887],[102.22489637233532,2.6346837637641887],[102.22489637233532,2.6350760990385647],[102.22437816394475,2.6350760990385647]],[[102.22385995555419,2.6346837637641887],[102.22385995555419,2.6342914286101333],[102.22437816394475,2.6342914286101333],[102.22437816394475,2.6346837637641887],[102.22385995555419,2.6346837637641887]],[[102.22541458072588,2.6342914286101333],[102.22489637233532,2.6342914286101333],[102.22489637233532,2.633506758662913],[102.22541458072588,2.633506758662913],[102.22541458072588,2.6342914286101333]],[[102.21815966325802,2.6327220891967618],[102.21764145486748,2.6327220891967618],[102.21764145486748,2.632329754644041],[102.21815966325802,2.632329754644041],[102.21815966325802,2.6327220891967618]],[[102.21764145486748,2.633114423869713],[102.2171232464769,2.633114423869713],[102.2171232464769,2.6327220891967618],[102.21764145486748,2.6327220891967618],[102.21764145486748,2.633114423869713]],[[102.21660503808634,2.6327220891967618],[102.21660503808634,2.632329754644041],[102.2171232464769,2.632329754644041],[102.2171232464769,2.6327220891967618],[102.21660503808634,2.6327220891967618]],[[102.21660503808634,2.633114423869713],[102.21608682969577,2.633114423869713],[102.21608682969577,2.6327220891967618],[102.21660503808634,2.6327220891967618],[102.21660503808634,2.633114423869713]],[[102.21608682969577,2.633506758662913],[102.21556862130524,2.633506758662913],[102.21556862130524,2.633114423869713],[102.21608682969577,2.633114423869713],[102.21608682969577,2.633506758662913]],[[102.21556862130524,2.6327220891967618],[102.21556862130524,2.632329754644041],[102.21608682969577,2.632329754644041],[102.21608682969577,2.6327220891967618],[102.21556862130524,2.6327220891967618]],[[102.2171232464769,2.6315450858992206],[102.21608682969577,2.6315450858992206],[102.21608682969577,2.6319374202115333],[102.21556862130524,2.6319374202115333],[102.21505041291466,2.631152751707084],[102.2171232464769,2.631152751707084],[102.2171232464769,2.6315450858992206]],[[102.21297757935243,2.629191082548425],[102.21297757935243,2.629975749851556],[102.21245937096187,2.629975749851556],[102.21245937096187,2.629191082548425],[102.21297757935243,2.629191082548425]],[[102.21194116257129,2.629583416139947],[102.21194116257129,2.629975749851556],[102.21142295418073,2.629975749851556],[102.21142295418073,2.629583416139947],[102.21194116257129,2.629583416139947]],[[102.21245937096187,2.633899093576381],[102.21297757935243,2.633899093576381],[102.21297757935243,2.6346837637641887],[102.21245937096187,2.6346837637641887],[102.21245937096187,2.633899093576381]],[[102.21867787164858,2.6389994584039442],[102.21815966325802,2.6389994584039442],[102.21815966325802,2.6386071219253675],[102.21867787164858,2.6386071219253675],[102.21867787164858,2.6389994584039442]],[[102.21764145486748,2.6386071219253675],[102.21764145486748,2.6382147855672917],[102.21815966325802,2.6382147855672917],[102.21815966325802,2.6386071219253675],[102.21764145486748,2.6386071219253675]],[[102.21349578774297,2.637822449329699],[102.21349578774297,2.6382147855672917],[102.21297757935243,2.6382147855672917],[102.21297757935243,2.637822449329699],[102.21349578774297,2.637822449329699]],[[102.21971428842971,2.637822449329699],[102.21971428842971,2.6382147855672917],[102.21919608003914,2.6382147855672917],[102.21919608003914,2.637822449329699],[102.21971428842971,2.637822449329699]],[[102.22178712199195,2.6382147855672917],[102.22126891360138,2.6382147855672917],[102.22126891360138,2.637822449329699],[102.22178712199195,2.637822449329699],[102.22178712199195,2.6382147855672917]],[[102.22075070521082,2.637822449329699],[102.22075070521082,2.6374301132125715],[102.22126891360138,2.6374301132125715],[102.22126891360138,2.637822449329699],[102.22075070521082,2.637822449329699]],[[102.22282353877308,2.6374301132125715],[102.22282353877308,2.637822449329699],[102.22230533038251,2.637822449329699],[102.22230533038251,2.6374301132125715],[102.22282353877308,2.6374301132125715]],[[102.22282353877308,2.63664544133964],[102.22282353877308,2.637037777215891],[102.22230533038251,2.637037777215891],[102.22230533038251,2.63664544133964],[102.22282353877308,2.63664544133964]],[[102.21867787164858,2.636253105583799],[102.21867787164858,2.63664544133964],[102.2171232464769,2.63664544133964],[102.21764145486748,2.6358607699483523],[102.21971428842971,2.6358607699483523],[102.21971428842971,2.636253105583799],[102.21867787164858,2.636253105583799]],[[102.22075070521082,2.636253105583799],[102.22075070521082,2.63664544133964],[102.22023249682027,2.63664544133964],[102.22023249682027,2.636253105583799],[102.22075070521082,2.636253105583799]],[[102.21556862130524,2.6358607699483523],[102.21556862130524,2.636253105583799],[102.21505041291466,2.636253105583799],[102.21505041291466,2.6358607699483523],[102.21556862130524,2.6358607699483523]],[[102.22334174716363,2.6350760990385647],[102.22334174716363,2.6358607699483523],[102.22126891360138,2.636253105583799],[102.22126891360138,2.6346837637641887],[102.22178712199195,2.6346837637641887],[102.22178712199195,2.6342914286101333],[102.22282353877308,2.6342914286101333],[102.22282353877308,2.6350760990385647],[102.22334174716363,2.6350760990385647]],[[102.2145322045241,2.6346837637641887],[102.2145322045241,2.6350760990385647],[102.21349578774297,2.6350760990385647],[102.21349578774297,2.6346837637641887],[102.2145322045241,2.6346837637641887]],[[102.21608682969577,2.6342914286101333],[102.21608682969577,2.6350760990385647],[102.21556862130524,2.6350760990385647],[102.21556862130524,2.6342914286101333],[102.21608682969577,2.6342914286101333]],[[102.22075070521082,2.6346837637641887],[102.22075070521082,2.6350760990385647],[102.21971428842971,2.6350760990385647],[102.21971428842971,2.6346837637641887],[102.22075070521082,2.6346837637641887]],[[102.21401399613353,2.633506758662913],[102.21401399613353,2.6342914286101333],[102.21349578774297,2.6342914286101333],[102.21349578774297,2.633506758662913],[102.21401399613353,2.633506758662913]],[[102.22282353877308,2.633506758662913],[102.22282353877308,2.633899093576381],[102.22230533038251,2.633899093576381],[102.22230533038251,2.633506758662913],[102.22282353877308,2.633506758662913]],[[102.21142295418073,2.632329754644041],[102.21142295418073,2.6327220891967618],[102.21090474579016,2.6327220891967618],[102.21090474579016,2.632329754644041],[102.21142295418073,2.632329754644041]],[[102.21349578774297,2.632329754644041],[102.21349578774297,2.6327220891967618],[102.21297757935243,2.6327220891967618],[102.21297757935243,2.632329754644041],[102.21349578774297,2.632329754644041]],[[102.21090474579016,2.6319374202115333],[102.21090474579016,2.630760417635107],[102.21142295418073,2.630760417635107],[102.21142295418073,2.631152751707084],[102.21194116257129,2.631152751707084],[102.21194116257129,2.6319374202115333],[102.21090474579016,2.6319374202115333]],[[102.21297757935243,2.6315450858992206],[102.21297757935243,2.6319374202115333],[102.21245937096187,2.6319374202115333],[102.21245937096187,2.6315450858992206],[102.21297757935243,2.6315450858992206]],[[102.21349578774297,2.630760417635107],[102.21349578774297,2.631152751707084],[102.21297757935243,2.631152751707084],[102.21297757935243,2.630760417635107],[102.21349578774297,2.630760417635107]]],[[[102.21194116257129,2.6350760990385647],[102.21194116257129,2.6346837637641887],[102.21142295418073,2.6346837637641887],[102.21142295418073,2.6350760990385647],[102.21194116257129,2.6350760990385647]]],[[[102.22282353877308,2.6350760990385647],[102.22230533038251,2.6350760990385647],[102.22230533038251,2.6354684344332804],[102.22282353877308,2.6354684344332804],[102.22282353877308,2.6350760990385647]]],[[[102.21194116257129,2.6358607699483523],[102.21142295418073,2.6358607699483523],[102.21142295418073,2.636253105583799],[102.21194116257129,2.636253105583799],[102.21194116257129,2.6358607699483523]]],[[[102.24666112473886,2.6696020764774855],[102.2461429163483,2.6696020764774855],[102.2461429163483,2.669994422532597],[102.24666112473886,2.669994422532597],[102.24666112473886,2.6696020764774855]]],[[[102.24821574991054,2.675094932352401],[102.24821574991054,2.675400224390627],[102.24822863394347,2.6743102371910132],[102.24821574991054,2.674702584710628],[102.24769754151998,2.674702584710628],[102.24769754151998,2.675094932352401],[102.24821574991054,2.675094932352401]]],[[[102.24820544550712,2.6762719760108578],[102.24821472088166,2.6754872801163523],[102.24769754151998,2.6754872801163523],[102.24769754151998,2.6762719760108578],[102.24820544550712,2.6762719760108578]]],[[[102.25236141703503,2.63664544133964],[102.25443425059727,2.63664544133964],[102.25443425059727,2.6358607699483523],[102.25391604220671,2.6358607699483523],[102.25391604220671,2.636253105583799],[102.25236141703503,2.636253105583799],[102.25236141703503,2.63664544133964]]],[[[102.25236141703503,2.637037777215891],[102.25184320864447,2.637037777215891],[102.25184320864447,2.637822449329699],[102.25236141703503,2.637822449329699],[102.25236141703503,2.637037777215891]]],[[[102.2502885834728,2.6511619491067084],[102.24977037508222,2.6511619491067084],[102.24977037508222,2.6519466299160603],[102.2502885834728,2.6519466299160603],[102.2502885834728,2.6511619491067084]]],[[[102.25547066737839,2.653908334059245],[102.25495245898783,2.653908334059245],[102.25495245898783,2.6554776995553566],[102.25598887576895,2.6550853579994604],[102.25598887576895,2.654693016564821],[102.25547066737839,2.654693016564821],[102.25547066737839,2.653908334059245]]],[[[102.25909812611232,2.6578317514381644],[102.26013454289344,2.6578317514381644],[102.26013454289344,2.657439409154341],[102.25961633450288,2.657439409154341],[102.25961633450288,2.656654724950775],[102.25857991772176,2.656654724950775],[102.25857991772176,2.656262383030996],[102.25806170933119,2.656262383030996],[102.25806170933119,2.656654724950775],[102.25702529255007,2.656654724950775],[102.25702529255007,2.6570470669918835],[102.25754350094064,2.6570470669918835],[102.25754350094064,2.6578317514381644],[102.25806170933119,2.6578317514381644],[102.25806170933119,2.6570470669918835],[102.25857991772176,2.6570470669918835],[102.25909812611232,2.6578317514381644]]],[[[102.26117095967456,2.657439409154341],[102.260652751284,2.6570470669918835],[102.260652751284,2.657439409154341],[102.26117095967456,2.657439409154341]]],[[[102.26168916806512,2.657439409154341],[102.26117095967456,2.657439409154341],[102.26117095967456,2.6578317514381644],[102.26168916806512,2.6578317514381644],[102.26168916806512,2.657439409154341]]],[[[102.260652751284,2.6586164363699805],[102.26013454289344,2.6586164363699805],[102.26013454289344,2.65900877901801],[102.260652751284,2.65900877901801],[102.260652751284,2.6586164363699805]]],[[[102.25961633450288,2.659401121787478],[102.25909812611232,2.659401121787478],[102.25909812611232,2.6601858076908003],[102.25961633450288,2.6601858076908003],[102.25961633450288,2.659401121787478]]],[[[102.27101691909522,2.6617551809554953],[102.271117,2.661269097047938],[102.27101691909522,2.661222163445734],[102.27101691909522,2.6617551809554953]]],[[[102.27568079461025,2.670386768709651],[102.2760766652919,2.670386768709651],[102.27568079461025,2.670378178677396],[102.27568079461025,2.670386768709651]]],[[[102.28086287851586,2.670779115008666],[102.28089775422404,2.670779115008666],[102.28086287851586,2.6707565658982952],[102.28086287851586,2.670779115008666]]],[[[102.28138108690642,2.67117146142966],[102.281414,2.6711128970371827],[102.28138108690642,2.671091616862103],[102.28138108690642,2.67117146142966]]],[[[102.28086287851586,2.6715638079726505],[102.28086287851586,2.6719561546376562],[102.2809033105114,2.6719561546376562],[102.28135518171742,2.6715638079726505],[102.28086287851586,2.6715638079726505]]],[[[102.26790766875185,2.6758796280024986],[102.26738946036129,2.6758796280024986],[102.26738946036129,2.6762719760108578],[102.26790766875185,2.6762719760108578],[102.26790766875185,2.6758796280024986]]],[[[102.26946229392352,2.6762719760108578],[102.26946229392352,2.6770566723942886],[102.2699805023141,2.6770566723942886],[102.2699805023141,2.6762719760108578],[102.26946229392352,2.6762719760108578]]],[[[102.27049871070464,2.676664324141448],[102.27049871070464,2.6770566723942886],[102.27101691909522,2.6770566723942886],[102.27101691909522,2.676664324141448],[102.27049871070464,2.676664324141448]]]]},"properties":{"place_id":"3e8dc051-1de9-5190-af6b-46fe0f5d7eac","habitat":"open_grassland","habitat_label":"Open grassland or shrubland","resolution_m":50}},{"type":"Feature","geometry":{"type":"MultiPolygon","coordinates":[[[[102.28138108690642,2.671365214377861],[102.281414,2.6711128970371827],[102.28138108690642,2.671091616862103],[102.28138108690642,2.671365214377861]]],[[[102.28086287851586,2.6719561546376562],[102.28086287851586,2.671986129132764],[102.2809033105114,2.6719561546376562],[102.28086287851586,2.6719561546376562]]]]},"properties":{"place_id":"3e8dc051-1de9-5190-af6b-46fe0f5d7eac","habitat":"disturbed_built_edge","habitat_label":"Disturbed, bare or built edge","resolution_m":50}}]}