{"type":"FeatureCollection","metadata":{"schema_version":1,"place_id":"3f2d8143-e196-5cc4-84e5-6439634f767a","place_name":"Taman Pelita","place_type":"park","osm_reference":"way/749988246","protection_context":"no protected status confirmed from included OSM tags","resolution_m":50,"raster_coverage":1.0,"interpretation":"Suggested search habitats, not predicted plant locations or probabilities of presence."},"features":[{"type":"Feature","geometry":{"type":"Polygon","coordinates":[[[117.91728285529264,4.253122708010775],[117.91676464690207,4.253122708010775],[117.91676464690207,4.252729723170843],[117.91626202091062,4.252729723170843],[117.91632080000001,4.253502595339689],[117.91728285529264,4.253426293136489],[117.91728285529264,4.253122708010775]]]},"properties":{"place_id":"3f2d8143-e196-5cc4-84e5-6439634f767a","habitat":"forest_edge_opening","habitat_label":"Forest edge or opening","resolution_m":50}},{"type":"Feature","geometry":{"type":"Polygon","coordinates":[[[117.91676464690207,4.253122708010775],[117.91676464690207,4.253467393103755],[117.91780106368317,4.253385193171354],[117.91780106368317,4.252729723170843],[117.91626202091062,4.252729723170843],[117.91629190851364,4.253122708010775],[117.91676464690207,4.253122708010775]]]},"properties":{"place_id":"3f2d8143-e196-5cc4-84e5-6439634f767a","habitat":"open_grassland","habitat_label":"Open grassland or shrubland","resolution_m":50}},{"type":"Feature","geometry":{"type":"Polygon","coordinates":[[[117.91632080000001,4.253502595339689],[117.91789559999998,4.253377695339833],[117.91783220000002,4.252582595340668],[117.9162603,4.2527070953405435],[117.91632080000001,4.253502595339689]]]},"properties":{"place_id":"3f2d8143-e196-5cc4-84e5-6439634f767a","habitat":"disturbed_built_edge","habitat_label":"Disturbed, bare or built edge","resolution_m":50}}]}