{"type":"FeatureCollection","metadata":{"schema_version":1,"place_id":"3fe163e0-1036-5bcf-9d82-708c2ccbc2d8","place_name":"University Square","place_type":"park","osm_reference":"relation/9262610","protection_context":"no protected status confirmed from included OSM tags","resolution_m":50,"raster_coverage":1.0,"interpretation":"Suggested search habitats, not predicted plant locations or probabilities of presence."},"features":[{"type":"Feature","geometry":{"type":"Polygon","coordinates":[[[101.61634449999997,3.064498796609434],[101.6173291,3.0645873966093613],[101.6171389,3.063848396610155],[101.6164636,3.0639990966100075],[101.61634449999997,3.064498796609434]]]},"properties":{"place_id":"3fe163e0-1036-5bcf-9d82-708c2ccbc2d8","habitat":"disturbed_built_edge","habitat_label":"Disturbed, bare or built edge","resolution_m":50}},{"type":"Feature","geometry":{"type":"Polygon","coordinates":[[[101.61696026363842,3.0639744254955708],[101.61703793020769,3.0638486800061657],[101.61696009999999,3.063846296610161],[101.61696026363842,3.0639744254955708]]]},"properties":{"place_id":"3fe163e0-1036-5bcf-9d82-708c2ccbc2d8","habitat":"permanent_water","habitat_label":"Permanent water","resolution_m":50}},{"type":"Feature","geometry":{"type":"Polygon","coordinates":[[[101.61696026363842,3.0639744254955708],[101.61703793020769,3.0638486800061657],[101.61696009999999,3.063846296610161],[101.61696026363842,3.0639744254955708]]]},"properties":{"place_id":"3fe163e0-1036-5bcf-9d82-708c2ccbc2d8","habitat":"seasonal_water_wetland","habitat_label":"Seasonal water or wetland","resolution_m":50}},{"type":"Feature","geometry":{"type":"Polygon","coordinates":[[[101.6164636,3.0639990966100075],[101.61703793020769,3.064585994149497],[101.6171389,3.063848396610155],[101.6164636,3.0639990966100075]]]},"properties":{"place_id":"3fe163e0-1036-5bcf-9d82-708c2ccbc2d8","habitat":"water_edge","habitat_label":"Water edge","resolution_m":50}}]}