{"type":"FeatureCollection","metadata":{"schema_version":1,"place_id":"4039ecb5-72f2-5e47-8546-c97cd1e461b7","place_name":"USJ18 Playground and Park","place_type":"park","osm_reference":"way/662591913","protection_context":"no protected status confirmed from included OSM tags","resolution_m":50,"raster_coverage":1.0,"interpretation":"Suggested search habitats, not predicted plant locations or probabilities of presence."},"features":[{"type":"Feature","geometry":{"type":"Polygon","coordinates":[[[101.58490900999293,3.0333615942708123],[101.58490900999293,3.03257666100948],[101.58404102821402,3.03257666100948],[101.5840360134757,3.0333615942708123],[101.58490900999293,3.0333615942708123]]]},"properties":{"place_id":"4039ecb5-72f2-5e47-8546-c97cd1e461b7","habitat":"forest_interior","habitat_label":"Forest interior","resolution_m":50}},{"type":"Feature","geometry":{"type":"Polygon","coordinates":[[[101.58490900999293,3.03257666100948],[101.58490900999293,3.0333615942708123],[101.5840360134757,3.0333615942708123],[101.58403429999998,3.033629796642913],[101.5853132,3.033625396642883],[101.5853125,3.0320717966445994],[101.58404419999998,3.032080196644579],[101.58404102821402,3.03257666100948],[101.58490900999293,3.03257666100948]]]},"properties":{"place_id":"4039ecb5-72f2-5e47-8546-c97cd1e461b7","habitat":"forest_edge_opening","habitat_label":"Forest edge or opening","resolution_m":50}},{"type":"Feature","geometry":{"type":"Polygon","coordinates":[[[101.58490900999293,3.032071994498473],[101.58531254595175,3.032184194586752],[101.5853125,3.0320717966445994],[101.58490900999293,3.032071994498473]]]},"properties":{"place_id":"4039ecb5-72f2-5e47-8546-c97cd1e461b7","habitat":"open_grassland","habitat_label":"Open grassland or shrubland","resolution_m":50}},{"type":"Feature","geometry":{"type":"Polygon","coordinates":[[[101.58490900999293,3.03257666100948],[101.58490900999293,3.0333615942708123],[101.5840360134757,3.0333615942708123],[101.58403429999998,3.033629796642913],[101.5853132,3.033625396642883],[101.5853125,3.0320717966445994],[101.58404419999998,3.032080196644579],[101.58404102821402,3.03257666100948],[101.58490900999293,3.03257666100948]]]},"properties":{"place_id":"4039ecb5-72f2-5e47-8546-c97cd1e461b7","habitat":"disturbed_built_edge","habitat_label":"Disturbed, bare or built edge","resolution_m":50}}]}