{"type":"FeatureCollection","metadata":{"schema_version":1,"place_id":"40474e8d-3874-57e2-963d-0069c886bda0","place_name":"Taman Kejiranan Jalan Telok Sisek","place_type":"park","osm_reference":"way/587894387","protection_context":"no protected status confirmed from included OSM tags","resolution_m":50,"raster_coverage":1.0,"interpretation":"Suggested search habitats, not predicted plant locations or probabilities of presence."},"features":[{"type":"Feature","geometry":{"type":"Polygon","coordinates":[[[103.35385349999999,3.8124937958061733],[103.34992678824246,3.812312120463952],[103.34992678824246,3.813325910390216],[103.3519996218047,3.8130976758421777],[103.3519996218047,3.8134564221173965],[103.35385349999999,3.8124937958061733]]]},"properties":{"place_id":"40474e8d-3874-57e2-963d-0069c886bda0","habitat":"forest_interior","habitat_label":"Forest interior","resolution_m":50}},{"type":"Feature","geometry":{"type":"MultiPolygon","coordinates":[[[[103.35044499663303,3.812312120463952],[103.34941999999998,3.8121421958065254],[103.34896589999998,3.8132618958053475],[103.34992678824246,3.813325910390216],[103.34992678824246,3.812312120463952],[103.35044499663303,3.812312120463952]]],[[[103.35303603858583,3.812704898065736],[103.35303603858583,3.812918262541879],[103.35344694759445,3.812704898065736],[103.35303603858583,3.812704898065736]]],[[[103.35251783019527,3.8130976758421777],[103.35251783019527,3.8131873422886478],[103.3526905146903,3.8130976758421777],[103.35251783019527,3.8130976758421777]]],[[[103.35096320502359,3.8130976758421777],[103.3515652,3.8136819958049037],[103.3519996218047,3.8134564221173965],[103.3519996218047,3.8130976758421777],[103.35096320502359,3.8130976758421777]]]]},"properties":{"place_id":"40474e8d-3874-57e2-963d-0069c886bda0","habitat":"forest_edge_opening","habitat_label":"Forest edge or opening","resolution_m":50}},{"type":"Feature","geometry":{"type":"Polygon","coordinates":[[[103.3494085798519,3.8130976758421777],[103.3494085798519,3.8121703550927806],[103.34903250020096,3.8130976758421777],[103.3494085798519,3.8130976758421777]]]},"properties":{"place_id":"40474e8d-3874-57e2-963d-0069c886bda0","habitat":"open_grassland","habitat_label":"Open grassland or shrubland","resolution_m":50}},{"type":"Feature","geometry":{"type":"MultiPolygon","coordinates":[[[[103.3494085798519,3.812312120463952],[103.3494085798519,3.8121703550927806],[103.34935108615832,3.812312120463952],[103.3494085798519,3.812312120463952]]],[[[103.34992678824246,3.812182386787573],[103.35044499663303,3.812312120463952],[103.35044499663303,3.812223483448495],[103.34992678824246,3.812182386787573]]],[[[103.35303603858583,3.812918262541879],[103.35344694759445,3.812704898065736],[103.35303603858583,3.812704898065736],[103.35303603858583,3.812918262541879]]],[[[103.34992678824246,3.813325910390216],[103.34919179317964,3.812704898065736],[103.34896589999998,3.8132618958053475],[103.34992678824246,3.813325910390216]]],[[[103.35251783019527,3.8131873422886478],[103.3526905146903,3.8130976758421777],[103.35251783019527,3.8130976758421777],[103.35251783019527,3.8131873422886478]]],[[[103.35148141341416,3.8130976758421777],[103.3515652,3.8136819958049037],[103.3519996218047,3.8134564221173965],[103.3519996218047,3.8130976758421777],[103.35148141341416,3.8130976758421777]]]]},"properties":{"place_id":"40474e8d-3874-57e2-963d-0069c886bda0","habitat":"disturbed_built_edge","habitat_label":"Disturbed, bare or built edge","resolution_m":50}}]}