{"type":"FeatureCollection","metadata":{"schema_version":1,"place_id":"409e3df6-acb6-59ee-b66f-24f82c0b0050","place_name":"Asa Jaya Park","place_type":"park","osm_reference":"way/700775875","protection_context":"no protected status confirmed from included OSM tags","resolution_m":50,"raster_coverage":1.0,"interpretation":"Suggested search habitats, not predicted plant locations or probabilities of presence."},"features":[{"type":"Feature","geometry":{"type":"Polygon","coordinates":[[[101.81768799999999,2.985317896695254],[101.81654816057353,2.9851546518119942],[101.8174987,2.986014196694519],[101.81768799999999,2.985317896695254]]]},"properties":{"place_id":"409e3df6-acb6-59ee-b66f-24f82c0b0050","habitat":"forest_edge_opening","habitat_label":"Forest edge or opening","resolution_m":50}},{"type":"Feature","geometry":{"type":"Polygon","coordinates":[[[101.8174633,2.9860176966945335],[101.81768799999999,2.985317896695254],[101.8162954,2.984842496695795],[101.8162547,2.9848778966957616],[101.8174633,2.9860176966945335]]]},"properties":{"place_id":"409e3df6-acb6-59ee-b66f-24f82c0b0050","habitat":"disturbed_built_edge","habitat_label":"Disturbed, bare or built edge","resolution_m":50}}]}