{"type":"FeatureCollection","metadata":{"schema_version":1,"place_id":"40f24eef-c178-558b-9feb-296a8fe99557","place_name":"Pulau Tengkawang","place_type":"wood","osm_reference":"way/724615474","protection_context":"no protected status confirmed from included OSM tags","resolution_m":50,"raster_coverage":1.0,"interpretation":"Suggested search habitats, not predicted plant locations or probabilities of presence."},"features":[{"type":"Feature","geometry":{"type":"MultiPolygon","coordinates":[[[[102.66122783718737,5.049342631835132],[102.66070962879681,5.04894921427682],[102.66070962879681,5.049342631835132],[102.66122783718737,5.049342631835132]]],[[[102.66122783718737,5.050522885904201],[102.66174604557793,5.050522885904201],[102.66174604557793,5.049736049625788],[102.66122783718737,5.049736049625788],[102.66019142040626,5.0509163043919925],[102.66122783718737,5.0513097231122],[102.66122783718737,5.050522885904201]]]]},"properties":{"place_id":"40f24eef-c178-558b-9feb-296a8fe99557","habitat":"forest_interior","habitat_label":"Forest interior","resolution_m":50}},{"type":"Feature","geometry":{"type":"MultiPolygon","coordinates":[[[[102.65992059999999,5.050065594512814],[102.65963489999999,5.05126789451161],[102.66070962879681,5.051230999971887],[102.65992059999999,5.050065594512814]]],[[[102.66070962879681,5.050522885904201],[102.66070962879681,5.050370173861257],[102.660508736199,5.050522885904201],[102.66070962879681,5.050522885904201]]],[[[102.66154329999999,5.052352694510514],[102.66177799999998,5.050594694512284],[102.66276311644928,5.050522885904201],[102.6615004,5.049165194513767],[102.66070962879681,5.049342631835132],[102.6609326771767,5.04894921427682],[102.6604577,5.048648194514303],[102.6600534,5.0491838945137175],[102.66113029999998,5.049720994513175],[102.6609469921241,5.050129467648805],[102.66174604557793,5.049736049625788],[102.66174604557793,5.050522885904201],[102.66122783718737,5.050522885904201],[102.66091192110558,5.0513097231122],[102.6611075,5.052036094510833],[102.66154329999999,5.052352694510514]]]]},"properties":{"place_id":"40f24eef-c178-558b-9feb-296a8fe99557","habitat":"forest_edge_opening","habitat_label":"Forest edge or opening","resolution_m":50}},{"type":"Feature","geometry":{"type":"MultiPolygon","coordinates":[[[[102.66019142040626,5.0492613945136755],[102.66005469999999,5.0491237945138145],[102.66013379999998,5.0492613945136755],[102.66019142040626,5.0492613945136755]]],[[[102.66070962879681,5.049342631835132],[102.6605844,5.049427094513477],[102.66070962879681,5.0495546070532376],[102.66070962879681,5.049342631835132]]],[[[102.66174604557793,5.050129467648805],[102.66206132339892,5.050129467648805],[102.66174604557793,5.049559698174145],[102.66174604557793,5.050129467648805]]],[[[102.6609469921241,5.050129467648805],[102.66122783718737,5.049736049625788],[102.6611355567734,5.049736049625788],[102.6609469921241,5.050129467648805]]],[[[102.65967321201569,5.050129467648805],[102.65995462461217,5.050129467648805],[102.65967321201569,5.050275559561758],[102.65967321201569,5.050129467648805]]],[[[102.65967321201569,5.051064744231134],[102.6596068,5.051169094511691],[102.65967321201569,5.0512917726980495],[102.65967321201569,5.051064744231134]]],[[[102.6622642539685,5.050250880885934],[102.66232919999999,5.0507321945121415],[102.66287639999999,5.050944694511912],[102.6622642539685,5.050250880885934]]],[[[102.66174604557793,5.050522885904201],[102.66174604557793,5.05069025969139],[102.66186904270569,5.050522885904201],[102.66174604557793,5.050522885904201]]],[[[102.66174604557793,5.0514695860720815],[102.66182559999999,5.051383494511465],[102.66174604557793,5.051284065697668],[102.66174604557793,5.0514695860720815]]],[[[102.66174604557793,5.051816092625456],[102.66123006722476,5.052096561249938],[102.661719,5.0522791945105485],[102.66194630000001,5.052077494510771],[102.66174604557793,5.051816092625456]]],[[[102.66122783718737,5.051703142064843],[102.66103239445975,5.051703142064843],[102.66122783718737,5.052095919748376],[102.66122783718737,5.051703142064843]]]]},"properties":{"place_id":"40f24eef-c178-558b-9feb-296a8fe99557","habitat":"permanent_water","habitat_label":"Permanent water","resolution_m":50}},{"type":"Feature","geometry":{"type":"MultiPolygon","coordinates":[[[[102.66019142040626,5.04894921427682],[102.66070962879681,5.04894921427682],[102.66070962879681,5.048861867787565],[102.6604577,5.048648194514303],[102.66019142040626,5.04894921427682]]],[[[102.66019142040626,5.0492613945136755],[102.66005469999999,5.0491237945138145],[102.66013379999998,5.0492613945136755],[102.66019142040626,5.0492613945136755]]],[[[102.6609469921241,5.050129467648805],[102.66122783718737,5.049736049625788],[102.6611355567734,5.049736049625788],[102.6609469921241,5.050129467648805]]],[[[102.66070962879681,5.050522885904201],[102.66070962879681,5.050370173861257],[102.660508736199,5.050522885904201],[102.66070962879681,5.050522885904201]]],[[[102.65967321201569,5.0512917726980495],[102.66019142040626,5.051090463380609],[102.66019142040626,5.0509163043919925],[102.65984213006107,5.0509163043919925],[102.65967321201569,5.0512917726980495]]],[[[102.66122783718737,5.0513097231122],[102.66091192110558,5.0513097231122],[102.66122783718737,5.052095919748376],[102.66122783718737,5.0513097231122]]],[[[102.66123006722476,5.052096561249938],[102.6614977,5.052343294510489],[102.66174604557793,5.0522586771736],[102.66174604557793,5.052096561249938],[102.66123006722476,5.052096561249938]]]]},"properties":{"place_id":"40f24eef-c178-558b-9feb-296a8fe99557","habitat":"seasonal_water_wetland","habitat_label":"Seasonal water or wetland","resolution_m":50}},{"type":"Feature","geometry":{"type":"Polygon","coordinates":[[[102.66122783718737,5.0513097231122],[102.66122783718737,5.052095919748376],[102.66174604557793,5.052096561249938],[102.66174604557793,5.050522885904201],[102.6622642539685,5.050250880885934],[102.66174604557793,5.050129467648805],[102.6615004,5.049165194513767],[102.66019142040626,5.04894921427682],[102.66122783718737,5.050129467648805],[102.6602894,5.0505986945122885],[102.65967321201569,5.050129467648805],[102.65984213006107,5.0509163043919925],[102.66122783718737,5.0513097231122]]]},"properties":{"place_id":"40f24eef-c178-558b-9feb-296a8fe99557","habitat":"water_edge","habitat_label":"Water edge","resolution_m":50}}]}