{"type":"FeatureCollection","metadata":{"schema_version":1,"place_id":"41abcc81-0062-53d5-bd9e-4607745cf3ff","place_name":"Persiaran BLM 5a's Park","place_type":"park","osm_reference":"way/509373720","protection_context":"no protected status confirmed from included OSM tags","resolution_m":50,"raster_coverage":1.0,"interpretation":"Suggested search habitats, not predicted plant locations or probabilities of presence."},"features":[{"type":"Feature","geometry":{"type":"Polygon","coordinates":[[[100.49148930590997,5.691488174893785],[100.49141699999998,5.69152199386355],[100.49148930590997,5.691743094825817],[100.49148930590997,5.691488174893785]]]},"properties":{"place_id":"41abcc81-0062-53d5-bd9e-4607745cf3ff","habitat":"forest_edge_opening","habitat_label":"Forest edge or opening","resolution_m":50}},{"type":"Feature","geometry":{"type":"Polygon","coordinates":[[[100.49143899999999,5.691687293863405],[100.49186380000002,5.691882193863185],[100.49234319999998,5.691909193863174],[100.49227649999999,5.691478493863608],[100.49143899999999,5.691687293863405]]]},"properties":{"place_id":"41abcc81-0062-53d5-bd9e-4607745cf3ff","habitat":"disturbed_built_edge","habitat_label":"Disturbed, bare or built edge","resolution_m":50}}]}