{"type":"FeatureCollection","metadata":{"schema_version":1,"place_id":"4216c81e-fb9c-5c30-8ecb-12bd4c6a4b45","place_name":"Jalan Lancang 1 Park","place_type":"park","osm_reference":"way/810393270","protection_context":"no protected status confirmed from included OSM tags","resolution_m":50,"raster_coverage":1.0,"interpretation":"Suggested search habitats, not predicted plant locations or probabilities of presence."},"features":[{"type":"Feature","geometry":{"type":"Polygon","coordinates":[[[101.73689389999998,3.1019616965689085],[101.73726227681776,3.102437909585531],[101.73778048520832,3.102377696384549],[101.7375453,3.101453196569435],[101.73689389999998,3.1019616965689085]]]},"properties":{"place_id":"4216c81e-fb9c-5c30-8ecb-12bd4c6a4b45","habitat":"forest_edge_opening","habitat_label":"Forest edge or opening","resolution_m":50}},{"type":"Feature","geometry":{"type":"Polygon","coordinates":[[[101.737046,3.1025057965682823],[101.73793299999998,3.1023510965684826],[101.7375453,3.101453196569435],[101.73689389999998,3.1019616965689085],[101.737046,3.1025057965682823]]]},"properties":{"place_id":"4216c81e-fb9c-5c30-8ecb-12bd4c6a4b45","habitat":"disturbed_built_edge","habitat_label":"Disturbed, bare or built edge","resolution_m":50}}]}