{"type":"FeatureCollection","metadata":{"schema_version":1,"place_id":"4293f37e-b7b9-5213-90eb-dcaf12cc7049","place_name":"Taman Komuniti Taman Bamboo","place_type":"park","osm_reference":"way/1012649995","protection_context":"no protected status confirmed from included OSM tags","resolution_m":50,"raster_coverage":1.0,"interpretation":"Suggested search habitats, not predicted plant locations or probabilities of presence."},"features":[{"type":"Feature","geometry":{"type":"Polygon","coordinates":[[[101.67652199999999,3.1943304964690222],[101.6759704,3.1945475964687837],[101.67636199999998,3.1947457964685917],[101.67652199999999,3.1943304964690222]]]},"properties":{"place_id":"4293f37e-b7b9-5213-90eb-dcaf12cc7049","habitat":"forest_edge_opening","habitat_label":"Forest edge or opening","resolution_m":50}},{"type":"Feature","geometry":{"type":"Polygon","coordinates":[[[101.67636199999998,3.1947457964685917],[101.6765297,3.1943477964690103],[101.676142,3.194145896469241],[101.6759704,3.1945475964687837],[101.67636199999998,3.1947457964685917]]]},"properties":{"place_id":"4293f37e-b7b9-5213-90eb-dcaf12cc7049","habitat":"disturbed_built_edge","habitat_label":"Disturbed, bare or built edge","resolution_m":50}}]}