{"type":"FeatureCollection","metadata":{"schema_version":1,"place_id":"429f360d-1099-527c-9023-673c08f4bbd3","place_name":"Pulau Kuala Pakuh","place_type":"wood","osm_reference":"way/724697447","protection_context":"no protected status confirmed from included OSM tags","resolution_m":50,"raster_coverage":1.0,"interpretation":"Suggested search habitats, not predicted plant locations or probabilities of presence."},"features":[{"type":"Feature","geometry":{"type":"MultiPolygon","coordinates":[[[[102.62961712536318,4.986398765283606],[102.63013533375373,4.986398765283606],[102.6300623,4.98561200426991],[102.62961712536318,4.98561200426991],[102.62961712536318,4.983645105748966],[102.62858070858205,4.983645105748966],[102.62858070858205,4.984431864469442],[102.62909891697261,4.984431864469442],[102.62909891697261,4.986792146134525],[102.62961712536318,4.986792146134525],[102.62961712536318,4.986398765283606]]],[[[102.6288566,4.98708969457739],[102.62909891697261,4.986792146134525],[102.62873535423776,4.986792146134525],[102.6288566,4.98708969457739]]]]},"properties":{"place_id":"429f360d-1099-527c-9023-673c08f4bbd3","habitat":"forest_interior","habitat_label":"Forest interior","resolution_m":50}},{"type":"Feature","geometry":{"type":"MultiPolygon","coordinates":[[[[102.62909891697261,4.98718552721485],[102.6306711,4.9864843945780155],[102.63013533375373,4.985765525125069],[102.63013533375373,4.986398765283606],[102.62961712536318,4.986398765283606],[102.62909891697261,4.98718552721485]]],[[[102.62909891697261,4.986792146134525],[102.62909891697261,4.984431864469442],[102.62858070858205,4.984431864469442],[102.62858070858205,4.983645105748966],[102.62961712536318,4.983645105748966],[102.62961712536318,4.98561200426991],[102.6300623,4.98561200426991],[102.6297806,4.983722894580865],[102.6308508,4.982378794582223],[102.6306535421443,4.981956792573502],[102.62900679999997,4.983603994580991],[102.62854679999998,4.983633394580953],[102.62840869999998,4.98367739458093],[102.62800769999998,4.984004794580581],[102.62860849999998,4.9850775945794625],[102.62873535423776,4.986792146134525],[102.62909891697261,4.986792146134525]]]]},"properties":{"place_id":"429f360d-1099-527c-9023-673c08f4bbd3","habitat":"forest_edge_opening","habitat_label":"Forest edge or opening","resolution_m":50}},{"type":"Feature","geometry":{"type":"Polygon","coordinates":[[[102.63089568048333,4.982071591058956],[102.6306535421443,4.982464969387636],[102.63076761464099,4.982464969387636],[102.63089568048333,4.982071591058956]]]},"properties":{"place_id":"429f360d-1099-527c-9023-673c08f4bbd3","habitat":"cropland","habitat_label":"Cropland","resolution_m":50}},{"type":"Feature","geometry":{"type":"MultiPolygon","coordinates":[[[[102.62961712536318,4.983251726732623],[102.62961712536318,4.98297223713625],[102.62937753542305,4.983251726732623],[102.62961712536318,4.983251726732623]]],[[[102.62909891697261,4.983645105748966],[102.62909891697261,4.98345890013852],[102.6285100429013,4.983645105748966],[102.62909891697261,4.983645105748966]]],[[[102.62806250019149,4.983937728899926],[102.6279795,4.984151694580449],[102.62806250019149,4.9843420837790315],[102.62806250019149,4.983937728899926]]],[[[102.62858070858205,4.985507040282953],[102.62852939999999,4.985708194578813],[102.62858070858205,4.98587579353617],[102.62858070858205,4.985507040282953]]],[[[102.62858070858205,4.984431864469442],[102.62816334526966,4.984431864469442],[102.62858070858205,4.9849987999471805],[102.62858070858205,4.984431864469442]]],[[[102.62961712536318,4.986792146134525],[102.62961712536318,4.987150231570411],[102.6297256,4.9870188945774725],[102.62961712536318,4.986792146134525]]],[[[102.62909891697261,4.98718552721485],[102.6292187,4.987272694577212],[102.62950509135258,4.98718552721485],[102.62909891697261,4.98718552721485]]],[[[102.63089568048333,4.982071591058956],[102.63074619999999,4.981906494582738],[102.6305842000099,4.982071591058956],[102.63089568048333,4.982071591058956]]],[[[102.63013533375373,4.982464969387636],[102.63013533375373,4.98238584896929],[102.63002407610162,4.982464969387636],[102.63013533375373,4.982464969387636]]],[[[102.6306535421443,4.982464969387636],[102.6306535421443,4.982532559229512],[102.63076761464099,4.982464969387636],[102.6306535421443,4.982464969387636]]],[[[102.63013533375373,4.9832913813608455],[102.63017960658506,4.983251726732623],[102.63013533375373,4.983251726732623],[102.63013533375373,4.9832913813608455]]],[[[102.63013533375373,4.9854424819338075],[102.63017889999998,4.9853327945792225],[102.63013533375373,4.985191133605256],[102.63013533375373,4.9854424819338075]]],[[[102.6306535421443,4.986503548602012],[102.63071939999999,4.986378894578136],[102.6306535421443,4.986200259639085],[102.6306535421443,4.986503548602012]]]]},"properties":{"place_id":"429f360d-1099-527c-9023-673c08f4bbd3","habitat":"permanent_water","habitat_label":"Permanent water","resolution_m":50}},{"type":"Feature","geometry":{"type":"MultiPolygon","coordinates":[[[[102.62961712536318,4.983251726732623],[102.62961712536318,4.98297223713625],[102.62937753542305,4.983251726732623],[102.62961712536318,4.983251726732623]]],[[[102.62858070858205,4.983645105748966],[102.62909891697261,4.98345890013852],[102.62858070858205,4.9836308662058295],[102.62858070858205,4.983645105748966]]],[[[102.62806250019149,4.983937728899926],[102.6279795,4.984151694580449],[102.62806250019149,4.9843420837790315],[102.62806250019149,4.983937728899926]]],[[[102.63013533375373,4.986005384662074],[102.63039513646052,4.986005384662074],[102.63013533375373,4.985765525125069],[102.63013533375373,4.986005384662074]]],[[[102.62909891697261,4.98718552721485],[102.6292187,4.987272694577212],[102.62950509135258,4.98718552721485],[102.62909891697261,4.98718552721485]]]]},"properties":{"place_id":"429f360d-1099-527c-9023-673c08f4bbd3","habitat":"seasonal_water_wetland","habitat_label":"Seasonal water or wetland","resolution_m":50}},{"type":"Feature","geometry":{"type":"Polygon","coordinates":[[[102.62858070858205,4.984431864469442],[102.62909891697261,4.9872521359307465],[102.6306535421443,4.986503548602012],[102.63013533375373,4.986005384662074],[102.62977660000001,4.983784294580799],[102.63089568048333,4.982071591058956],[102.62994829999997,4.9825284945820725],[102.62909891697261,4.983645105748966],[102.62806250019149,4.983937728899926],[102.62806250019149,4.9843420837790315],[102.62858070858205,4.984431864469442]]]},"properties":{"place_id":"429f360d-1099-527c-9023-673c08f4bbd3","habitat":"water_edge","habitat_label":"Water edge","resolution_m":50}}]}