{"type":"FeatureCollection","metadata":{"schema_version":1,"place_id":"42abf28b-75b8-5a10-83a1-5dbff73a0645","place_name":"Central Park, 16 Sierra","place_type":"park","osm_reference":"way/793248754","protection_context":"no protected status confirmed from included OSM tags","resolution_m":50,"raster_coverage":1.0,"interpretation":"Suggested search habitats, not predicted plant locations or probabilities of presence."},"features":[{"type":"Feature","geometry":{"type":"Polygon","coordinates":[[[101.6512396839847,2.969391339794291],[101.65279430915636,2.969391339794291],[101.65279430915636,2.968998895453567],[101.6512396839847,2.9690084166661648],[101.6512396839847,2.969391339794291]]]},"properties":{"place_id":"42abf28b-75b8-5a10-83a1-5dbff73a0645","habitat":"forest_interior","habitat_label":"Forest interior","resolution_m":50}},{"type":"Feature","geometry":{"type":"Polygon","coordinates":[[[101.65279430915636,2.968998895453567],[101.65279430915636,2.969391339794291],[101.6512396839847,2.969391339794291],[101.6510162,2.9690121967129772],[101.6508178,2.9698186967120836],[101.65323254511922,2.9697837842707253],[101.65324509999999,2.9689744967130176],[101.65180259726293,2.968998895453567],[101.65279430915636,2.968998895453567]]]},"properties":{"place_id":"42abf28b-75b8-5a10-83a1-5dbff73a0645","habitat":"forest_edge_opening","habitat_label":"Forest edge or opening","resolution_m":50}},{"type":"Feature","geometry":{"type":"Polygon","coordinates":[[[101.65279430915636,2.969391339794291],[101.65279430915636,2.9697837842707253],[101.65323254511922,2.9697837842707253],[101.65323863330465,2.969391339794291],[101.65279430915636,2.969391339794291]]]},"properties":{"place_id":"42abf28b-75b8-5a10-83a1-5dbff73a0645","habitat":"open_grassland","habitat_label":"Open grassland or shrubland","resolution_m":50}},{"type":"Feature","geometry":{"type":"Polygon","coordinates":[[[101.65279430915636,2.968998895453567],[101.65279430915636,2.969391339794291],[101.6512396839847,2.969391339794291],[101.6510162,2.9690121967129772],[101.6508178,2.9698186967120836],[101.6532301,2.969941396711965],[101.65324472149007,2.968998895453567],[101.65279430915636,2.968998895453567]]]},"properties":{"place_id":"42abf28b-75b8-5a10-83a1-5dbff73a0645","habitat":"disturbed_built_edge","habitat_label":"Disturbed, bare or built edge","resolution_m":50}}]}