{"type":"FeatureCollection","metadata":{"schema_version":1,"place_id":"433fda07-b1f5-588c-b22d-181f5f8aa857","place_name":"Nyior Gading Recreation Park","place_type":"park","osm_reference":"way/652083081","protection_context":"no protected status confirmed from included OSM tags","resolution_m":50,"raster_coverage":1.0,"interpretation":"Suggested search habitats, not predicted plant locations or probabilities of presence."},"features":[{"type":"Feature","geometry":{"type":"Polygon","coordinates":[[[101.9601528,2.7171432969869684],[101.9606162,2.7170503969870694],[101.96030929999999,2.7168873969872624],[101.9601528,2.7171432969869684]]]},"properties":{"place_id":"433fda07-b1f5-588c-b22d-181f5f8aa857","habitat":"forest_edge_opening","habitat_label":"Forest edge or opening","resolution_m":50}},{"type":"Feature","geometry":{"type":"Polygon","coordinates":[[[101.9601528,2.7171432969869684],[101.9606162,2.7170503969870694],[101.96030929999999,2.7168873969872624],[101.9601528,2.7171432969869684]]]},"properties":{"place_id":"433fda07-b1f5-588c-b22d-181f5f8aa857","habitat":"disturbed_built_edge","habitat_label":"Disturbed, bare or built edge","resolution_m":50}}]}