{"type":"FeatureCollection","metadata":{"schema_version":1,"place_id":"43604c0e-8f18-5776-8525-f218945f97b2","place_name":"Bandar Kinrara 5 Park · OSM way/498131377","place_type":"park","osm_reference":"way/498131377","protection_context":"no protected status confirmed from included OSM tags","resolution_m":50,"raster_coverage":1.0,"interpretation":"Suggested search habitats, not predicted plant locations or probabilities of presence."},"features":[{"type":"Feature","geometry":{"type":"Polygon","coordinates":[[[101.64257989999999,3.0440450966315966],[101.64320289999998,3.044042896631629],[101.6432228,3.042829596632915],[101.64255790000001,3.042840596632927],[101.64257989999999,3.0440450966315966]]]},"properties":{"place_id":"43604c0e-8f18-5776-8525-f218945f97b2","habitat":"disturbed_built_edge","habitat_label":"Disturbed, bare or built edge","resolution_m":50}}]}