{"type":"FeatureCollection","metadata":{"schema_version":1,"place_id":"444a2777-461b-5185-b408-cf49dce2eb4e","place_name":"Taman Komuniti Putra Heights","place_type":"park","osm_reference":"way/874595014","protection_context":"no protected status confirmed from included OSM tags","resolution_m":50,"raster_coverage":1.0,"interpretation":"Suggested search habitats, not predicted plant locations or probabilities of presence."},"features":[{"type":"Feature","geometry":{"type":"MultiPolygon","coordinates":[[[[101.57247200861947,2.9941156076037356],[101.57225630151675,2.9929382492370182],[101.57229682699146,2.9941156076037356],[101.57247200861947,2.9941156076037356]]],[[[101.57247200861947,2.9946616621785798],[101.57231033548301,2.994508060666313],[101.5723154,2.9946551966851773],[101.57247200861947,2.9946616621785798]]]]},"properties":{"place_id":"444a2777-461b-5185-b408-cf49dce2eb4e","habitat":"forest_edge_opening","habitat_label":"Forest edge or opening","resolution_m":50}},{"type":"Feature","geometry":{"type":"Polygon","coordinates":[[[101.57247200861947,2.9929382492370182],[101.57231033548301,2.994508060666313],[101.57327657702972,2.994508060666313],[101.57345929999998,2.99307309668688],[101.57247200861947,2.9929382492370182]]]},"properties":{"place_id":"444a2777-461b-5185-b408-cf49dce2eb4e","habitat":"open_grassland","habitat_label":"Open grassland or shrubland","resolution_m":50}},{"type":"Feature","geometry":{"type":"Polygon","coordinates":[[[101.5723154,2.9946551966851773],[101.5732572,2.9945289966852755],[101.57361449999999,2.994020896685849],[101.57345929999998,2.99307309668688],[101.57296489999997,2.9927919966871577],[101.57225039999999,2.992766796687206],[101.5723154,2.9946551966851773]]]},"properties":{"place_id":"444a2777-461b-5185-b408-cf49dce2eb4e","habitat":"disturbed_built_edge","habitat_label":"Disturbed, bare or built edge","resolution_m":50}}]}