{"type":"FeatureCollection","metadata":{"schema_version":1,"place_id":"447c0399-1a1f-590e-b8b5-8c32827b35e9","place_name":"MesaMall Play Area","place_type":"park","osm_reference":"way/612807205","protection_context":"no protected status confirmed from included OSM tags","resolution_m":50,"raster_coverage":1.0,"interpretation":"Suggested search habitats, not predicted plant locations or probabilities of presence."},"features":[{"type":"Feature","geometry":{"type":"Polygon","coordinates":[[[101.77759449999999,2.8244123968701054],[101.77801960000001,2.824378896870155],[101.77784129999999,2.8241980968703424],[101.77759449999999,2.8244123968701054]]]},"properties":{"place_id":"447c0399-1a1f-590e-b8b5-8c32827b35e9","habitat":"disturbed_built_edge","habitat_label":"Disturbed, bare or built edge","resolution_m":50}}]}