{"type":"FeatureCollection","metadata":{"schema_version":1,"place_id":"449d4c3e-6ac6-5da5-87bc-0ecddb8bd4bc","place_name":"Taman Pudu Ulu","place_type":"park","osm_reference":"way/468581245","protection_context":"no protected status confirmed from included OSM tags","resolution_m":50,"raster_coverage":1.0,"interpretation":"Suggested search habitats, not predicted plant locations or probabilities of presence."},"features":[{"type":"Feature","geometry":{"type":"MultiPolygon","coordinates":[[[[101.73156198452158,3.1232401562325185],[101.73104377613102,3.1232401562325185],[101.73104377613102,3.1228476573085415],[101.73052556774047,3.1228476573085415],[101.73052556774047,3.123632655299292],[101.73156198452158,3.123632655299292],[101.73156198452158,3.1232401562325185]]],[[[101.73363481808381,3.124417653861297],[101.73363481808381,3.1248101533565653],[101.73415302647439,3.1248101533565653],[101.73415302647439,3.124417653861297],[101.73363481808381,3.124417653861297]]],[[[101.73363481808381,3.1252026529947026],[101.73363481808381,3.125595152775725],[101.73467123486495,3.125595152775725],[101.73467123486495,3.1252026529947026],[101.73363481808381,3.1252026529947026]]]]},"properties":{"place_id":"449d4c3e-6ac6-5da5-87bc-0ecddb8bd4bc","habitat":"forest_interior","habitat_label":"Forest interior","resolution_m":50}},{"type":"Feature","geometry":{"type":"MultiPolygon","coordinates":[[[[101.73211327400243,3.120885164829957],[101.73193059999998,3.120825296548491],[101.73184775912648,3.120885164829957],[101.73211327400243,3.120885164829957]]],[[[101.73156198452158,3.121277663040227],[101.73156198452158,3.121245955974689],[101.73153817006732,3.121277663040227],[101.73156198452158,3.121277663040227]]],[[[101.73259840130271,3.121422576976244],[101.73208019291215,3.1216701613932027],[101.73259840130271,3.122455158527341],[101.73156198452158,3.122455158527341],[101.73156198452158,3.122062659888902],[101.73104377613102,3.1220574629740816],[101.7300356,3.1233708965457088],[101.73430699999999,3.1264414965424114],[101.73572659999999,3.1237397965453164],[101.73465749999998,3.122998096546119],[101.73426169999999,3.123227796545868],[101.73259840130271,3.121422576976244]],[[101.73467123486495,3.125595152775725],[101.73363481808381,3.125595152775725],[101.73363481808381,3.1252026529947026],[101.73467123486495,3.1252026529947026],[101.73467123486495,3.125595152775725]],[[101.73415302647439,3.1248101533565653],[101.73363481808381,3.1248101533565653],[101.73363481808381,3.124417653861297],[101.73415302647439,3.124417653861297],[101.73415302647439,3.1248101533565653]],[[101.73104377613102,3.1232401562325185],[101.73156198452158,3.1232401562325185],[101.73156198452158,3.123632655299292],[101.73052556774047,3.123632655299292],[101.73052556774047,3.1228476573085415],[101.73104377613102,3.1228476573085415],[101.73104377613102,3.1232401562325185]],[[101.73363481808381,3.123632655299292],[101.73311660969327,3.123632655299292],[101.73311660969327,3.1232401562325185],[101.73363481808381,3.1232401562325185],[101.73363481808381,3.123632655299292]]]]},"properties":{"place_id":"449d4c3e-6ac6-5da5-87bc-0ecddb8bd4bc","habitat":"forest_edge_opening","habitat_label":"Forest edge or opening","resolution_m":50}},{"type":"Feature","geometry":{"type":"MultiPolygon","coordinates":[[[[101.73184775912648,3.120885164829957],[101.73156198452158,3.121245955974689],[101.73156198452158,3.121277663040227],[101.73208019291215,3.121277663040227],[101.73184775912648,3.120885164829957]]],[[[101.73208019291215,3.122455158527341],[101.73208019291215,3.1228476573085415],[101.73311660969327,3.1228476573085415],[101.73311660969327,3.122062659888902],[101.73259840130271,3.122062659888902],[101.73259840130271,3.1216701613932027],[101.73124337355807,3.1216701613932027],[101.73104377613102,3.1228476573085415],[101.73208019291215,3.122455158527341]]],[[[101.73208019291215,3.1232401562325185],[101.73208019291215,3.123632655299292],[101.73259840130271,3.123632655299292],[101.73259840130271,3.1232401562325185],[101.73208019291215,3.1232401562325185]]],[[[101.73363481808381,3.123632655299292],[101.73311660969327,3.123632655299292],[101.73311660969327,3.1240251545088786],[101.73415302647439,3.1240251545088786],[101.73415302647439,3.1232401562325185],[101.73363481808381,3.1232401562325185],[101.73363481808381,3.123632655299292]]],[[[101.73259840130271,3.1240251545088786],[101.73156198452158,3.1240251545088786],[101.73156198452158,3.124417653861297],[101.73208019291215,3.124417653861297],[101.73208019291215,3.1248101533565653],[101.73311660969327,3.1248101533565653],[101.73259840130271,3.1240251545088786]]]]},"properties":{"place_id":"449d4c3e-6ac6-5da5-87bc-0ecddb8bd4bc","habitat":"open_grassland","habitat_label":"Open grassland or shrubland","resolution_m":50}},{"type":"Feature","geometry":{"type":"Polygon","coordinates":[[[101.73463439999999,3.1229942965461404],[101.73415302647439,3.1248101533565653],[101.73363481808381,3.1248101533565653],[101.73363481808381,3.124417653861297],[101.73259840130271,3.124417653861297],[101.73259840130271,3.1248101533565653],[101.73208019291215,3.1248101533565653],[101.73208019291215,3.1240251545088786],[101.73363481808381,3.1240251545088786],[101.73428546296923,3.1232401562325185],[101.73193059999998,3.120825296548491],[101.7300356,3.1233708965457088],[101.73424,3.126446896542425],[101.7358285,3.124067896544951],[101.7354711,3.1233896965457055],[101.73519749999997,3.123630696545444],[101.73463439999999,3.1229942965461404]],[[101.73363481808381,3.1252026529947026],[101.73467123486495,3.1252026529947026],[101.73467123486495,3.125595152775725],[101.73363481808381,3.125595152775725],[101.73363481808381,3.1252026529947026]],[[101.73052556774047,3.1228476573085415],[101.73156198452158,3.1228476573085415],[101.73156198452158,3.123632655299292],[101.73052556774047,3.123632655299292],[101.73052556774047,3.1228476573085415]],[[101.73104377613102,3.122062659888902],[101.73156198452158,3.122062659888902],[101.73156198452158,3.122455158527341],[101.73104377613102,3.122455158527341],[101.73104377613102,3.122062659888902]],[[101.73208019291215,3.122062659888902],[101.73311660969327,3.122062659888902],[101.73311660969327,3.122455158527341],[101.73208019291215,3.122455158527341],[101.73208019291215,3.122062659888902]]]},"properties":{"place_id":"449d4c3e-6ac6-5da5-87bc-0ecddb8bd4bc","habitat":"disturbed_built_edge","habitat_label":"Disturbed, bare or built edge","resolution_m":50}}]}