{"type":"FeatureCollection","metadata":{"schema_version":1,"place_id":"44b54e68-609e-5a8a-8cad-d8b25e064777","place_name":"Taman Perpaduan","place_type":"park","osm_reference":"way/243935144","protection_context":"no protected status confirmed from included OSM tags","resolution_m":50,"raster_coverage":1.0,"interpretation":"Suggested search habitats, not predicted plant locations or probabilities of presence."},"features":[{"type":"Feature","geometry":{"type":"MultiPolygon","coordinates":[[[[110.34677647759224,1.5518417540739147],[110.34729468598279,1.5498813973260666],[110.34631359999999,1.5497562982718582],[110.34540249999999,1.5504086982711196],[110.34482937228987,1.5522338256356296],[110.34522185242055,1.5522338256356296],[110.34522185242055,1.5526258972681024],[110.34470364402999,1.5526258972681024],[110.34470364402999,1.5529576048377682],[110.3454668,1.5533580982678645],[110.34625826920167,1.5530179689713501],[110.34574006081112,1.5522338256356296],[110.34677647759224,1.5518417540739147]]],[[[110.34677647759224,1.5522338256356296],[110.34729468598279,1.5522338256356296],[110.3472458144155,1.5518417540739147],[110.34677647759224,1.5518417540739147],[110.34677647759224,1.5522338256356296]]],[[[110.34677647759224,1.5530179689713501],[110.3476504220361,1.5530179689713501],[110.34746631656654,1.5522338256356296],[110.34729468598279,1.5526258972681024],[110.34677647759224,1.5526258972681024],[110.34677647759224,1.5530179689713501]]]]},"properties":{"place_id":"44b54e68-609e-5a8a-8cad-d8b25e064777","habitat":"forest_interior","habitat_label":"Forest interior","resolution_m":50}},{"type":"Feature","geometry":{"type":"MultiPolygon","coordinates":[[[[110.34677647759224,1.5498813973260666],[110.34729468598279,1.5498813973260666],[110.34729468598279,1.5507310308852817],[110.34794269999999,1.5491724982725026],[110.34677647759224,1.5498813973260666]]],[[[110.3472458144155,1.5518417540739147],[110.34707605759759,1.551057611162683],[110.34677647759224,1.551057611162683],[110.34677647759224,1.5518417540739147],[110.3472458144155,1.5518417540739147]]],[[[110.34729468598279,1.5522338256356296],[110.34746631656654,1.5522338256356296],[110.34729468598279,1.551934216511141],[110.34729468598279,1.5522338256356296]]],[[[110.34522185242055,1.5522338256356296],[110.34482937228987,1.5522338256356296],[110.34452269999998,1.5528485982684157],[110.34470364402999,1.5529576048377682],[110.34522185242055,1.5522338256356296]]],[[[110.34677647759224,1.5530179689713501],[110.34729468598279,1.5522338256356296],[110.34625826920167,1.5518417540739147],[110.34625826920167,1.5522338256356296],[110.34574006081112,1.5522338256356296],[110.34625826920167,1.5530179689713501],[110.34574006081112,1.5532461859335236],[110.34627999999998,1.5534978982677023],[110.3476504220361,1.5530179689713501],[110.34677647759224,1.5530179689713501]]]]},"properties":{"place_id":"44b54e68-609e-5a8a-8cad-d8b25e064777","habitat":"forest_edge_opening","habitat_label":"Forest edge or opening","resolution_m":50}},{"type":"Feature","geometry":{"type":"Polygon","coordinates":[[[110.34677647759224,1.5526258972681024],[110.34677647759224,1.5522338256356296],[110.34625826920167,1.5522338256356296],[110.34625826920167,1.5526258972681024],[110.34677647759224,1.5526258972681024]]]},"properties":{"place_id":"44b54e68-609e-5a8a-8cad-d8b25e064777","habitat":"open_grassland","habitat_label":"Open grassland or shrubland","resolution_m":50}},{"type":"Feature","geometry":{"type":"MultiPolygon","coordinates":[[[[110.34677647759224,1.5498813973260666],[110.34729468598279,1.5498813973260666],[110.34729468598279,1.5507310308852817],[110.34794269999999,1.5491724982725026],[110.34677647759224,1.5498813973260666]]],[[[110.3472458144155,1.5518417540739147],[110.34707605759759,1.551057611162683],[110.34677647759224,1.551057611162683],[110.34677647759224,1.5518417540739147],[110.3472458144155,1.5518417540739147]]],[[[110.34729468598279,1.5522338256356296],[110.34746631656654,1.5522338256356296],[110.34729468598279,1.551934216511141],[110.34729468598279,1.5522338256356296]]],[[[110.34522185242055,1.5522338256356296],[110.34482937228987,1.5522338256356296],[110.34452269999998,1.5528485982684157],[110.34470364402999,1.5529576048377682],[110.34522185242055,1.5522338256356296]]],[[[110.34677647759224,1.5530179689713501],[110.34677647759224,1.5526258972681024],[110.34625826920167,1.5526258972681024],[110.34574006081112,1.5532461859335236],[110.34627999999998,1.5534978982677023],[110.3476504220361,1.5530179689713501],[110.34677647759224,1.5530179689713501]]]]},"properties":{"place_id":"44b54e68-609e-5a8a-8cad-d8b25e064777","habitat":"disturbed_built_edge","habitat_label":"Disturbed, bare or built edge","resolution_m":50}},{"type":"Feature","geometry":{"type":"Polygon","coordinates":[[[110.34677647759224,1.5530179689713501],[110.34677647759224,1.5526258972681024],[110.34625826920167,1.5526258972681024],[110.34625826920167,1.5530179689713501],[110.34677647759224,1.5530179689713501]]]},"properties":{"place_id":"44b54e68-609e-5a8a-8cad-d8b25e064777","habitat":"permanent_water","habitat_label":"Permanent water","resolution_m":50}},{"type":"Feature","geometry":{"type":"Polygon","coordinates":[[[110.34625826920167,1.5534100407453901],[110.3476504220361,1.5530179689713501],[110.34677647759224,1.5518417540739147],[110.34522185242055,1.5526258972681024],[110.34522185242055,1.5530179689713501],[110.34625826920167,1.5534100407453901]],[[110.34625826920167,1.5526258972681024],[110.34677647759224,1.5526258972681024],[110.34677647759224,1.5530179689713501],[110.34625826920167,1.5530179689713501],[110.34625826920167,1.5526258972681024]]]},"properties":{"place_id":"44b54e68-609e-5a8a-8cad-d8b25e064777","habitat":"water_edge","habitat_label":"Water edge","resolution_m":50}}]}