{"type":"FeatureCollection","metadata":{"schema_version":1,"place_id":"44d058a3-8a23-5465-a704-f3d1306972fd","place_name":"gelanggang futsal","place_type":"park","osm_reference":"way/1295757169","protection_context":"no protected status confirmed from included OSM tags","resolution_m":50,"raster_coverage":1.0,"interpretation":"Suggested search habitats, not predicted plant locations or probabilities of presence."},"features":[{"type":"Feature","geometry":{"type":"Polygon","coordinates":[[[110.5315252,1.3770351984635691],[110.53184589999998,1.3770538984635516],[110.53180459999999,1.3769339984636935],[110.5315252,1.3770351984635691]]]},"properties":{"place_id":"44d058a3-8a23-5465-a704-f3d1306972fd","habitat":"forest_edge_opening","habitat_label":"Forest edge or opening","resolution_m":50}},{"type":"Feature","geometry":{"type":"Polygon","coordinates":[[[110.5315252,1.3770351984635691],[110.53184589999998,1.3770538984635516],[110.53180459999999,1.3769339984636935],[110.5315252,1.3770351984635691]]]},"properties":{"place_id":"44d058a3-8a23-5465-a704-f3d1306972fd","habitat":"disturbed_built_edge","habitat_label":"Disturbed, bare or built edge","resolution_m":50}}]}