{"type":"FeatureCollection","metadata":{"schema_version":1,"place_id":"4500fdfd-29ca-5c93-be2d-c4e9fb5de1db","place_name":"Warisan Puteri Park and Playground","place_type":"park","osm_reference":"way/578192783","protection_context":"no protected status confirmed from included OSM tags","resolution_m":50,"raster_coverage":1.0,"interpretation":"Suggested search habitats, not predicted plant locations or probabilities of presence."},"features":[{"type":"Feature","geometry":{"type":"Polygon","coordinates":[[[101.97563813647565,2.744934775934972],[101.9764296,2.744823296956817],[101.9764601,2.7445333969570993],[101.97605239999997,2.7443385969573226],[101.97563813647565,2.744934775934972]]]},"properties":{"place_id":"4500fdfd-29ca-5c93-be2d-c4e9fb5de1db","habitat":"forest_edge_opening","habitat_label":"Forest edge or opening","resolution_m":50}},{"type":"Feature","geometry":{"type":"Polygon","coordinates":[[[101.9754848,2.744979596956608],[101.9764296,2.744823296956817],[101.9764601,2.7445333969570993],[101.97605239999997,2.7443385969573226],[101.9754848,2.744979596956608]]]},"properties":{"place_id":"4500fdfd-29ca-5c93-be2d-c4e9fb5de1db","habitat":"disturbed_built_edge","habitat_label":"Disturbed, bare or built edge","resolution_m":50}}]}