{"type":"FeatureCollection","metadata":{"schema_version":1,"place_id":"450252f8-64e2-5685-b801-a75b8e2167ec","place_name":"Pulau Pucung","place_type":"wood","osm_reference":"way/724526634","protection_context":"no protected status confirmed from included OSM tags","resolution_m":50,"raster_coverage":1.0,"interpretation":"Suggested search habitats, not predicted plant locations or probabilities of presence."},"features":[{"type":"Feature","geometry":{"type":"MultiPolygon","coordinates":[[[[102.72444926083577,4.986398765283606],[102.72393105244521,4.986452312194686],[102.72393105244521,4.986792146134525],[102.72444926083577,4.986792146134525],[102.72444926083577,4.986398765283606]]],[[[102.72393105244521,4.987578908524596],[102.72355613241399,4.98718552721485],[102.72341284405465,4.987578908524596],[102.72393105244521,4.987578908524596]]]]},"properties":{"place_id":"450252f8-64e2-5685-b801-a75b8e2167ec","habitat":"forest_interior","habitat_label":"Forest interior","resolution_m":50}},{"type":"Feature","geometry":{"type":"Polygon","coordinates":[[[102.72393105244521,4.987972290063787],[102.7245719,4.986880594577615],[102.72444219999998,4.986291394578218],[102.72409331399058,4.986398765283606],[102.72444926083577,4.986792146134525],[102.72369279999998,4.98659799457789],[102.72393105244521,4.987578908524596],[102.72341284405465,4.987336117849165],[102.7219678,4.988107094576345],[102.72245599999998,4.988567594575887],[102.72267369999999,4.988139594576315],[102.72393105244521,4.987972290063787]]]},"properties":{"place_id":"450252f8-64e2-5685-b801-a75b8e2167ec","habitat":"forest_edge_opening","habitat_label":"Forest edge or opening","resolution_m":50}},{"type":"Feature","geometry":{"type":"Polygon","coordinates":[[[102.72444926083577,4.986398765283606],[102.72458528520391,4.986398765283606],[102.72444926083577,4.98629316969291],[102.72444926083577,4.986398765283606]]]},"properties":{"place_id":"450252f8-64e2-5685-b801-a75b8e2167ec","habitat":"cropland","habitat_label":"Cropland","resolution_m":50}},{"type":"Feature","geometry":{"type":"MultiPolygon","coordinates":[[[[102.72444926083577,4.986398765283606],[102.72444219999998,4.986291394578218],[102.72409331399058,4.986398765283606],[102.72444926083577,4.986398765283606]]],[[[102.72444926083577,4.986792146134525],[102.72444926083577,4.98706523117373],[102.7245793,4.986848494577663],[102.72444926083577,4.986792146134525]]],[[[102.72393105244521,4.987578908524596],[102.72393105244521,4.987972290063787],[102.72289463566409,4.987972290063787],[102.72289463566409,4.988234872690676],[102.7238906,4.988021494576431],[102.7239416,4.987963394576499],[102.7239731,4.987702194576784],[102.72407978575777,4.987578908524596],[102.72393105244521,4.987578908524596]]],[[[102.72218277275731,4.988365671832437],[102.72242479999998,4.988557994575902],[102.7225971,4.988503494575943],[102.72255388062379,4.988365671832437],[102.72218277275731,4.988365671832437]]]]},"properties":{"place_id":"450252f8-64e2-5685-b801-a75b8e2167ec","habitat":"permanent_water","habitat_label":"Permanent water","resolution_m":50}},{"type":"Feature","geometry":{"type":"Polygon","coordinates":[[[102.72444926083577,4.986398765283606],[102.72372230000002,4.986556594577938],[102.7229579,4.987685494576773],[102.7219943,4.987943694576519],[102.72218277275731,4.988365671832437],[102.72393105244521,4.987972290063787],[102.72444926083577,4.986398765283606]]]},"properties":{"place_id":"450252f8-64e2-5685-b801-a75b8e2167ec","habitat":"water_edge","habitat_label":"Water edge","resolution_m":50}}]}