{"type":"FeatureCollection","metadata":{"schema_version":1,"place_id":"456a9ec5-5369-5579-896d-74fe6b316aad","place_name":"Car Parking","place_type":"park","osm_reference":"way/1408773500","protection_context":"no protected status confirmed from included OSM tags","resolution_m":50,"raster_coverage":1.0,"interpretation":"Suggested search habitats, not predicted plant locations or probabilities of presence."},"features":[{"type":"Feature","geometry":{"type":"Polygon","coordinates":[[[101.51871615813462,3.03571639738311],[101.51909654439173,3.035513358056189],[101.5189129,3.035402996640961],[101.51871615813462,3.03571639738311]]]},"properties":{"place_id":"456a9ec5-5369-5579-896d-74fe6b316aad","habitat":"forest_edge_opening","habitat_label":"Forest edge or opening","resolution_m":50}},{"type":"Feature","geometry":{"type":"Polygon","coordinates":[[[101.5189129,3.035402996640961],[101.51910869999999,3.035970796640375],[101.51931180000001,3.0356674966406874],[101.5189129,3.035402996640961]]]},"properties":{"place_id":"456a9ec5-5369-5579-896d-74fe6b316aad","habitat":"disturbed_built_edge","habitat_label":"Disturbed, bare or built edge","resolution_m":50}}]}