{"type":"FeatureCollection","metadata":{"schema_version":1,"place_id":"457045ea-ff4e-5be6-b546-79e48362aaf7","place_name":"Alamanda Park","place_type":"park","osm_reference":"way/560809314","protection_context":"no protected status confirmed from included OSM tags","resolution_m":50,"raster_coverage":1.0,"interpretation":"Suggested search habitats, not predicted plant locations or probabilities of presence."},"features":[{"type":"Feature","geometry":{"type":"Polygon","coordinates":[[[101.98924,2.6968647970091073],[101.989243,2.696470597009536],[101.98869529999999,2.696471097009539],[101.9886943,2.6968673970090915],[101.98924,2.6968647970091073]]]},"properties":{"place_id":"457045ea-ff4e-5be6-b546-79e48362aaf7","habitat":"disturbed_built_edge","habitat_label":"Disturbed, bare or built edge","resolution_m":50}}]}