{"type":"FeatureCollection","metadata":{"schema_version":1,"place_id":"459cf5fc-b606-5072-acb2-a37b588d66af","place_name":"Sungai Galing Park","place_type":"park","osm_reference":"way/584000933","protection_context":"no protected status confirmed from included OSM tags","resolution_m":50,"raster_coverage":1.0,"interpretation":"Suggested search habitats, not predicted plant locations or probabilities of presence."},"features":[{"type":"Feature","geometry":{"type":"Polygon","coordinates":[[[103.33631559999999,3.818113295800178],[103.33686919999998,3.818314595799959],[103.337832,3.817781395800537],[103.3372473,3.817242995801129],[103.33631559999999,3.818113295800178]]]},"properties":{"place_id":"459cf5fc-b606-5072-acb2-a37b588d66af","habitat":"forest_edge_opening","habitat_label":"Forest edge or opening","resolution_m":50}},{"type":"Feature","geometry":{"type":"Polygon","coordinates":[[[103.33697157847844,3.8178110227894],[103.33619670000002,3.817963095800359],[103.33686919999998,3.818314595799959],[103.337832,3.817781395800537],[103.3372473,3.817242995801129],[103.33697157847844,3.8178110227894]]]},"properties":{"place_id":"459cf5fc-b606-5072-acb2-a37b588d66af","habitat":"disturbed_built_edge","habitat_label":"Disturbed, bare or built edge","resolution_m":50}}]}