{"type":"FeatureCollection","metadata":{"schema_version":1,"place_id":"46471ccc-5a0f-58d7-8c2d-f20247108209","place_name":"Batu Pahat Crown","place_type":"park","osm_reference":"way/735039305","protection_context":"no protected status confirmed from included OSM tags","resolution_m":50,"raster_coverage":1.0,"interpretation":"Suggested search habitats, not predicted plant locations or probabilities of presence."},"features":[{"type":"Feature","geometry":{"type":"Polygon","coordinates":[[[102.93670439999998,1.857403397931225],[102.937015,1.8585439979299565],[102.9370579,1.85859489792992],[102.93687879999999,1.8577543979308289],[102.93738549999998,1.8572061979314467],[102.93670439999998,1.857403397931225]]]},"properties":{"place_id":"46471ccc-5a0f-58d7-8c2d-f20247108209","habitat":"disturbed_built_edge","habitat_label":"Disturbed, bare or built edge","resolution_m":50}}]}