{"type":"FeatureCollection","metadata":{"schema_version":1,"place_id":"46dd2aa9-cdab-50e3-afa8-07ac4e5bbdbf","place_name":"Kolej 5 Recreation Park","place_type":"park","osm_reference":"way/628501099","protection_context":"no protected status confirmed from included OSM tags","resolution_m":50,"raster_coverage":1.0,"interpretation":"Suggested search habitats, not predicted plant locations or probabilities of presence."},"features":[{"type":"Feature","geometry":{"type":"Polygon","coordinates":[[[101.7077742,2.9927199966872626],[101.70808669999998,2.9928663966870666],[101.7080814,2.9926972966872576],[101.7077742,2.9927199966872626]]]},"properties":{"place_id":"46dd2aa9-cdab-50e3-afa8-07ac4e5bbdbf","habitat":"forest_edge_opening","habitat_label":"Forest edge or opening","resolution_m":50}},{"type":"Feature","geometry":{"type":"Polygon","coordinates":[[[101.7077742,2.9927199966872626],[101.70808669999998,2.9928663966870666],[101.7080814,2.9926972966872576],[101.7077742,2.9927199966872626]]]},"properties":{"place_id":"46dd2aa9-cdab-50e3-afa8-07ac4e5bbdbf","habitat":"disturbed_built_edge","habitat_label":"Disturbed, bare or built edge","resolution_m":50}}]}