{"type":"FeatureCollection","metadata":{"schema_version":1,"place_id":"47376def-55f6-5831-ad7c-353244209ec3","place_name":"Tasik Kolej Kediaman 1","place_type":"park","osm_reference":"way/753702415","protection_context":"no protected status confirmed from included OSM tags","resolution_m":50,"raster_coverage":1.0,"interpretation":"Suggested search habitats, not predicted plant locations or probabilities of presence."},"features":[{"type":"Feature","geometry":{"type":"Polygon","coordinates":[[[101.78182819840598,2.8481324075962973],[101.78182819840598,2.8482097289910118],[101.7819378673114,2.8481324075962973],[101.78182819840598,2.8481324075962973]]]},"properties":{"place_id":"47376def-55f6-5831-ad7c-353244209ec3","habitat":"forest_interior","habitat_label":"Forest interior","resolution_m":50}},{"type":"Feature","geometry":{"type":"Polygon","coordinates":[[[101.78263024524641,2.8461703925408233],[101.7820978,2.846920596845616],[101.7809015,2.847322496845198],[101.78093909999998,2.8479600968445107],[101.7815453,2.848351196844069],[101.7825484,2.8477028968447735],[101.7829293,2.8466366968459593],[101.78263024524641,2.8461703925408233]]]},"properties":{"place_id":"47376def-55f6-5831-ad7c-353244209ec3","habitat":"forest_edge_opening","habitat_label":"Forest edge or opening","resolution_m":50}},{"type":"Feature","geometry":{"type":"MultiPolygon","coordinates":[[[[101.7828646151871,2.846562795291766],[101.78263024524641,2.8461703925408233],[101.78244635497656,2.846562795291766],[101.7828646151871,2.846562795291766]]],[[[101.78234640679652,2.8477400043250136],[101.78234640679652,2.8478445564949366],[101.78249548825606,2.8477400043250136],[101.78234640679652,2.8477400043250136]]]]},"properties":{"place_id":"47376def-55f6-5831-ad7c-353244209ec3","habitat":"open_grassland","habitat_label":"Open grassland or shrubland","resolution_m":50}},{"type":"Feature","geometry":{"type":"Polygon","coordinates":[[[101.7815453,2.848351196844069],[101.7828435,2.8470759968454487],[101.78266639999998,2.846068796846551],[101.7820978,2.846920596845616],[101.7809015,2.847322496845198],[101.78093909999998,2.8479600968445107],[101.7815453,2.848351196844069]]]},"properties":{"place_id":"47376def-55f6-5831-ad7c-353244209ec3","habitat":"disturbed_built_edge","habitat_label":"Disturbed, bare or built edge","resolution_m":50}}]}