{"type":"FeatureCollection","metadata":{"schema_version":1,"place_id":"47c8943f-0edb-5b3c-8037-3f428d7bd7e0","place_name":"Taman Rekreasi Bandar Satelit Sebang","place_type":"park","osm_reference":"way/962798322","protection_context":"no protected status confirmed from included OSM tags","resolution_m":50,"raster_coverage":1.0,"interpretation":"Suggested search habitats, not predicted plant locations or probabilities of presence."},"features":[{"type":"Feature","geometry":{"type":"Polygon","coordinates":[[[102.23806530312395,2.4616753768852098],[102.23785158209934,2.4619792205469198],[102.2380788,2.461941597265915],[102.23806530312395,2.4616753768852098]]]},"properties":{"place_id":"47c8943f-0edb-5b3c-8037-3f428d7bd7e0","habitat":"forest_interior","habitat_label":"Forest interior","resolution_m":50}},{"type":"Feature","geometry":{"type":"Polygon","coordinates":[[[102.2380457,2.461287997266651],[102.23686984179568,2.4616753768852098],[102.23694522131964,2.4620676608454706],[102.23785158209934,2.4619792205469198],[102.2380457,2.461287997266651]]]},"properties":{"place_id":"47c8943f-0edb-5b3c-8037-3f428d7bd7e0","habitat":"forest_edge_opening","habitat_label":"Forest edge or opening","resolution_m":50}},{"type":"Feature","geometry":{"type":"Polygon","coordinates":[[[102.23785158209934,2.4619792205469198],[102.2380457,2.461287997266651],[102.2368354,2.4614962972663963],[102.23695669999998,2.4621273972657263],[102.23785158209934,2.4619792205469198]]]},"properties":{"place_id":"47c8943f-0edb-5b3c-8037-3f428d7bd7e0","habitat":"disturbed_built_edge","habitat_label":"Disturbed, bare or built edge","resolution_m":50}}]}