{"type":"FeatureCollection","metadata":{"schema_version":1,"place_id":"4837ffb8-1100-5fb5-b231-4e72cf149096","place_name":"Padang Nyiru","place_type":"wood","osm_reference":"way/1293044478","protection_context":"no protected status confirmed from included OSM tags","resolution_m":50,"raster_coverage":1.0,"interpretation":"Suggested search habitats, not predicted plant locations or probabilities of presence."},"features":[{"type":"Feature","geometry":{"type":"Polygon","coordinates":[[[102.25055399999998,2.1958058975580905],[102.2506613,2.19612379755773],[102.2506697,2.1961475975577],[102.25055399999998,2.1958058975580905]]]},"properties":{"place_id":"4837ffb8-1100-5fb5-b231-4e72cf149096","habitat":"disturbed_built_edge","habitat_label":"Disturbed, bare or built edge","resolution_m":50}}]}