{"type":"FeatureCollection","metadata":{"schema_version":1,"place_id":"48669e1f-16c1-5b5e-ba2b-c61f2215a980","place_name":"Jalan Danau 16 Playground","place_type":"park","osm_reference":"way/1182469104","protection_context":"no protected status confirmed from included OSM tags","resolution_m":50,"raster_coverage":1.0,"interpretation":"Suggested search habitats, not predicted plant locations or probabilities of presence."},"features":[{"type":"Feature","geometry":{"type":"Polygon","coordinates":[[[103.80802300549807,1.5564997717160334],[103.8080515,1.5569677982638739],[103.8085914,1.5560993982648192],[103.80802300549807,1.5564997717160334]]]},"properties":{"place_id":"48669e1f-16c1-5b5e-ba2b-c61f2215a980","habitat":"forest_edge_opening","habitat_label":"Forest edge or opening","resolution_m":50}},{"type":"Feature","geometry":{"type":"Polygon","coordinates":[[[103.807813,1.5566476982642266],[103.8080515,1.5569677982638739],[103.8085914,1.5560993982648192],[103.807813,1.5566476982642266]]]},"properties":{"place_id":"48669e1f-16c1-5b5e-ba2b-c61f2215a980","habitat":"disturbed_built_edge","habitat_label":"Disturbed, bare or built edge","resolution_m":50}}]}