{"type":"FeatureCollection","metadata":{"schema_version":1,"place_id":"487b26d5-16d6-5059-95f0-3656c7d6132e","place_name":"Taman Rekreasi Jalan Bebanggai","place_type":"park","osm_reference":"way/1549096956","protection_context":"no protected status confirmed from included OSM tags","resolution_m":50,"raster_coverage":1.0,"interpretation":"Suggested search habitats, not predicted plant locations or probabilities of presence."},"features":[{"type":"Feature","geometry":{"type":"Polygon","coordinates":[[[111.53502831714778,1.416581164810995],[111.53563844068323,1.416189116656436],[111.5352248,1.4154616984208888],[111.53460739999998,1.4157004984206298],[111.53502831714778,1.416581164810995]]]},"properties":{"place_id":"487b26d5-16d6-5059-95f0-3656c7d6132e","habitat":"forest_edge_opening","habitat_label":"Forest edge or opening","resolution_m":50}},{"type":"Feature","geometry":{"type":"Polygon","coordinates":[[[111.5352248,1.4154616984208888],[111.53460288325773,1.4157970685664223],[111.53489969859854,1.416581164810995],[111.53502831714778,1.416189116656436],[111.5357213,1.4161104984201862],[111.5352248,1.4154616984208888]]]},"properties":{"place_id":"487b26d5-16d6-5059-95f0-3656c7d6132e","habitat":"open_grassland","habitat_label":"Open grassland or shrubland","resolution_m":50}},{"type":"Feature","geometry":{"type":"MultiPolygon","coordinates":[[[[111.53547533654582,1.4157970685664223],[111.5352248,1.4154616984208888],[111.53460739999998,1.4157004984206298],[111.53460288325773,1.4157970685664223],[111.53547533654582,1.4157970685664223]]],[[[111.53460678381944,1.416189116656436],[111.5350414,1.4167555984194338],[111.5357213,1.4161104984201862],[111.53554652553835,1.4158877842971254],[111.53554652553835,1.416189116656436],[111.53460678381944,1.416189116656436]]]]},"properties":{"place_id":"487b26d5-16d6-5059-95f0-3656c7d6132e","habitat":"disturbed_built_edge","habitat_label":"Disturbed, bare or built edge","resolution_m":50}}]}