{"type":"FeatureCollection","metadata":{"schema_version":1,"place_id":"488dd724-f789-5562-9840-56320f03ddae","place_name":"Taman Rekreasi Sungai Batu Pahat","place_type":"park","osm_reference":"way/1317429017","protection_context":"no protected status confirmed from included OSM tags","resolution_m":50,"raster_coverage":1.0,"interpretation":"Suggested search habitats, not predicted plant locations or probabilities of presence."},"features":[{"type":"Feature","geometry":{"type":"MultiPolygon","coordinates":[[[[100.17486397927743,6.50673523712154],[100.17434577088686,6.50673523712154],[100.17434577088686,6.507129642006887],[100.1748140636272,6.507129642006887],[100.17486397927743,6.50673523712154]]],[[[100.17434577088686,6.507524047193724],[100.1738275624963,6.507524047193724],[100.1738275624963,6.508312858471923],[100.17434577088686,6.508312858471923],[100.17434577088686,6.507524047193724]]]]},"properties":{"place_id":"488dd724-f789-5562-9840-56320f03ddae","habitat":"forest_interior","habitat_label":"Forest interior","resolution_m":50}},{"type":"Feature","geometry":{"type":"Polygon","coordinates":[[[100.17434577088686,6.507129642006887],[100.17434577088686,6.50673523712154],[100.17486397927743,6.506840569397727],[100.17507519999998,6.505734693063647],[100.17406919999999,6.506989093062402],[100.17201079999997,6.508025193061424],[100.17477479999998,6.508638093060862],[100.1748140636272,6.507129642006887],[100.17434577088686,6.507129642006887]],[[100.1738275624963,6.507524047193724],[100.17434577088686,6.507524047193724],[100.17434577088686,6.508312858471923],[100.1738275624963,6.508312858471923],[100.1738275624963,6.507524047193724]]]},"properties":{"place_id":"488dd724-f789-5562-9840-56320f03ddae","habitat":"forest_edge_opening","habitat_label":"Forest edge or opening","resolution_m":50}},{"type":"Feature","geometry":{"type":"MultiPolygon","coordinates":[[[[100.1749352909677,6.505946428255221],[100.1747762,6.506187193063207],[100.17464074274001,6.506340832537656],[100.1749862345035,6.506340832537656],[100.1749352909677,6.505946428255221]]],[[[100.17434577088686,6.50673523712154],[100.17434577088686,6.506675398155934],[100.17429301351173,6.50673523712154],[100.17434577088686,6.50673523712154]]],[[[100.1727935,6.507396093062056],[100.1738275624963,6.507524047193724],[100.1738275624963,6.507066185194156],[100.1727935,6.507396093062056]]],[[[100.17486397927743,6.507572834500312],[100.1748714,6.507484193061956],[100.17486397927743,6.507438305509572],[100.17486397927743,6.507572834500312]]],[[[100.17227293732462,6.507918452682062],[100.17279114571518,6.50832623546226],[100.17279114571518,6.507918452682062],[100.17227293732462,6.507918452682062]]]]},"properties":{"place_id":"488dd724-f789-5562-9840-56320f03ddae","habitat":"open_grassland","habitat_label":"Open grassland or shrubland","resolution_m":50}},{"type":"Feature","geometry":{"type":"MultiPolygon","coordinates":[[[[100.17279114571518,6.507918452682062],[100.17201079999997,6.508025193061424],[100.17279114571518,6.508312858471923],[100.17279114571518,6.507918452682062]]],[[[100.17434577088686,6.508570643797313],[100.17330935410574,6.507918452682062],[100.17330935410574,6.508312858471923],[100.17279114571518,6.50832623546226],[100.17434577088686,6.508570643797313]]]]},"properties":{"place_id":"488dd724-f789-5562-9840-56320f03ddae","habitat":"disturbed_built_edge","habitat_label":"Disturbed, bare or built edge","resolution_m":50}},{"type":"Feature","geometry":{"type":"Polygon","coordinates":[[[100.1749862345035,6.506340832537656],[100.17486397927743,6.50673523712154],[100.17489891337897,6.50673523712154],[100.1749862345035,6.506340832537656]]]},"properties":{"place_id":"488dd724-f789-5562-9840-56320f03ddae","habitat":"cropland","habitat_label":"Cropland","resolution_m":50}}]}