{"type":"FeatureCollection","metadata":{"schema_version":1,"place_id":"49670e26-691e-502a-a812-c57a0a6f8882","place_name":"Pulau Hulu Cergur","place_type":"wood","osm_reference":"way/724615475","protection_context":"no protected status confirmed from included OSM tags","resolution_m":50,"raster_coverage":1.0,"interpretation":"Suggested search habitats, not predicted plant locations or probabilities of presence."},"features":[{"type":"Feature","geometry":{"type":"MultiPolygon","coordinates":[[[[102.66122783718737,5.088685564073589],[102.66070962879681,5.088685564073589],[102.66070962879681,5.089472446544182],[102.66122783718737,5.089472446544182],[102.66122783718737,5.088685564073589]]],[[[102.66122783718737,5.089865888130811],[102.66070962879681,5.089865888130811],[102.66081721368401,5.091439656819971],[102.66122783718737,5.091439656819971],[102.66122783718737,5.089865888130811]]]]},"properties":{"place_id":"49670e26-691e-502a-a812-c57a0a6f8882","habitat":"forest_interior","habitat_label":"Forest interior","resolution_m":50}},{"type":"Feature","geometry":{"type":"MultiPolygon","coordinates":[[[[102.66070962879681,5.089865888130811],[102.66122783718737,5.089865888130811],[102.66122783718737,5.091439656819971],[102.66081721368401,5.091439656819971],[102.6613664,5.092529394469382],[102.66177529999999,5.092039494469878],[102.6615004,5.088820194473182],[102.6611799,5.088456894473526],[102.66052139999996,5.088380694473595],[102.66070962879681,5.089865888130811]],[[102.66070962879681,5.088685564073589],[102.66122783718737,5.088685564073589],[102.66122783718737,5.089472446544182],[102.66070962879681,5.089472446544182],[102.66070962879681,5.088685564073589]]],[[[102.66070962879681,5.090172181381633],[102.6598924,5.090647594471301],[102.66070962879681,5.091296786609206],[102.66070962879681,5.090172181381633]]]]},"properties":{"place_id":"49670e26-691e-502a-a812-c57a0a6f8882","habitat":"forest_edge_opening","habitat_label":"Forest edge or opening","resolution_m":50}},{"type":"Feature","geometry":{"type":"MultiPolygon","coordinates":[[[[102.66138918235997,5.088685564073589],[102.66049329999997,5.088387394473617],[102.6604806663152,5.08907900519178],[102.66070962879681,5.088685564073589],[102.66138918235997,5.088685564073589]]],[[[102.66070962879681,5.089472446544182],[102.66062999999998,5.089752594472206],[102.66070962879681,5.089866371622799],[102.66070962879681,5.089472446544182]]],[[[102.66070962879681,5.090259329951686],[102.66070962879681,5.090172181381633],[102.66050655543829,5.090259329951686],[102.66070962879681,5.090259329951686]]],[[[102.66019142040626,5.090355122028067],[102.6598924,5.090647594471301],[102.66019142040626,5.090961173298119],[102.66019142040626,5.090355122028067]]],[[[102.66174604557793,5.09213686505814],[102.66177529999999,5.092039494469878],[102.66174604557793,5.091883802789545],[102.66174604557793,5.09213686505814]]],[[[102.66122783718737,5.092226542570395],[102.66122783718737,5.091833099578014],[102.66098671137685,5.091833099578014],[102.66125099999998,5.092489694469431],[102.66166007244414,5.092226542570395],[102.66122783718737,5.092226542570395]]]]},"properties":{"place_id":"49670e26-691e-502a-a812-c57a0a6f8882","habitat":"permanent_water","habitat_label":"Permanent water","resolution_m":50}},{"type":"Feature","geometry":{"type":"MultiPolygon","coordinates":[[[[102.66070962879681,5.088685564073589],[102.6604329,5.089339894472617],[102.66070962879681,5.089472446544182],[102.66070962879681,5.088685564073589]]],[[[102.66070929041709,5.089865888130811],[102.66070962879681,5.089866371622799],[102.66070962879681,5.089865888130811],[102.66070929041709,5.089865888130811]]],[[[102.66070962879681,5.090259329951686],[102.66070962879681,5.090172181381633],[102.66050655543829,5.090259329951686],[102.66070962879681,5.090259329951686]]],[[[102.66070962879681,5.091046214296247],[102.66034278926445,5.091046214296247],[102.66070962879681,5.091296786609206],[102.66070962879681,5.091046214296247]]],[[[102.66122783718737,5.091439656819971],[102.66081721368401,5.091439656819971],[102.66098671137685,5.091833099578014],[102.66122783718737,5.091833099578014],[102.66122783718737,5.091439656819971]]]]},"properties":{"place_id":"49670e26-691e-502a-a812-c57a0a6f8882","habitat":"seasonal_water_wetland","habitat_label":"Seasonal water or wetland","resolution_m":50}},{"type":"Feature","geometry":{"type":"Polygon","coordinates":[[[102.66122783718737,5.091439656819971],[102.66122783718737,5.092226542570395],[102.66166007244414,5.092226542570395],[102.6615004,5.088820194473182],[102.66070962879681,5.088685564073589],[102.6608017,5.090051894471891],[102.66019142040626,5.090355122028067],[102.66019142040626,5.090961173298119],[102.66122783718737,5.091439656819971]]]},"properties":{"place_id":"49670e26-691e-502a-a812-c57a0a6f8882","habitat":"water_edge","habitat_label":"Water edge","resolution_m":50}}]}