{"type":"FeatureCollection","metadata":{"schema_version":1,"place_id":"49be5111-bb35-5497-a2ce-d393f01c97e0","place_name":"Pulau Pelung Kiri Besar","place_type":"wood","osm_reference":"way/724618058","protection_context":"no protected status confirmed from included OSM tags","resolution_m":50,"raster_coverage":1.0,"interpretation":"Suggested search habitats, not predicted plant locations or probabilities of presence."},"features":[{"type":"Feature","geometry":{"type":"MultiPolygon","coordinates":[[[[102.65967321201569,5.011182207652927],[102.65915500362513,5.011182207652927],[102.65915500362513,5.011575602992431],[102.65967321201569,5.011575602992431],[102.65967321201569,5.011182207652927]]],[[[102.65753066330063,5.015116171425761],[102.65760037845345,5.014722774010475],[102.65863679523457,5.015116171425761],[102.65863679523457,5.014722774010475],[102.65915500362513,5.014706275006569],[102.65915500362513,5.013935979872038],[102.65863679523457,5.013935979872038],[102.65863679523457,5.013149186656315],[102.65915500362513,5.013149186656315],[102.65915500362513,5.011575602992431],[102.65863679523457,5.011575602992431],[102.65851555414443,5.011182207652927],[102.6577836085627,5.011182207652927],[102.65760037845345,5.012362394363161],[102.65811858684401,5.012362394363161],[102.65811858684401,5.012755790394426],[102.65708217006289,5.013149186656315],[102.65708217006289,5.014722774010475],[102.65607911809192,5.015116171425761],[102.65604575328177,5.01550956907178],[102.65704704395492,5.015902966948553],[102.65708217006289,5.015116171425761],[102.65753066330063,5.015116171425761]]],[[[102.65604575328177,5.016296365056098],[102.65604575328177,5.016689763394431],[102.65652502660689,5.016689763394431],[102.65656396167232,5.016296365056098],[102.65604575328177,5.016296365056098]]]]},"properties":{"place_id":"49be5111-bb35-5497-a2ce-d393f01c97e0","habitat":"forest_interior","habitat_label":"Forest interior","resolution_m":50}},{"type":"Feature","geometry":{"type":"MultiPolygon","coordinates":[[[[102.65863679523457,5.013935979872038],[102.65915500362513,5.013935979872038],[102.65915500362513,5.014706275006569],[102.6594546,5.01461329454917],[102.65914679999999,5.0135711945502415],[102.6596313,5.0130521945507835],[102.65915500362513,5.012468361942079],[102.65863679523457,5.013935979872038]]],[[[102.65851555414443,5.011182207652927],[102.658438,5.01027399455362],[102.65786440000001,5.0100905945538265],[102.6577493,5.011139294552727],[102.65851555414443,5.011182207652927]]],[[[102.65863679523457,5.011575602992431],[102.6598341,5.0119586945519075],[102.6605985,5.01077499455311],[102.6597382,5.010334794553575],[102.65863679523457,5.011575602992431]],[[102.65915500362513,5.011182207652927],[102.65967321201569,5.011182207652927],[102.65967321201569,5.011575602992431],[102.65915500362513,5.011575602992431],[102.65915500362513,5.011182207652927]]],[[[102.65760037845345,5.013149186656315],[102.6564901,5.013110994550695],[102.6570064,5.013893794549893],[102.65678823263303,5.014722774010475],[102.65708217006289,5.014722774010475],[102.65708217006289,5.013149186656315],[102.65760037845345,5.013149186656315]]],[[[102.65811858684401,5.012755790394426],[102.65811858684401,5.012362394363161],[102.65760037845345,5.012362394363161],[102.65760037845345,5.011584399751806],[102.65700499999998,5.011721494552108],[102.65707879999998,5.012103594551751],[102.65811858684401,5.012755790394426]]],[[[102.65656396167232,5.015116171425761],[102.65656396167232,5.014913979581377],[102.65607911809192,5.015116171425761],[102.65656396167232,5.015116171425761]]],[[[102.65863679523457,5.014722774010475],[102.65863679523457,5.015116171425761],[102.65811858684401,5.015116171425761],[102.65811858684401,5.014722774010475],[102.65787288226414,5.014722774010475],[102.6583606,5.0156372945480925],[102.65870359999998,5.015741494548022],[102.65910184147157,5.014722774010475],[102.65863679523457,5.014722774010475]]],[[[102.65760037845345,5.014722774010475],[102.65760037845345,5.014932625512183],[102.65775468554457,5.014722774010475],[102.65760037845345,5.014722774010475]]],[[[102.65708217006289,5.015116171425761],[102.65708217006289,5.0158467472013495],[102.6575764,5.015378794548393],[102.65708217006289,5.015116171425761]]],[[[102.65656396167232,5.015902966948553],[102.65604575328177,5.015147736528706],[102.65563809999999,5.01531359454844],[102.6561575,5.015924494547827],[102.655566,5.01644289454727],[102.65591669999999,5.017160994546565],[102.65516909999998,5.017357994546352],[102.655682,5.017905794545769],[102.65611249999999,5.017828294545868],[102.65652502660689,5.016689763394431],[102.65604575328177,5.016689763394431],[102.65604575328177,5.016296365056098],[102.65656396167232,5.016296365056098],[102.65656396167232,5.016646567228049],[102.65716729999997,5.01647229454725],[102.6579954,5.017265194546454],[102.658488,5.017083794546632],[102.65656396167232,5.015902966948553]]]]},"properties":{"place_id":"49be5111-bb35-5497-a2ce-d393f01c97e0","habitat":"forest_edge_opening","habitat_label":"Forest edge or opening","resolution_m":50}},{"type":"Feature","geometry":{"type":"Polygon","coordinates":[[[102.66060408271521,5.010788812543974],[102.66019142040626,5.011102628050796],[102.6606106,5.010893194552995],[102.66060408271521,5.010788812543974]]]},"properties":{"place_id":"49be5111-bb35-5497-a2ce-d393f01c97e0","habitat":"cropland","habitat_label":"Cropland","resolution_m":50}},{"type":"Feature","geometry":{"type":"MultiPolygon","coordinates":[[[[102.65708217006289,5.011687903217221],[102.65692190000001,5.01184579455199],[102.65708217006289,5.012106377959594],[102.65708217006289,5.011687903217221]]],[[[102.65760037845345,5.012362394363161],[102.65739214663374,5.012362394363161],[102.65760037845345,5.012534377614812],[102.65760037845345,5.012362394363161]]],[[[102.65656396167232,5.0134332121386365],[102.65708217006289,5.013149186656315],[102.65708217006289,5.013064740305454],[102.65651619999998,5.013070194550745],[102.65656396167232,5.0134332121386365]]],[[[102.65811858684401,5.015116171425761],[102.65805573450676,5.015116171425761],[102.65811858684401,5.0151791752106725],[102.65811858684401,5.015116171425761]]],[[[102.65604575328177,5.016296365056098],[102.655959,5.016241094547474],[102.65588741153067,5.016296365056098],[102.65604575328177,5.016296365056098]]],[[[102.65604575328177,5.01550956907178],[102.65567145789075,5.01550956907178],[102.65604575328177,5.015799191257626],[102.65604575328177,5.01550956907178]]],[[[102.65708217006289,5.016296365056098],[102.65712909999999,5.016183694547558],[102.65708217006289,5.016119735180256],[102.65708217006289,5.016296365056098]]],[[[102.65595629735951,5.0170831619635745],[102.65604575328177,5.016689763394431],[102.65593906096609,5.016689763394431],[102.65595629735951,5.0170831619635745]]],[[[102.65760037845345,5.016689763394431],[102.65740539588056,5.016689763394431],[102.65760037845345,5.017046699876475],[102.65760037845345,5.016689763394431]]],[[[102.65552754489121,5.0173286620982545],[102.65516909999998,5.017357994546352],[102.65552754489121,5.017685871896505],[102.65552754489121,5.0173286620982545]]],[[[102.65604575328177,5.017476560763545],[102.65604575328177,5.017858071625374],[102.65623410564793,5.017476560763545],[102.65604575328177,5.017476560763545]]],[[[102.65564305247558,5.01786995979436],[102.6557176,5.017908394545781],[102.6559732278177,5.01786995979436],[102.65564305247558,5.01786995979436]]],[[[102.65811858684401,5.010395417665552],[102.65840379999999,5.0102358945536825],[102.65811858684401,5.010218304147666],[102.65811858684401,5.010395417665552]]],[[[102.65990009279875,5.010395417665552],[102.6598281,5.010324794553558],[102.65968529312757,5.010395417665552],[102.65990009279875,5.010395417665552]]],[[[102.65967321201569,5.010414493908853],[102.65950889999999,5.010678094553199],[102.65941976173,5.010788812543974],[102.65967321201569,5.010788812543974],[102.65967321201569,5.010414493908853]]],[[[102.66019142040626,5.010788812543974],[102.66060408271521,5.010788812543974],[102.66019142040626,5.010505193339506],[102.66019142040626,5.010788812543974]]],[[[102.65915500362513,5.011182207652927],[102.65915500362513,5.011117666750001],[102.65910304223365,5.011182207652927],[102.65915500362513,5.011182207652927]]],[[[102.65989200292275,5.011575602992431],[102.65967321201569,5.011950295933885],[102.6598341,5.0119586945519075],[102.65989200292275,5.011575602992431]]],[[[102.65915500362513,5.013149186656315],[102.65915500362513,5.01352428301395],[102.65956402637829,5.013149186656315],[102.65915500362513,5.013149186656315]]],[[[102.65915500362513,5.013935979872038],[102.65921049999999,5.0137835945500004],[102.65915500362513,5.0136587112981],[102.65915500362513,5.013935979872038]]],[[[102.65834852440796,5.01550956907178],[102.65870359999998,5.015741494548022],[102.65910970172831,5.01550956907178],[102.65834852440796,5.01550956907178]]],[[[102.65760037845345,5.016689763394431],[102.65820916336493,5.016689763394431],[102.65782039999999,5.016433494547308],[102.65760037845345,5.016689763394431]]],[[[102.65761631254533,5.0170831619635745],[102.6580893,5.017267794546421],[102.65848817325522,5.0170831619635745],[102.65761631254533,5.0170831619635745]]]]},"properties":{"place_id":"49be5111-bb35-5497-a2ce-d393f01c97e0","habitat":"permanent_water","habitat_label":"Permanent water","resolution_m":50}},{"type":"Feature","geometry":{"type":"MultiPolygon","coordinates":[[[[102.65771926690444,5.010395417665552],[102.65811858684401,5.010218304147666],[102.65786440000001,5.0100905945538265],[102.65771926690444,5.010395417665552]]],[[[102.65967321201569,5.010788812543974],[102.65967321201569,5.010414493908853],[102.65941976173,5.010788812543974],[102.65967321201569,5.010788812543974]]],[[[102.65656396167232,5.015116171425761],[102.65656396167232,5.014913979581377],[102.65607911809192,5.015116171425761],[102.65656396167232,5.015116171425761]]],[[[102.65604575328177,5.0170831619635745],[102.65604575328177,5.016136144230628],[102.655566,5.01644289454727],[102.65604575328177,5.0170831619635745]]],[[[102.65760037845345,5.016689763394431],[102.65740539588056,5.016689763394431],[102.65760037845345,5.017046699876475],[102.65760037845345,5.016689763394431]]],[[[102.65811858684401,5.016689763394431],[102.6584923,5.0170680945466355],[102.65820916336493,5.016689763394431],[102.65811858684401,5.016689763394431]]],[[[102.65552754489121,5.017476560763545],[102.6553613302836,5.017476560763545],[102.65552754489121,5.017685871896505],[102.65552754489121,5.017476560763545]]],[[[102.65564305247558,5.01786995979436],[102.6557176,5.017908394545781],[102.6559732278177,5.01786995979436],[102.65564305247558,5.01786995979436]]]]},"properties":{"place_id":"49be5111-bb35-5497-a2ce-d393f01c97e0","habitat":"seasonal_water_wetland","habitat_label":"Seasonal water or wetland","resolution_m":50}},{"type":"Feature","geometry":{"type":"MultiPolygon","coordinates":[[[[102.65708217006289,5.016296365056098],[102.6577896,5.014705394549094],[102.65834852440796,5.01550956907178],[102.65910970172831,5.01550956907178],[102.65881689999999,5.01489719454887],[102.65950889999999,5.014523094549264],[102.65915500362513,5.013149186656315],[102.6596313,5.0130521945507835],[102.6590703,5.012082294551763],[102.6606106,5.010893194552995],[102.65990009279875,5.010395417665552],[102.6587833,5.011407594552439],[102.6584397558449,5.010395417665552],[102.65771926690444,5.010395417665552],[102.65800219999998,5.011492394552382],[102.65708217006289,5.011687903217221],[102.65708217006289,5.012106377959594],[102.65804839999998,5.012707494551131],[102.65656396167232,5.013149186656315],[102.65701169999997,5.013950594549865],[102.65656396167232,5.015116171425761],[102.65560759999998,5.015366394548394],[102.6561575,5.015924494547827],[102.65564305247558,5.01786995979436],[102.65604575328177,5.017858071625374],[102.6567838,5.016437494547274],[102.65760037845345,5.016689763394431],[102.65708217006289,5.016296365056098]],[[102.65863679523457,5.013935979872038],[102.65863679523457,5.014722774010475],[102.65811858684401,5.014722774010475],[102.65811858684401,5.014329376825907],[102.65760037845345,5.014329376825907],[102.65760037845345,5.013149186656315],[102.65811858684401,5.013149186656315],[102.65811858684401,5.013935979872038],[102.65863679523457,5.013935979872038]],[[102.65811858684401,5.012755790394426],[102.65863679523457,5.012755790394426],[102.65863679523457,5.013149186656315],[102.65811858684401,5.013149186656315],[102.65811858684401,5.012755790394426]],[[102.65863679523457,5.011575602992431],[102.65863679523457,5.012362394363161],[102.65811858684401,5.012362394363161],[102.65811858684401,5.011575602992431],[102.65863679523457,5.011575602992431]]],[[[102.65811858684401,5.0170831619635745],[102.65811858684401,5.016689763394431],[102.65760037845345,5.016689763394431],[102.65761631254533,5.0170831619635745],[102.65811858684401,5.0170831619635745]]]]},"properties":{"place_id":"49be5111-bb35-5497-a2ce-d393f01c97e0","habitat":"water_edge","habitat_label":"Water edge","resolution_m":50}}]}