{"type":"FeatureCollection","metadata":{"schema_version":1,"place_id":"4a0b01b6-04a2-5e7c-8cf9-ee05feb8a3bb","place_name":"Likas Sport Leisure Park","place_type":"park","osm_reference":"relation/14988869","protection_context":"no protected status confirmed from included OSM tags","resolution_m":50,"raster_coverage":1.0,"interpretation":"Suggested search habitats, not predicted plant locations or probabilities of presence."},"features":[{"type":"Feature","geometry":{"type":"MultiPolygon","coordinates":[[[[116.0916346953475,5.978328811925672],[116.09252564953098,5.978495985547972],[116.0925337,5.978317993578574],[116.0916346953475,5.978328811925672]]],[[[116.09008007017583,5.978890003376963],[116.09008007017583,5.978495985547972],[116.08892169999997,5.978364493578535],[116.0890436533947,5.97928402148222],[116.09008007017583,5.978890003376963]]],[[[116.08956186178526,5.982042155956071],[116.08956186178526,5.982436176272136],[116.09008007017583,5.982436176272136],[116.09008007017583,5.982042155956071],[116.08956186178526,5.982042155956071]]]]},"properties":{"place_id":"4a0b01b6-04a2-5e7c-8cf9-ee05feb8a3bb","habitat":"forest_interior","habitat_label":"Forest interior","resolution_m":50}},{"type":"Feature","geometry":{"type":"MultiPolygon","coordinates":[[[[116.0890436533947,5.98558834875392],[116.0890436533947,5.985194326225845],[116.08956186178526,5.985194326225845],[116.08956186178526,5.983618238879025],[116.09059827856636,5.984012260300946],[116.09059827856636,5.98558834875392],[116.09111648695693,5.98558834875392],[116.09111648695693,5.985982371558581],[116.09122589999997,5.985344193571643],[116.09331379999999,5.985201693571779],[116.09418349999997,5.984387893572577],[116.094259360508,5.984012260300946],[116.09370752890973,5.984012260300946],[116.09370752890973,5.984406281999378],[116.09318932051917,5.984406281999378],[116.09318932051917,5.985194326225845],[116.09215290373807,5.985194326225845],[116.09215290373807,5.984012260300946],[116.09318932051917,5.983618238879025],[116.09215290373807,5.982436176272136],[116.09318932051917,5.982042155956071],[116.09318932051917,5.979678039863765],[116.09418604448483,5.979678039863765],[116.09412599842365,5.97928402148222],[116.0924844,5.979407993577491],[116.09252564953098,5.978495985547972],[116.0890436533947,5.978325481603431],[116.09008007017583,5.978495985547972],[116.08956186178526,5.97928402148222],[116.0890436533947,5.97928402148222],[116.08898338627982,5.978890003376963],[116.0890436533947,5.98558834875392]],[[116.0916346953475,5.982436176272136],[116.0916346953475,5.982042155956071],[116.09215290373807,5.982042155956071],[116.09215290373807,5.982436176272136],[116.0916346953475,5.982436176272136]],[[116.0916346953475,5.982830196864639],[116.09111648695693,5.982830196864639],[116.09111648695693,5.982436176272136],[116.0916346953475,5.982436176272136],[116.0916346953475,5.982830196864639]],[[116.08956186178526,5.982830196864639],[116.08956186178526,5.983224217733596],[116.0890436533947,5.983224217733596],[116.0890436533947,5.982830196864639],[116.08956186178526,5.982830196864639]],[[116.09008007017583,5.982042155956071],[116.09008007017583,5.982436176272136],[116.08956186178526,5.982436176272136],[116.08956186178526,5.982042155956071],[116.09008007017583,5.982042155956071]],[[116.09215290373807,5.97928402148222],[116.0916346953475,5.9800720585216105],[116.09008007017583,5.9800720585216105],[116.09008007017583,5.97928402148222],[116.09215290373807,5.97928402148222]]],[[[116.09111648695693,5.986376394639844],[116.09008007017583,5.986376394639844],[116.09008007017583,5.985982371558581],[116.08956186178526,5.985982371558581],[116.08895619999997,5.986946093570051],[116.09111648695693,5.986689218100939],[116.09111648695693,5.986376394639844]]]]},"properties":{"place_id":"4a0b01b6-04a2-5e7c-8cf9-ee05feb8a3bb","habitat":"forest_edge_opening","habitat_label":"Forest edge or opening","resolution_m":50}},{"type":"Feature","geometry":{"type":"MultiPolygon","coordinates":[[[[116.0926711121286,5.979416886490015],[116.0916346953475,5.97928402148222],[116.0916346953475,5.978890003376963],[116.09008007017583,5.978890003376963],[116.09008007017583,5.97928402148222],[116.08956186178526,5.97928402148222],[116.08956186178526,5.980466077455782],[116.0916346953475,5.980466077455782],[116.0916346953475,5.980860096666295],[116.09215290373807,5.980860096666295],[116.09215290373807,5.979678039863765],[116.0926711121286,5.979416886490015]],[[116.09111648695693,5.9800720585216105],[116.09111648695693,5.979678039863765],[116.0916346953475,5.979678039863765],[116.0916346953475,5.9800720585216105],[116.09111648695693,5.9800720585216105]]],[[[116.0890436533947,5.980860096666295],[116.0890526874787,5.982042155956071],[116.08956186178526,5.982042155956071],[116.08956186178526,5.98164813591642],[116.09059827856636,5.98164813591642],[116.09059827856636,5.980860096666295],[116.0890436533947,5.980860096666295]]],[[[116.09059827856636,5.982830196864639],[116.09059827856636,5.982436176272136],[116.09008007017583,5.982436176272136],[116.09008007017583,5.982830196864639],[116.09059827856636,5.982830196864639]]],[[[116.09111648695693,5.983618238879025],[116.0916346953475,5.983618238879025],[116.0916346953475,5.982830196864639],[116.09111648695693,5.982830196864639],[116.09111648695693,5.983618238879025]]],[[[116.0916346953475,5.984800303974338],[116.0916346953475,5.985194326225845],[116.0926711121286,5.985194326225845],[116.0926711121286,5.983618238879025],[116.09215290373807,5.983618238879025],[116.09215290373807,5.984800303974338],[116.0916346953475,5.984800303974338]]],[[[116.09059827856636,5.985982371558581],[116.09059827856636,5.98558834875392],[116.09111648695693,5.98558834875392],[116.09111648695693,5.983618238879025],[116.09008007017583,5.983618238879025],[116.09008007017583,5.982830196864639],[116.08904493489648,5.982436176272136],[116.0890436533947,5.9867704179977315],[116.09059827856636,5.985982371558581]],[[116.08956186178526,5.984800303974338],[116.09008007017583,5.984800303974338],[116.09008007017583,5.985194326225845],[116.08956186178526,5.985194326225845],[116.08956186178526,5.984800303974338]]],[[[116.09111648695693,5.986689218100939],[116.09159209999999,5.9866038935704],[116.09120270525236,5.98558834875392],[116.09111648695693,5.98558834875392],[116.09111648695693,5.986689218100939]]],[[[116.09318932051917,5.9800720585216105],[116.09318932051917,5.979678039863765],[116.0926711121286,5.979678039863765],[116.0926711121286,5.98125411615317],[116.09318932051917,5.98125411615317],[116.09318932051917,5.980466077455782],[116.09370752890973,5.980466077455782],[116.09370752890973,5.9800720585216105],[116.09318932051917,5.9800720585216105]]],[[[116.09318932051917,5.982042155956071],[116.09318932051917,5.98164813591642],[116.0926711121286,5.98164813591642],[116.0926711121286,5.982042155956071],[116.09318932051917,5.982042155956071]]],[[[116.09410546368524,5.982436176272136],[116.09401201617817,5.98164813591642],[116.09370752890973,5.98164813591642],[116.09370752890973,5.982436176272136],[116.09410546368524,5.982436176272136]]],[[[116.0916346953475,5.982436176272136],[116.0916346953475,5.982830196864639],[116.0926711121286,5.982830196864639],[116.0926711121286,5.982042155956071],[116.0916346953475,5.982436176272136]]],[[[116.09318932051917,5.983618238879025],[116.09318932051917,5.983224217733596],[116.0926711121286,5.983224217733596],[116.0926711121286,5.983618238879025],[116.09318932051917,5.983618238879025]]],[[[116.0942257373003,5.984012260300946],[116.0942257373003,5.983224217733596],[116.09370752890973,5.983224217733596],[116.09370752890973,5.984012260300946],[116.0942257373003,5.984012260300946]]]]},"properties":{"place_id":"4a0b01b6-04a2-5e7c-8cf9-ee05feb8a3bb","habitat":"open_grassland","habitat_label":"Open grassland or shrubland","resolution_m":50}},{"type":"Feature","geometry":{"type":"MultiPolygon","coordinates":[[[[116.0890436533947,5.978325481603431],[116.0916346953475,5.978495985547972],[116.0916346953475,5.978328811925672],[116.0890436533947,5.978325481603431]]],[[[116.09250782835221,5.978890003376963],[116.0916346953475,5.978495985547972],[116.0916346953475,5.978890003376963],[116.09111648695693,5.978890003376963],[116.09111648695693,5.979678039863765],[116.09059827856636,5.979678039863765],[116.09111648695693,5.980466077455782],[116.09215290373807,5.9800720585216105],[116.09250782835221,5.978890003376963]]],[[[116.09318932051917,5.980466077455782],[116.0926711121286,5.980466077455782],[116.0926711121286,5.98125411615317],[116.09215290373807,5.98125411615317],[116.09215290373807,5.98164813591642],[116.0926711121286,5.98164813591642],[116.0926711121286,5.982042155956071],[116.09215290373807,5.982042155956071],[116.09215290373807,5.982830196864639],[116.09111648695693,5.983224217733596],[116.09111648695693,5.984800303974338],[116.0916346953475,5.984800303974338],[116.0916346953475,5.985194326225845],[116.09059827856636,5.985194326225845],[116.0890436533947,5.9869472327270925],[116.09159209999999,5.9866038935704],[116.09122589999997,5.985344193571643],[116.09314409999999,5.98524289357174],[116.09401030000001,5.984713393572241],[116.09431090000001,5.983072293573896],[116.09387260000001,5.978698693578182],[116.0926711121286,5.979416886490015],[116.09318932051917,5.980466077455782]]]]},"properties":{"place_id":"4a0b01b6-04a2-5e7c-8cf9-ee05feb8a3bb","habitat":"disturbed_built_edge","habitat_label":"Disturbed, bare or built edge","resolution_m":50}},{"type":"Feature","geometry":{"type":"Polygon","coordinates":[[[116.09111648695693,5.983224217733596],[116.09111648695693,5.982830196864639],[116.09215290373807,5.982436176272136],[116.0916346953475,5.980860096666295],[116.09059827856636,5.980860096666295],[116.09111648695693,5.982436176272136],[116.09008007017583,5.982830196864639],[116.09008007017583,5.983224217733596],[116.09111648695693,5.983224217733596]]]},"properties":{"place_id":"4a0b01b6-04a2-5e7c-8cf9-ee05feb8a3bb","habitat":"permanent_water","habitat_label":"Permanent water","resolution_m":50}},{"type":"Feature","geometry":{"type":"MultiPolygon","coordinates":[[[[116.09111648695693,5.98125411615317],[116.09059827856636,5.98125411615317],[116.09059827856636,5.98164813591642],[116.09111648695693,5.98164813591642],[116.09111648695693,5.98125411615317]]],[[[116.09008007017583,5.984800303974338],[116.08956186178526,5.984800303974338],[116.08956186178526,5.985194326225845],[116.09008007017583,5.985194326225845],[116.09008007017583,5.984800303974338]]]]},"properties":{"place_id":"4a0b01b6-04a2-5e7c-8cf9-ee05feb8a3bb","habitat":"seasonal_water_wetland","habitat_label":"Seasonal water or wetland","resolution_m":50}},{"type":"Feature","geometry":{"type":"MultiPolygon","coordinates":[[[[116.09111648695693,5.983618238879025],[116.09318932051917,5.982436176272136],[116.09318932051917,5.98164813591642],[116.0926711121286,5.98164813591642],[116.0926711121286,5.980860096666295],[116.09215290373807,5.980860096666295],[116.0916346953475,5.9800720585216105],[116.09059827856636,5.9800720585216105],[116.09059827856636,5.980466077455782],[116.08956186178526,5.980860096666295],[116.09008007017583,5.982436176272136],[116.0890436533947,5.982830196864639],[116.09008007017583,5.984012260300946],[116.09111648695693,5.984012260300946],[116.09111648695693,5.983618238879025]],[[116.09059827856636,5.982830196864639],[116.09059827856636,5.982436176272136],[116.09111648695693,5.982436176272136],[116.09059827856636,5.980860096666295],[116.0916346953475,5.980860096666295],[116.09215290373807,5.982436176272136],[116.0916346953475,5.982436176272136],[116.09111648695693,5.983224217733596],[116.09008007017583,5.983224217733596],[116.09008007017583,5.982830196864639],[116.09059827856636,5.982830196864639]]],[[[116.08956186178526,5.984406281999378],[116.0890436533947,5.984406281999378],[116.0890436533947,5.98558834875392],[116.09008007017583,5.985982371558581],[116.09111648695693,5.984800303974338],[116.09059827856636,5.984800303974338],[116.09008007017583,5.984012260300946],[116.08956186178526,5.984012260300946],[116.08956186178526,5.984406281999378]],[[116.09008007017583,5.984800303974338],[116.09008007017583,5.985194326225845],[116.08956186178526,5.985194326225845],[116.08956186178526,5.984800303974338],[116.09008007017583,5.984800303974338]]]]},"properties":{"place_id":"4a0b01b6-04a2-5e7c-8cf9-ee05feb8a3bb","habitat":"water_edge","habitat_label":"Water edge","resolution_m":50}},{"type":"Feature","geometry":{"type":"MultiPolygon","coordinates":[[[[116.0890436533947,5.9825013078546485],[116.08902942973205,5.983224217733596],[116.0890436533947,5.983224217733596],[116.0890436533947,5.9825013078546485]]],[[[116.0890436533947,5.9869472327270925],[116.08899066682095,5.985194326225845],[116.08895619999997,5.986946093570051],[116.0890436533947,5.9869472327270925]]]]},"properties":{"place_id":"4a0b01b6-04a2-5e7c-8cf9-ee05feb8a3bb","habitat":"mangrove","habitat_label":"Mangrove","resolution_m":50}}]}