{"type":"FeatureCollection","metadata":{"schema_version":1,"place_id":"4a90b126-b399-5767-83d1-c60ba7f560aa","place_name":"Taman Permainan TAE","place_type":"park","osm_reference":"way/468225754","protection_context":"no protected status confirmed from included OSM tags","resolution_m":50,"raster_coverage":1.0,"interpretation":"Suggested search habitats, not predicted plant locations or probabilities of presence."},"features":[{"type":"Feature","geometry":{"type":"Polygon","coordinates":[[[101.81964449999998,2.969338096712612],[101.82004700000002,2.96945719671249],[101.81981859999999,2.9691898967127757],[101.81964449999998,2.969338096712612]]]},"properties":{"place_id":"4a90b126-b399-5767-83d1-c60ba7f560aa","habitat":"forest_edge_opening","habitat_label":"Forest edge or opening","resolution_m":50}},{"type":"Feature","geometry":{"type":"Polygon","coordinates":[[[101.81964449999998,2.969338096712612],[101.82004700000002,2.96945719671249],[101.81981859999999,2.9691898967127757],[101.81964449999998,2.969338096712612]]]},"properties":{"place_id":"4a90b126-b399-5767-83d1-c60ba7f560aa","habitat":"disturbed_built_edge","habitat_label":"Disturbed, bare or built edge","resolution_m":50}}]}