{"type":"FeatureCollection","metadata":{"schema_version":1,"place_id":"4aacdc00-304d-5cd1-b9ed-63c78ba6b345","place_name":"Trees","place_type":"wood","osm_reference":"relation/12276659","protection_context":"no protected status confirmed from included OSM tags","resolution_m":50,"raster_coverage":1.0,"interpretation":"Suggested search habitats, not predicted plant locations or probabilities of presence."},"features":[{"type":"Feature","geometry":{"type":"MultiPolygon","coordinates":[[[[101.56905998642357,3.0859533934531966],[101.56884454988555,3.0863458790351332],[101.56885255013827,3.0863458790351332],[101.56905998642357,3.0859533934531966]]],[[[101.56832634149498,3.0863458790351332],[101.56864511385302,3.0867383647581654],[101.56884454988555,3.0863458790351332],[101.56832634149498,3.0863458790351332]]]]},"properties":{"place_id":"4aacdc00-304d-5cd1-b9ed-63c78ba6b345","habitat":"forest_interior","habitat_label":"Forest interior","resolution_m":50}},{"type":"Feature","geometry":{"type":"MultiPolygon","coordinates":[[[[101.56905998642357,3.0859533934531966],[101.56781229999999,3.085255696586968],[101.56732679999999,3.086380596585741],[101.56852839999998,3.086959196585132],[101.56832634149498,3.0863458790351332],[101.56905998642357,3.0859533934531966]],[[101.5679286,3.0862392965859247],[101.56814709999999,3.086013096586169],[101.5681222,3.086250096585878],[101.5679286,3.0862392965859247]]],[[[101.56884454988555,3.0863458790351332],[101.56884454988555,3.0863610161382424],[101.56885255013827,3.0863458790351332],[101.56884454988555,3.0863458790351332]]]]},"properties":{"place_id":"4aacdc00-304d-5cd1-b9ed-63c78ba6b345","habitat":"forest_edge_opening","habitat_label":"Forest edge or opening","resolution_m":50}},{"type":"Feature","geometry":{"type":"MultiPolygon","coordinates":[[[[101.56905998642357,3.0859533934531966],[101.56781229999999,3.085255696586968],[101.56732679999999,3.086380596585741],[101.56852839999998,3.086959196585132],[101.56832634149498,3.0863458790351332],[101.56905998642357,3.0859533934531966]],[[101.5679286,3.0862392965859247],[101.56814709999999,3.086013096586169],[101.5681222,3.086250096585878],[101.5679286,3.0862392965859247]]],[[[101.56884454988555,3.0863458790351332],[101.56884454988555,3.0863610161382424],[101.56885255013827,3.0863458790351332],[101.56884454988555,3.0863458790351332]]]]},"properties":{"place_id":"4aacdc00-304d-5cd1-b9ed-63c78ba6b345","habitat":"disturbed_built_edge","habitat_label":"Disturbed, bare or built edge","resolution_m":50}}]}