{"type":"FeatureCollection","metadata":{"schema_version":1,"place_id":"4b258ee8-e5c5-5966-8150-085d903e6e20","place_name":"Taman Harapan","place_type":"park","osm_reference":"way/980759330","protection_context":"no protected status confirmed from included OSM tags","resolution_m":50,"raster_coverage":1.0,"interpretation":"Suggested search habitats, not predicted plant locations or probabilities of presence."},"features":[{"type":"Feature","geometry":{"type":"Polygon","coordinates":[[[100.322953,5.4084113941481755],[100.3245371,5.408514694148043],[100.32454419999998,5.408430894148154],[100.322953,5.4084113941481755]]]},"properties":{"place_id":"4b258ee8-e5c5-5966-8150-085d903e6e20","habitat":"forest_edge_opening","habitat_label":"Forest edge or opening","resolution_m":50}},{"type":"Feature","geometry":{"type":"Polygon","coordinates":[[[100.322953,5.4084113941481755],[100.3245371,5.408514694148043],[100.32454419999998,5.408430894148154],[100.322953,5.4084113941481755]]]},"properties":{"place_id":"4b258ee8-e5c5-5966-8150-085d903e6e20","habitat":"disturbed_built_edge","habitat_label":"Disturbed, bare or built edge","resolution_m":50}}]}