{"type":"FeatureCollection","metadata":{"schema_version":1,"place_id":"4b7f4aec-9530-547e-b986-d8605df72b9f","place_name":"Fool Reflexology Park","place_type":"park","osm_reference":"relation/14767344","protection_context":"no protected status confirmed from included OSM tags","resolution_m":50,"raster_coverage":1.0,"interpretation":"Suggested search habitats, not predicted plant locations or probabilities of presence."},"features":[{"type":"Feature","geometry":{"type":"Polygon","coordinates":[[[116.09057140000002,5.873654393682157],[116.0907615,5.873860093681967],[116.09202499999998,5.87313729368271],[116.0920733,5.87277839368305],[116.09057140000002,5.873654393682157]]]},"properties":{"place_id":"4b7f4aec-9530-547e-b986-d8605df72b9f","habitat":"forest_edge_opening","habitat_label":"Forest edge or opening","resolution_m":50}},{"type":"Feature","geometry":{"type":"Polygon","coordinates":[[[116.09057140000002,5.873654393682157],[116.0907615,5.873860093681967],[116.09202499999998,5.87313729368271],[116.0920733,5.87277839368305],[116.09057140000002,5.873654393682157]]]},"properties":{"place_id":"4b7f4aec-9530-547e-b986-d8605df72b9f","habitat":"disturbed_built_edge","habitat_label":"Disturbed, bare or built edge","resolution_m":50}}]}