{"type":"FeatureCollection","metadata":{"schema_version":1,"place_id":"4c89a7d2-a887-5dfc-82e0-ac585c8acdec","place_name":"Padang Awam Selama","place_type":"park","osm_reference":"way/645554204","protection_context":"no protected status confirmed from included OSM tags","resolution_m":50,"raster_coverage":1.0,"interpretation":"Suggested search habitats, not predicted plant locations or probabilities of presence."},"features":[{"type":"Feature","geometry":{"type":"Polygon","coordinates":[[[100.6941087866192,5.2177469187903975],[100.69462699500973,5.2177469187903975],[100.69468199999999,5.218372794340956],[100.6950239,5.217847894341484],[100.69419250000001,5.217327094342004],[100.6941087866192,5.2177469187903975]]]},"properties":{"place_id":"4c89a7d2-a887-5dfc-82e0-ac585c8acdec","habitat":"forest_edge_opening","habitat_label":"Forest edge or opening","resolution_m":50}},{"type":"Feature","geometry":{"type":"Polygon","coordinates":[[[100.6941087866192,5.2180143976101965],[100.69483334827649,5.218140437721236],[100.6950239,5.217847894341484],[100.69417557953156,5.217353400099821],[100.6941087866192,5.2180143976101965]]]},"properties":{"place_id":"4c89a7d2-a887-5dfc-82e0-ac585c8acdec","habitat":"open_grassland","habitat_label":"Open grassland or shrubland","resolution_m":50}},{"type":"Feature","geometry":{"type":"Polygon","coordinates":[[[100.69468199999999,5.218372794340956],[100.6950239,5.217847894341484],[100.69419250000001,5.217327094342004],[100.69385319999999,5.2178545943414925],[100.69468199999999,5.218372794340956]]]},"properties":{"place_id":"4c89a7d2-a887-5dfc-82e0-ac585c8acdec","habitat":"disturbed_built_edge","habitat_label":"Disturbed, bare or built edge","resolution_m":50}}]}