{"type":"FeatureCollection","metadata":{"schema_version":1,"place_id":"4cdf8c0e-5fd2-544f-bdaf-a9a283aad3bc","place_name":"Pulau Kuala Cegar","place_type":"wood","osm_reference":"way/724581264","protection_context":"no protected status confirmed from included OSM tags","resolution_m":50,"raster_coverage":1.0,"interpretation":"Suggested search habitats, not predicted plant locations or probabilities of presence."},"features":[{"type":"Feature","geometry":{"type":"Polygon","coordinates":[[[102.69013569999998,5.008025594555923],[102.69105899999998,5.008859894555088],[102.691578,5.0075191945564494],[102.69013569999998,5.008025594555923]]]},"properties":{"place_id":"4cdf8c0e-5fd2-544f-bdaf-a9a283aad3bc","habitat":"forest_edge_opening","habitat_label":"Forest edge or opening","resolution_m":50}},{"type":"Feature","geometry":{"type":"MultiPolygon","coordinates":[[[[102.69164445656344,5.007641659969931],[102.6915485,5.007505194556455],[102.6912941174971,5.007641659969931],[102.69164445656344,5.007641659969931]]],[[[102.69076571544932,5.0086685038672085],[102.69013569999998,5.008025594555923],[102.6902437,5.008446394555481],[102.69076571544932,5.0086685038672085]]],[[[102.69076571544932,5.00803505323515],[102.69076571544932,5.007878539336425],[102.6905854881837,5.00803505323515],[102.69076571544932,5.00803505323515]]],[[[102.69128392383989,5.00803505323515],[102.69128392383989,5.008069398961296],[102.69131836379258,5.00803505323515],[102.69128392383989,5.00803505323515]]],[[[102.69128392383989,5.0085511002552465],[102.69129509999998,5.008511194555437],[102.69128392383989,5.008462912079787],[102.69128392383989,5.0085511002552465]]],[[[102.69089016931655,5.008821840456811],[102.69100869999998,5.008867894555045],[102.69111030077477,5.008821840456811],[102.69089016931655,5.008821840456811]]]]},"properties":{"place_id":"4cdf8c0e-5fd2-544f-bdaf-a9a283aad3bc","habitat":"permanent_water","habitat_label":"Permanent water","resolution_m":50}},{"type":"Feature","geometry":{"type":"MultiPolygon","coordinates":[[[[102.69076571544932,5.00803505323515],[102.69068219999998,5.007990094555956],[102.6905854881837,5.00803505323515],[102.69076571544932,5.00803505323515]]],[[[102.69024750705879,5.008428446730769],[102.69024750705879,5.008036625909659],[102.69012222138191,5.00803505323515],[102.69011419999998,5.00819589455574],[102.69024750705879,5.008428446730769]]]]},"properties":{"place_id":"4cdf8c0e-5fd2-544f-bdaf-a9a283aad3bc","habitat":"seasonal_water_wetland","habitat_label":"Seasonal water or wetland","resolution_m":50}},{"type":"Feature","geometry":{"type":"Polygon","coordinates":[[[102.69024750705879,5.008428446730769],[102.69111030077477,5.008821840456811],[102.69164445656344,5.007641659969931],[102.69024750705879,5.008036625909659],[102.69024750705879,5.008428446730769]]]},"properties":{"place_id":"4cdf8c0e-5fd2-544f-bdaf-a9a283aad3bc","habitat":"water_edge","habitat_label":"Water edge","resolution_m":50}}]}