{"type":"FeatureCollection","metadata":{"schema_version":1,"place_id":"4d289b93-fd29-56df-b4ad-54cf7d2d1c8a","place_name":"Mini Cobblestone","place_type":"park","osm_reference":"way/728198979","protection_context":"no protected status confirmed from included OSM tags","resolution_m":50,"raster_coverage":1.0,"interpretation":"Suggested search habitats, not predicted plant locations or probabilities of presence."},"features":[{"type":"Feature","geometry":{"type":"Polygon","coordinates":[[[100.4281058,5.0064573945575495],[100.4281601,5.006526894557447],[100.42816480000002,5.006442094557551],[100.4281058,5.0064573945575495]]]},"properties":{"place_id":"4d289b93-fd29-56df-b4ad-54cf7d2d1c8a","habitat":"forest_edge_opening","habitat_label":"Forest edge or opening","resolution_m":50}},{"type":"Feature","geometry":{"type":"Polygon","coordinates":[[[100.4281058,5.0064573945575495],[100.4281601,5.006526894557447],[100.42816480000002,5.006442094557551],[100.4281058,5.0064573945575495]]]},"properties":{"place_id":"4d289b93-fd29-56df-b4ad-54cf7d2d1c8a","habitat":"disturbed_built_edge","habitat_label":"Disturbed, bare or built edge","resolution_m":50}},{"type":"Feature","geometry":{"type":"Polygon","coordinates":[[[100.4281058,5.0064573945575495],[100.4281601,5.006526894557447],[100.42816480000002,5.006442094557551],[100.4281058,5.0064573945575495]]]},"properties":{"place_id":"4d289b93-fd29-56df-b4ad-54cf7d2d1c8a","habitat":"water_edge","habitat_label":"Water edge","resolution_m":50}}]}