{"type":"FeatureCollection","metadata":{"schema_version":1,"place_id":"4d64d641-b17f-5856-86d1-1ad3dfe29a5c","place_name":"Bukit Kiara Federal Park Arboretum Zone","place_type":"park","osm_reference":"relation/19352494","protection_context":"mapped protected boundary","resolution_m":50,"raster_coverage":1.0,"interpretation":"Suggested search habitats, not predicted plant locations or probabilities of presence."},"features":[{"type":"Feature","geometry":{"type":"MultiPolygon","coordinates":[[[[101.64363293297768,3.149930419009365],[101.6435458914903,3.1511079458994615],[101.64378953158293,3.1511079458994615],[101.64363293297768,3.149930419009365]]],[[[101.63206597353393,3.1592272348516524],[101.64191193295459,3.158958158328762],[101.64191193295459,3.1585656463363017],[101.64489556230045,3.1585656463363017],[101.6449169,3.157920196508359],[101.6446341,3.158280296507976],[101.64425790000001,3.1580968965081824],[101.6444671,3.1576971965086003],[101.6429466,3.156910596509451],[101.6431027,3.1552025965113013],[101.64439584324619,3.153070493598131],[101.64398476651682,3.153070493598131],[101.64398476651682,3.151892964546562],[101.64354411809029,3.151892964546562],[101.64353489999999,3.153473996513177],[101.63921309999999,3.1534501965132153],[101.63983000000002,3.1521057965146406],[101.63900659999999,3.1513625965154635],[101.639374,3.150623496516241],[101.63884839999999,3.1496954965172534],[101.6400768,3.14965259651731],[101.64055869999997,3.148419496518636],[101.6393726,3.1472247965199407],[101.6336604,3.1473133965198614],[101.63365919999998,3.1530846965135746],[101.63206597353393,3.1530813306606937],[101.63206597353393,3.1546405343520276],[101.6325841819245,3.1546405343520276],[101.6325841819245,3.1558180664319355],[101.63176427592374,3.1562105774138085],[101.63206597353393,3.1592272348516524]]]]},"properties":{"place_id":"4d64d641-b17f-5856-86d1-1ad3dfe29a5c","habitat":"forest_interior","habitat_label":"Forest interior","resolution_m":50}},{"type":"Feature","geometry":{"type":"MultiPolygon","coordinates":[[[[101.64011033167375,3.1479678770728112],[101.63983909939235,3.147694678178109],[101.63983909939235,3.1479678770728112],[101.64011033167375,3.1479678770728112]]],[[[101.6403573077829,3.1483603851721793],[101.64050001419524,3.1483603851721793],[101.6403573077829,3.1482166439826336],[101.6403573077829,3.1483603851721793]]],[[[101.64363293297768,3.149930419009365],[101.64355009999998,3.149244996517736],[101.64354855159036,3.149930419009365],[101.64363293297768,3.149930419009365]]],[[[101.6435458914903,3.1511079458994615],[101.64398476651682,3.153070493598131],[101.64439584324619,3.153070493598131],[101.6445635,3.1528564965138304],[101.6435458914903,3.1511079458994615]]],[[[101.6325841819245,3.1546405343520276],[101.63206597353393,3.1546405343520276],[101.63176580000001,3.1530806965135887],[101.63176427592374,3.1562105774138085],[101.6325841819245,3.1558180664319355],[101.6325841819245,3.1546405343520276]]],[[[101.6317781769546,3.1581731344882655],[101.63206597353393,3.157780622784635],[101.63177576119352,3.157780622784635],[101.6317781769546,3.1581731344882655]]],[[[101.63206597353393,3.1592272348516524],[101.63178059271566,3.1585656463363017],[101.63178470000001,3.1592329965069252],[101.63206597353393,3.1592272348516524]]],[[[101.64139372456404,3.158958158328762],[101.64488239999999,3.1589637965072552],[101.64489556230045,3.1585656463363017],[101.64191193295459,3.1585656463363017],[101.64191193295459,3.158958158328762],[101.64139372456404,3.158958158328762]]],[[[101.64087551617348,3.159046119068485],[101.6403573077829,3.158958158328762],[101.6403573077829,3.159056772481097],[101.64087551617348,3.159046119068485]]]]},"properties":{"place_id":"4d64d641-b17f-5856-86d1-1ad3dfe29a5c","habitat":"forest_edge_opening","habitat_label":"Forest edge or opening","resolution_m":50}},{"type":"Feature","geometry":{"type":"MultiPolygon","coordinates":[[[[101.64011033167375,3.1479678770728112],[101.63983909939235,3.147694678178109],[101.63983909939235,3.1479678770728112],[101.64011033167375,3.1479678770728112]]],[[[101.6403573077829,3.1483603851721793],[101.64050001419524,3.1483603851721793],[101.6403573077829,3.1482166439826336],[101.6403573077829,3.1483603851721793]]],[[[101.64363293297768,3.149930419009365],[101.64355009999998,3.149244996517736],[101.64354855159036,3.149930419009365],[101.64363293297768,3.149930419009365]]],[[[101.6435458914903,3.1511079458994615],[101.64398476651682,3.153070493598131],[101.64439584324619,3.153070493598131],[101.6445635,3.1528564965138304],[101.6435458914903,3.1511079458994615]]],[[[101.6325841819245,3.1546405343520276],[101.63206597353393,3.1546405343520276],[101.63176580000001,3.1530806965135887],[101.63176427592374,3.1562105774138085],[101.6325841819245,3.1558180664319355],[101.6325841819245,3.1546405343520276]]],[[[101.6317781769546,3.1581731344882655],[101.63206597353393,3.157780622784635],[101.63177576119352,3.157780622784635],[101.6317781769546,3.1581731344882655]]],[[[101.63206597353393,3.1592272348516524],[101.63178059271566,3.1585656463363017],[101.63178470000001,3.1592329965069252],[101.63206597353393,3.1592272348516524]]],[[[101.64139372456404,3.158958158328762],[101.64488239999999,3.1589637965072552],[101.64489556230045,3.1585656463363017],[101.64191193295459,3.1585656463363017],[101.64191193295459,3.158958158328762],[101.64139372456404,3.158958158328762]]],[[[101.64087551617348,3.159046119068485],[101.6403573077829,3.158958158328762],[101.6403573077829,3.159056772481097],[101.64087551617348,3.159046119068485]]]]},"properties":{"place_id":"4d64d641-b17f-5856-86d1-1ad3dfe29a5c","habitat":"disturbed_built_edge","habitat_label":"Disturbed, bare or built edge","resolution_m":50}}]}