{"type":"FeatureCollection","metadata":{"schema_version":1,"place_id":"4dad4da1-cc7a-59d3-8454-030a8d2deff5","place_name":"Taman Kejiranan Lintang Delima 10","place_type":"park","osm_reference":"way/262974882","protection_context":"no protected status confirmed from included OSM tags","resolution_m":50,"raster_coverage":1.0,"interpretation":"Suggested search habitats, not predicted plant locations or probabilities of presence."},"features":[{"type":"Feature","geometry":{"type":"Polygon","coordinates":[[[100.30311079999998,5.385054494171806],[100.30315149999998,5.384681894172161],[100.3026365,5.384626694172225],[100.30257009999998,5.385048794171794],[100.30311079999998,5.385054494171806]]]},"properties":{"place_id":"4dad4da1-cc7a-59d3-8454-030a8d2deff5","habitat":"forest_edge_opening","habitat_label":"Forest edge or opening","resolution_m":50}},{"type":"Feature","geometry":{"type":"Polygon","coordinates":[[[100.30311079999998,5.385054494171806],[100.30315149999998,5.384681894172161],[100.3026365,5.384626694172225],[100.30257009999998,5.385048794171794],[100.30311079999998,5.385054494171806]]]},"properties":{"place_id":"4dad4da1-cc7a-59d3-8454-030a8d2deff5","habitat":"disturbed_built_edge","habitat_label":"Disturbed, bare or built edge","resolution_m":50}}]}