{"type":"FeatureCollection","metadata":{"schema_version":1,"place_id":"4dd0c575-086e-52e6-926e-5b5c91b6cc29","place_name":"Taman Awam Tasek Temoh","place_type":"park","osm_reference":"relation/17058868","protection_context":"no protected status confirmed from included OSM tags","resolution_m":50,"raster_coverage":1.0,"interpretation":"Suggested search habitats, not predicted plant locations or probabilities of presence."},"features":[{"type":"Feature","geometry":{"type":"MultiPolygon","coordinates":[[[[101.2043085072663,4.235045607021256],[101.20402584293086,4.236224535840225],[101.2041771180368,4.236224535840225],[101.2043085072663,4.235045607021256]]],[[[101.20350763454029,4.237010489357816],[101.20350763454029,4.237353421159191],[101.20387466093528,4.237010489357816],[101.20350763454029,4.237010489357816]]]]},"properties":{"place_id":"4dd0c575-086e-52e6-926e-5b5c91b6cc29","habitat":"forest_interior","habitat_label":"Forest interior","resolution_m":50}},{"type":"Feature","geometry":{"type":"MultiPolygon","coordinates":[[[[101.20247121775917,4.2346526311368375],[101.20247121775917,4.2346023142547375],[101.20232454571467,4.2346526311368375],[101.20247121775917,4.2346526311368375]]],[[[101.20190346845446,4.235045607021256],[101.20195300936861,4.234780089322039],[101.20117903434894,4.235045607021256],[101.20190346845446,4.235045607021256]]],[[[101.19965489637599,4.23583155937293],[101.201188932253,4.235438583099946],[101.20091659258749,4.235143113306255],[101.19965489637599,4.23583155937293]]],[[[101.1993619674158,4.236224535840225],[101.1993619674158,4.236132748788357],[101.1992818892707,4.236224535840225],[101.1993619674158,4.236224535840225]]],[[[101.2041145,4.236786395357277],[101.2043314,4.234840195359317],[101.20403855902525,4.2342596554466745],[101.20347005708044,4.2342596554466745],[101.20247121775917,4.2346526311368375],[101.20321209999999,4.234664095359513],[101.20345159999997,4.235203895358941],[101.20298942614974,4.236164046588315],[101.20350763454029,4.236224535840225],[101.20350763454029,4.236617512501846],[101.20298942614974,4.236617512501846],[101.2032767,4.23756919535644],[101.2041145,4.236786395357277]]],[[[101.1980734,4.238585795355367],[101.19832555063469,4.237414662344139],[101.1977992,4.2383810953555825],[101.1980734,4.238585795355367]]]]},"properties":{"place_id":"4dd0c575-086e-52e6-926e-5b5c91b6cc29","habitat":"forest_edge_opening","habitat_label":"Forest edge or opening","resolution_m":50}},{"type":"Feature","geometry":{"type":"MultiPolygon","coordinates":[[[[101.20247121775917,4.234843612478321],[101.20195300936861,4.234780089322039],[101.20195300936861,4.235023359302101],[101.20247121775917,4.234843612478321]]],[[[101.20350763454029,4.23583155937293],[101.20298942614974,4.236224535840225],[101.20350763454029,4.236224535840225],[101.20350763454029,4.23583155937293]]],[[[101.19885826973372,4.237403466408148],[101.1993619674158,4.236224535840225],[101.20039838419693,4.235892366808347],[101.20039838419693,4.235438583099946],[101.19958779999997,4.235873895358219],[101.19809934787655,4.237796443652866],[101.19885826973372,4.237403466408148]]],[[[101.20298942614974,4.236617512501846],[101.20298942614974,4.237010489357816],[101.20350763454029,4.237010489357816],[101.20350763454029,4.236617512501846],[101.20298942614974,4.236617512501846]]]]},"properties":{"place_id":"4dd0c575-086e-52e6-926e-5b5c91b6cc29","habitat":"open_grassland","habitat_label":"Open grassland or shrubland","resolution_m":50}},{"type":"Feature","geometry":{"type":"MultiPolygon","coordinates":[[[[101.1993619674158,4.236224535840225],[101.2026996,4.234764395359382],[101.2043085072663,4.235045607021256],[101.2039547,4.234093395360121],[101.2004731,4.235315295358816],[101.1993619674158,4.236224535840225]]],[[[101.20413332162697,4.236617512501846],[101.20402584293086,4.23583155937293],[101.20298942614974,4.236224535840225],[101.20350763454029,4.237010489357816],[101.20413332162697,4.236617512501846]]],[[[101.19833234329649,4.237403466408148],[101.1993619674158,4.236617512501846],[101.1989390431731,4.236617512501846],[101.19833234329649,4.237403466408148]]],[[[101.1980734,4.238585795355367],[101.19859739808767,4.237796443652866],[101.19832555063469,4.237414662344139],[101.1977992,4.2383810953555825],[101.1980734,4.238585795355367]]]]},"properties":{"place_id":"4dd0c575-086e-52e6-926e-5b5c91b6cc29","habitat":"disturbed_built_edge","habitat_label":"Disturbed, bare or built edge","resolution_m":50}},{"type":"Feature","geometry":{"type":"MultiPolygon","coordinates":[[[[101.20143480097805,4.235045607021256],[101.20091659258749,4.235143113306255],[101.20091659258749,4.235438583099946],[101.20143480097805,4.235303361245865],[101.20143480097805,4.235045607021256]]],[[[101.1993619674158,4.236224535840225],[101.1993619674158,4.236617512501846],[101.19938001302589,4.236617512501846],[101.19987402155338,4.236224535840225],[101.1993619674158,4.236224535840225]]],[[[101.20298942614974,4.236224535840225],[101.20298942614974,4.236617512501846],[101.20350763454029,4.236617512501846],[101.20350763454029,4.236224535840225],[101.20298942614974,4.236224535840225]]]]},"properties":{"place_id":"4dd0c575-086e-52e6-926e-5b5c91b6cc29","habitat":"cropland","habitat_label":"Cropland","resolution_m":50}},{"type":"Feature","geometry":{"type":"MultiPolygon","coordinates":[[[[101.20143480097805,4.235303361245865],[101.20190346845446,4.235045607021256],[101.20143480097805,4.235045607021256],[101.20143480097805,4.235303361245865]]],[[[101.20091659258749,4.235438583099946],[101.20091659258749,4.235588381752487],[101.201188932253,4.235438583099946],[101.20091659258749,4.235438583099946]]],[[[101.20039838419693,4.235892366808347],[101.20049437494984,4.23583155937293],[101.20039838419693,4.23583155937293],[101.20039838419693,4.235892366808347]]],[[[101.1993619674158,4.236617512501846],[101.1993619674158,4.236644696389355],[101.19938001302589,4.236617512501846],[101.1993619674158,4.236617512501846]]],[[[101.19884375902525,4.237403466408148],[101.19884375902525,4.237425325345262],[101.19885826973372,4.237403466408148],[101.19884375902525,4.237403466408148]]],[[[101.19832555063469,4.238205955068205],[101.19859739808767,4.237796443652866],[101.19832555063469,4.237796443652866],[101.19832555063469,4.238205955068205]]],[[[101.20298942614974,4.2347076742597185],[101.20247121775917,4.2346526311368375],[101.20247121775917,4.234843612478321],[101.20298942614974,4.2347076742597185]]],[[[101.20350763454029,4.23583155937293],[101.20350763454029,4.235045607021256],[101.2033813701967,4.235045607021256],[101.20317139770056,4.23583155937293],[101.20350763454029,4.23583155937293]]],[[[101.20298942614974,4.236224535840225],[101.20298942614974,4.236164046588315],[101.20294859083543,4.236224535840225],[101.20298942614974,4.236224535840225]]],[[[101.20298942614974,4.237010489357816],[101.20298065189881,4.237010489357816],[101.20298942614974,4.2370192398662985],[101.20298942614974,4.237010489357816]]],[[[101.20323250869755,4.237403466408148],[101.2032767,4.23756919535644],[101.20345407309544,4.237403466408148],[101.20323250869755,4.237403466408148]]]]},"properties":{"place_id":"4dd0c575-086e-52e6-926e-5b5c91b6cc29","habitat":"permanent_water","habitat_label":"Permanent water","resolution_m":50}},{"type":"Feature","geometry":{"type":"MultiPolygon","coordinates":[[[[101.20350763454029,4.2346526311368375],[101.20298942614974,4.2346526311368375],[101.2033813701967,4.235045607021256],[101.20350763454029,4.235045607021256],[101.20350763454029,4.2346526311368375]]],[[[101.20298942614974,4.236224535840225],[101.20273789999997,4.236732595357316],[101.20298065189881,4.237010489357816],[101.20298942614974,4.237010489357816],[101.20298942614974,4.236224535840225]]]]},"properties":{"place_id":"4dd0c575-086e-52e6-926e-5b5c91b6cc29","habitat":"seasonal_water_wetland","habitat_label":"Seasonal water or wetland","resolution_m":50}},{"type":"Feature","geometry":{"type":"Polygon","coordinates":[[[101.2004731,4.235315295358816],[101.19812920000001,4.237738295356292],[101.1980734,4.238585795355367],[101.19947169999999,4.236479395357577],[101.20247121775917,4.2346526311368375],[101.20350763454029,4.2346526311368375],[101.20350763454029,4.23583155937293],[101.20298942614974,4.236164046588315],[101.20345407309544,4.237403466408148],[101.20422091444665,4.23583155937293],[101.20402584293086,4.2342596554466745],[101.20350763454029,4.234246764239394],[101.2004731,4.235315295358816]]]},"properties":{"place_id":"4dd0c575-086e-52e6-926e-5b5c91b6cc29","habitat":"water_edge","habitat_label":"Water edge","resolution_m":50}}]}