{"type":"FeatureCollection","metadata":{"schema_version":1,"place_id":"4dd9a601-8463-577c-b4e8-dc4d18aadcec","place_name":"Sandakan Rainforest Park","place_type":"park","osm_reference":"relation/14412307","protection_context":"no protected status confirmed from included OSM tags","resolution_m":50,"raster_coverage":1.0,"interpretation":"Suggested search habitats, not predicted plant locations or probabilities of presence."},"features":[{"type":"Feature","geometry":{"type":"Polygon","coordinates":[[[118.0582946,5.850125793705531],[118.05875374591568,5.8508486472532475],[118.05927195430625,5.8508486472532475],[118.05927195430625,5.851636506132261],[118.05979016269681,5.851636506132261],[118.05979016269681,5.851242576557654],[118.06238120464963,5.851242576557654],[118.06238120464963,5.851636506132261],[118.06289941304018,5.851707697327621],[118.0641363,5.851690993703996],[118.06393582982129,5.851242576557654],[118.06341762143073,5.851242576557654],[118.06393582982129,5.850454718219026],[118.06497224660242,5.850454718219026],[118.06497224660242,5.8508486472532475],[118.06549045499297,5.850862246704692],[118.0665268717741,5.850355662850834],[118.0665268717741,5.848879004783596],[118.06600866338353,5.848879004783596],[118.0654183220038,5.846515442732774],[118.0582946,5.850125793705531]]]},"properties":{"place_id":"4dd9a601-8463-577c-b4e8-dc4d18aadcec","habitat":"forest_interior","habitat_label":"Forest interior","resolution_m":50}},{"type":"Feature","geometry":{"type":"MultiPolygon","coordinates":[[[[118.0654183220038,5.846515442732774],[118.06532359999997,5.846329293709303],[118.0649789547748,5.846515442732774],[118.0654183220038,5.846515442732774]]],[[[118.06600866338353,5.848879004783596],[118.0665268717741,5.848879004783596],[118.0665268717741,5.850355662850834],[118.06720399999998,5.850024693705618],[118.06549045499297,5.84665719954522],[118.06600866338353,5.848879004783596]]],[[[118.06549045499297,5.8508486472532475],[118.06497224660242,5.8508486472532475],[118.06497224660242,5.850454718219026],[118.06393582982129,5.850454718219026],[118.06341762143073,5.851242576557654],[118.0641145119932,5.851636506132261],[118.0642604,5.851221393704441],[118.06549045499297,5.8508486472532475]]],[[[118.06238120464963,5.851636506132261],[118.06238120464963,5.851242576557654],[118.05979016269681,5.851242576557654],[118.05979016269681,5.851636506132261],[118.05927195430625,5.851636506132261],[118.05927195430625,5.8508486472532475],[118.05846649722976,5.850454718219026],[118.05914730000002,5.851757493703921],[118.06289941304018,5.851707697327621],[118.06238120464963,5.851636506132261]]]]},"properties":{"place_id":"4dd9a601-8463-577c-b4e8-dc4d18aadcec","habitat":"forest_edge_opening","habitat_label":"Forest edge or opening","resolution_m":50}},{"type":"Feature","geometry":{"type":"MultiPolygon","coordinates":[[[[118.06704508016466,5.85010237109145],[118.06720399999998,5.850024693705618],[118.06704508016466,5.849712380321322],[118.06704508016466,5.85010237109145]]],[[[118.05867236513211,5.8508486472532475],[118.05875374591568,5.851004379318473],[118.05875374591568,5.8508486472532475],[118.05867236513211,5.8508486472532475]]],[[[118.06393582982129,5.8508486472532475],[118.06393582982129,5.851242576557654],[118.06445403821186,5.851154077233219],[118.06445403821186,5.8508486472532475],[118.06393582982129,5.8508486472532475]]],[[[118.05927195430625,5.851636506132261],[118.05914730000002,5.851757493703921],[118.05927195430625,5.85175584163293],[118.05927195430625,5.851636506132261]]]]},"properties":{"place_id":"4dd9a601-8463-577c-b4e8-dc4d18aadcec","habitat":"open_grassland","habitat_label":"Open grassland or shrubland","resolution_m":50}},{"type":"Feature","geometry":{"type":"MultiPolygon","coordinates":[[[[118.0654183220038,5.846515442732774],[118.06532359999997,5.846329293709303],[118.0649789547748,5.846515442732774],[118.0654183220038,5.846515442732774]]],[[[118.06600866338353,5.848879004783596],[118.0665268717741,5.848879004783596],[118.0665268717741,5.849666860961057],[118.06702191775199,5.849666860961057],[118.06549045499297,5.84665719954522],[118.06600866338353,5.848879004783596]]],[[[118.06704508016466,5.85010237109145],[118.06720399999998,5.850024693705618],[118.06704508016466,5.849712380321322],[118.06704508016466,5.85010237109145]]],[[[118.06549045499297,5.8508486472532475],[118.06445403821186,5.850454718219026],[118.06445403821186,5.8508486472532475],[118.06393582982129,5.8508486472532475],[118.06393582982129,5.851636506132261],[118.06549045499297,5.8508486472532475]]],[[[118.06238120464963,5.851242576557654],[118.05979016269681,5.851242576557654],[118.05979016269681,5.851636506132261],[118.05927195430625,5.85175584163293],[118.06289941304018,5.851707697327621],[118.06238120464963,5.851636506132261],[118.06238120464963,5.851242576557654]]]]},"properties":{"place_id":"4dd9a601-8463-577c-b4e8-dc4d18aadcec","habitat":"disturbed_built_edge","habitat_label":"Disturbed, bare or built edge","resolution_m":50}}]}