{"type":"FeatureCollection","metadata":{"schema_version":1,"place_id":"4e041ebe-5482-5720-8977-63c3613e09e4","place_name":"Taman Bulatan Miri","place_type":"park","osm_reference":"way/271970305","protection_context":"no protected status confirmed from included OSM tags","resolution_m":50,"raster_coverage":1.0,"interpretation":"Suggested search habitats, not predicted plant locations or probabilities of presence."},"features":[{"type":"Feature","geometry":{"type":"MultiPolygon","coordinates":[[[[114.01465546598045,4.418193816899044],[114.01465546598045,4.418586885500794],[114.01568809174529,4.418586885500794],[114.01554936334061,4.418193816899044],[114.01465546598045,4.418193816899044]]],[[[114.01361904919933,4.419766092523064],[114.01361904919933,4.420159161936223],[114.0141372575899,4.420159161936223],[114.0141372575899,4.419766092523064],[114.01361904919933,4.419766092523064]]],[[[114.0125826324182,4.420159161936223],[114.0125826324182,4.420552231552277],[114.01310084080876,4.420552231552277],[114.01310084080876,4.420159161936223],[114.0125826324182,4.420159161936223]]],[[[114.0115462156371,4.421338371393153],[114.01206442402764,4.421338371393153],[114.01206442402764,4.4209453013712485],[114.0115462156371,4.4209453013712485],[114.0115462156371,4.421338371393153]]],[[[114.01050979885596,4.42212451204584],[114.01050979885596,4.422003406890208],[114.01028635563085,4.42212451204584],[114.01050979885596,4.42212451204584]]]]},"properties":{"place_id":"4e041ebe-5482-5720-8977-63c3613e09e4","habitat":"forest_interior","habitat_label":"Forest interior","resolution_m":50}},{"type":"Feature","geometry":{"type":"Polygon","coordinates":[[[114.00811066940213,4.423303724547334],[114.00843696529373,4.423634691448947],[114.01414109999999,4.420502095164601],[114.01564829999998,4.418827895166349],[114.01568809174529,4.418586885500794],[114.01465546598045,4.418586885500794],[114.01465546598045,4.418193816899044],[114.01554936334061,4.418193816899044],[114.0153717,4.417976295167242],[114.01403429999999,4.417812695167422],[114.01400999999998,4.419037795166132],[114.013491,4.419608895165519],[114.01118889999996,4.420832295164254],[114.0115209,4.42145539516361],[114.00811066940213,4.423303724547334]],[[114.0115462156371,4.4209453013712485],[114.01206442402764,4.4209453013712485],[114.01206442402764,4.421338371393153],[114.0115462156371,4.421338371393153],[114.0115462156371,4.4209453013712485]],[[114.0125826324182,4.420159161936223],[114.01310084080876,4.420159161936223],[114.01310084080876,4.420552231552277],[114.0125826324182,4.420552231552277],[114.0125826324182,4.420159161936223]],[[114.01361904919933,4.419766092523064],[114.0141372575899,4.419766092523064],[114.0141372575899,4.420159161936223],[114.01361904919933,4.420159161936223],[114.01361904919933,4.419766092523064]]]},"properties":{"place_id":"4e041ebe-5482-5720-8977-63c3613e09e4","habitat":"forest_edge_opening","habitat_label":"Forest edge or opening","resolution_m":50}},{"type":"Feature","geometry":{"type":"MultiPolygon","coordinates":[[[[114.01206442402764,4.420552231552277],[114.01206442402764,4.4209453013712485],[114.0125826324182,4.4209453013712485],[114.0125826324182,4.420552231552277],[114.01206442402764,4.420552231552277]]],[[[114.0115462156371,4.421338371393153],[114.0115209,4.42145539516361],[114.01101158437376,4.421731441618011],[114.0115462156371,4.421731441618011],[114.0115462156371,4.421338371393153]]],[[[114.00843696529373,4.423303724547334],[114.00843696529373,4.423126873472545],[114.00811066940213,4.423303724547334],[114.00843696529373,4.423303724547334]]],[[[114.00791875690315,4.423407740377276],[114.006974,4.4239197951610345],[114.00791875690315,4.423909888692557],[114.00791875690315,4.423407740377276]]]]},"properties":{"place_id":"4e041ebe-5482-5720-8977-63c3613e09e4","habitat":"open_grassland","habitat_label":"Open grassland or shrubland","resolution_m":50}},{"type":"Feature","geometry":{"type":"Polygon","coordinates":[[[114.0115462156371,4.421731441618011],[114.006974,4.4239197951610345],[114.00766829999999,4.4240428951608815],[114.01414109999999,4.420502095164601],[114.01564829999998,4.418827895166349],[114.015173674371,4.418586885500794],[114.015173674371,4.418979954305369],[114.01465546598045,4.418979954305369],[114.01465546598045,4.418193816899044],[114.01554936334061,4.418193816899044],[114.0153717,4.417976295167242],[114.01403429999999,4.417812695167422],[114.01400999999998,4.419037795166132],[114.013491,4.419608895165519],[114.01118889999996,4.420832295164254],[114.0115462156371,4.421731441618011]],[[114.0115462156371,4.4209453013712485],[114.01206442402764,4.4209453013712485],[114.01206442402764,4.421338371393153],[114.0115462156371,4.421338371393153],[114.0115462156371,4.4209453013712485]],[[114.01206442402764,4.420552231552277],[114.0125826324182,4.420552231552277],[114.0125826324182,4.4209453013712485],[114.01206442402764,4.4209453013712485],[114.01206442402764,4.420552231552277]],[[114.0125826324182,4.420159161936223],[114.01310084080876,4.420159161936223],[114.01310084080876,4.420552231552277],[114.0125826324182,4.420552231552277],[114.0125826324182,4.420159161936223]],[[114.0141372575899,4.420159161936223],[114.01361904919933,4.420159161936223],[114.01361904919933,4.419766092523064],[114.0141372575899,4.419766092523064],[114.0141372575899,4.420159161936223]],[[114.0141372575899,4.419373023312787],[114.01465546598045,4.419373023312787],[114.01465546598045,4.419766092523064],[114.0141372575899,4.419766092523064],[114.0141372575899,4.419373023312787]]]},"properties":{"place_id":"4e041ebe-5482-5720-8977-63c3613e09e4","habitat":"disturbed_built_edge","habitat_label":"Disturbed, bare or built edge","resolution_m":50}},{"type":"Feature","geometry":{"type":"Polygon","coordinates":[[[114.01465546598045,4.419766092523064],[114.01465546598045,4.419373023312787],[114.015173674371,4.419373023312787],[114.015173674371,4.418979954305369],[114.0141372575899,4.418979954305369],[114.0141372575899,4.419766092523064],[114.01465546598045,4.419766092523064]]]},"properties":{"place_id":"4e041ebe-5482-5720-8977-63c3613e09e4","habitat":"permanent_water","habitat_label":"Permanent water","resolution_m":50}},{"type":"Feature","geometry":{"type":"Polygon","coordinates":[[[114.01465546598045,4.419373023312787],[114.01465546598045,4.418979954305369],[114.0141372575899,4.418979954305369],[114.0141372575899,4.419373023312787],[114.01465546598045,4.419373023312787]]]},"properties":{"place_id":"4e041ebe-5482-5720-8977-63c3613e09e4","habitat":"seasonal_water_wetland","habitat_label":"Seasonal water or wetland","resolution_m":50}},{"type":"Feature","geometry":{"type":"Polygon","coordinates":[[[114.01319885845561,4.419766092523064],[114.0141372575899,4.420504292381275],[114.01557169999998,4.418956495166214],[114.01564829999998,4.418827895166349],[114.015173674371,4.418193816899044],[114.0141372575899,4.418193816899044],[114.01400999999998,4.419037795166132],[114.01319885845561,4.419766092523064]],[[114.0141372575899,4.418979954305369],[114.015173674371,4.418979954305369],[114.015173674371,4.419373023312787],[114.0141372575899,4.419766092523064],[114.0141372575899,4.418979954305369]]]},"properties":{"place_id":"4e041ebe-5482-5720-8977-63c3613e09e4","habitat":"water_edge","habitat_label":"Water edge","resolution_m":50}}]}