{"type":"FeatureCollection","metadata":{"schema_version":1,"place_id":"4e0a8888-e9ad-54ba-86ec-2bc57c72d293","place_name":"Laman Tun Perak","place_type":"park","osm_reference":"way/1137309555","protection_context":"no protected status confirmed from included OSM tags","resolution_m":50,"raster_coverage":1.0,"interpretation":"Suggested search habitats, not predicted plant locations or probabilities of presence."},"features":[{"type":"Feature","geometry":{"type":"Polygon","coordinates":[[[101.69485039999999,3.151271596515549],[101.6951776,3.1512066965156245],[101.6951515,3.151142396515713],[101.69485039999999,3.151271596515549]]]},"properties":{"place_id":"4e0a8888-e9ad-54ba-86ec-2bc57c72d293","habitat":"forest_edge_opening","habitat_label":"Forest edge or opening","resolution_m":50}},{"type":"Feature","geometry":{"type":"Polygon","coordinates":[[[101.69485039999999,3.151271596515549],[101.6951776,3.1512066965156245],[101.6951515,3.151142396515713],[101.69485039999999,3.151271596515549]]]},"properties":{"place_id":"4e0a8888-e9ad-54ba-86ec-2bc57c72d293","habitat":"disturbed_built_edge","habitat_label":"Disturbed, bare or built edge","resolution_m":50}}]}