{"type":"FeatureCollection","metadata":{"schema_version":1,"place_id":"4e2d4601-dbd2-5dc6-9b7a-5538753df0cb","place_name":"Teluk Sri Intan - Turtle Sanctuary","place_type":"park","osm_reference":"way/187132948","protection_context":"mapped nature reserve","resolution_m":50,"raster_coverage":1.0,"interpretation":"Suggested search habitats, not predicted plant locations or probabilities of presence."},"features":[{"type":"Feature","geometry":{"type":"Polygon","coordinates":[[[104.12620295730231,2.793197207535686],[104.12628767882416,2.793197207535686],[104.12620295730231,2.79310394283841],[104.12620295730231,2.793197207535686]]]},"properties":{"place_id":"4e2d4601-dbd2-5dc6-9b7a-5538753df0cb","habitat":"forest_interior","habitat_label":"Forest interior","resolution_m":50}},{"type":"Feature","geometry":{"type":"Polygon","coordinates":[[[104.1253559,2.7926587969046874],[104.12768160000002,2.7951177969019865],[104.1282749,2.7963109969006963],[104.12781099999998,2.7950385969020894],[104.12604439999998,2.7929293969043765],[104.1253559,2.7926587969046874]]]},"properties":{"place_id":"4e2d4601-dbd2-5dc6-9b7a-5538753df0cb","habitat":"forest_edge_opening","habitat_label":"Forest edge or opening","resolution_m":50}},{"type":"Feature","geometry":{"type":"Polygon","coordinates":[[[104.12620295730231,2.793197207535686],[104.12604439999998,2.7929293969043765],[104.12525039999998,2.7927392969046],[104.12584261540054,2.793197207535686],[104.12620295730231,2.793197207535686]]]},"properties":{"place_id":"4e2d4601-dbd2-5dc6-9b7a-5538753df0cb","habitat":"disturbed_built_edge","habitat_label":"Disturbed, bare or built edge","resolution_m":50}},{"type":"Feature","geometry":{"type":"MultiPolygon","coordinates":[[[[104.12568474891174,2.7930751425682625],[104.12554774025358,2.7928048223045963],[104.12533514395369,2.7928048223045963],[104.12568474891174,2.7930751425682625]]],[[[104.12620295730231,2.793197207535686],[104.12584261540054,2.793197207535686],[104.12620295730231,2.7935302047258705],[104.12620295730231,2.793197207535686]]],[[[104.12723937408342,2.794345593709296],[104.12626686631349,2.7935895928943815],[104.12723937408342,2.794533098537817],[104.12723937408342,2.794345593709296]]],[[[104.12775758247399,2.795241071826618],[104.12758676602847,2.794766749736274],[104.12741609192081,2.794766749736274],[104.12775758247399,2.795241071826618]]],[[[104.12794893313065,2.7955515216025564],[104.1281358,2.795854696901202],[104.1282749,2.7963109969006963],[104.12827579086455,2.79575830438643],[104.12794893313065,2.7955515216025564]]]]},"properties":{"place_id":"4e2d4601-dbd2-5dc6-9b7a-5538753df0cb","habitat":"permanent_water","habitat_label":"Permanent water","resolution_m":50}},{"type":"Feature","geometry":{"type":"MultiPolygon","coordinates":[[[[104.12533514395369,2.7928048223045963],[104.1253559,2.7926587969046874],[104.12525039999998,2.7927392969046],[104.12533514395369,2.7928048223045963]]],[[[104.12568474891174,2.7929091108769777],[104.12620295730231,2.7935302047258705],[104.1264828772701,2.7935895928943815],[104.12604439999998,2.7929293969043765],[104.12568474891174,2.7929091108769777]]],[[[104.12672116569287,2.7939819783806987],[104.12687762627009,2.7939819783806987],[104.12672116569287,2.793826454577694],[104.12672116569287,2.7939819783806987]]],[[[104.12723937408342,2.794345593709296],[104.12741609192081,2.794766749736274],[104.12758676602847,2.794766749736274],[104.12723937408342,2.794345593709296]]],[[[104.12794893313065,2.7955515216025564],[104.12781099999998,2.7950385969020894],[104.12775758247399,2.794973836847238],[104.12794893313065,2.7955515216025564]]],[[[104.12827579086455,2.796310153332403],[104.12840109999999,2.796191496900833],[104.12827579086455,2.79575830438643],[104.12827579086455,2.796310153332403]]]]},"properties":{"place_id":"4e2d4601-dbd2-5dc6-9b7a-5538753df0cb","habitat":"water_edge","habitat_label":"Water edge","resolution_m":50}}]}