{"type":"FeatureCollection","metadata":{"schema_version":1,"place_id":"4ea5bbbe-1db5-5fee-9d0f-db637fb9c867","place_name":"Padang Bandaran Sandakan","place_type":"park","osm_reference":"way/530167832","protection_context":"no protected status confirmed from included OSM tags","resolution_m":50,"raster_coverage":1.0,"interpretation":"Suggested search habitats, not predicted plant locations or probabilities of presence."},"features":[{"type":"Feature","geometry":{"type":"MultiPolygon","coordinates":[[[[118.11472025209623,5.839424814879335],[118.11440195684636,5.839818736356014],[118.11472025209623,5.839818736356014],[118.11472025209623,5.839424814879335]]],[[[118.11472025209623,5.839818736356014],[118.11472025209623,5.840212658102352],[118.11416899999998,5.840289793715314],[118.11526459999999,5.840390793715217],[118.11551005908947,5.839818736356014],[118.11472025209623,5.839818736356014]]]]},"properties":{"place_id":"4ea5bbbe-1db5-5fee-9d0f-db637fb9c867","habitat":"forest_edge_opening","habitat_label":"Forest edge or opening","resolution_m":50}},{"type":"Feature","geometry":{"type":"Polygon","coordinates":[[[118.11420204370566,5.840314926532006],[118.11472025209623,5.840456659374],[118.11551005908947,5.839818736356014],[118.11472025209623,5.838776280248985],[118.11472025209623,5.839818736356014],[118.11420204370566,5.840314926532006]]]},"properties":{"place_id":"4ea5bbbe-1db5-5fee-9d0f-db637fb9c867","habitat":"open_grassland","habitat_label":"Open grassland or shrubland","resolution_m":50}},{"type":"Feature","geometry":{"type":"Polygon","coordinates":[[[118.11472025209623,5.840212658102352],[118.11526459999999,5.840390793715217],[118.11552029999997,5.839729093715883],[118.11467290000002,5.838763793716834],[118.11416899999998,5.840289793715314],[118.11472025209623,5.840456659374],[118.11472025209623,5.840212658102352]]]},"properties":{"place_id":"4ea5bbbe-1db5-5fee-9d0f-db637fb9c867","habitat":"disturbed_built_edge","habitat_label":"Disturbed, bare or built edge","resolution_m":50}}]}