{"type":"FeatureCollection","metadata":{"schema_version":1,"place_id":"4ff1b1f9-d241-5aed-8235-4329b108606b","place_name":"Pusat Rekreasi Pantai Kamloon","place_type":"park","osm_reference":"way/1027468422","protection_context":"no protected status confirmed from included OSM tags","resolution_m":50,"raster_coverage":1.0,"interpretation":"Suggested search habitats, not predicted plant locations or probabilities of presence."},"features":[{"type":"Feature","geometry":{"type":"MultiPolygon","coordinates":[[[[100.44485055075953,5.558626308549457],[100.44423989999999,5.560408593994975],[100.4413808,5.5602827939951],[100.44092449999998,5.561119193994268],[100.44185107876498,5.562563659698834],[100.44277771719727,5.562169923429835],[100.44277771719727,5.561776187417342],[100.44174130041615,5.56138245166134],[100.44174130041615,5.560594980918728],[100.44329592558783,5.560594980918728],[100.44381413397839,5.56138245166134],[100.44433234236895,5.56138245166134],[100.44433234236895,5.560988716161808],[100.44536875915007,5.560988716161808],[100.44536875915007,5.56138245166134],[100.44616059615198,5.561776187417342],[100.44647239999999,5.561288993994103],[100.44582479999998,5.561121293994264],[100.44485055075953,5.558626308549457]],[[100.44536875915007,5.560594980918728],[100.44485055075953,5.560594980918728],[100.44485055075953,5.560201245932083],[100.44536875915007,5.560201245932083],[100.44536875915007,5.560594980918728]]],[[[100.44210364782744,5.562957396224358],[100.4428613550148,5.564138607340279],[100.44329592558783,5.564138607340279],[100.44336649313972,5.5649260827005325],[100.44433234236895,5.565319820765607],[100.44433234236895,5.5649260827005325],[100.44485055075953,5.5649260827005325],[100.44485055075953,5.564532344892098],[100.44433234236895,5.564532344892098],[100.44433234236895,5.563744870045063],[100.44536875915007,5.563744870045063],[100.44588696754064,5.561776187417342],[100.44536875915007,5.561776187417342],[100.44536875915007,5.56138245166134],[100.44433234236895,5.56138245166134],[100.44433234236895,5.561776187417342],[100.44381413397839,5.561776187417342],[100.44381413397839,5.562563659698834],[100.44277771719727,5.562169923429835],[100.44210364782744,5.562957396224358]],[[100.44433234236895,5.562563659698834],[100.44433234236895,5.562957396224358],[100.44381413397839,5.562957396224358],[100.44381413397839,5.562563659698834],[100.44433234236895,5.562563659698834]]]]},"properties":{"place_id":"4ff1b1f9-d241-5aed-8235-4329b108606b","habitat":"forest_edge_opening","habitat_label":"Forest edge or opening","resolution_m":50}},{"type":"Feature","geometry":{"type":"MultiPolygon","coordinates":[[[[100.44485055075953,5.558626308549457],[100.44501291478831,5.558626308549457],[100.44496649999999,5.5586057939967635],[100.44485055075953,5.558626308549457]]],[[[100.44185107876498,5.562563659698834],[100.44210364782744,5.562957396224358],[100.44225950880671,5.562957396224358],[100.44225950880671,5.562563659698834],[100.44185107876498,5.562563659698834]]],[[[100.44225950880671,5.563200372114498],[100.44260878595236,5.563744870045063],[100.44277771719727,5.563744870045063],[100.44277771719727,5.562957396224358],[100.44225950880671,5.563200372114498]]],[[[100.44329592558783,5.564138607340279],[100.44329592558783,5.563744870045063],[100.44277771719727,5.563744870045063],[100.4435345,5.565187993990151],[100.44433234236895,5.565713559087338],[100.44433234236895,5.5649260827005325],[100.44381413397839,5.5649260827005325],[100.44381413397839,5.564138607340279],[100.44329592558783,5.564138607340279]]],[[[100.44446529999999,5.566358993988993],[100.4453193,5.5657224939896315],[100.44536875915007,5.565319820765607],[100.44433234236895,5.565713559087338],[100.44446529999999,5.566358993988993]]]]},"properties":{"place_id":"4ff1b1f9-d241-5aed-8235-4329b108606b","habitat":"open_grassland","habitat_label":"Open grassland or shrubland","resolution_m":50}},{"type":"Feature","geometry":{"type":"Polygon","coordinates":[[[100.44485055075953,5.565713559087338],[100.44381413397839,5.565319820765607],[100.44381413397839,5.564532344892098],[100.44329592558783,5.564532344892098],[100.44329592558783,5.563744870045063],[100.44277771719727,5.563744870045063],[100.44277771719727,5.562957396224358],[100.44225950880671,5.562957396224358],[100.44225950880671,5.562169923429835],[100.44174130041615,5.562169923429835],[100.44174130041615,5.560988716161808],[100.44122309202558,5.560988716161808],[100.44122309202558,5.5605718733068485],[100.44092449999998,5.561119193994268],[100.44446529999999,5.566358993988993],[100.44485055075953,5.565713559087338]]]},"properties":{"place_id":"4ff1b1f9-d241-5aed-8235-4329b108606b","habitat":"disturbed_built_edge","habitat_label":"Disturbed, bare or built edge","resolution_m":50}},{"type":"Feature","geometry":{"type":"MultiPolygon","coordinates":[[[[100.44485055075953,5.558626308549457],[100.44485055075953,5.55862143557136],[100.44481442791933,5.558626308549457],[100.44485055075953,5.558626308549457]]],[[[100.44485055075953,5.558626308549457],[100.44514761216927,5.559020042510557],[100.44501291478831,5.558626308549457],[100.44485055075953,5.558626308549457]]],[[[100.44536875915007,5.560594980918728],[100.44566502657706,5.560594980918728],[100.44536875915007,5.5596190412155915],[100.44536875915007,5.560594980918728]]],[[[100.44616059615198,5.561776187417342],[100.44588696754064,5.562169923429835],[100.44595111579974,5.562169923429835],[100.44616059615198,5.561776187417342]]],[[[100.44174130041615,5.562169923429835],[100.44225950880671,5.562563659698834],[100.44225950880671,5.562169923429835],[100.44174130041615,5.562169923429835]]],[[[100.44536875915007,5.564138607340279],[100.44554586515513,5.564532344892098],[100.44554986708813,5.564138607340279],[100.44536875915007,5.564138607340279]]]]},"properties":{"place_id":"4ff1b1f9-d241-5aed-8235-4329b108606b","habitat":"cropland","habitat_label":"Cropland","resolution_m":50}},{"type":"Feature","geometry":{"type":"MultiPolygon","coordinates":[[[[100.44485055075953,5.559413776728015],[100.44530644665188,5.559413776728015],[100.44514761216927,5.559020042510557],[100.44485055075953,5.559020042510557],[100.44485055075953,5.559413776728015]]],[[[100.44579563642202,5.562563659698834],[100.44616059615198,5.561776187417342],[100.44647239999999,5.561288993994103],[100.44588696754064,5.56138245166134],[100.44536875915007,5.560594980918728],[100.44442930289475,5.560201245932083],[100.44433234236895,5.56138245166134],[100.44536875915007,5.561776187417342],[100.44536875915007,5.562563659698834],[100.44579563642202,5.562563659698834]]],[[[100.44174130041615,5.560594980918728],[100.44122309202558,5.560594980918728],[100.44122309202558,5.560988716161808],[100.44174130041615,5.560988716161808],[100.44174130041615,5.561776187417342],[100.44225950880671,5.561776187417342],[100.44225950880671,5.562957396224358],[100.44277771719727,5.562957396224358],[100.44277771719727,5.562563659698834],[100.44433234236895,5.562563659698834],[100.44381413397839,5.560594980918728],[100.44174130041615,5.5602986559615175],[100.44174130041615,5.560594980918728]],[[100.44381413397839,5.562169923429835],[100.44329592558783,5.562169923429835],[100.44329592558783,5.56138245166134],[100.44381413397839,5.56138245166134],[100.44381413397839,5.562169923429835]]],[[[100.44381413397839,5.56335113300643],[100.44433234236895,5.56335113300643],[100.44433234236895,5.562957396224358],[100.44381413397839,5.562957396224358],[100.44381413397839,5.56335113300643]]],[[[100.44565211107265,5.562957396224358],[100.44485055075953,5.56335113300643],[100.44485055075953,5.564138607340279],[100.44554986708813,5.564138607340279],[100.44565211107265,5.562957396224358]]],[[[100.44381413397839,5.564138607340279],[100.44433234236895,5.564138607340279],[100.44433234236895,5.563744870045063],[100.44381413397839,5.563744870045063],[100.44381413397839,5.564138607340279]]],[[[100.44536875915007,5.564532344892098],[100.44542989999997,5.565423793989945],[100.44554586515513,5.564532344892098],[100.44536875915007,5.564532344892098]]],[[[100.44485055075953,5.565713559087338],[100.44485055075953,5.5649260827005325],[100.44433234236895,5.5649260827005325],[100.44433234236895,5.565713559087338],[100.44485055075953,5.565713559087338]]],[[[100.44485055075953,5.566107297665746],[100.44485055075953,5.566144334965339],[100.4449072518708,5.566107297665746],[100.44485055075953,5.566107297665746]]]]},"properties":{"place_id":"4ff1b1f9-d241-5aed-8235-4329b108606b","habitat":"permanent_water","habitat_label":"Permanent water","resolution_m":50}},{"type":"Feature","geometry":{"type":"MultiPolygon","coordinates":[[[[100.44329592558783,5.560988716161808],[100.44381413397839,5.560988716161808],[100.44381413397839,5.560594980918728],[100.44329592558783,5.560594980918728],[100.44329592558783,5.560988716161808]]],[[[100.44174130041615,5.560988716161808],[100.44122309202558,5.560988716161808],[100.44122309202558,5.56138245166134],[100.44174130041615,5.56138245166134],[100.44174130041615,5.560988716161808]]],[[[100.44174130041615,5.561776187417342],[100.44225950880671,5.561776187417342],[100.44225950880671,5.56138245166134],[100.44174130041615,5.56138245166134],[100.44174130041615,5.561776187417342]]],[[[100.44485055075953,5.562563659698834],[100.44381413397839,5.562563659698834],[100.44381413397839,5.562169923429835],[100.44485055075953,5.561776187417342],[100.44485055075953,5.56138245166134],[100.44381413397839,5.560988716161808],[100.44381413397839,5.56138245166134],[100.44277771719727,5.561776187417342],[100.44277771719727,5.562169923429835],[100.44329592558783,5.562169923429835],[100.44329592558783,5.56335113300643],[100.44433234236895,5.56335113300643],[100.44485055075953,5.562563659698834]]],[[[100.44433234236895,5.5649260827005325],[100.44381413397839,5.5649260827005325],[100.44381413397839,5.565319820765607],[100.44433234236895,5.565319820765607],[100.44433234236895,5.5649260827005325]]],[[[100.44433234236895,5.565713559087338],[100.44485055075953,5.565713559087338],[100.44485055075953,5.565319820765607],[100.44433234236895,5.565319820765607],[100.44433234236895,5.565713559087338]]],[[[100.44485055075953,5.559807511201851],[100.44536875915007,5.559807511201851],[100.44514761216927,5.559020042510557],[100.44485055075953,5.559020042510557],[100.44485055075953,5.559807511201851]]],[[[100.44536875915007,5.560594980918728],[100.44485055075953,5.560594980918728],[100.44485055075953,5.56138245166134],[100.44536875915007,5.56138245166134],[100.44536875915007,5.560594980918728]]],[[[100.44536875915007,5.561776187417342],[100.44588696754064,5.561776187417342],[100.44588696754064,5.56138245166134],[100.44536875915007,5.56138245166134],[100.44536875915007,5.561776187417342]]],[[[100.44588696754064,5.561776187417342],[100.44595111579974,5.562169923429835],[100.44616059615198,5.561776187417342],[100.44588696754064,5.561776187417342]]],[[[100.44536875915007,5.562957396224358],[100.44579563642202,5.562563659698834],[100.44536875915007,5.562563659698834],[100.44536875915007,5.562957396224358]]],[[[100.44544365696034,5.565319820765607],[100.44555386902114,5.563744870045063],[100.44485055075953,5.564138607340279],[100.44485055075953,5.56335113300643],[100.44433234236895,5.56335113300643],[100.44433234236895,5.564138607340279],[100.44381413397839,5.564138607340279],[100.44381413397839,5.564532344892098],[100.44433234236895,5.564532344892098],[100.44485055075953,5.565319820765607],[100.44544365696034,5.565319820765607]]]]},"properties":{"place_id":"4ff1b1f9-d241-5aed-8235-4329b108606b","habitat":"seasonal_water_wetland","habitat_label":"Seasonal water or wetland","resolution_m":50}},{"type":"Feature","geometry":{"type":"MultiPolygon","coordinates":[[[[100.44536875915007,5.560594980918728],[100.44536875915007,5.560988716161808],[100.44578455321877,5.560988716161808],[100.44536875915007,5.5596190412155915],[100.44485055075953,5.559807511201851],[100.44506129999999,5.5586476939967575],[100.4446559,5.5586476939967575],[100.44442930289475,5.560201245932083],[100.44536875915007,5.560594980918728]]],[[[100.44329592558783,5.560367059250053],[100.44381413397839,5.560988716161808],[100.44433234236895,5.560988716161808],[100.44433234236895,5.560307393071721],[100.44329592558783,5.560367059250053]]],[[[100.44588696754064,5.561137392658948],[100.44640517593119,5.56138245166134],[100.44640517593119,5.561271585906198],[100.44588696754064,5.561137392658948]]],[[[100.44433234236895,5.562563659698834],[100.44485055075953,5.562563659698834],[100.44433234236895,5.56335113300643],[100.44536875915007,5.56335113300643],[100.44536875915007,5.561776187417342],[100.44433234236895,5.561776187417342],[100.44433234236895,5.562563659698834]]],[[[100.44277771719727,5.562957396224358],[100.44225950880671,5.562957396224358],[100.44225950880671,5.561776187417342],[100.44122309202558,5.56138245166134],[100.44122309202558,5.560594980918728],[100.44174130041615,5.560594980918728],[100.4413808,5.5602827939951],[100.44092449999998,5.561119193994268],[100.44446529999999,5.566358993988993],[100.44536875915007,5.565319820765607],[100.44485055075953,5.565319820765607],[100.44485055075953,5.565713559087338],[100.44381413397839,5.565319820765607],[100.44381413397839,5.5649260827005325],[100.44433234236895,5.5649260827005325],[100.44433234236895,5.564532344892098],[100.44381413397839,5.564532344892098],[100.44381413397839,5.563744870045063],[100.44433234236895,5.563744870045063],[100.44433234236895,5.56335113300643],[100.44329592558783,5.56335113300643],[100.44329592558783,5.562563659698834],[100.44277771719727,5.562563659698834],[100.44277771719727,5.562957396224358]]]]},"properties":{"place_id":"4ff1b1f9-d241-5aed-8235-4329b108606b","habitat":"water_edge","habitat_label":"Water edge","resolution_m":50}},{"type":"Feature","geometry":{"type":"Polygon","coordinates":[[[100.44536875915007,5.560594980918728],[100.44536875915007,5.559807511201851],[100.44485055075953,5.559807511201851],[100.44485055075953,5.560594980918728],[100.44536875915007,5.560594980918728]]]},"properties":{"place_id":"4ff1b1f9-d241-5aed-8235-4329b108606b","habitat":"mangrove","habitat_label":"Mangrove","resolution_m":50}}]}