{"type":"FeatureCollection","metadata":{"schema_version":1,"place_id":"5013bdda-a039-508c-8cf4-5505d3364f7d","place_name":"Taman Tasik Teratai","place_type":"park","osm_reference":"way/700246007","protection_context":"no protected status confirmed from included OSM tags","resolution_m":50,"raster_coverage":1.0,"interpretation":"Suggested search habitats, not predicted plant locations or probabilities of presence."},"features":[{"type":"Feature","geometry":{"type":"MultiPolygon","coordinates":[[[[101.74659002784784,2.810069893425448],[101.74660453768486,2.810069893425448],[101.74659002784784,2.8099480107991686],[101.74659002784784,2.810069893425448]]],[[[101.74603188351728,2.810069893425448],[101.7461306887204,2.810462284288206],[101.74659002784784,2.810462284288206],[101.74659002784784,2.810069893425448],[101.74603188351728,2.810069893425448]]],[[[101.7464964,2.8123738968832366],[101.74659002784784,2.811639457646946],[101.74570008059305,2.811639457646946],[101.74607181945727,2.81224329467777],[101.7464964,2.8123738968832366]]]]},"properties":{"place_id":"5013bdda-a039-508c-8cf4-5505d3364f7d","habitat":"forest_interior","habitat_label":"Forest interior","resolution_m":50}},{"type":"Feature","geometry":{"type":"MultiPolygon","coordinates":[[[[101.74659002784784,2.810069893425448],[101.74647509999998,2.8094752968863688],[101.74618840000001,2.8094822968863618],[101.74603188351728,2.810069893425448],[101.74659002784784,2.810069893425448]]],[[[101.74659002784784,2.810069893425448],[101.74570008059305,2.811639457646946],[101.74659002784784,2.811639457646946],[101.74665488157531,2.8120318490234073],[101.7467299,2.810800896884933],[101.74660453768486,2.810069893425448],[101.74659002784784,2.810069893425448]]],[[[101.74607181945727,2.8120318490234073],[101.74569629999999,2.8121339968834875],[101.74607181945727,2.81224329467777],[101.74607181945727,2.8120318490234073]]]]},"properties":{"place_id":"5013bdda-a039-508c-8cf4-5505d3364f7d","habitat":"forest_edge_opening","habitat_label":"Forest edge or opening","resolution_m":50}},{"type":"Feature","geometry":{"type":"MultiPolygon","coordinates":[[[[101.74618840000001,2.8094822968863618],[101.74652886629505,2.8096775026910694],[101.74647509999998,2.8094752968863688],[101.74618840000001,2.8094822968863618]]],[[[101.74659002784784,2.810854675279364],[101.74607181945727,2.810854675279364],[101.74607181945727,2.8112470663989377],[101.74659002784784,2.8112470663989377],[101.74659002784784,2.810854675279364]]]]},"properties":{"place_id":"5013bdda-a039-508c-8cf4-5505d3364f7d","habitat":"open_grassland","habitat_label":"Open grassland or shrubland","resolution_m":50}},{"type":"Feature","geometry":{"type":"MultiPolygon","coordinates":[[[[101.74607181945727,2.810069893425448],[101.7460594,2.809704996886117],[101.74603188351728,2.810069893425448],[101.74607181945727,2.810069893425448]]],[[[101.74659002784784,2.810069893425448],[101.74570008059305,2.811639457646946],[101.74659002784784,2.811639457646946],[101.74665488157531,2.8120318490234073],[101.74659002784784,2.810069893425448]]]]},"properties":{"place_id":"5013bdda-a039-508c-8cf4-5505d3364f7d","habitat":"disturbed_built_edge","habitat_label":"Disturbed, bare or built edge","resolution_m":50}}]}