{"type":"FeatureCollection","metadata":{"schema_version":1,"place_id":"50d376e1-76a0-5f78-87fd-42070425a992","place_name":"Common Area Park","place_type":"park","osm_reference":"way/684583997","protection_context":"no protected status confirmed from included OSM tags","resolution_m":50,"raster_coverage":1.0,"interpretation":"Suggested search habitats, not predicted plant locations or probabilities of presence."},"features":[{"type":"Feature","geometry":{"type":"Polygon","coordinates":[[[101.64806665104932,3.0439582476412617],[101.64831059999999,3.0437394966319395],[101.64822599999998,3.0436915966320033],[101.64806665104932,3.0439582476412617]]]},"properties":{"place_id":"50d376e1-76a0-5f78-87fd-42070425a992","habitat":"forest_edge_opening","habitat_label":"Forest edge or opening","resolution_m":50}},{"type":"Feature","geometry":{"type":"Polygon","coordinates":[[[101.6479131,3.044215196631414],[101.64831059999999,3.0437394966319395],[101.64822599999998,3.0436915966320033],[101.6479131,3.044215196631414]]]},"properties":{"place_id":"50d376e1-76a0-5f78-87fd-42070425a992","habitat":"disturbed_built_edge","habitat_label":"Disturbed, bare or built edge","resolution_m":50}}]}