{"type":"FeatureCollection","metadata":{"schema_version":1,"place_id":"50ea6ca2-9431-5d81-8aa6-5680d86f1f6c","place_name":"Taman Rimba Riang Kota Damansara","place_type":"park","osm_reference":"way/465373956","protection_context":"no protected status confirmed from included OSM tags","resolution_m":50,"raster_coverage":1.0,"interpretation":"Suggested search habitats, not predicted plant locations or probabilities of presence."},"features":[{"type":"Feature","geometry":{"type":"Polygon","coordinates":[[[101.58358052316483,3.1809390609652093],[101.5837051,3.181123796483305],[101.58393664185522,3.1809390609652093],[101.58358052316483,3.1809390609652093]]]},"properties":{"place_id":"50ea6ca2-9431-5d81-8aa6-5680d86f1f6c","habitat":"forest_interior","habitat_label":"Forest interior","resolution_m":50}},{"type":"Feature","geometry":{"type":"Polygon","coordinates":[[[101.58358052316483,3.1809390609652093],[101.5845341,3.17978909648473],[101.5829977,3.1796678964848915],[101.58358052316483,3.1809390609652093]]]},"properties":{"place_id":"50ea6ca2-9431-5d81-8aa6-5680d86f1f6c","habitat":"forest_edge_opening","habitat_label":"Forest edge or opening","resolution_m":50}},{"type":"Feature","geometry":{"type":"Polygon","coordinates":[[[101.58387259321181,3.1801540208925045],[101.58439080160235,3.1801540208925045],[101.58439080160235,3.179699794914065],[101.58387259321181,3.1798019118019702],[101.58387259321181,3.1801540208925045]]]},"properties":{"place_id":"50ea6ca2-9431-5d81-8aa6-5680d86f1f6c","habitat":"open_grassland","habitat_label":"Open grassland or shrubland","resolution_m":50}},{"type":"Feature","geometry":{"type":"MultiPolygon","coordinates":[[[[101.58439080160235,3.1797615010742897],[101.5845046096263,3.1797615010742897],[101.58440330000002,3.179695896484854],[101.58439080160235,3.1797615010742897]]],[[[101.58335438482125,3.1801540208925045],[101.58355339999999,3.1797447964847727],[101.5829977,3.1796678964848915],[101.58387259321181,3.1809390609652093],[101.58387259321181,3.1801540208925045],[101.58335438482125,3.1801540208925045]]],[[[101.58439080160235,3.1801540208925045],[101.58439080160235,3.1802225349191287],[101.58446239172657,3.1801540208925045],[101.58439080160235,3.1801540208925045]]]]},"properties":{"place_id":"50ea6ca2-9431-5d81-8aa6-5680d86f1f6c","habitat":"disturbed_built_edge","habitat_label":"Disturbed, bare or built edge","resolution_m":50}},{"type":"Feature","geometry":{"type":"Polygon","coordinates":[[[101.58439080160235,3.1801540208925045],[101.58335438482125,3.1801540208925045],[101.58346756075115,3.1805465408561395],[101.58421057146779,3.1805465408561395],[101.58439080160235,3.1801540208925045]]]},"properties":{"place_id":"50ea6ca2-9431-5d81-8aa6-5680d86f1f6c","habitat":"permanent_water","habitat_label":"Permanent water","resolution_m":50}},{"type":"Feature","geometry":{"type":"Polygon","coordinates":[[[101.58439080160235,3.1801540208925045],[101.58387259321181,3.1801540208925045],[101.58387259321181,3.1805465408561395],[101.58421057146779,3.1805465408561395],[101.58439080160235,3.1801540208925045]]]},"properties":{"place_id":"50ea6ca2-9431-5d81-8aa6-5680d86f1f6c","habitat":"seasonal_water_wetland","habitat_label":"Seasonal water or wetland","resolution_m":50}},{"type":"Feature","geometry":{"type":"MultiPolygon","coordinates":[[[[101.58439080160235,3.1797615010742897],[101.58361879999998,3.17984969648469],[101.58294145549652,3.1797615010742897],[101.58335438482125,3.180245453723047],[101.58439080160235,3.1802225349191287],[101.58439080160235,3.1797615010742897]]],[[[101.58346756075115,3.1805465408561395],[101.58358339999998,3.181037696483393],[101.5837051,3.181123796483305],[101.58421057146779,3.1805465408561395],[101.58346756075115,3.1805465408561395]]]]},"properties":{"place_id":"50ea6ca2-9431-5d81-8aa6-5680d86f1f6c","habitat":"water_edge","habitat_label":"Water edge","resolution_m":50}}]}