{"type":"FeatureCollection","metadata":{"schema_version":1,"place_id":"51e85b70-ee92-5d0d-864c-7c883ddfdc18","place_name":"Pulau Gung","place_type":"wood","osm_reference":"way/724515238","protection_context":"no protected status confirmed from included OSM tags","resolution_m":50,"raster_coverage":1.0,"interpretation":"Suggested search habitats, not predicted plant locations or probabilities of presence."},"features":[{"type":"Feature","geometry":{"type":"Polygon","coordinates":[[[102.74414117967707,4.930541004606939],[102.74362297128653,4.930541004606939],[102.74362297128653,4.931327701759328],[102.74258655450541,4.931721050675721],[102.74362297128653,4.932901098785893],[102.74414117967707,4.932901098785893],[102.74414117967707,4.932507749188983],[102.74621401323931,4.931327701759328],[102.74621401323931,4.930541004606939],[102.74673222162988,4.930541004606939],[102.74673222162988,4.927000878643954],[102.74725043002044,4.927000878643954],[102.74725043002044,4.92660753244798],[102.74673222162988,4.92660753244798],[102.74673222162988,4.925427495219468],[102.74725043002044,4.925346132739468],[102.74725043002044,4.9246408048664545],[102.74673222162988,4.9246408048664545],[102.74673222162988,4.924247460029691],[102.74725043002044,4.924164525635867],[102.74673222162988,4.923854115419399],[102.74673222162988,4.921887395764347],[102.74621401323931,4.921887395764347],[102.74621401323931,4.9262141864785844],[102.74569580484876,4.926368964498386],[102.74569580484876,4.927000878643954],[102.74517759645819,4.927000878643954],[102.74517759645819,4.928574265694039],[102.74465938806765,4.928574265694039],[102.74414117967707,4.930541004606939]]]},"properties":{"place_id":"51e85b70-ee92-5d0d-864c-7c883ddfdc18","habitat":"forest_interior","habitat_label":"Forest interior","resolution_m":50}},{"type":"Feature","geometry":{"type":"MultiPolygon","coordinates":[[[[102.74673222162988,4.9246408048664545],[102.74725043002044,4.9246408048664545],[102.74725043002044,4.925346132739468],[102.74734139999998,4.92533859464087],[102.74748920000002,4.924992494641211],[102.74712549055467,4.924247460029691],[102.74673222162988,4.924247460029691],[102.74673222162988,4.9246408048664545]]],[[[102.74725043002044,4.924164525635867],[102.7472971,4.923976494642285],[102.74725043002044,4.9238893826013275],[102.74725043002044,4.924164525635867]]],[[[102.74206834611483,4.932507749188983],[102.7429484,4.93244119463356],[102.7436404,4.933411194632575],[102.7440856,4.933168094632802],[102.7444964169363,4.932507749188983],[102.74362297128653,4.932901098785893],[102.74258655450541,4.931721050675721],[102.74362297128653,4.931327701759328],[102.74414117967707,4.929758410010616],[102.742019,4.932072394633917],[102.74206834611483,4.932507749188983]]],[[[102.74465938806765,4.92975430836161],[102.74465938806765,4.928574265694039],[102.74517759645819,4.928574265694039],[102.74517759645819,4.927000878643954],[102.74569580484876,4.927000878643954],[102.74569580484876,4.926368964498386],[102.744433,4.927839494638298],[102.74461,4.928590394637502],[102.7440253,4.929394794636668],[102.74465938806765,4.92975430836161]]],[[[102.74621401323931,4.9262141864785844],[102.74621401323931,4.921887395764347],[102.74673222162988,4.921887395764347],[102.74673222162988,4.922499543102543],[102.74700889999998,4.92161299464468],[102.7465211,4.9206410946456804],[102.74549389999999,4.924705394641509],[102.7459964,4.925331194640881],[102.7456713,4.925839194640324],[102.74621401323931,4.9262141864785844]]],[[[102.74673222162988,4.923854115419399],[102.74721730934783,4.923854115419399],[102.74723059999998,4.9234389946428205],[102.74673222162988,4.922816934598812],[102.74673222162988,4.923854115419399]]],[[[102.74673222162988,4.925427495219468],[102.74673222162988,4.92660753244798],[102.74725043002044,4.92660753244798],[102.74673222162988,4.927666274462978],[102.74728229999998,4.927002594639158],[102.74718620000002,4.9256035946405925],[102.74673222162988,4.925427495219468]]],[[[102.74673222162988,4.930541004606939],[102.74621401323931,4.930541004606939],[102.74621401323931,4.931327701759328],[102.74569580484876,4.931327701759328],[102.74569580484876,4.931557706699244],[102.746859,4.931097094634932],[102.7469891,4.930905994635122],[102.74742359999999,4.928741394637372],[102.74673222162988,4.927915581016303],[102.74673222162988,4.930541004606939]]],[[[102.74517759645819,4.931721050675721],[102.7452484,4.932028294633983],[102.74549597983487,4.931721050675721],[102.74517759645819,4.931721050675721]]],[[[102.74465938806765,4.932114399818931],[102.74465938806765,4.932351350733243],[102.74511972652556,4.932114399818931],[102.74465938806765,4.932114399818931]]]]},"properties":{"place_id":"51e85b70-ee92-5d0d-864c-7c883ddfdc18","habitat":"forest_edge_opening","habitat_label":"Forest edge or opening","resolution_m":50}},{"type":"Feature","geometry":{"type":"MultiPolygon","coordinates":[[[[102.74698755732969,4.92149405251249],[102.74673222162988,4.921887395764347],[102.74690824383742,4.921887395764347],[102.74698755732969,4.92149405251249]]],[[[102.74742359999999,4.928741394637372],[102.74725043002044,4.928967613023197],[102.74735329035398,4.928967613023197],[102.74742359999999,4.928741394637372]]],[[[102.74696407724858,4.930541004606939],[102.74673222162988,4.930934353069741],[102.74697967337346,4.930934353069741],[102.74696407724858,4.930541004606939]]]]},"properties":{"place_id":"51e85b70-ee92-5d0d-864c-7c883ddfdc18","habitat":"open_grassland","habitat_label":"Open grassland or shrubland","resolution_m":50}},{"type":"Feature","geometry":{"type":"Polygon","coordinates":[[[102.74657298700562,4.920707366687784],[102.7465211,4.9206410946456804],[102.74634661510999,4.920707366687784],[102.74657298700562,4.920707366687784]]]},"properties":{"place_id":"51e85b70-ee92-5d0d-864c-7c883ddfdc18","habitat":"cropland","habitat_label":"Cropland","resolution_m":50}},{"type":"Feature","geometry":{"type":"MultiPolygon","coordinates":[[[[102.74517759645819,4.927000878643954],[102.74517759645819,4.926830422549972],[102.74496609788312,4.927000878643954],[102.74517759645819,4.927000878643954]]],[[[102.74465938806765,4.928574265694039],[102.74465938806765,4.927672361098944],[102.74442489999998,4.927903694638236],[102.74465938806765,4.928574265694039]]],[[[102.74414117967707,4.929127372484045],[102.7440253,4.929394794636668],[102.74414117967707,4.929616441553671],[102.74414117967707,4.929127372484045]]],[[[102.74362297128653,4.930075167786594],[102.7434781,4.930306094635743],[102.74344381721433,4.930541004606939],[102.74362297128653,4.930541004606939],[102.74362297128653,4.930075167786594]]],[[[102.74310476289595,4.931327701759328],[102.7429095,4.931270694634736],[102.74281593716306,4.931327701759328],[102.74310476289595,4.931327701759328]]],[[[102.74258655450541,4.931721050675721],[102.74258655450541,4.931644152987123],[102.7425369489948,4.931721050675721],[102.74258655450541,4.931721050675721]]],[[[102.74310476289595,4.932507749188983],[102.74308519999998,4.932733794633255],[102.74310476289595,4.932772368898461],[102.74310476289595,4.932507749188983]]],[[[102.74206834611483,4.932507749188983],[102.74206834611483,4.932019054582517],[102.74201090000001,4.9326843946333],[102.7427982895376,4.932507749188983],[102.74206834611483,4.932507749188983]]],[[[102.74362297128653,4.932901098785893],[102.74318925722595,4.932901098785893],[102.74362297128653,4.933093371677621],[102.74362297128653,4.932901098785893]]],[[[102.74414117967707,4.932901098785893],[102.74414117967707,4.933091417621804],[102.7442837518751,4.932901098785893],[102.74414117967707,4.932901098785893]]],[[[102.74363509894785,4.933294448609679],[102.7436404,4.933411194632575],[102.74392832967946,4.933294448609679],[102.74363509894785,4.933294448609679]]],[[[102.74673222162988,4.921100709486976],[102.74680929999997,4.921009194645305],[102.74673222162988,4.920910747200473],[102.74673222162988,4.921100709486976]]],[[[102.74621401323931,4.922280739242562],[102.74621401323931,4.921146011065525],[102.7460095274617,4.922280739242562],[102.74621401323931,4.922280739242562]]],[[[102.74569580484876,4.9243899634250825],[102.74549389999999,4.924705394641509],[102.74569580484876,4.924952458434569],[102.74569580484876,4.9243899634250825]]],[[[102.74569580484876,4.923617110682619],[102.7455826,4.923762894642483],[102.74569580484876,4.923942207629719],[102.74569580484876,4.923617110682619]]],[[[102.74725043002044,4.924164525635867],[102.7472971,4.923976494642285],[102.74725043002044,4.9238893826013275],[102.74725043002044,4.924164525635867]]],[[[102.74725043002044,4.925346132739468],[102.74748920000002,4.924992494641211],[102.74725043002044,4.9246385920032445],[102.74725043002044,4.925346132739468]]],[[[102.74569580484876,4.92573947248129],[102.7456713,4.925839194640324],[102.74569580484876,4.92587386524868],[102.74569580484876,4.92573947248129]]],[[[102.74725043002044,4.927050852411447],[102.74728229999998,4.927002594639158],[102.74725043002044,4.926526913595858],[102.74725043002044,4.927050852411447]]],[[[102.74725043002044,4.928574265694039],[102.74725269999998,4.9283719946377325],[102.74725043002044,4.928368376184971],[102.74725043002044,4.928574265694039]]],[[[102.74725043002044,4.928967613023197],[102.74725043002044,4.929240214727976],[102.74735329035398,4.928967613023197],[102.74725043002044,4.928967613023197]]],[[[102.74697967337346,4.930934353069741],[102.74673222162988,4.93109783956409],[102.7468953,4.931078294634963],[102.74697967337346,4.930934353069741]]],[[[102.74621401323931,4.931379709103871],[102.74629169196689,4.931327701759328],[102.74621401323931,4.931327701759328],[102.74621401323931,4.931379709103871]]]]},"properties":{"place_id":"51e85b70-ee92-5d0d-864c-7c883ddfdc18","habitat":"permanent_water","habitat_label":"Permanent water","resolution_m":50}},{"type":"Feature","geometry":{"type":"MultiPolygon","coordinates":[[[[102.74621401323931,4.923067426878149],[102.74621401323931,4.922280739242562],[102.7460095274617,4.922280739242562],[102.7458060914345,4.923067426878149],[102.74621401323931,4.923067426878149]]],[[[102.74569580484876,4.92660753244798],[102.74569580484876,4.926368964498386],[102.74532958669481,4.92660753244798],[102.74569580484876,4.92660753244798]]],[[[102.74461298742975,4.928574265694039],[102.74465938806765,4.928180918591553],[102.74453129697983,4.928180918591553],[102.74461298742975,4.928574265694039]]],[[[102.74725043002044,4.928967613023197],[102.74742359999999,4.928741394637372],[102.74734627912231,4.928574265694039],[102.74725043002044,4.928574265694039],[102.74725043002044,4.928967613023197]]],[[[102.74414117967707,4.929360960579048],[102.7440253,4.929394794636668],[102.74414117967707,4.929616441553671],[102.74414117967707,4.929360960579048]]],[[[102.74344381721433,4.930541004606939],[102.74362297128653,4.930147656370899],[102.74356132652315,4.930147656370899],[102.74344381721433,4.930541004606939]]],[[[102.7421129,4.931970894634049],[102.74258655450541,4.932114399818931],[102.74258655450541,4.931721050675721],[102.7421129,4.931970894634049]]],[[[102.74465938806765,4.932114399818931],[102.7448823,4.932175294633832],[102.74511972652556,4.932114399818931],[102.74465938806765,4.932114399818931]]]]},"properties":{"place_id":"51e85b70-ee92-5d0d-864c-7c883ddfdc18","habitat":"seasonal_water_wetland","habitat_label":"Seasonal water or wetland","resolution_m":50}},{"type":"Feature","geometry":{"type":"Polygon","coordinates":[[[102.7429242,4.932427794633556],[102.74392832967946,4.933294448609679],[102.74465938806765,4.932114399818931],[102.74697967337346,4.930934353069741],[102.74714469999999,4.930265994635778],[102.74725043002044,4.928368376184971],[102.746632,4.927724094638419],[102.74725043002044,4.927050852411447],[102.74723059999998,4.9234389946428205],[102.74649149999998,4.922687994643599],[102.74700889999998,4.92161299464468],[102.7465211,4.9206410946456804],[102.74621401323931,4.923067426878149],[102.7458060914345,4.923067426878149],[102.74569580484876,4.923617110682619],[102.74590029999999,4.926163194640026],[102.74496609788312,4.927000878643954],[102.74417009999998,4.9297341946363495],[102.74258655450541,4.932114399818931],[102.74206834611483,4.932114399818931],[102.74206834611483,4.932507749188983],[102.7429242,4.932427794633556]],[[102.74362297128653,4.931327701759328],[102.74414117967707,4.931327701759328],[102.74414117967707,4.930541004606939],[102.74465938806765,4.930541004606939],[102.74465938806765,4.92975430836161],[102.74517759645819,4.92975430836161],[102.74569580484876,4.927000878643954],[102.74621401323931,4.927000878643954],[102.74621401323931,4.930934353069741],[102.74569580484876,4.930934353069741],[102.74569580484876,4.931327701759328],[102.74465938806765,4.931327701759328],[102.74414117967707,4.932114399818931],[102.74362297128653,4.932114399818931],[102.74362297128653,4.931327701759328]]]},"properties":{"place_id":"51e85b70-ee92-5d0d-864c-7c883ddfdc18","habitat":"water_edge","habitat_label":"Water edge","resolution_m":50}}]}