{"type":"FeatureCollection","metadata":{"schema_version":1,"place_id":"526907df-3f4c-53b2-af33-f9c73fd836e4","place_name":"Pulau Awang Mandur","place_type":"wood","osm_reference":"way/337768801","protection_context":"no protected status confirmed from included OSM tags","resolution_m":50,"raster_coverage":1.0,"interpretation":"Suggested search habitats, not predicted plant locations or probabilities of presence."},"features":[{"type":"Feature","geometry":{"type":"Polygon","coordinates":[[[103.40382046086077,3.4918621637609615],[103.40382046086077,3.4922548049040825],[103.40330225247021,3.4922548049040825],[103.40330225247021,3.4930400876698178],[103.40278404407965,3.4930400876698178],[103.40278404407965,3.492647446207028],[103.4022658356891,3.492647446207028],[103.4022658356891,3.4930400876698178],[103.40122941890797,3.492647446207028],[103.40122941890797,3.4930400876698178],[103.40071121051741,3.4930400876698178],[103.40071121051741,3.4934327292924703],[103.40122941890797,3.4934327292924703],[103.40071121051741,3.494218013017434],[103.4022658356891,3.494218013017434],[103.4022658356891,3.493825371075003],[103.40330225247021,3.493825371075003],[103.40330225247021,3.49412427757905],[103.40589329442302,3.4926150264544598],[103.40382046086077,3.4918621637609615]],[[103.40174762729853,3.493825371075003],[103.40174762729853,3.4934327292924703],[103.4022658356891,3.4934327292924703],[103.4022658356891,3.493825371075003],[103.40174762729853,3.493825371075003]]]},"properties":{"place_id":"526907df-3f4c-53b2-af33-f9c73fd836e4","habitat":"forest_edge_opening","habitat_label":"Forest edge or opening","resolution_m":50}},{"type":"Feature","geometry":{"type":"MultiPolygon","coordinates":[[[[103.40433866925133,3.492647446207028],[103.4048568776419,3.492647446207028],[103.4048568776419,3.492026886707428],[103.40433866925133,3.4919258293344098],[103.40433866925133,3.492647446207028]]],[[[103.40433866925133,3.4934327292924703],[103.40433866925133,3.4930400876698178],[103.40382046086077,3.4930400876698178],[103.40382046086077,3.4918621637609615],[103.40330225247021,3.4918621637609615],[103.40278404407965,3.492647446207028],[103.40174762729853,3.492647446207028],[103.40174762729853,3.4934327292924703],[103.40122941890797,3.4934327292924703],[103.40122941890797,3.493825371075003],[103.40330225247021,3.493825371075003],[103.40330225247021,3.4934327292924703],[103.40433866925133,3.4934327292924703]],[[103.40278404407965,3.4934327292924703],[103.4022658356891,3.4934327292924703],[103.4022658356891,3.4930400876698178],[103.40278404407965,3.4930400876698178],[103.40278404407965,3.4934327292924703]]],[[[103.40071121051741,3.4930400876698178],[103.40071121051741,3.4934327292924703],[103.40122941890797,3.4934327292924703],[103.40122941890797,3.4930400876698178],[103.40071121051741,3.4930400876698178]]],[[[103.40071121051741,3.493825371075003],[103.40071121051741,3.494218013017434],[103.40122941890797,3.494218013017434],[103.40122941890797,3.493825371075003],[103.40071121051741,3.493825371075003]]]]},"properties":{"place_id":"526907df-3f4c-53b2-af33-f9c73fd836e4","habitat":"open_grassland","habitat_label":"Open grassland or shrubland","resolution_m":50}},{"type":"Feature","geometry":{"type":"Polygon","coordinates":[[[103.401475,3.492242396148328],[103.3974932,3.4955922961447445],[103.3995947,3.494188096146251],[103.40122941890797,3.494242153297266],[103.40122941890797,3.493825371075003],[103.40174762729853,3.493825371075003],[103.40174762729853,3.4930400876698178],[103.40278404407965,3.4930400876698178],[103.40330225247021,3.4922548049040825],[103.40433866925133,3.492647446207028],[103.4048568776419,3.492026886707428],[103.4032077,3.4917999961488024],[103.401475,3.492242396148328]]]},"properties":{"place_id":"526907df-3f4c-53b2-af33-f9c73fd836e4","habitat":"disturbed_built_edge","habitat_label":"Disturbed, bare or built edge","resolution_m":50}},{"type":"Feature","geometry":{"type":"MultiPolygon","coordinates":[[[[103.40388561827548,3.4918621637609615],[103.4032077,3.4917999961488024],[103.40293403119308,3.4918621637609615],[103.40388561827548,3.4918621637609615]]],[[[103.4048568776419,3.492026886707428],[103.40537508603245,3.4922548049040825],[103.40537508603245,3.493012239874713],[103.4060226,3.492520196148032],[103.4048568776419,3.492026886707428]]],[[[103.40071121051741,3.492647446207028],[103.40174762729853,3.492647446207028],[103.40174762729853,3.4922548049040825],[103.40278404407965,3.4922548049040825],[103.40278404407965,3.4918962353866934],[103.4013375,3.4923012961482827],[103.40101429999999,3.492460596148106],[103.4002398,3.4929283961476103],[103.39955705862,3.4934327292924703],[103.40019300212684,3.4934327292924703],[103.40071121051741,3.492647446207028]]],[[[103.39915658534572,3.493825371075003],[103.39915658534572,3.4937281609918247],[103.39902296894775,3.493825371075003],[103.39915658534572,3.493825371075003]]],[[[103.40433866925133,3.4930400876698178],[103.40382046086077,3.493825371075003],[103.40021033605026,3.494218013017434],[103.40314399999998,3.4941766961462934],[103.40533885586197,3.4930400876698178],[103.40433866925133,3.4930400876698178]]],[[[103.39863837695518,3.4946106551197818],[103.39863837695518,3.494153264629],[103.39818678626168,3.4946106551197818],[103.39863837695518,3.4946106551197818]]],[[[103.39859804898184,3.4950032973820635],[103.3981201685646,3.494699652203014],[103.3974932,3.4955922961447445],[103.39859804898184,3.4950032973820635]]]]},"properties":{"place_id":"526907df-3f4c-53b2-af33-f9c73fd836e4","habitat":"permanent_water","habitat_label":"Permanent water","resolution_m":50}},{"type":"Feature","geometry":{"type":"MultiPolygon","coordinates":[[[[103.4048568776419,3.492026886707428],[103.40537508603245,3.4922548049040825],[103.40537508603245,3.4922158788876136],[103.4048568776419,3.492026886707428]]],[[[103.40071121051741,3.492647446207028],[103.40071121051741,3.4930400876698178],[103.40122941890797,3.4930400876698178],[103.40122941890797,3.492647446207028],[103.40071121051741,3.492647446207028]]],[[[103.4048568776419,3.4930400876698178],[103.4048568776419,3.4934226304496416],[103.40533885586197,3.4930400876698178],[103.4048568776419,3.4930400876698178]]],[[[103.4022658356891,3.494218013017434],[103.40278404407965,3.494218013017434],[103.40278404407965,3.493825371075003],[103.4022658356891,3.493825371075003],[103.4022658356891,3.494218013017434]]],[[[103.40071121051741,3.494218013017434],[103.40021033605026,3.494218013017434],[103.40071121051741,3.4942331147826926],[103.40071121051741,3.494218013017434]]]]},"properties":{"place_id":"526907df-3f4c-53b2-af33-f9c73fd836e4","habitat":"seasonal_water_wetland","habitat_label":"Seasonal water or wetland","resolution_m":50}},{"type":"Feature","geometry":{"type":"Polygon","coordinates":[[[103.3981201685646,3.4950032973820635],[103.3995947,3.494188096146251],[103.40382046086077,3.493825371075003],[103.40433866925133,3.4930400876698178],[103.40537508603245,3.493012239874713],[103.40537508603245,3.4922548049040825],[103.40388561827548,3.4918621637609615],[103.40174762729853,3.4922548049040825],[103.40122941890797,3.4930400876698178],[103.40019300212684,3.4930400876698178],[103.40019300212684,3.4934327292924703],[103.39888729999998,3.4939249961465255],[103.3981201685646,3.4950032973820635]],[[103.40278404407965,3.492647446207028],[103.40382046086077,3.492647446207028],[103.40382046086077,3.4930400876698178],[103.40278404407965,3.4930400876698178],[103.40278404407965,3.492647446207028]]]},"properties":{"place_id":"526907df-3f4c-53b2-af33-f9c73fd836e4","habitat":"water_edge","habitat_label":"Water edge","resolution_m":50}}]}