{"type":"FeatureCollection","metadata":{"schema_version":1,"place_id":"52979dd1-ed07-5571-83b2-d76e1d6b4089","place_name":"Taman Rimba Bukit Kerinchi","place_type":"park","osm_reference":"relation/17366980","protection_context":"mapped protected boundary","resolution_m":50,"raster_coverage":1.0,"interpretation":"Suggested search habitats, not predicted plant locations or probabilities of presence."},"features":[{"type":"Feature","geometry":{"type":"MultiPolygon","coordinates":[[[[101.66782235248263,3.090270742617748],[101.66782235248263,3.0898782556240407],[101.66869251337674,3.0898782556240407],[101.66782235248263,3.0892373272832976],[101.66730414409207,3.0898782556240407],[101.6667859357015,3.0898945254093384],[101.66687252183029,3.090663229752733],[101.66782235248263,3.090270742617748]]],[[[101.66626772731095,3.090663229752733],[101.66626772731095,3.0905549717813985],[101.66618277728654,3.090663229752733],[101.66626772731095,3.090663229752733]]],[[[101.66730414409207,3.0916990448147783],[101.66782235248263,3.091583966448375],[101.66777498059238,3.091448204446602],[101.66730414409207,3.091448204446602],[101.66730414409207,3.0916990448147783]]],[[[101.66574951892039,3.0938031319207293],[101.66626772731095,3.0938031319207293],[101.66622508728557,3.0934106436548823],[101.66574951892039,3.0934106436548823],[101.66574951892039,3.0938031319207293]]],[[[101.66574951892039,3.094569950810806],[101.66550847356521,3.0941956203280165],[101.66566009999997,3.094578296576875],[101.66574951892039,3.094569950810806]]],[[[101.66212206018646,3.101476168645423],[101.6631584769676,3.1012604358659046],[101.66367668535814,3.1004754540950974],[101.66471310213926,3.1008679449096186],[101.66471310213926,3.0996904728912775],[101.66574951892039,3.098912542972092],[101.66523131052983,3.0989054922543002],[101.66523131052983,3.097728022361346],[101.66471310213926,3.097728022361346],[101.66471310213926,3.0973355326802916],[101.66367668535814,3.0973355326802916],[101.66367668535814,3.0969430431408407],[101.6631584769676,3.0969430431408407],[101.6631584769676,3.0961580644866706],[101.66264026857702,3.0961580644866706],[101.66264026857702,3.095765575371917],[101.6631584769676,3.095765575371917],[101.66264026857702,3.0941956203280165],[101.66314346105855,3.0941956203280165],[101.66309909999997,3.09379079657775],[101.6641948937487,3.0938031319207293],[101.6641948937487,3.0934106436548823],[101.66523131052983,3.0930181555304563],[101.66523131052983,3.091055717029011],[101.66574951892039,3.091055717029011],[101.66574951892039,3.0907503434896073],[101.6631584769676,3.0907449250876002],[101.6631584769676,3.091055717029011],[101.6617315,3.0907606965810133],[101.66089959999996,3.09105979658069],[101.66056743501478,3.0905924602363957],[101.6603168,3.0922580965793696],[101.65884599999998,3.0922369965793863],[101.65892880000001,3.0955805965757692],[101.6596091,3.0956772965756683],[101.65947789999998,3.099082296572012],[101.66037419999999,3.0998838965711273],[101.66010310233648,3.1016529269639723],[101.66111829999997,3.1011808965697485],[101.66212206018646,3.101476168645423]],[[101.66108564340534,3.0926256675474337],[101.66119619999999,3.091821896579842],[101.66212206018646,3.0918406920055244],[101.66212206018646,3.091448204446602],[101.6631584769676,3.0918406920055244],[101.66212206018646,3.0930181555304563],[101.66108564340534,3.0926256675474337]]],[[[101.66004922662422,3.10200448980738],[101.6600086,3.10226959656855],[101.66004922662422,3.102269510403918],[101.66004922662422,3.10200448980738]]]]},"properties":{"place_id":"52979dd1-ed07-5571-83b2-d76e1d6b4089","habitat":"forest_interior","habitat_label":"Forest interior","resolution_m":50}},{"type":"Feature","geometry":{"type":"MultiPolygon","coordinates":[[[[101.66056743501478,3.090663229752733],[101.660809,3.090424596581372],[101.66072649999998,3.0904234965813595],[101.66056743501478,3.090663229752733]]],[[[101.66108564340534,3.091055717029011],[101.66160385179589,3.0909950580100034],[101.66108564340534,3.091042694481013],[101.66108564340534,3.091055717029011]]],[[[101.66031696158424,3.0918406920055244],[101.66056743501478,3.091055717029011],[101.66031726546123,3.091055717029011],[101.66031696158424,3.0918406920055244]]],[[[101.66141672940424,3.0926256675474337],[101.66125124996562,3.092233179705796],[101.66108564340534,3.092233179705796],[101.66108564340534,3.0926256675474337],[101.66141672940424,3.0926256675474337]]],[[[101.66056743501478,3.1012604358659046],[101.66056743501478,3.1014224814966727],[101.66077429972172,3.1012604358659046],[101.66056743501478,3.1012604358659046]]],[[[101.66212206018646,3.1012604358659046],[101.66167834184819,3.1012604358659046],[101.66212206018646,3.101476168645423],[101.66212206018646,3.1012604358659046]]],[[[101.66010310233648,3.1016529269639723],[101.66004922662422,3.102269510403918],[101.66029150000001,3.1022689965685526],[101.66053440993811,3.1016529269639723],[101.66010310233648,3.1016529269639723]]],[[[101.66782235248263,3.0892373272832976],[101.6674924,3.0889942965829467],[101.66679870358612,3.0898782556240407],[101.66730414409207,3.0898782556240407],[101.66782235248263,3.0892373272832976]]],[[[101.6631584769676,3.091055717029011],[101.6631584769676,3.0907449250876002],[101.66264026857702,3.090748646160729],[101.66264026857702,3.091055717029011],[101.6631584769676,3.091055717029011]]],[[[101.66782235248263,3.091583966448375],[101.66786959999999,3.0915736965801246],[101.66782235248263,3.091511032988385],[101.66782235248263,3.091583966448375]]],[[[101.66264026857702,3.0918406920055244],[101.66264026857702,3.091448204446602],[101.66160385179589,3.0918406920055244],[101.662288,3.091771396579916],[101.66215750881368,3.0926256675474337],[101.6631584769676,3.092233179705796],[101.6631584769676,3.0918406920055244],[101.66264026857702,3.0918406920055244]]],[[[101.66160385179589,3.0930181555304563],[101.66212206018646,3.0930181555304563],[101.66212206018646,3.0926710796244112],[101.6620009,3.0928993965786806],[101.66160385179589,3.0930181555304563]]],[[[101.66702929999998,3.091761396579939],[101.66777498059238,3.091448204446602],[101.6676123,3.0905798965812115],[101.66869251337674,3.0898782556240407],[101.66782235248263,3.0898782556240407],[101.66782235248263,3.090270742617748],[101.66687252183029,3.090663229752733],[101.66702929999998,3.091761396579939]]],[[[101.6667859357015,3.0898945254093384],[101.66574951892039,3.091055717029011],[101.66523131052983,3.091055717029011],[101.66523131052983,3.0930181555304563],[101.66471310213926,3.0930181555304563],[101.6641948937487,3.0938031319207293],[101.66317838536244,3.0938031319207293],[101.66432539999998,3.0941344965773645],[101.6652837,3.093555796578008],[101.66574951892039,3.094569950810806],[101.66646169999999,3.0945022965769473],[101.66626772731095,3.093607370569043],[101.66574951892039,3.0938031319207293],[101.66574951892039,3.0934106436548823],[101.66622508728557,3.0934106436548823],[101.6660274,3.091970096579717],[101.66545589999998,3.0919742965796924],[101.66645159999997,3.0904274965813685],[101.6667859357015,3.0904967032101784],[101.6667859357015,3.0898945254093384]]],[[[101.66264026857702,3.0941956203280165],[101.66264026857702,3.0949805975669786],[101.6631584769676,3.0949805975669786],[101.6631584769676,3.095765575371917],[101.66264026857702,3.095765575371917],[101.66264026857702,3.0961580644866706],[101.6631584769676,3.0961580644866706],[101.6631584769676,3.0969430431408407],[101.66367668535814,3.0969430431408407],[101.66367668535814,3.0973355326802916],[101.66471310213926,3.0973355326802916],[101.66471310213926,3.097728022361346],[101.66523131052983,3.097728022361346],[101.66523131052983,3.0989054922543002],[101.66586440000002,3.098883596572225],[101.66529119999998,3.0972757965739617],[101.66374109999998,3.096777296574488],[101.66317949999998,3.0958215965755427],[101.66411099999999,3.095472196575927],[101.66326939999999,3.0953448965760426],[101.66314346105855,3.0941956203280165],[101.66264026857702,3.0941956203280165]]],[[[101.66471310213926,3.0996904728912775],[101.66471310213926,3.1008679449096186],[101.66367668535814,3.1004754540950974],[101.66367668535814,3.1008679449096186],[101.6631584769676,3.1008679449096186],[101.66264026857702,3.101494065464268],[101.66461569999998,3.101069696569872],[101.66535479999999,3.100470496570514],[101.66471310213926,3.0996904728912775]]]]},"properties":{"place_id":"52979dd1-ed07-5571-83b2-d76e1d6b4089","habitat":"forest_edge_opening","habitat_label":"Forest edge or opening","resolution_m":50}},{"type":"Feature","geometry":{"type":"MultiPolygon","coordinates":[[[[101.66523131052983,3.0930181555304563],[101.66523131052983,3.0934106436548823],[101.66574951892039,3.0934106436548823],[101.66574951892039,3.0930181555304563],[101.66523131052983,3.0930181555304563]]],[[[101.66472314236066,3.0938031319207293],[101.66523131052983,3.0935789124278643],[101.66523131052983,3.0934106436548823],[101.66471310213926,3.0934106436548823],[101.66472314236066,3.0938031319207293]]],[[[101.66367668535814,3.0969430431408407],[101.66396375288912,3.0969430431408407],[101.66367668535814,3.0965548818305484],[101.66367668535814,3.0969430431408407]]],[[[101.6645906636131,3.0969430431408407],[101.6645904,3.096942896574324],[101.66459002993811,3.0969430431408407],[101.6645906636131,3.0969430431408407]]],[[[101.66523131052983,3.0973355326802916],[101.66523131052983,3.097638599919118],[101.66541779999999,3.0974118965738016],[101.66523131052983,3.0973355326802916]]],[[[101.66523131052983,3.097728022361346],[101.66529103925757,3.097728022361346],[101.66523131052983,3.097660247816527],[101.66523131052983,3.097728022361346]]]]},"properties":{"place_id":"52979dd1-ed07-5571-83b2-d76e1d6b4089","habitat":"open_grassland","habitat_label":"Open grassland or shrubland","resolution_m":50}},{"type":"Feature","geometry":{"type":"MultiPolygon","coordinates":[[[[101.66056743501478,3.090663229752733],[101.660809,3.090424596581372],[101.66072649999998,3.0904234965813595],[101.66056743501478,3.090663229752733]]],[[[101.66108564340534,3.091055717029011],[101.66160385179589,3.0909950580100034],[101.66108564340534,3.091042694481013],[101.66108564340534,3.091055717029011]]],[[[101.66031696158424,3.0918406920055244],[101.66056743501478,3.091055717029011],[101.66031726546123,3.091055717029011],[101.66031696158424,3.0918406920055244]]],[[[101.6631584769676,3.092233179705796],[101.66264026857702,3.091448204446602],[101.66160385179589,3.0918406920055244],[101.662288,3.091771396579916],[101.66215750881368,3.0926256675474337],[101.6631584769676,3.092233179705796]]],[[[101.66125124996562,3.092233179705796],[101.66108564340534,3.0926256675474337],[101.66141672940424,3.0926256675474337],[101.66125124996562,3.092233179705796]]],[[[101.66212206018646,3.0930181555304563],[101.66212206018646,3.0926710796244112],[101.66160385179589,3.0929218155011267],[101.66160385179589,3.0930181555304563],[101.66212206018646,3.0930181555304563]]],[[[101.66212206018646,3.1012604358659046],[101.66167834184819,3.1012604358659046],[101.66212206018646,3.101476168645423],[101.66212206018646,3.1012604358659046]]],[[[101.66004922662422,3.1020454182038417],[101.66004922662422,3.102269510403918],[101.66047816214233,3.1020454182038417],[101.66004922662422,3.1020454182038417]]],[[[101.66730414409207,3.0898782556240407],[101.66730414409207,3.089485768771592],[101.66782235248263,3.089485768771592],[101.6674924,3.0889942965829467],[101.66679870358612,3.0898782556240407],[101.66730414409207,3.0898782556240407]]],[[[101.6631584769676,3.091055717029011],[101.6631584769676,3.0907449250876002],[101.66264026857702,3.090748646160729],[101.66264026857702,3.091055717029011],[101.6631584769676,3.091055717029011]]],[[[101.66702929999998,3.091761396579939],[101.66777498059238,3.091448204446602],[101.6676123,3.0905798965812115],[101.66869251337674,3.0898782556240407],[101.66782235248263,3.0898782556240407],[101.66782235248263,3.090270742617748],[101.66687252183029,3.090663229752733],[101.66702929999998,3.091761396579939]]],[[[101.6667859357015,3.0898945254093384],[101.66574951892039,3.091055717029011],[101.66523131052983,3.091055717029011],[101.66523131052983,3.0926256675474337],[101.66574951892039,3.0926256675474337],[101.66574951892039,3.0930181555304563],[101.66614001652557,3.0930181555304563],[101.6660274,3.091970096579717],[101.66545589999998,3.0919742965796924],[101.66645159999997,3.0904274965813685],[101.6667859357015,3.0904967032101784],[101.6667859357015,3.0898945254093384]]],[[[101.66782235248263,3.091583966448375],[101.66786959999999,3.0915736965801246],[101.66782235248263,3.091511032988385],[101.66782235248263,3.091583966448375]]],[[[101.66538201499061,3.0938031319207293],[101.66574951892039,3.094569950810806],[101.66646169999999,3.0945022965769473],[101.66626772731095,3.093607370569043],[101.66538201499061,3.0938031319207293]]],[[[101.66523131052983,3.0934106436548823],[101.6641948937487,3.0934106436548823],[101.6641948937487,3.0938031319207293],[101.66317838536244,3.0938031319207293],[101.66432539999998,3.0941344965773645],[101.66523131052983,3.0934106436548823]]],[[[101.66264026857702,3.0941956203280165],[101.66264026857702,3.0949805975669786],[101.6631584769676,3.0949805975669786],[101.6631584769676,3.095765575371917],[101.66264026857702,3.095765575371917],[101.66264026857702,3.0961580644866706],[101.66367543187901,3.096550553742973],[101.66317949999998,3.0958215965755427],[101.66411099999999,3.095472196575927],[101.66326939999999,3.0953448965760426],[101.66314346105855,3.0941956203280165],[101.66264026857702,3.0941956203280165]]],[[[101.66471310213926,3.0973355326802916],[101.66523131052983,3.0973355326802916],[101.66523131052983,3.097638599919118],[101.66541779999999,3.0974118965738016],[101.66471310213926,3.09701111786347],[101.66471310213926,3.0973355326802916]]],[[[101.66523131052983,3.0989054922543002],[101.66607149999999,3.0987041965724194],[101.66523131052983,3.097660247816527],[101.66523131052983,3.0989054922543002]]],[[[101.66471310213926,3.0996904728912775],[101.66471310213926,3.1008679449096186],[101.66367668535814,3.1004754540950974],[101.66367668535814,3.1008679449096186],[101.6631584769676,3.1008679449096186],[101.66264026857702,3.101494065464268],[101.66461569999998,3.101069696569872],[101.66535479999999,3.100470496570514],[101.66471310213926,3.0996904728912775]]]]},"properties":{"place_id":"52979dd1-ed07-5571-83b2-d76e1d6b4089","habitat":"disturbed_built_edge","habitat_label":"Disturbed, bare or built edge","resolution_m":50}}]}