{"type":"FeatureCollection","metadata":{"schema_version":1,"place_id":"52fbf1ab-6852-5c42-a9a9-4cac70777876","place_name":"Pulau Kuala Berua","place_type":"wood","osm_reference":"way/724609025","protection_context":"no protected status confirmed from included OSM tags","resolution_m":50,"raster_coverage":1.0,"interpretation":"Suggested search habitats, not predicted plant locations or probabilities of presence."},"features":[{"type":"Feature","geometry":{"type":"Polygon","coordinates":[[[102.6622642539685,4.991512734244431],[102.66330067074962,4.991512734244431],[102.66433708753074,4.99033258411824],[102.66537350431187,4.99033258411824],[102.66537350431187,4.98993920120201],[102.66589171270242,4.98993920120201],[102.66589171270242,4.989152436058193],[102.66537350431187,4.989152436058193],[102.66515641311697,4.988365671832437],[102.66433708753074,4.988365671832437],[102.66433708753074,4.989152436058193],[102.66289033769333,4.98993920120201],[102.66278246235906,4.991119350639432],[102.6622642539685,4.991512734244431]]]},"properties":{"place_id":"52fbf1ab-6852-5c42-a9a9-4cac70777876","habitat":"forest_interior","habitat_label":"Forest interior","resolution_m":50}},{"type":"Feature","geometry":{"type":"MultiPolygon","coordinates":[[[[102.66515641311697,4.988365671832437],[102.66427649999999,4.988115694576345],[102.66386307099889,4.989152436058193],[102.66433708753074,4.989152436058193],[102.66433708753074,4.988365671832437],[102.66515641311697,4.988365671832437]]],[[[102.66330067074962,4.98993920120201],[102.66330067074962,4.989545818515334],[102.66381887914017,4.989545818515334],[102.66381887914017,4.989203570799293],[102.66296359999998,4.989554594574888],[102.66289033769333,4.98993920120201],[102.66330067074962,4.98993920120201]]],[[[102.66537350431187,4.989152436058193],[102.66589171270242,4.989152436058193],[102.66589171270242,4.98993920120201],[102.66537350431187,4.98993920120201],[102.66537350431187,4.99033258411824],[102.66433708753074,4.99033258411824],[102.66381887914017,4.991111501940056],[102.6663901,4.99022929457419],[102.66607219999997,4.989231294575212],[102.66537350431187,4.988711730912034],[102.66537350431187,4.989152436058193]]],[[[102.66278246235906,4.991119350639432],[102.66278246235906,4.990158394702594],[102.6623882,4.990349594574064],[102.66244832096895,4.991119350639432],[102.66278246235906,4.991119350639432]]],[[[102.66174604557793,4.992015977411795],[102.66283480000001,4.992002194572361],[102.66381070526013,4.991119350639432],[102.66330067074962,4.991119350639432],[102.66330067074962,4.991512734244431],[102.6618893,4.991217994573154],[102.66174604557793,4.992015977411795]]]]},"properties":{"place_id":"52fbf1ab-6852-5c42-a9a9-4cac70777876","habitat":"forest_edge_opening","habitat_label":"Forest edge or opening","resolution_m":50}},{"type":"Feature","geometry":{"type":"Polygon","coordinates":[[[102.6648552959213,4.990919994573471],[102.66433708753074,4.9907259672640425],[102.66433708753074,4.990791075294934],[102.6648552959213,4.990919994573471]]]},"properties":{"place_id":"52fbf1ab-6852-5c42-a9a9-4cac70777876","habitat":"open_grassland","habitat_label":"Open grassland or shrubland","resolution_m":50}},{"type":"Feature","geometry":{"type":"MultiPolygon","coordinates":[[[[102.66589171270242,4.989152436058193],[102.66596577998223,4.989152436058193],[102.66589171270242,4.989114232951101],[102.66589171270242,4.989152436058193]]],[[[102.66330067074962,4.989545818515334],[102.66320090000002,4.989355594575074],[102.6629715098753,4.989545818515334],[102.66330067074962,4.989545818515334]]],[[[102.66278246235906,4.99033258411824],[102.66278246235906,4.990158394702594],[102.66238969117629,4.99033258411824],[102.66278246235906,4.99033258411824]]],[[[102.66537350431187,4.99033258411824],[102.6656511,4.990369594574037],[102.66616888875684,4.99033258411824],[102.66537350431187,4.99033258411824]]],[[[102.66488712306969,4.9907259672640425],[102.6648552959213,4.990919994573471],[102.6648612,4.990919994573471],[102.66488712306969,4.9907259672640425]]],[[[102.66250221020834,4.991906118079056],[102.6627691,4.992020894572336],[102.66304316928056,4.991906118079056],[102.66250221020834,4.991906118079056]]],[[[102.66174604557793,4.991906118079056],[102.66174604557793,4.9913910923697395],[102.6615779,4.991889494572486],[102.6618893,4.992063694572306],[102.66215077915066,4.991906118079056],[102.66174604557793,4.991906118079056]]],[[[102.66330067074962,4.991512734244431],[102.6634316,4.991664194572718],[102.66357582006535,4.991512734244431],[102.66330067074962,4.991512734244431]]]]},"properties":{"place_id":"52fbf1ab-6852-5c42-a9a9-4cac70777876","habitat":"permanent_water","habitat_label":"Permanent water","resolution_m":50}},{"type":"Feature","geometry":{"type":"MultiPolygon","coordinates":[[[[102.66433708753074,4.988365671832437],[102.66433708753074,4.988085531200142],[102.6641086116704,4.988365671832437],[102.66433708753074,4.988365671832437]]],[[[102.6648552959213,4.988365671832437],[102.6649699,4.988221294576252],[102.6648552959213,4.988169565885164],[102.6648552959213,4.988365671832437]]],[[[102.66537350431187,4.988759053830566],[102.66557892422918,4.988759053830566],[102.66537350431187,4.988711730912034],[102.66537350431187,4.988759053830566]]],[[[102.66330067074962,4.989545818515334],[102.66320090000002,4.989355594575074],[102.6629715098753,4.989545818515334],[102.66330067074962,4.989545818515334]]],[[[102.66156479999998,4.991841894572506],[102.66174604557793,4.991512734244431],[102.66168209365915,4.991512734244431],[102.66156479999998,4.991841894572506]]],[[[102.66250221020834,4.991906118079056],[102.6627691,4.992020894572336],[102.66304316928056,4.991906118079056],[102.66250221020834,4.991906118079056]]],[[[102.66174604557793,4.991906118079056],[102.6618893,4.992063694572306],[102.66215077915066,4.991906118079056],[102.66174604557793,4.991906118079056]]]]},"properties":{"place_id":"52fbf1ab-6852-5c42-a9a9-4cac70777876","habitat":"seasonal_water_wetland","habitat_label":"Seasonal water or wetland","resolution_m":50}},{"type":"Feature","geometry":{"type":"Polygon","coordinates":[[[102.66174604557793,4.991906118079056],[102.66304316928056,4.991906118079056],[102.66416789999998,4.99082119457357],[102.6648552959213,4.990919994573471],[102.66537350431187,4.99033258411824],[102.6663901,4.99022929457419],[102.66607219999997,4.989231294575212],[102.6648552959213,4.988169565885164],[102.66433708753074,4.988085531200142],[102.66381919999999,4.989203294575223],[102.66296359999998,4.989554594574888],[102.66174604557793,4.991906118079056]],[[102.66381887914017,4.9907259672640425],[102.66330067074962,4.9907259672640425],[102.66330067074962,4.99033258411824],[102.66381887914017,4.99033258411824],[102.66381887914017,4.9907259672640425]],[[102.66381887914017,4.989545818515334],[102.66433708753074,4.989545818515334],[102.66433708753074,4.989152436058193],[102.66537350431187,4.989152436058193],[102.66537350431187,4.98993920120201],[102.6648552959213,4.98993920120201],[102.6648552959213,4.99033258411824],[102.66381887914017,4.99033258411824],[102.66381887914017,4.989545818515334]]]},"properties":{"place_id":"52fbf1ab-6852-5c42-a9a9-4cac70777876","habitat":"water_edge","habitat_label":"Water edge","resolution_m":50}}]}