{"type":"FeatureCollection","metadata":{"schema_version":1,"place_id":"53233b5f-66d8-55ec-ad55-c08bcdb8a7f6","place_name":"Padang Taman Markisar","place_type":"park","osm_reference":"way/1172654597","protection_context":"no protected status confirmed from included OSM tags","resolution_m":50,"raster_coverage":1.0,"interpretation":"Suggested search habitats, not predicted plant locations or probabilities of presence."},"features":[{"type":"Feature","geometry":{"type":"Polygon","coordinates":[[[103.62701829999999,2.652102397057949],[103.6275735,2.6517191970583833],[103.62738839999999,2.6515235970585733],[103.62687879999997,2.6518504970582337],[103.62701829999999,2.652102397057949]]]},"properties":{"place_id":"53233b5f-66d8-55ec-ad55-c08bcdb8a7f6","habitat":"disturbed_built_edge","habitat_label":"Disturbed, bare or built edge","resolution_m":50}}]}