{"type":"FeatureCollection","metadata":{"schema_version":1,"place_id":"532db570-7672-59f3-80b8-827bb4f45a89","place_name":"Taman Permainan Serdang Jaya","place_type":"park","osm_reference":"way/809206881","protection_context":"no protected status confirmed from included OSM tags","resolution_m":50,"raster_coverage":1.0,"interpretation":"Suggested search habitats, not predicted plant locations or probabilities of presence."},"features":[{"type":"Feature","geometry":{"type":"Polygon","coordinates":[[[101.7057195,3.017065496660824],[101.7061983,3.0170493966608487],[101.70616749999999,3.016248496661719],[101.70569939999999,3.016261896661723],[101.7057195,3.017065496660824]]]},"properties":{"place_id":"532db570-7672-59f3-80b8-827bb4f45a89","habitat":"disturbed_built_edge","habitat_label":"Disturbed, bare or built edge","resolution_m":50}}]}