{"type":"FeatureCollection","metadata":{"schema_version":1,"place_id":"542b59dc-6f31-58c9-9f89-1f9c3961f02f","place_name":"Maya Park","place_type":"park","osm_reference":"relation/16831967","protection_context":"no protected status confirmed from included OSM tags","resolution_m":50,"raster_coverage":1.0,"interpretation":"Suggested search habitats, not predicted plant locations or probabilities of presence."},"features":[{"type":"Feature","geometry":{"type":"MultiPolygon","coordinates":[[[[101.48074912349023,3.093863169648617],[101.48092906954304,3.0941956203280165],[101.48092149999998,3.093857396577687],[101.48074912349023,3.093863169648617]]],[[[101.48023091509967,3.0941956203280165],[101.48023091509967,3.0938805249937924],[101.4795689,3.093902696577626],[101.47954764005728,3.0945881088767604],[101.47971270670911,3.0941956203280165],[101.48023091509967,3.0941956203280165]]],[[[101.48023091509967,3.0945881088767604],[101.47971270670911,3.095373086398692],[101.48023091509967,3.095373086398692],[101.48026000761473,3.095765575371917],[101.480238,3.094933396576504],[101.48074912349023,3.094910561283478],[101.48074912349023,3.0945881088767604],[101.48023091509967,3.0945881088767604]]],[[[101.47919449831856,3.0961580644866706],[101.47919449831856,3.095765575371917],[101.47771619999999,3.0960151965753204],[101.47815808153743,3.096550553742973],[101.47919449831856,3.0961580644866706]]]]},"properties":{"place_id":"542b59dc-6f31-58c9-9f89-1f9c3961f02f","habitat":"forest_edge_opening","habitat_label":"Forest edge or opening","resolution_m":50}},{"type":"Feature","geometry":{"type":"MultiPolygon","coordinates":[[[[101.47971270670911,3.0941956203280165],[101.47971270670911,3.0945881088767604],[101.48023091509967,3.0945881088767604],[101.48023091509967,3.0941956203280165],[101.47971270670911,3.0941956203280165]]],[[[101.47971270670911,3.0949805975669786],[101.47971270670911,3.0945881088767604],[101.47954764005728,3.0945881088767604],[101.4793047906454,3.0949805975669786],[101.47971270670911,3.0949805975669786]]],[[[101.47887260175776,3.095765575371917],[101.47919449831856,3.095373086398692],[101.47914124834543,3.095373086398692],[101.47887260175776,3.095765575371917]]],[[[101.47815808153743,3.096550553742973],[101.47815808153743,3.095839180026852],[101.47796519999999,3.095852496575491],[101.47771579999998,3.0960750965752686],[101.47815808153743,3.096550553742973]]],[[[101.47971270670911,3.096550553742973],[101.48023091509967,3.096550553742973],[101.48023091509967,3.0961580644866706],[101.47971270670911,3.0961580644866706],[101.47971270670911,3.096550553742973]]],[[[101.47815808153743,3.096550553742973],[101.47878529999998,3.096813196574436],[101.47919449831856,3.0968425262936212],[101.47919449831856,3.096550553742973],[101.47815808153743,3.096550553742973]]]]},"properties":{"place_id":"542b59dc-6f31-58c9-9f89-1f9c3961f02f","habitat":"open_grassland","habitat_label":"Open grassland or shrubland","resolution_m":50}},{"type":"Feature","geometry":{"type":"Polygon","coordinates":[[[101.47919449831856,3.0968425262936212],[101.48029849999999,3.0968115965744674],[101.480238,3.094933396576504],[101.48094509999999,3.0949118965765394],[101.48092149999998,3.093857396577687],[101.4795689,3.093902696577626],[101.479011,3.0956368965757566],[101.47771619999999,3.0960151965753204],[101.477967,3.0965896965747],[101.47919449831856,3.096550553742973],[101.47919449831856,3.0968425262936212]],[[101.47815808153743,3.096550553742973],[101.47815808153743,3.0961580644866706],[101.47867628992799,3.0961580644866706],[101.47867628992799,3.096550553742973],[101.47815808153743,3.096550553742973]],[[101.47919449831856,3.0961580644866706],[101.47971270670911,3.0961580644866706],[101.47971270670911,3.096550553742973],[101.47919449831856,3.096550553742973],[101.47919449831856,3.0961580644866706]]]},"properties":{"place_id":"542b59dc-6f31-58c9-9f89-1f9c3961f02f","habitat":"disturbed_built_edge","habitat_label":"Disturbed, bare or built edge","resolution_m":50}},{"type":"Feature","geometry":{"type":"Polygon","coordinates":[[[101.47971270670911,3.096550553742973],[101.48023091509967,3.096550553742973],[101.48023091509967,3.0949805975669786],[101.47919449831856,3.095373086398692],[101.47919449831856,3.0961580644866706],[101.47815808153743,3.0961580644866706],[101.47815808153743,3.096550553742973],[101.47919449831856,3.096550553742973],[101.47919449831856,3.0968425262936212],[101.47971270670911,3.096852367674918],[101.47971270670911,3.096550553742973]]]},"properties":{"place_id":"542b59dc-6f31-58c9-9f89-1f9c3961f02f","habitat":"permanent_water","habitat_label":"Permanent water","resolution_m":50}},{"type":"Feature","geometry":{"type":"Polygon","coordinates":[[[101.47815808153743,3.096550553742973],[101.47792855064378,3.096550553742973],[101.47815808153743,3.096659421167202],[101.47815808153743,3.096550553742973]]]},"properties":{"place_id":"542b59dc-6f31-58c9-9f89-1f9c3961f02f","habitat":"seasonal_water_wetland","habitat_label":"Seasonal water or wetland","resolution_m":50}},{"type":"Feature","geometry":{"type":"MultiPolygon","coordinates":[[[[101.47955981416467,3.0941956203280165],[101.47971270670911,3.0938978803392434],[101.4795689,3.093902696577626],[101.47955981416467,3.0941956203280165]]],[[[101.47919449831856,3.095373086398692],[101.48023091509967,3.0949805975669786],[101.48023091509967,3.096550553742973],[101.47971270670911,3.096550553742973],[101.47971270670911,3.096852367674918],[101.48026129999998,3.0968361965744227],[101.480238,3.094933396576504],[101.48074912349023,3.094910561283478],[101.48074912349023,3.0945881088767604],[101.47971270670911,3.0941956203280165],[101.47884439999999,3.0957917965755595],[101.47771619999999,3.0960151965753204],[101.47792855064378,3.096550553742973],[101.47815808153743,3.0961580644866706],[101.47919449831856,3.0961580644866706],[101.47919449831856,3.095373086398692]]],[[[101.47919449831856,3.096550553742973],[101.47815808153743,3.096550553742973],[101.47815808153743,3.096659421167202],[101.47919449831856,3.0968425262936212],[101.47919449831856,3.096550553742973]]]]},"properties":{"place_id":"542b59dc-6f31-58c9-9f89-1f9c3961f02f","habitat":"water_edge","habitat_label":"Water edge","resolution_m":50}}]}