{"type":"FeatureCollection","metadata":{"schema_version":1,"place_id":"54508dc9-4ae9-59e9-becf-cf1c328544b4","place_name":"Pulau Pasir Mandi","place_type":"wood","osm_reference":"way/412285788","protection_context":"no protected status confirmed from included OSM tags","resolution_m":50,"raster_coverage":1.0,"interpretation":"Suggested search habitats, not predicted plant locations or probabilities of presence."},"features":[{"type":"Feature","geometry":{"type":"MultiPolygon","coordinates":[[[[102.41041497615602,3.5986665054422273],[102.4109331845466,3.5986665054422273],[102.41145139293715,3.5970957659502054],[102.40989676776546,3.597881135366796],[102.40989676776546,3.5990591907270537],[102.41041497615602,3.5990591907270537],[102.41041497615602,3.5986665054422273]]],[[[102.40937855937491,3.5994518761766443],[102.40989676776546,3.5994518761766443],[102.40989676776546,3.5990591907270537],[102.40937855937491,3.5990591907270537],[102.40937855937491,3.5994518761766443]]]]},"properties":{"place_id":"54508dc9-4ae9-59e9-becf-cf1c328544b4","habitat":"forest_interior","habitat_label":"Forest interior","resolution_m":50}},{"type":"Feature","geometry":{"type":"Polygon","coordinates":[[[102.40834214259378,3.6005248270481274],[102.40910049999998,3.6003900960324606],[102.4111658,3.598806696034184],[102.41318005258307,3.595525029092965],[102.41300601810883,3.5951419540767007],[102.4095672,3.5980236960350047],[102.40834214259378,3.6005248270481274]],[[102.40989676776546,3.5994518761766443],[102.40937855937491,3.5994518761766443],[102.40937855937491,3.5990591907270537],[102.40989676776546,3.5990591907270537],[102.40989676776546,3.5994518761766443]],[[102.40989676776546,3.597881135366796],[102.41041497615602,3.597881135366796],[102.41041497615602,3.597488450576155],[102.41145139293715,3.5970957659502054],[102.41145139293715,3.597881135366796],[102.4109331845466,3.597881135366796],[102.4109331845466,3.5986665054422273],[102.41041497615602,3.5986665054422273],[102.41041497615602,3.5990591907270537],[102.40989676776546,3.5990591907270537],[102.40989676776546,3.597881135366796]]]},"properties":{"place_id":"54508dc9-4ae9-59e9-becf-cf1c328544b4","habitat":"forest_edge_opening","habitat_label":"Forest edge or opening","resolution_m":50}},{"type":"Feature","geometry":{"type":"MultiPolygon","coordinates":[[[[102.41248780971826,3.5967030814889296],[102.41196960132771,3.5967030814889296],[102.41196960132771,3.5970957659502054],[102.41227740569279,3.5970957659502054],[102.41248780971826,3.5967030814889296]]],[[[102.40937855937491,3.5990591907270537],[102.40919439999999,3.5987919960341723],[102.40904060485083,3.5990591907270537],[102.40937855937491,3.5990591907270537]]],[[[102.40838294417657,3.6002372475701923],[102.4083763,3.6005600960323014],[102.40886035098436,3.60049831790167],[102.40886035098436,3.6002372475701923],[102.40838294417657,3.6002372475701923]]]]},"properties":{"place_id":"54508dc9-4ae9-59e9-becf-cf1c328544b4","habitat":"cropland","habitat_label":"Cropland","resolution_m":50}},{"type":"Feature","geometry":{"type":"MultiPolygon","coordinates":[[[[102.4109331845466,3.5970957659502054],[102.4109331845466,3.5968613643499903],[102.41063360197847,3.5970957659502054],[102.4109331845466,3.5970957659502054]]],[[[102.41041497615602,3.597488450576155],[102.41041497615602,3.5972760676627407],[102.41016538430058,3.597488450576155],[102.41041497615602,3.597488450576155]]],[[[102.40989676776546,3.597881135366796],[102.40989676776546,3.5977235289218674],[102.40971941725145,3.597881135366796],[102.40989676776546,3.597881135366796]]],[[[102.40937855937491,3.5986665054422273],[102.40937855937491,3.598429412063962],[102.40924014487226,3.5986665054422273],[102.40937855937491,3.5986665054422273]]],[[[102.40886035098436,3.5998445617910173],[102.40886035098436,3.599331717056994],[102.40846827019841,3.5998445617910173],[102.40886035098436,3.5998445617910173]]],[[[102.41041497615602,3.5990591907270537],[102.41041497615602,3.5994518761766443],[102.40989676776546,3.5994518761766443],[102.40937855937491,3.600185031487498],[102.41051939999998,3.599426396033494],[102.41091121543994,3.5990591907270537],[102.41041497615602,3.5990591907270537]]],[[[102.40834214259378,3.600327340038234],[102.40832129999998,3.6004877960323562],[102.40834214259378,3.6005248270481274],[102.40834214259378,3.600327340038234]]],[[[102.40886035098436,3.6002372475701923],[102.40886035098436,3.60049831790167],[102.40928464717149,3.6002372475701923],[102.40886035098436,3.6002372475701923]]],[[[102.41248780971826,3.595917713060327],[102.41248780971826,3.595525029092965],[102.41300601810883,3.595525029092965],[102.41300601810883,3.595820230086068],[102.41338269999999,3.5948729960383905],[102.4126169,3.59538429603783],[102.41199123673141,3.595917713060327],[102.41248780971826,3.595917713060327]]],[[[102.41196960132771,3.59631039719231],[102.41196960132771,3.5959410956789384],[102.41160159025131,3.59631039719231],[102.41196960132771,3.59631039719231]]],[[[102.41145139293715,3.5967030814889296],[102.41145139293715,3.596442682610566],[102.41113956295507,3.5967030814889296],[102.41145139293715,3.5967030814889296]]],[[[102.41248780971826,3.59631039719231],[102.41248780971826,3.5967639991193234],[102.412722055321,3.59631039719231],[102.41248780971826,3.59631039719231]]],[[[102.41196960132771,3.5970957659502054],[102.41196960132771,3.597586461665638],[102.41227740569279,3.5970957659502054],[102.41196960132771,3.5970957659502054]]],[[[102.41145139293715,3.597881135366796],[102.41145139293715,3.5984364790783117],[102.41178278474383,3.597881135366796],[102.41145139293715,3.597881135366796]]],[[[102.4109331845466,3.5986665054422273],[102.4109331845466,3.599042017336357],[102.41128462324461,3.5986665054422273],[102.4109331845466,3.5986665054422273]]]]},"properties":{"place_id":"54508dc9-4ae9-59e9-becf-cf1c328544b4","habitat":"permanent_water","habitat_label":"Permanent water","resolution_m":50}},{"type":"Feature","geometry":{"type":"MultiPolygon","coordinates":[[[[102.41300601810883,3.595525029092965],[102.41326200000002,3.5953882960378487],[102.41338269999999,3.5948729960383905],[102.41300601810883,3.5951419540767007],[102.41300601810883,3.595525029092965]]],[[[102.4109331845466,3.5986665054422273],[102.4109331845466,3.599042017336357],[102.41128462324461,3.5986665054422273],[102.4109331845466,3.5986665054422273]]],[[[102.40937855937491,3.5998445617910173],[102.40937855937491,3.600185031487498],[102.40989676776546,3.5998724468353216],[102.40989676776546,3.5998445617910173],[102.40937855937491,3.5998445617910173]]],[[[102.40834214259378,3.600327340038234],[102.40832129999998,3.6004877960323562],[102.40834214259378,3.6005248270481274],[102.40834214259378,3.600327340038234]]],[[[102.40886035098436,3.6002372475701923],[102.40910049999998,3.6003900960324606],[102.40928464717149,3.6002372475701923],[102.40886035098436,3.6002372475701923]]]]},"properties":{"place_id":"54508dc9-4ae9-59e9-becf-cf1c328544b4","habitat":"seasonal_water_wetland","habitat_label":"Seasonal water or wetland","resolution_m":50}},{"type":"Feature","geometry":{"type":"Polygon","coordinates":[[[102.40834214259378,3.6005248270481274],[102.40937855937491,3.600185031487498],[102.41128462324461,3.5986665054422273],[102.41300601810883,3.595525029092965],[102.41248780971826,3.595525029092965],[102.41248780971826,3.595917713060327],[102.41199123673141,3.595917713060327],[102.41196960132771,3.59631039719231],[102.4095672,3.5980236960350047],[102.40834214259378,3.6005248270481274]]]},"properties":{"place_id":"54508dc9-4ae9-59e9-becf-cf1c328544b4","habitat":"water_edge","habitat_label":"Water edge","resolution_m":50}}]}