{"type":"FeatureCollection","metadata":{"schema_version":1,"place_id":"54bd4804-dd2d-56b8-bf0f-b975310239c7","place_name":"Taman Rimba Bukit Lagong MPS","place_type":"park","osm_reference":"way/1361201149","protection_context":"no protected status confirmed from included OSM tags","resolution_m":50,"raster_coverage":1.0,"interpretation":"Suggested search habitats, not predicted plant locations or probabilities of presence."},"features":[{"type":"Feature","geometry":{"type":"Polygon","coordinates":[[[101.6325841819245,3.2625864324122134],[101.6325841819245,3.2629789833148646],[101.63310239031506,3.2629789833148646],[101.6325841819245,3.2635245162236837],[101.63354959999998,3.26340689639446],[101.63321690000001,3.261958896396031],[101.6319328,3.2620565963959227],[101.63180357574004,3.2625864324122134],[101.6325841819245,3.2625864324122134]]]},"properties":{"place_id":"54bd4804-dd2d-56b8-bf0f-b975310239c7","habitat":"forest_interior","habitat_label":"Forest interior","resolution_m":50}},{"type":"Feature","geometry":{"type":"Polygon","coordinates":[[[101.6318153,3.263606696394249],[101.63310239031506,3.263371534366754],[101.63310239031506,3.2629789833148646],[101.63180357574004,3.2625864324122134],[101.6318153,3.263606696394249]]]},"properties":{"place_id":"54bd4804-dd2d-56b8-bf0f-b975310239c7","habitat":"forest_edge_opening","habitat_label":"Forest edge or opening","resolution_m":50}},{"type":"Feature","geometry":{"type":"Polygon","coordinates":[[[101.6325841819245,3.263371534366754],[101.6325841819245,3.2629789833148646],[101.63206597353393,3.2629789833148646],[101.63206597353393,3.263371534366754],[101.6325841819245,3.263371534366754]]]},"properties":{"place_id":"54bd4804-dd2d-56b8-bf0f-b975310239c7","habitat":"open_grassland","habitat_label":"Open grassland or shrubland","resolution_m":50}},{"type":"Feature","geometry":{"type":"Polygon","coordinates":[[[101.6318153,3.263606696394249],[101.6325841819245,3.263371534366754],[101.6325841819245,3.2629789833148646],[101.63180357574004,3.2625864324122134],[101.6318153,3.263606696394249]]]},"properties":{"place_id":"54bd4804-dd2d-56b8-bf0f-b975310239c7","habitat":"disturbed_built_edge","habitat_label":"Disturbed, bare or built edge","resolution_m":50}}]}