{"type":"FeatureCollection","metadata":{"schema_version":1,"place_id":"54d790c0-d3f5-5667-9e36-b8933d6e6583","place_name":"Gunung Kuang","place_type":"forest","osm_reference":"way/295369075","protection_context":"no protected status confirmed from included OSM tags","resolution_m":50,"raster_coverage":1.0,"interpretation":"Suggested search habitats, not predicted plant locations or probabilities of presence."},"features":[{"type":"Feature","geometry":{"type":"Polygon","coordinates":[[[101.13044025147124,4.744905520448067],[101.1309584598618,4.744905520448067],[101.1309584598618,4.747264984590043],[101.13009228426206,4.747658229377226],[101.13055539999998,4.7491053948226885],[101.13357019999998,4.749618594822177],[101.13506376355049,4.747658229377226],[101.13406771020517,4.747264984590043],[101.13406771020517,4.746478495670199],[101.13458591859572,4.746478495670199],[101.13406771020517,4.744905520448067],[101.13495589142019,4.74451227718775],[101.13492209999998,4.743951794828058],[101.13463081555041,4.742939306326805],[101.13458591859572,4.74333254871503],[101.1335495018146,4.74333254871503],[101.1335495018146,4.742939306326805],[101.13303129342404,4.742939306326805],[101.1335495018146,4.742152822204264],[101.13429211452944,4.742152822204264],[101.13339859999999,4.741118394830981],[101.13044025147124,4.744905520448067]]]},"properties":{"place_id":"54d790c0-d3f5-5667-9e36-b8933d6e6583","habitat":"forest_interior","habitat_label":"Forest interior","resolution_m":50}},{"type":"Feature","geometry":{"type":"MultiPolygon","coordinates":[[[[101.13458591859572,4.74333254871503],[101.13429211452944,4.742152822204264],[101.13303129342404,4.742546064156556],[101.1335495018146,4.74333254871503],[101.13458591859572,4.74333254871503]]],[[[101.1309584598618,4.747264984590043],[101.1309584598618,4.744905520448067],[101.13044025147124,4.744905520448067],[101.13044025147124,4.744580298872692],[101.1299975,4.745074494826872],[101.13009228426206,4.747658229377226],[101.1309584598618,4.747264984590043]]],[[[101.13495589142019,4.74451227718775],[101.13458591859572,4.744905520448067],[101.13406771020517,4.744905520448067],[101.13406771020517,4.745692007622923],[101.13458591859572,4.745692007622923],[101.13406771020517,4.747264984590043],[101.13506376355049,4.747658229377226],[101.13495589142019,4.74451227718775]]]]},"properties":{"place_id":"54d790c0-d3f5-5667-9e36-b8933d6e6583","habitat":"forest_edge_opening","habitat_label":"Forest edge or opening","resolution_m":50}},{"type":"Feature","geometry":{"type":"MultiPolygon","coordinates":[[[[101.1335495018146,4.742546064156556],[101.1335495018146,4.742939306326805],[101.13458591859572,4.742939306326805],[101.13451768296424,4.742546064156556],[101.1335495018146,4.742546064156556]]],[[[101.13458591859572,4.744905520448067],[101.13458591859572,4.745692007622923],[101.13502701715188,4.745692007622923],[101.13497959999742,4.744905520448067],[101.13458591859572,4.744905520448067]]],[[[101.13044025147124,4.744905520448067],[101.1301000006014,4.747264984590043],[101.13044025147124,4.747264984590043],[101.13044025147124,4.744905520448067]]],[[[101.13458591859572,4.746478495670199],[101.13458591859572,4.747264984590043],[101.13507284728816,4.747264984590043],[101.1350723235731,4.746478495670199],[101.13458591859572,4.746478495670199]]]]},"properties":{"place_id":"54d790c0-d3f5-5667-9e36-b8933d6e6583","habitat":"open_grassland","habitat_label":"Open grassland or shrubland","resolution_m":50}}]}