{"type":"FeatureCollection","metadata":{"schema_version":1,"place_id":"54ee9a4e-de7b-52c5-881f-fbd154edea0d","place_name":"Presint 8 Skateboard Park","place_type":"park","osm_reference":"way/858776877","protection_context":"no protected status confirmed from included OSM tags","resolution_m":50,"raster_coverage":1.0,"interpretation":"Suggested search habitats, not predicted plant locations or probabilities of presence."},"features":[{"type":"Feature","geometry":{"type":"Polygon","coordinates":[[[101.68275509999998,2.9392305967453027],[101.683026,2.939381996745119],[101.6829818,2.9391769967453714],[101.68275509999998,2.9392305967453027]]]},"properties":{"place_id":"54ee9a4e-de7b-52c5-881f-fbd154edea0d","habitat":"disturbed_built_edge","habitat_label":"Disturbed, bare or built edge","resolution_m":50}}]}