{"type":"FeatureCollection","metadata":{"schema_version":1,"place_id":"55bef675-510a-5d06-a1f4-01e3d529a5cd","place_name":"Padang Bola Taman Sepekan","place_type":"park","osm_reference":"way/1247974346","protection_context":"no protected status confirmed from included OSM tags","resolution_m":50,"raster_coverage":1.0,"interpretation":"Suggested search habitats, not predicted plant locations or probabilities of presence."},"features":[{"type":"Feature","geometry":{"type":"MultiPolygon","coordinates":[[[[103.37791004133274,3.5527234595135697],[103.3777053,3.552385296083892],[103.37762565989662,3.5527234595135697],[103.37791004133274,3.5527234595135697]]],[[[103.37791004133274,3.5533727258028915],[103.37753318402073,3.553116125646327],[103.3775042,3.553239196082945],[103.37791004133274,3.5533727258028915]]]]},"properties":{"place_id":"55bef675-510a-5d06-a1f4-01e3d529a5cd","habitat":"forest_edge_opening","habitat_label":"Forest edge or opening","resolution_m":50}},{"type":"Feature","geometry":{"type":"Polygon","coordinates":[[[103.37806113469914,3.553116125646327],[103.37826319999999,3.552569996083691],[103.3777053,3.552385296083892],[103.37753318402073,3.553116125646327],[103.37806113469914,3.553116125646327]]]},"properties":{"place_id":"55bef675-510a-5d06-a1f4-01e3d529a5cd","habitat":"open_grassland","habitat_label":"Open grassland or shrubland","resolution_m":50}},{"type":"Feature","geometry":{"type":"Polygon","coordinates":[[[103.37826319999999,3.552569996083691],[103.3775042,3.553239196082945],[103.3779601,3.5533891960827977],[103.37826319999999,3.552569996083691]]]},"properties":{"place_id":"55bef675-510a-5d06-a1f4-01e3d529a5cd","habitat":"disturbed_built_edge","habitat_label":"Disturbed, bare or built edge","resolution_m":50}}]}