{"type":"FeatureCollection","metadata":{"schema_version":1,"place_id":"55dd4c67-987f-5180-b8fa-14073fefa56b","place_name":"Bukit Tinagat","place_type":"wood","osm_reference":"way/1291212555","protection_context":"no protected status confirmed from included OSM tags","resolution_m":50,"raster_coverage":1.0,"interpretation":"Suggested search habitats, not predicted plant locations or probabilities of presence."},"features":[{"type":"Feature","geometry":{"type":"MultiPolygon","coordinates":[[[[117.99656873904843,4.224042355626112],[117.99646399999997,4.223783095370939],[117.99614726210223,4.224042355626112],[117.99656873904843,4.224042355626112]]],[[[117.98309532089384,4.224828297111785],[117.98257711250326,4.224828297111785],[117.98241880100042,4.224435326272059],[117.9820589041127,4.224828297111785],[117.98050427894103,4.224828297111785],[117.97755009999999,4.228245995366247],[117.9780492,4.228606995365889],[117.97752819999998,4.229553295364859],[117.97791323698823,4.23032990922506],[117.97739502859766,4.230469223216159],[117.97727039999998,4.231309095363043],[117.97747329999997,4.2331304953611015],[117.97942040000001,4.234869895359265],[117.9790803,4.2357942953583185],[117.97809310000001,4.235854395358259],[117.97785719999999,4.236702195357363],[117.97819179999999,4.236789795357277],[117.97784079999998,4.238693195355282],[117.9782576,4.238840895355105],[117.9777969,4.239748895354178],[117.97844410000002,4.24088109535298],[117.97615700000001,4.2410998953527415],[117.97739502859766,4.241726226795139],[117.97739502859766,4.242512185758025],[117.9768768202071,4.242512185758025],[117.97644219999997,4.243397195350313],[117.9758389,4.243588595350129],[117.97367790000001,4.241570295352229],[117.97302519999997,4.241460895352363],[117.97235060000001,4.241980495351825],[117.97288809999998,4.242855695350897],[117.97245480000001,4.243747195349946],[117.97168139999997,4.243747195349946],[117.97147300000002,4.244332495349327],[117.97101229999997,4.244255895349405],[117.97003599999998,4.245256895348359],[117.9694766,4.245054495348561],[117.968067,4.246624295346938],[117.9685551,4.246925095346617],[117.9684235,4.247701795345793],[117.96717849999999,4.248631695344818],[117.96806727756757,4.249978834752998],[117.96754906917701,4.249978834752998],[117.96754906917701,4.2507648018972635],[117.96703086078644,4.251064661034068],[117.96780280000002,4.2510971953422105],[117.96783939999999,4.251603995341686],[117.9701261,4.252632395340593],[117.9700694,4.253239895339947],[117.9708872,4.253963495339187],[117.9748281,4.2540376953391466],[117.97522949999997,4.254342595338797],[117.97500020000001,4.254685695338445],[117.9765992,4.255651295337414],[117.97568179999999,4.256299295336761],[117.97635861181655,4.2571748188541045],[117.97739502859766,4.25626659375591],[117.97914099999997,4.257137895335874],[117.9797155,4.256304095336773],[117.98128549999997,4.256637195336427],[117.98139419999997,4.256194795336881],[117.98211380000001,4.256251595336797],[117.9823048,4.25705029533596],[117.98592859999998,4.253356295339839],[117.9870311,4.25375479533944],[117.98775919640887,4.2570525671444415],[117.98827740479945,4.257217453044274],[117.9909577,4.255889395337191],[117.9902305,4.254693295338431],[117.9887903,4.255324295337785],[117.9877972,4.253613095339565],[117.9881926,4.252918895340321],[117.98877700000001,4.2528074953404245],[117.98854489999997,4.252276095340975],[117.98698070000002,4.251761795341528],[117.988141,4.250561895342806],[117.9913898,4.250343995343018],[117.9926175,4.249642595343756],[117.99242307192392,4.249192868388604],[117.99338294090126,4.248799885498815],[117.99486339684252,4.244870067318165],[117.99449590548616,4.24447708657142],[117.99501144243663,4.24447708657142],[117.99523220000002,4.243891095349773],[117.99605053065785,4.244084106019389],[117.99799705752797,4.245656029395862],[117.99812336422009,4.245263048259639],[117.9991597810012,4.245656029395862],[117.9991597810012,4.245263048259639],[118.00019619778233,4.245263048259639],[118.00019619778233,4.244870067318165],[118.00219379999999,4.244850995348798],[118.00336669999997,4.244137995349563],[118.00450299999999,4.244265195349398],[118.0038305,4.242761995350973],[118.0050681,4.241909195351898],[118.00498669999999,4.240912995352916],[118.0068514,4.240566195353318],[118.00749520000001,4.2387655953551775],[118.00893069999996,4.238064595355936],[118.0096336,4.237179095356876],[118.0111209,4.237592395356407],[118.01124670000002,4.237031495357035],[118.0120088,4.237267695356765],[118.0127266,4.237998195356005],[118.01211499076523,4.238639851229397],[118.01211499076523,4.2389753765535],[118.01263319915579,4.2389753765535],[118.01267981886181,4.239761332792841],[118.01312450000002,4.23958359535433],[118.0150661,4.240190695353705],[118.0164618,4.2365429953575084],[118.01556349999998,4.236492195357591],[118.0147354,4.238220195355764],[118.0138308,4.238150295355853],[118.01398999999999,4.235691695358444],[118.01263949999998,4.234617995359546],[118.01315140754636,4.2334737046490405],[118.01263319915579,4.2334737046490405],[118.01263319915579,4.233080729541533],[118.01211499076523,4.233080729541533],[118.01211499076523,4.232294779909048],[118.01159678237465,4.232294779909048],[118.01159678237465,4.231901805384032],[118.01211499076523,4.231901805384032],[118.01211499076523,4.23154254691029],[118.01126809999997,4.231424495362911],[118.01159678237465,4.230429057622219],[118.01065161774358,4.23032990922506],[118.01095549999997,4.23099239536337],[118.01004215720299,4.2307837629116625],[118.01004215720299,4.2311158569163645],[118.00952394881242,4.2311158569163645],[118.00924362822828,4.2307228829736765],[118.009162,4.231073395363268],[118.00817629999999,4.231365395362957],[118.0062599,4.230730795363641],[118.00662239999998,4.229454095364983],[118.00628949999998,4.229195895365248],[118.00563089999999,4.230531495363859],[118.00486007329738,4.23032990922506],[118.00483483968155,4.229936935670497],[118.0043418649068,4.229936935670497],[118.00501669999998,4.228583395365886],[118.00417319999997,4.228332495366152],[118.0043418649068,4.227186126220539],[118.00396294388307,4.227186126220539],[118.00354420000001,4.228118495366359],[118.00215309999997,4.227764295366767],[118.00160559999999,4.228627695365856],[118.00179059999998,4.229535295364879],[118.0000517,4.229240095365215],[117.99944490000001,4.2301698953642255],[117.99967798939177,4.2311158569163645],[118.00019619778233,4.2311158569163645],[117.99967798939177,4.231901805384032],[117.99864157261067,4.231508831053144],[117.99864157261067,4.2311158569163645],[117.9991597810012,4.231040569891355],[117.9967931,4.231336895363008],[117.9956304,4.228476195365986],[117.99597589999998,4.2268188953677575],[117.9962666,4.226906395367643],[117.99643660000001,4.226096895368537],[117.99703450000001,4.226042195368587],[117.99649149999999,4.225795995368827],[117.99708694743896,4.224042355626112],[117.99656873904843,4.224042355626112],[117.99582580130925,4.224828297111785],[117.99605053065785,4.226007210793824],[117.99467227976565,4.226400182408851],[117.99481309999999,4.22740959536712],[117.99403699999998,4.227374595367165],[117.9934318,4.228219595366302],[117.99087719999997,4.228588095365915],[117.99035023836169,4.229936935670497],[117.98827740479945,4.2307228829736765],[117.98827740479945,4.231508831053144],[117.98879561319,4.231508831053144],[117.98879561319,4.233080729541533],[117.98827740479945,4.233080729541533],[117.98827740479945,4.2334737046490405],[117.98724098801831,4.2334737046490405],[117.98724098801831,4.233080729541533],[117.98672277962774,4.233080729541533],[117.98672277962774,4.231508831053144],[117.9876779,4.230932295363432],[117.98724098801831,4.2307228829736765],[117.98765536410906,4.228758016170952],[117.98724098801831,4.228758016170952],[117.98724098801831,4.228365043392422],[117.98763928494026,4.228365043392422],[117.98712509999997,4.226531895368064],[117.98654899999998,4.226169295368426],[117.9864829,4.226795595367791],[117.985869,4.226998095367547],[117.9853307,4.226555495368009],[117.98537319999998,4.2257501953688745],[117.98309532089384,4.225221268145307],[117.98309532089384,4.224828297111785]],[[117.98413173767497,4.226007210793824],[117.9846499460655,4.226007210793824],[117.9846499460655,4.226400182408851],[117.9836135292844,4.2267931542177495],[117.98309532089384,4.226007210793824],[117.9836135292844,4.226007210793824],[117.9836135292844,4.225614239372649],[117.98413173767497,4.225614239372649],[117.98413173767497,4.226007210793824]],[[117.97014011112981,4.251157785761896],[117.97117652791094,4.2507648018972635],[117.97169473630152,4.251550769821552],[117.97065831952038,4.25194375407625],[117.97014011112981,4.251157785761896]],[[117.97532219503542,4.2476209379988585],[117.97635861181655,4.247227955888615],[117.97635861181655,4.2476209379988585],[117.9768768202071,4.2476209379988585],[117.9768768202071,4.248406902803941],[117.97584040342599,4.248799885498815],[117.97584040342599,4.248406902803941],[117.97532219503542,4.248406902803941],[117.97532219503542,4.2476209379988585]],[[117.99138665514282,4.245263048259639],[117.99190486353335,4.245263048259639],[117.99190486353335,4.244870067318165],[117.99294128031448,4.244870067318165],[117.99345948870506,4.245656029395862],[117.99294128031448,4.245656029395862],[117.99294128031448,4.246049010726854],[117.99190486353335,4.246049010726854],[117.99138665514282,4.245263048259639]],[[117.9810224873316,4.244084106019389],[117.9820589041127,4.243691125662052],[117.98257711250326,4.24447708657142],[117.98154069572216,4.244870067318165],[117.9810224873316,4.244084106019389]],[[117.99397769709562,4.242119206179281],[117.99345948870506,4.242119206179281],[117.99345948870506,4.241726226795139],[117.99501411387672,4.240940268610594],[117.99605053065785,4.242512185758025],[117.99501411387672,4.242905165531388],[117.99501411387672,4.242512185758025],[117.99397769709562,4.242512185758025],[117.99397769709562,4.242119206179281]],[[118.00226903134457,4.231901805384032],[118.0033054481257,4.231508831053144],[118.00382365651627,4.232294779909048],[118.00278723973514,4.232687754628209],[118.00226903134457,4.231901805384032]],[[117.97998607055047,4.226007210793824],[117.98050427894103,4.226007210793824],[117.98050427894103,4.225614239372649],[117.98154069572216,4.225614239372649],[117.9820589041127,4.226400182408851],[117.98154069572216,4.226400182408851],[117.98154069572216,4.2267931542177495],[117.98050427894103,4.2267931542177495],[117.97998607055047,4.226007210793824]]],[[[118.01325625543294,4.233866679950747],[118.01337209999998,4.2339381953602535],[118.01338479899367,4.233866679950747],[118.01325625543294,4.233866679950747]]],[[[117.98775919640887,4.2311158569163645],[117.98775919640887,4.231080122592692],[117.9877239536894,4.2311158569163645],[117.98775919640887,4.2311158569163645]]],[[[117.98780106939283,4.257445554131644],[117.9878155,4.257518095335493],[117.98792695180285,4.257445554131644],[117.98780106939283,4.257445554131644]]]]},"properties":{"place_id":"55dd4c67-987f-5180-b8fa-14073fefa56b","habitat":"forest_interior","habitat_label":"Forest interior","resolution_m":50}},{"type":"Feature","geometry":{"type":"MultiPolygon","coordinates":[[[[117.98257711250326,4.224828297111785],[117.98309532089384,4.224828297111785],[117.98309532089384,4.225221268145307],[117.98354423473215,4.225221268145307],[117.98298089999997,4.224596395370114],[117.98257711250326,4.224511845870563],[117.98257711250326,4.224828297111785]]],[[[117.98050427894103,4.225221268145307],[117.98050427894103,4.225004462697336],[117.98028684272231,4.225221268145307],[117.98050427894103,4.225221268145307]]],[[[117.98050427894103,4.224828297111785],[117.9820589041127,4.224828297111785],[117.9820589041127,4.224435326272059],[117.9826162,4.224265795370441],[117.9803591,4.224410095370272],[117.98050427894103,4.224828297111785]]],[[[117.98413173767497,4.225614239372649],[117.98510518623924,4.225614239372649],[117.98413173767497,4.225379285281934],[117.98413173767497,4.225614239372649]]],[[[117.98154069572216,4.225614239372649],[117.98050427894103,4.225614239372649],[117.97998607055047,4.226400182408851],[117.98050427894103,4.226400182408851],[117.98050427894103,4.2267931542177495],[117.98154069572216,4.2267931542177495],[117.98154069572216,4.226400182408851],[117.9820589041127,4.226400182408851],[117.98154069572216,4.225614239372649]]],[[[117.9836135292844,4.225614239372649],[117.98309532089384,4.226400182408851],[117.98413173767497,4.2267931542177495],[117.9846499460655,4.226007210793824],[117.9836135292844,4.225614239372649]]],[[[117.97843144537879,4.227579098417235],[117.97843144537879,4.22731420265252],[117.97818089098786,4.227579098417235],[117.97843144537879,4.227579098417235]]],[[[117.97791323698823,4.2278620726450615],[117.97780919415302,4.227972070807856],[117.97791323698823,4.227972070807856],[117.97791323698823,4.2278620726450615]]],[[[117.9778120095148,4.229936935670497],[117.97779139999997,4.230176795364241],[117.97758386176228,4.23032990922506],[117.97791323698823,4.23032990922506],[117.9778120095148,4.229936935670497]]],[[[117.97739502859766,4.2307228829736765],[117.97739502859766,4.230469223216159],[117.97735487509031,4.2307228829736765],[117.97739502859766,4.2307228829736765]]],[[[117.9768768202071,4.241333247605585],[117.97635861181655,4.241333247605585],[117.97694679999998,4.242062595351721],[117.9767355797469,4.242905165531388],[117.9768768202071,4.242512185758025],[117.97739502859766,4.242512185758025],[117.97739502859766,4.241726226795139],[117.9768768202071,4.241726226795139],[117.9768768202071,4.241333247605585]]],[[[117.98154069572216,4.243691125662052],[117.9810224873316,4.24447708657142],[117.9820589041127,4.244870067318165],[117.98257711250326,4.244084106019389],[117.98154069572216,4.243691125662052]]],[[[117.97584040342599,4.247227955888615],[117.97584040342599,4.2476209379988585],[117.97532219503542,4.2476209379988585],[117.97532219503542,4.248406902803941],[117.97635861181655,4.248799885498815],[117.97635861181655,4.248406902803941],[117.9768768202071,4.248406902803941],[117.9768768202071,4.2476209379988585],[117.97584040342599,4.247227955888615]]],[[[117.96806727756757,4.249585851473326],[117.96727009999998,4.249555395343833],[117.967093980476,4.2507648018972635],[117.96754906917701,4.2507648018972635],[117.96754906917701,4.249978834752998],[117.96806727756757,4.249978834752998],[117.96806727756757,4.249585851473326]]],[[[117.96754906917701,4.249192868388604],[117.96753813311086,4.249192868388604],[117.96754906917701,4.249346872197845],[117.96754906917701,4.249192868388604]]],[[[117.96703086078644,4.251064661034068],[117.96670500000002,4.250751495342577],[117.9666643,4.251023095342307],[117.96703086078644,4.251064661034068]]],[[[117.97065831952038,4.2507648018972635],[117.97014011112981,4.251550769821552],[117.97117652791094,4.25194375407625],[117.97169473630152,4.251157785761896],[117.97065831952038,4.2507648018972635]]],[[[117.98775919640887,4.2558736073545465],[117.98756653885582,4.25626659375591],[117.98775919640887,4.25626659375591],[117.98775919640887,4.2558736073545465]]],[[[117.97739502859766,4.256596189126901],[117.97843144537879,4.256917748418494],[117.97791323698823,4.25626659375591],[117.97739502859766,4.25626659375591],[117.97739502859766,4.256596189126901]]],[[[117.9768768202071,4.256659580352535],[117.9768768202071,4.2568767150477616],[117.97703150958766,4.256659580352535],[117.9768768202071,4.256659580352535]]],[[[117.97635861181655,4.2570525671444415],[117.9766183,4.257239595335752],[117.9767515410797,4.2570525671444415],[117.97635861181655,4.2570525671444415]]],[[[117.9971374701743,4.224435326272059],[117.99739649999998,4.2238760953708505],[117.99656873904843,4.223793541195056],[117.99708694743896,4.224042355626112],[117.9971374701743,4.224435326272059]]],[[[117.99656873904843,4.224042355626112],[117.99614726210223,4.224042355626112],[117.99625877803075,4.224435326272059],[117.99656873904843,4.224435326272059],[117.99656873904843,4.224042355626112]]],[[[117.99582580130925,4.224828297111785],[117.99605053065785,4.224698382782682],[117.99581679999999,4.224800495369904],[117.99582580130925,4.224828297111785]]],[[[117.9959530326492,4.225221268145307],[117.99605053065785,4.225522403934093],[117.99605053065785,4.225221268145307],[117.9959530326492,4.225221268145307]]],[[[117.99605053065785,4.226007210793824],[117.99605053065785,4.225741914433885],[117.99582134088357,4.226007210793824],[117.99605053065785,4.226007210793824]]],[[[117.9955323222673,4.226400182408851],[117.9948515,4.226140595368492],[117.99467227976565,4.226400182408851],[117.9955323222673,4.226400182408851]]],[[[117.98724098801831,4.228365043392422],[117.98724098801831,4.228758016170952],[117.98765536410906,4.228758016170952],[117.98763928494026,4.228365043392422],[117.98724098801831,4.228365043392422]]],[[[117.98724098801831,4.229543962309971],[117.98724098801831,4.2307228829736765],[117.98766435212978,4.2307228829736765],[117.98759070080928,4.229543962309971],[117.98724098801831,4.229543962309971]]],[[[117.98845630000001,4.230373295364031],[117.9874633,4.231544795362778],[117.98818850000002,4.231500495362841],[117.98822549999998,4.233072295361183],[117.987197,4.233064895361179],[117.9871712006489,4.231508831053144],[117.98672277962774,4.231508831053144],[117.98672277962774,4.233080729541533],[117.98724098801831,4.233080729541533],[117.98724098801831,4.2334737046490405],[117.98827740479945,4.2334737046490405],[117.98827740479945,4.233080729541533],[117.98879561319,4.233080729541533],[117.98879561319,4.231508831053144],[117.98827740479945,4.231508831053144],[117.98827740479945,4.2307228829736765],[117.98879561319,4.2307228829736765],[117.98879561319,4.230333211277585],[117.98845630000001,4.230373295364031]]],[[[117.98724098801831,4.2311158569163645],[117.98724098801831,4.231429425145792],[117.98751657339977,4.2311158569163645],[117.98724098801831,4.2311158569163645]]],[[[117.98983202997111,4.23032990922506],[117.99035023836169,4.229459383609722],[117.98952659999999,4.229947695364434],[117.98881949999999,4.22924239536521],[117.98783839999999,4.229159895365292],[117.9879085,4.229610895364794],[117.98869209999998,4.229642695364787],[117.98882356518057,4.23032990922506],[117.98983202997111,4.23032990922506]]],[[[117.9955323222673,4.241333247605585],[117.99449590548616,4.240940268610594],[117.99345948870506,4.242119206179281],[117.9955323222673,4.242905165531388],[117.9955323222673,4.242512185758025],[117.99605053065785,4.242512185758025],[117.99605053065785,4.242119206179281],[117.9955323222673,4.242119206179281],[117.9955323222673,4.241333247605585]]],[[[117.99605053065785,4.244084106019389],[117.99553456117484,4.244084106019389],[117.99605053065785,4.244413472540274],[117.99605053065785,4.244084106019389]]],[[[117.99501411387672,4.244084106019389],[117.99501411387672,4.24446999534888],[117.99515948803078,4.244084106019389],[117.99501411387672,4.244084106019389]]],[[[117.99449590548616,4.24447708657142],[117.99449590548616,4.244870067318165],[117.99486339684252,4.244870067318165],[117.99501144243663,4.24447708657142],[117.99449590548616,4.24447708657142]]],[[[117.99615018526312,4.24447708657142],[117.99656873904843,4.244744268394189],[117.99656873904843,4.24447708657142],[117.99615018526312,4.24447708657142]]],[[[117.99190486353335,4.244870067318165],[117.99138665514282,4.245656029395862],[117.99190486353335,4.245656029395862],[117.99190486353335,4.246049010726854],[117.99294128031448,4.246049010726854],[117.99345948870506,4.245263048259639],[117.99294128031448,4.245263048259639],[117.99294128031448,4.244870067318165],[117.99190486353335,4.244870067318165]]],[[[117.99397769709562,4.246441992252631],[117.99397769709562,4.247221123776395],[117.99427121446601,4.246441992252631],[117.99397769709562,4.246441992252631]]],[[[117.99345948870506,4.248013920303961],[117.99345948870506,4.248596691570625],[117.99367903208949,4.248013920303961],[117.99345948870506,4.248013920303961]]],[[[117.99294128031448,4.248799885498815],[117.99294128031448,4.249192868388604],[117.99242307192392,4.249192868388604],[117.99242307192392,4.249585851473326],[117.9932518,4.249147995344265],[117.99338294090126,4.248799885498815],[117.99294128031448,4.248799885498815]]],[[[117.98780106939283,4.257445554131644],[117.98827740479945,4.2570525671444415],[117.98775919640887,4.2570525671444415],[117.9876447157015,4.256659580352535],[117.98780106939283,4.257445554131644]]],[[[118.0043418649068,4.227186126220539],[118.0043418649068,4.227934951626523],[118.0044026,4.226207195368383],[118.00396294388307,4.227186126220539],[118.0043418649068,4.227186126220539]]],[[[118.0043418649068,4.229543962309971],[118.0043418649068,4.229936935670497],[118.00483483968155,4.229936935670497],[118.00475036306814,4.229543962309971],[118.0043418649068,4.229543962309971]]],[[[118.00589649007851,4.229742761381581],[118.0058311058234,4.229936935670497],[118.00589649007851,4.229936935670497],[118.00589649007851,4.229742761381581]]],[[[118.01065161774358,4.23032990922506],[118.01139429999999,4.230242995364143],[118.01073060000002,4.22988749536453],[118.01065161774358,4.23032990922506]]],[[[118.00486007329738,4.23032990922506],[118.00496870920368,4.23032990922506],[118.00486007329738,4.2300110088543175],[118.00486007329738,4.23032990922506]]],[[[118.01159678237465,4.2307228829736765],[118.01181109999997,4.2307079953636695],[118.01159678237465,4.230429057622219],[118.01159678237465,4.2307228829736765]]],[[[118.01004215720299,4.2311158569163645],[118.01004215720299,4.2307837629116625],[118.00927049999999,4.230607495363777],[118.00952394881242,4.2311158569163645],[118.01004215720299,4.2311158569163645]]],[[[118.00019619778233,4.2311158569163645],[117.99864157261067,4.2311158569163645],[117.99864157261067,4.231508831053144],[117.99967798939177,4.231901805384032],[118.00019619778233,4.2311158569163645]]],[[[118.0033054481257,4.231508831053144],[118.00226903134457,4.231901805384032],[118.00278723973514,4.232687754628209],[118.00382365651627,4.232294779909048],[118.0033054481257,4.231508831053144]]],[[[118.01211499076523,4.231901805384032],[118.01159678237465,4.231901805384032],[118.01159678237465,4.232294779909048],[118.01211499076523,4.232294779909048],[118.01211499076523,4.233080729541533],[118.01263319915579,4.233080729541533],[118.01338479899367,4.233866679950747],[118.0134804,4.23332829536092],[118.012224,4.232176395362105],[118.01217160000002,4.231411295362913],[118.01211499076523,4.231901805384032]]],[[[118.01263319915579,4.2389753765535],[118.01211499076523,4.2389753765535],[118.01201620000002,4.238743495355225],[118.0122456,4.239319095354604],[118.01240840000001,4.2394592953544645],[118.01263319915579,4.2389753765535]]],[[[118.01267981886181,4.239761332792841],[118.01298189999997,4.239889895354024],[118.01304175314787,4.239761332792841],[118.01267981886181,4.239761332792841]]],[[[117.99760515582953,4.245263048259639],[117.9973814334397,4.245263048259639],[117.99760515582953,4.245405860515957],[117.99760515582953,4.245263048259639]]],[[[118.00019619778233,4.244870067318165],[118.00019619778233,4.245263048259639],[117.9991597810012,4.245263048259639],[117.9991597810012,4.245656029395862],[117.99864157261067,4.245656029395862],[117.99864157261067,4.245263048259639],[117.99812336422009,4.245263048259639],[117.99799705752797,4.245656029395862],[117.99836059999998,4.245888095347712],[118.00212330851414,4.244870067318165],[118.00019619778233,4.244870067318165]]]]},"properties":{"place_id":"55dd4c67-987f-5180-b8fa-14073fefa56b","habitat":"forest_edge_opening","habitat_label":"Forest edge or opening","resolution_m":50}},{"type":"Feature","geometry":{"type":"MultiPolygon","coordinates":[[[[117.9810224873316,4.224435326272059],[117.9820589041127,4.224295179662795],[117.9810224873316,4.224384069266154],[117.9810224873316,4.224435326272059]]],[[[117.9810224873316,4.226007210793824],[117.98050427894103,4.226007210793824],[117.98050427894103,4.226400182408851],[117.9810224873316,4.226400182408851],[117.9810224873316,4.226007210793824]]],[[[117.98413173767497,4.226007210793824],[117.9836135292844,4.226007210793824],[117.9836135292844,4.226400182408851],[117.98413173767497,4.226400182408851],[117.98413173767497,4.226007210793824]]],[[[117.98787083249651,4.229543962309971],[117.98869209999998,4.229642695364787],[117.98879561319,4.229923314386023],[117.98879561319,4.229242170388526],[117.98787083249651,4.229543962309971]]],[[[117.98983202997111,4.229936935670497],[117.98978779999999,4.229534695364913],[117.9897689047962,4.229936935670497],[117.98983202997111,4.229936935670497]]],[[[117.98931382158055,4.229936935670497],[117.98951023747867,4.229936935670497],[117.98931382158055,4.229807776189531],[117.98931382158055,4.229936935670497]]],[[[117.98827740479945,4.230554685847018],[117.9881115214984,4.2307228829736765],[117.98827740479945,4.2307228829736765],[117.98827740479945,4.230554685847018]]],[[[117.9768768202071,4.242512185758025],[117.9768768202071,4.2423417488176485],[117.97683409410888,4.242512185758025],[117.9768768202071,4.242512185758025]]],[[[117.9768768202071,4.241726226795139],[117.97667084302333,4.241726226795139],[117.9768768202071,4.241977295802766],[117.9768768202071,4.241726226795139]]],[[[117.9820589041127,4.244084106019389],[117.98154069572216,4.244084106019389],[117.98154069572216,4.24447708657142],[117.9820589041127,4.24447708657142],[117.9820589041127,4.244084106019389]]],[[[117.97635861181655,4.2476209379988585],[117.97584040342599,4.2476209379988585],[117.97584040342599,4.248406902803941],[117.97635861181655,4.248406902803941],[117.97635861181655,4.2476209379988585]]],[[[117.96754906917701,4.249978834752998],[117.96726566483052,4.249585851473326],[117.96720843671234,4.249978834752998],[117.96754906917701,4.249978834752998]]],[[[117.96686361084828,4.2507648018972635],[117.96670500000002,4.250751495342577],[117.96670300597621,4.2507648018972635],[117.96686361084828,4.2507648018972635]]],[[[117.97117652791094,4.251157785761896],[117.97065831952038,4.251157785761896],[117.97065831952038,4.251550769821552],[117.97117652791094,4.251550769821552],[117.97117652791094,4.251157785761896]]],[[[117.97791323698823,4.256659580352535],[117.97759934469883,4.256659580352535],[117.97791323698823,4.256756968756354],[117.97791323698823,4.256659580352535]]],[[[117.98775919640887,4.2570525671444415],[117.98772289254717,4.2570525671444415],[117.98775919640887,4.257235062910545],[117.98775919640887,4.2570525671444415]]],[[[118.00952394881242,4.2307228829736765],[118.00977563940194,4.2307228829736765],[118.00952394881242,4.23066538997966],[118.00952394881242,4.2307228829736765]]],[[[117.99967798939177,4.2311158569163645],[117.9991597810012,4.2311158569163645],[117.9991597810012,4.231508831053144],[117.99967798939177,4.231508831053144],[117.99967798939177,4.2311158569163645]]],[[[118.0033054481257,4.231901805384032],[118.00278723973514,4.231901805384032],[118.00278723973514,4.232294779909048],[118.0033054481257,4.232294779909048],[118.0033054481257,4.231901805384032]]],[[[118.01224741052492,4.231901805384032],[118.01211499076523,4.232294779909048],[118.01241008082543,4.232294779909048],[118.01224741052492,4.231901805384032]]],[[[118.01263319915579,4.233080729541533],[118.01315140754636,4.233080729541533],[118.01345457965154,4.2334737046490405],[118.0134804,4.23332829536092],[118.01263319915579,4.232521658803763],[118.01263319915579,4.233080729541533]]],[[[118.01211499076523,4.2389753765535],[118.01210861410432,4.2389753765535],[118.01211499076523,4.2389913765787295],[118.01211499076523,4.2389753765535]]],[[[117.99501411387672,4.241726226795139],[117.99501411387672,4.241333247605585],[117.99449590548616,4.241333247605585],[117.99449590548616,4.241726226795139],[117.99501411387672,4.241726226795139]]],[[[117.99449590548616,4.241726226795139],[117.99397769709562,4.241726226795139],[117.99397769709562,4.242119206179281],[117.99449590548616,4.242119206179281],[117.99449590548616,4.241726226795139]]],[[[117.9955323222673,4.242119206179281],[117.99501411387672,4.242119206179281],[117.99501411387672,4.242512185758025],[117.9955323222673,4.242512185758025],[117.9955323222673,4.242119206179281]]],[[[117.99294128031448,4.245263048259639],[117.99190486353335,4.245263048259639],[117.99190486353335,4.245656029395862],[117.99294128031448,4.245656029395862],[117.99294128031448,4.245263048259639]]],[[[117.99864157261067,4.245656029395862],[117.99812336422009,4.245656029395862],[117.99812336422009,4.245736656783828],[117.99836059999998,4.245888095347712],[117.99864157261067,4.245656029395862]]],[[[117.9991597810012,4.245656029395862],[117.9991597810012,4.245671871032644],[117.99921833286662,4.245656029395862],[117.9991597810012,4.245656029395862]]],[[[117.99294128031448,4.249192868388604],[117.99294128031448,4.249360531103229],[117.99318623943192,4.249192868388604],[117.99294128031448,4.249192868388604]]]]},"properties":{"place_id":"55dd4c67-987f-5180-b8fa-14073fefa56b","habitat":"open_grassland","habitat_label":"Open grassland or shrubland","resolution_m":50}},{"type":"Feature","geometry":{"type":"MultiPolygon","coordinates":[[[[117.9810224873316,4.224435326272059],[117.98154069572216,4.224335595687253],[117.9810224873316,4.224384069266154],[117.9810224873316,4.224435326272059]]],[[[117.98050427894103,4.225221268145307],[117.98050427894103,4.225004462697336],[117.98028684272231,4.225221268145307],[117.98050427894103,4.225221268145307]]],[[[117.98050427894103,4.224828297111785],[117.9810224873316,4.224828297111785],[117.9810224873316,4.224435326272059],[117.9803591,4.224410095370272],[117.98050427894103,4.224828297111785]]],[[[117.98257711250326,4.2242993646286955],[117.9826162,4.224265795370441],[117.98257711250326,4.224251409415302],[117.98257711250326,4.2242993646286955]]],[[[117.98257711250326,4.224828297111785],[117.98309532089384,4.224828297111785],[117.98309532089384,4.225221268145307],[117.98354423473215,4.225221268145307],[117.98298089999997,4.224596395370114],[117.98257711250326,4.224511845870563],[117.98257711250326,4.224828297111785]]],[[[117.98154069572216,4.225614239372649],[117.98050427894103,4.226007210793824],[117.9810224873316,4.2267931542177495],[117.9820589041127,4.226400182408851],[117.98154069572216,4.225614239372649]]],[[[117.98724098801831,4.228365043392422],[117.98724098801831,4.228758016170952],[117.98765536410906,4.228758016170952],[117.98763928494026,4.228365043392422],[117.98724098801831,4.228365043392422]]],[[[117.98787083249651,4.229543962309971],[117.98869209999998,4.229642695364787],[117.98879561319,4.229923314386023],[117.98879561319,4.229242170388526],[117.98787083249651,4.229543962309971]]],[[[117.98761350547872,4.229936935670497],[117.98724098801831,4.23032990922506],[117.98763892880427,4.23032990922506],[117.98761350547872,4.229936935670497]]],[[[117.98879561319,4.2307228829736765],[117.98879561319,4.230333211277585],[117.9881115214984,4.2307228829736765],[117.98879561319,4.2307228829736765]]],[[[117.98827740479945,4.2311158569163645],[117.9874598,4.2313836953629576],[117.98818850000002,4.231500495362841],[117.98822549999998,4.233072295361183],[117.987197,4.233064895361179],[117.9871712006489,4.231508831053144],[117.98672277962774,4.231508831053144],[117.98672277962774,4.233080729541533],[117.98724098801831,4.233080729541533],[117.98724098801831,4.2334737046490405],[117.98827740479945,4.2334737046490405],[117.98827740479945,4.233080729541533],[117.98879561319,4.233080729541533],[117.98879561319,4.231508831053144],[117.98827740479945,4.231508831053144],[117.98827740479945,4.2311158569163645]]],[[[117.98724098801831,4.2311158569163645],[117.98724098801831,4.231429425145792],[117.98751657339977,4.2311158569163645],[117.98724098801831,4.2311158569163645]]],[[[117.96703086078644,4.251064661034068],[117.96670300597621,4.2507648018972635],[117.9666643,4.251023095342307],[117.96703086078644,4.251064661034068]]],[[[117.99656873904843,4.223793541195056],[117.9971374701743,4.224435326272059],[117.99739649999998,4.2238760953708505],[117.99656873904843,4.223793541195056]]],[[[117.99467227976565,4.226400182408851],[117.99501411387672,4.226136618595157],[117.9948515,4.226140595368492],[117.99467227976565,4.226400182408851]]],[[[118.00396294388307,4.227186126220539],[118.00449284194609,4.227579098417235],[118.0044026,4.226207195368383],[118.00396294388307,4.227186126220539]]],[[[117.98983202997111,4.229543962309971],[117.98978779999999,4.229534695364913],[117.98978736468595,4.229543962309971],[117.98983202997111,4.229543962309971]]],[[[117.98931382158055,4.229936935670497],[117.98880063773302,4.229936935670497],[117.98882356518057,4.23032990922506],[117.98931382158055,4.23032990922506],[117.98931382158055,4.229936935670497]]],[[[117.99605053065785,4.244084106019389],[117.99553456117484,4.244084106019389],[117.99605053065785,4.244413472540274],[117.99605053065785,4.244084106019389]]],[[[117.99501411387672,4.244084106019389],[117.99501411387672,4.24446999534888],[117.99515948803078,4.244084106019389],[117.99501411387672,4.244084106019389]]],[[[117.99449590548616,4.24447708657142],[117.99449590548616,4.244870067318165],[117.99486339684252,4.244870067318165],[117.99501144243663,4.24447708657142],[117.99449590548616,4.24447708657142]]],[[[117.99656873904843,4.24447708657142],[117.99615018526312,4.24447708657142],[117.99656873904843,4.244744268394189],[117.99656873904843,4.24447708657142]]],[[[118.00019619778233,4.244870067318165],[117.99967798939177,4.245531665961509],[118.00123261456346,4.244870067318165],[118.00019619778233,4.244870067318165]]],[[[117.99812336422009,4.245656029395862],[117.99799705752797,4.245656029395862],[117.99812336422009,4.245736656783828],[117.99812336422009,4.245656029395862]]]]},"properties":{"place_id":"55dd4c67-987f-5180-b8fa-14073fefa56b","habitat":"disturbed_built_edge","habitat_label":"Disturbed, bare or built edge","resolution_m":50}},{"type":"Feature","geometry":{"type":"Polygon","coordinates":[[[118.01082290249626,4.229936935670497],[118.01073060000002,4.22988749536453],[118.01071149013627,4.229936935670497],[118.01082290249626,4.229936935670497]]]},"properties":{"place_id":"55dd4c67-987f-5180-b8fa-14073fefa56b","habitat":"permanent_water","habitat_label":"Permanent water","resolution_m":50}},{"type":"Feature","geometry":{"type":"Polygon","coordinates":[[[118.01082290249626,4.229936935670497],[118.01073060000002,4.22988749536453],[118.01071149013627,4.229936935670497],[118.01082290249626,4.229936935670497]]]},"properties":{"place_id":"55dd4c67-987f-5180-b8fa-14073fefa56b","habitat":"seasonal_water_wetland","habitat_label":"Seasonal water or wetland","resolution_m":50}},{"type":"Feature","geometry":{"type":"MultiPolygon","coordinates":[[[[117.98154069572216,4.224435326272059],[117.9810224873316,4.224384069266154],[117.9810224873316,4.224435326272059],[117.98154069572216,4.224435326272059]]],[[[118.0044026,4.226207195368383],[118.0043418649068,4.2267931542177495],[118.00443095798515,4.2267931542177495],[118.0044026,4.226207195368383]]],[[[118.01071149013627,4.229936935670497],[118.0105826,4.230270395364113],[118.01159678237465,4.230906227820409],[118.01160269999997,4.230434495363958],[118.01071149013627,4.229936935670497]]]]},"properties":{"place_id":"55dd4c67-987f-5180-b8fa-14073fefa56b","habitat":"water_edge","habitat_label":"Water edge","resolution_m":50}}]}