{"type":"FeatureCollection","metadata":{"schema_version":1,"place_id":"56e04c43-7363-5bfd-81bd-37088b74d9ae","place_name":"Pulau Beruas","place_type":"wood","osm_reference":"way/337768809","protection_context":"no protected status confirmed from included OSM tags","resolution_m":50,"raster_coverage":1.0,"interpretation":"Suggested search habitats, not predicted plant locations or probabilities of presence."},"features":[{"type":"Feature","geometry":{"type":"MultiPolygon","coordinates":[[[[103.43491296429441,3.515268608504078],[103.436032382758,3.5150282652570226],[103.4347893,3.514573596124401],[103.43491296429441,3.515268608504078]]],[[[103.43646758946608,3.5154209158609193],[103.43687392463606,3.5154209158609193],[103.43646758946608,3.515179564058951],[103.43646758946608,3.5154209158609193]]],[[[103.43594938107555,3.5154209158609193],[103.43516002111829,3.5154209158609193],[103.43594938107555,3.515694103661066],[103.43594938107555,3.5154209158609193]]],[[[103.43698579785665,3.515813566625713],[103.4364416524858,3.515813566625713],[103.436978,3.515838496123028],[103.43710539999998,3.5156109961232898],[103.43698579785665,3.5155013418560914],[103.43698579785665,3.515813566625713]]]]},"properties":{"place_id":"56e04c43-7363-5bfd-81bd-37088b74d9ae","habitat":"permanent_water","habitat_label":"Permanent water","resolution_m":50}},{"type":"Feature","geometry":{"type":"MultiPolygon","coordinates":[[[[103.43543117268497,3.5150282652570226],[103.43572409999999,3.5149001961240307],[103.43543117268497,3.5147882676082345],[103.43543117268497,3.5150282652570226]]],[[[103.43491296429441,3.5150282652570226],[103.43543117268497,3.5154209158609193],[103.43543117268497,3.5150282652570226],[103.43491296429441,3.5150282652570226]]],[[[103.43594938107555,3.515694103661066],[103.43543117268497,3.5154209158609193],[103.43543117268497,3.5155285890785546],[103.43594938107555,3.515694103661066]]]]},"properties":{"place_id":"56e04c43-7363-5bfd-81bd-37088b74d9ae","habitat":"seasonal_water_wetland","habitat_label":"Seasonal water or wetland","resolution_m":50}},{"type":"Feature","geometry":{"type":"Polygon","coordinates":[[[103.43543117268497,3.5150282652570226],[103.43594938107555,3.515694103661066],[103.43698579785665,3.515813566625713],[103.43646758946608,3.515179564058951],[103.43543117268497,3.5150282652570226]]]},"properties":{"place_id":"56e04c43-7363-5bfd-81bd-37088b74d9ae","habitat":"water_edge","habitat_label":"Water edge","resolution_m":50}},{"type":"Feature","geometry":{"type":"Polygon","coordinates":[[[103.43594938107555,3.5154209158609193],[103.43594938107555,3.515694103661066],[103.43698579785665,3.515813566625713],[103.4363262,3.515120996123798],[103.43491296429441,3.5150282652570226],[103.43516002111829,3.5154209158609193],[103.43594938107555,3.5154209158609193]]]},"properties":{"place_id":"56e04c43-7363-5bfd-81bd-37088b74d9ae","habitat":"mangrove","habitat_label":"Mangrove","resolution_m":50}}]}