{"type":"FeatureCollection","metadata":{"schema_version":1,"place_id":"57033aae-1e2a-5f4b-afa8-f6f4dfc16802","place_name":"Pulau Anggur Besar","place_type":"wood","osm_reference":"way/724443351","protection_context":"no protected status confirmed from included OSM tags","resolution_m":50,"raster_coverage":1.0,"interpretation":"Suggested search habitats, not predicted plant locations or probabilities of presence."},"features":[{"type":"Feature","geometry":{"type":"Polygon","coordinates":[[[102.82498168860454,5.133145896832901],[102.82498168860454,5.13275242936836],[102.82446348021398,5.13275242936836],[102.82446348021398,5.133145896832901],[102.82498168860454,5.133145896832901]]]},"properties":{"place_id":"57033aae-1e2a-5f4b-afa8-f6f4dfc16802","habitat":"forest_interior","habitat_label":"Forest interior","resolution_m":50}},{"type":"Feature","geometry":{"type":"Polygon","coordinates":[[[102.82394527182342,5.133932832470843],[102.82448350000001,5.13379169442721],[102.82461089999998,5.1332653944277356],[102.82563177783477,5.133145896832901],[102.8256811,5.1328165944282125],[102.8250816,5.132895394428091],[102.82518089999999,5.132210194428833],[102.8247155,5.131862894429179],[102.82394527182342,5.133932832470843]],[[102.82446348021398,5.13275242936836],[102.82498168860454,5.13275242936836],[102.82498168860454,5.133145896832901],[102.82446348021398,5.133145896832901],[102.82446348021398,5.13275242936836]]]},"properties":{"place_id":"57033aae-1e2a-5f4b-afa8-f6f4dfc16802","habitat":"forest_edge_opening","habitat_label":"Forest edge or opening","resolution_m":50}},{"type":"Feature","geometry":{"type":"MultiPolygon","coordinates":[[[[102.8254998969951,5.132861010951167],[102.82563177783477,5.133145896832901],[102.8256811,5.1328165944282125],[102.8254998969951,5.132861010951167]]],[[[102.82394527182342,5.134124794130731],[102.82372206567948,5.133932832470843],[102.8237902,5.134117594426881],[102.82394527182342,5.134124794130731]]]]},"properties":{"place_id":"57033aae-1e2a-5f4b-afa8-f6f4dfc16802","habitat":"open_grassland","habitat_label":"Open grassland or shrubland","resolution_m":50}},{"type":"Feature","geometry":{"type":"MultiPolygon","coordinates":[[[[102.82446348021398,5.133145896832901],[102.82446348021398,5.131991971709571],[102.82413489002596,5.133145896832901],[102.82446348021398,5.133145896832901]]],[[[102.82498168860454,5.133145896832901],[102.8254464,5.133326794427654],[102.82563019999999,5.133234694427792],[102.82563177783477,5.133145896832901],[102.82498168860454,5.133145896832901]]],[[[102.82446348021398,5.133539364533722],[102.82446348021398,5.133811131818925],[102.8245278,5.13357789442742],[102.82446348021398,5.133539364533722]]],[[[102.82394527182342,5.133932832470843],[102.82394527182342,5.133569562957861],[102.8237902,5.134117594426881],[102.82394527182342,5.133932832470843]]]]},"properties":{"place_id":"57033aae-1e2a-5f4b-afa8-f6f4dfc16802","habitat":"permanent_water","habitat_label":"Permanent water","resolution_m":50}},{"type":"Feature","geometry":{"type":"MultiPolygon","coordinates":[[[[102.82446348021398,5.1323589621400805],[102.82441910000001,5.132686994428323],[102.82413489002596,5.133145896832901],[102.82446348021398,5.133145896832901],[102.82446348021398,5.1323589621400805]]],[[[102.8254998969951,5.132861010951167],[102.82563177783477,5.133145896832901],[102.8256811,5.1328165944282125],[102.8254998969951,5.132861010951167]]],[[[102.8254998969951,5.133328825959127],[102.82498168860454,5.133145896832901],[102.82498168860454,5.133229059625407],[102.8254998969951,5.133328825959127]]]]},"properties":{"place_id":"57033aae-1e2a-5f4b-afa8-f6f4dfc16802","habitat":"seasonal_water_wetland","habitat_label":"Seasonal water or wetland","resolution_m":50}},{"type":"Feature","geometry":{"type":"Polygon","coordinates":[[[102.82394527182342,5.133932832470843],[102.82446348021398,5.133811131818925],[102.82461089999998,5.1332653944277356],[102.8254998969951,5.133145896832901],[102.8247155,5.131862894429179],[102.82394527182342,5.133932832470843]]]},"properties":{"place_id":"57033aae-1e2a-5f4b-afa8-f6f4dfc16802","habitat":"water_edge","habitat_label":"Water edge","resolution_m":50}}]}