{"type":"FeatureCollection","metadata":{"schema_version":1,"place_id":"574331e3-1aca-59ce-b2a8-8b2e3a4027eb","place_name":"Public Park/Playground","place_type":"park","osm_reference":"way/1172655043","protection_context":"no protected status confirmed from included OSM tags","resolution_m":50,"raster_coverage":1.0,"interpretation":"Suggested search habitats, not predicted plant locations or probabilities of presence."},"features":[{"type":"Feature","geometry":{"type":"Polygon","coordinates":[[[103.62046459999998,2.6646650970442347],[103.62053213159454,2.6648939333211286],[103.62078100095667,2.6648939333211286],[103.62046459999998,2.6646650970442347]]]},"properties":{"place_id":"574331e3-1aca-59ce-b2a8-8b2e3a4027eb","habitat":"open_grassland","habitat_label":"Open grassland or shrubland","resolution_m":50}},{"type":"Feature","geometry":{"type":"Polygon","coordinates":[[[103.62041279999998,2.664809697044072],[103.6207754,2.6648766970440017],[103.62046459999998,2.6646650970442347],[103.62041279999998,2.664809697044072]]]},"properties":{"place_id":"574331e3-1aca-59ce-b2a8-8b2e3a4027eb","habitat":"disturbed_built_edge","habitat_label":"Disturbed, bare or built edge","resolution_m":50}}]}