{"type":"FeatureCollection","metadata":{"schema_version":1,"place_id":"57f16993-13fe-54d6-8003-1ece84239cd5","place_name":"Laman Bemban Raya","place_type":"park","osm_reference":"way/1370788382","protection_context":"no protected status confirmed from included OSM tags","resolution_m":50,"raster_coverage":1.0,"interpretation":"Suggested search habitats, not predicted plant locations or probabilities of presence."},"features":[{"type":"Feature","geometry":{"type":"MultiPolygon","coordinates":[[[[101.01441999999999,4.465818595117232],[101.01451269921324,4.46654278225227],[101.01473713426394,4.46654278225227],[101.01441999999999,4.465818595117232]]],[[[101.01487978037622,4.4668984651031],[101.01488619999999,4.466879495116142],[101.01487978037622,4.466843431288113],[101.01487978037622,4.4668984651031]]],[[[101.0138433635951,4.467328969830719],[101.0138433635951,4.467629588332677],[101.0143652788655,4.467328969830719],[101.0138433635951,4.467328969830719]]]]},"properties":{"place_id":"57f16993-13fe-54d6-8003-1ece84239cd5","habitat":"forest_edge_opening","habitat_label":"Forest edge or opening","resolution_m":50}},{"type":"Feature","geometry":{"type":"Polygon","coordinates":[[[101.0138433635951,4.467629588332677],[101.0146984,4.467137095115843],[101.01486712019451,4.4669358759389555],[101.01384785513326,4.4669358759389555],[101.0138433635951,4.467629588332677]]]},"properties":{"place_id":"57f16993-13fe-54d6-8003-1ece84239cd5","habitat":"open_grassland","habitat_label":"Open grassland or shrubland","resolution_m":50}},{"type":"Feature","geometry":{"type":"Polygon","coordinates":[[[101.0138154,4.467645695115352],[101.01485689999998,4.4667148951163105],[101.01441999999999,4.465818595117232],[101.0145492,4.4669047951160845],[101.013826,4.46695259511607],[101.0138154,4.467645695115352]]]},"properties":{"place_id":"57f16993-13fe-54d6-8003-1ece84239cd5","habitat":"disturbed_built_edge","habitat_label":"Disturbed, bare or built edge","resolution_m":50}}]}