{"type":"FeatureCollection","metadata":{"schema_version":1,"place_id":"58435e3d-00f4-5ae9-b421-bb90038e5e92","place_name":"Pantai Peak","place_type":"wood","osm_reference":"relation/10961121","protection_context":"no protected status confirmed from included OSM tags","resolution_m":50,"raster_coverage":1.0,"interpretation":"Suggested search habitats, not predicted plant locations or probabilities of presence."},"features":[{"type":"Feature","geometry":{"type":"MultiPolygon","coordinates":[[[[101.66208761297501,3.090270742617748],[101.66204819999997,3.0896077965822717],[101.66160950676867,3.089485768771592],[101.6612399233668,3.0898782556240407],[101.66208761297501,3.090270742617748]]],[[[101.6608703399649,3.090270742617748],[101.66108564340534,3.090246190208643],[101.66108564340534,3.090042096509754],[101.6608703399649,3.090270742617748]]],[[[101.66077429972172,3.1012604358659046],[101.66264026857702,3.101494065464268],[101.6631584769676,3.1008679449096186],[101.66367668535814,3.1008679449096186],[101.66367668535814,3.1004754540950974],[101.66471310213926,3.1008679449096186],[101.66471310213926,3.0996904728912775],[101.66574951892039,3.098912542972092],[101.66523131052983,3.0989054922543002],[101.66523131052983,3.097728022361346],[101.66471310213926,3.097728022361346],[101.66471310213926,3.0973355326802916],[101.66367668535814,3.0973355326802916],[101.66367668535814,3.0969430431408407],[101.6631584769676,3.0969430431408407],[101.6631584769676,3.0961580644866706],[101.66264026857702,3.0961580644866706],[101.66264026857702,3.095765575371917],[101.6631584769676,3.095765575371917],[101.66264026857702,3.0941956203280165],[101.66471310213926,3.0934106436548823],[101.663803,3.09117499658057],[101.6654366,3.0907496965810197],[101.6631584769676,3.0907449250876002],[101.6631584769676,3.091055717029011],[101.66264026857702,3.091055717029011],[101.66264026857702,3.090748646160729],[101.66172747229864,3.090663229752733],[101.66160385179589,3.091055717029011],[101.66089959999996,3.09105979658069],[101.66056743501478,3.0905924602363957],[101.6603168,3.0922580965793696],[101.65884599999998,3.0922369965793863],[101.65892880000001,3.0955805965757692],[101.6596091,3.0956772965756683],[101.65947789999998,3.099082296572012],[101.66037419999999,3.0998838965711273],[101.66010310233648,3.1016529269639723],[101.66077429972172,3.1012604358659046]],[[101.66108564340534,3.092233179705796],[101.6613074,3.0917626965799165],[101.66212206018646,3.0918406920055244],[101.66212206018646,3.091448204446602],[101.6631584769676,3.0918406920055244],[101.66212206018646,3.0930181555304563],[101.66160385179589,3.0930181555304563],[101.66108564340534,3.092233179705796]]],[[[101.65849460145255,3.1095027787275953],[101.65797639306199,3.1102715424041363],[101.65866305337984,3.1118577453387846],[101.65901280984309,3.1118577453387846],[101.6593207,3.109368196560877],[101.65979889999998,3.1093847965608603],[101.65949949999998,3.1103861965597983],[101.66004922662422,3.1106802613932136],[101.66004922662422,3.110287767029147],[101.66043877373455,3.110287767029147],[101.65995379999998,3.1089392965613247],[101.66108564340534,3.1091102847900705],[101.66108564340534,3.1087177909946924],[101.66212206018646,3.10832529734144],[101.66212206018646,3.1079328038302956],[101.66108564340534,3.107540310461242],[101.66108564340534,3.106755324149332],[101.66056743501478,3.106755324149332],[101.66056743501478,3.1047928608548743],[101.66108564340534,3.1047928608548743],[101.66108564340534,3.1044003686218913],[101.66056743501478,3.1044003686218913],[101.66056743501478,3.1032228927744367],[101.66004922662422,3.1032228927744367],[101.66004922662422,3.10200448980738],[101.658876,3.1093769965608624],[101.65813647236442,3.1095027787275953],[101.65849460145255,3.1095027787275953]]]]},"properties":{"place_id":"58435e3d-00f4-5ae9-b421-bb90038e5e92","habitat":"forest_interior","habitat_label":"Forest interior","resolution_m":50}},{"type":"Feature","geometry":{"type":"MultiPolygon","coordinates":[[[[101.66160385179589,3.0902192564392945],[101.6612399233668,3.0898782556240407],[101.66108564340534,3.090246190208643],[101.66160385179589,3.0902192564392945]]],[[[101.6608703399649,3.090270742617748],[101.66056743501478,3.0905924602363957],[101.66056743501478,3.090663229752733],[101.66082239845996,3.090663229752733],[101.6608703399649,3.090270742617748]]],[[[101.66108564340534,3.091055717029011],[101.66160385179589,3.0909950580100034],[101.66108564340534,3.091042694481013],[101.66108564340534,3.091055717029011]]],[[[101.66031696158424,3.0918406920055244],[101.66056743501478,3.091055717029011],[101.66031726546123,3.091055717029011],[101.66031696158424,3.0918406920055244]]],[[[101.66141672940424,3.0926256675474337],[101.66125124996562,3.092233179705796],[101.66108564340534,3.092233179705796],[101.66108564340534,3.0926256675474337],[101.66141672940424,3.0926256675474337]]],[[[101.66056743501478,3.1012604358659046],[101.66056743501478,3.1014224814966727],[101.66077429972172,3.1012604358659046],[101.66056743501478,3.1012604358659046]]],[[[101.66047979003973,3.113035230564796],[101.6607188,3.1125251965574607],[101.66002209999998,3.111126696558952],[101.66052629999999,3.110705296559432],[101.66004922662422,3.110287767029147],[101.6595516,3.110938096559177],[101.66047979003973,3.113035230564796]]],[[[101.66108564340534,3.1105286603241016],[101.66132799999997,3.108888596561372],[101.6629593,3.108689096561632],[101.66311299999998,3.108944896561328],[101.66346839999997,3.1085471965617697],[101.66431529999998,3.1085000965618126],[101.6620383,3.107784296562599],[101.66124719999999,3.1058969965646286],[101.66056743501478,3.1058677456061234],[101.66108564340534,3.107540310461242],[101.66212206018646,3.1079328038302956],[101.66212206018646,3.10832529734144],[101.66057345303692,3.1091102847900705],[101.66108564340534,3.1105286603241016]]],[[[101.66010310233648,3.1016529269639723],[101.66004922662422,3.1032228927744367],[101.66056743501478,3.1032228927744367],[101.66056743501478,3.1044003686218913],[101.66108564340534,3.1044003686218913],[101.66056743501478,3.1053537403708074],[101.661228,3.1054059965651613],[101.6611424,3.104081496566602],[101.66027719999998,3.102612396568175],[101.66053440993811,3.1016529269639723],[101.66010310233648,3.1016529269639723]]],[[[101.6592804,3.1112359965588414],[101.65866305337984,3.1118577453387846],[101.6592704,3.1128126965571625],[101.6592804,3.1112359965588414]]],[[[101.65849460145255,3.1098952728072806],[101.65767349999999,3.1095814965606494],[101.65797639306199,3.1102715424041363],[101.65797639306199,3.1098952728072806],[101.65849460145255,3.1098952728072806]]],[[[101.66180979480625,3.089485768771592],[101.66326669999998,3.089289296582587],[101.66270209999999,3.0885741965833993],[101.6633735,3.0881309965838537],[101.66301499999997,3.0880263965839667],[101.66180979480625,3.089485768771592]]],[[[101.66212122075761,3.090663229752733],[101.66208761297501,3.090270742617748],[101.66171125322856,3.090270742617748],[101.66172747229864,3.090663229752733],[101.66212122075761,3.090663229752733]]],[[[101.6631584769676,3.091055717029011],[101.6631584769676,3.0907449250876002],[101.66264026857702,3.090748646160729],[101.66264026857702,3.091055717029011],[101.6631584769676,3.091055717029011]]],[[[101.66264026857702,3.0918406920055244],[101.66264026857702,3.091448204446602],[101.66160385179589,3.0918406920055244],[101.662288,3.091771396579916],[101.66215750881368,3.0926256675474337],[101.6631584769676,3.092233179705796],[101.6631584769676,3.0918406920055244],[101.66264026857702,3.0918406920055244]]],[[[101.66212206018646,3.0930181555304563],[101.66212206018646,3.0926710796244112],[101.66160385179589,3.0929218155011267],[101.66160385179589,3.0930181555304563],[101.66212206018646,3.0930181555304563]]],[[[101.66471310213926,3.0934106436548823],[101.6641948937487,3.0934106436548823],[101.6641948937487,3.0938031319207293],[101.66317838536244,3.0938031319207293],[101.66432539999998,3.0941344965773645],[101.66471310213926,3.0934106436548823]]],[[[101.66264026857702,3.0941956203280165],[101.66264026857702,3.0949805975669786],[101.6631584769676,3.0949805975669786],[101.6631584769676,3.095765575371917],[101.66264026857702,3.095765575371917],[101.66264026857702,3.0961580644866706],[101.6631584769676,3.0961580644866706],[101.6631584769676,3.0969430431408407],[101.66367668535814,3.0969430431408407],[101.66367668535814,3.0973355326802916],[101.66471310213926,3.0973355326802916],[101.66471310213926,3.097728022361346],[101.66523131052983,3.097728022361346],[101.66523131052983,3.0989054922543002],[101.66586440000002,3.098883596572225],[101.66529119999998,3.0972757965739617],[101.66374109999998,3.096777296574488],[101.66317949999998,3.0958215965755427],[101.66411099999999,3.095472196575927],[101.66326939999999,3.0953448965760426],[101.66314346105855,3.0941956203280165],[101.66264026857702,3.0941956203280165]]],[[[101.66471310213926,3.0996904728912775],[101.66471310213926,3.1008679449096186],[101.66367668535814,3.1004754540950974],[101.66367668535814,3.1008679449096186],[101.6631584769676,3.1008679449096186],[101.66264026857702,3.101494065464268],[101.66461569999998,3.101069696569872],[101.66535479999999,3.100470496570514],[101.66471310213926,3.0996904728912775]]],[[[101.66212206018646,3.1012604358659046],[101.66167834184819,3.1012604358659046],[101.66212206018646,3.101476168645423],[101.66212206018646,3.1012604358659046]]]]},"properties":{"place_id":"58435e3d-00f4-5ae9-b421-bb90038e5e92","habitat":"forest_edge_opening","habitat_label":"Forest edge or opening","resolution_m":50}},{"type":"Feature","geometry":{"type":"MultiPolygon","coordinates":[[[[101.6631584769676,3.0890932820603836],[101.66322068371318,3.0890932820603836],[101.6631584769676,3.088828301467968],[101.6631584769676,3.0890932820603836]]],[[[101.66471310213926,3.0934106436548823],[101.66471310213926,3.093588958221618],[101.66480249999998,3.0934829965780772],[101.66471310213926,3.0934106436548823]]],[[[101.66367668535814,3.0969430431408407],[101.66396375288912,3.0969430431408407],[101.66367668535814,3.0965548818305484],[101.66367668535814,3.0969430431408407]]],[[[101.6645906636131,3.0969430431408407],[101.6645904,3.096942896574324],[101.66459002993811,3.0969430431408407],[101.6645906636131,3.0969430431408407]]],[[[101.66523131052983,3.0973355326802916],[101.66523131052983,3.097638599919118],[101.66541779999999,3.0974118965738016],[101.66523131052983,3.0973355326802916]]],[[[101.66523131052983,3.097728022361346],[101.66529103925757,3.097728022361346],[101.66523131052983,3.097660247816527],[101.66523131052983,3.097728022361346]]]]},"properties":{"place_id":"58435e3d-00f4-5ae9-b421-bb90038e5e92","habitat":"open_grassland","habitat_label":"Open grassland or shrubland","resolution_m":50}},{"type":"Feature","geometry":{"type":"MultiPolygon","coordinates":[[[[101.66160385179589,3.0902192564392945],[101.6612399233668,3.0898782556240407],[101.66108564340534,3.090246190208643],[101.66160385179589,3.0902192564392945]]],[[[101.6608703399649,3.090270742617748],[101.66056743501478,3.0905924602363957],[101.66056743501478,3.090663229752733],[101.66082239845996,3.090663229752733],[101.6608703399649,3.090270742617748]]],[[[101.66108564340534,3.091055717029011],[101.66160385179589,3.0909950580100034],[101.66108564340534,3.091042694481013],[101.66108564340534,3.091055717029011]]],[[[101.66031696158424,3.0918406920055244],[101.66056743501478,3.091055717029011],[101.66031726546123,3.091055717029011],[101.66031696158424,3.0918406920055244]]],[[[101.66141672940424,3.0926256675474337],[101.66125124996562,3.092233179705796],[101.66108564340534,3.092233179705796],[101.66108564340534,3.0926256675474337],[101.66141672940424,3.0926256675474337]]],[[[101.66212206018646,3.1012604358659046],[101.66167834184819,3.1012604358659046],[101.66212206018646,3.101476168645423],[101.66212206018646,3.1012604358659046]]],[[[101.66004922662422,3.1020454182038417],[101.66004922662422,3.1032228927744367],[101.66056743501478,3.1032228927744367],[101.66056743501478,3.1044003686218913],[101.66108564340534,3.1044003686218913],[101.66056743501478,3.1053537403708074],[101.661228,3.1054059965651613],[101.6611424,3.104081496566602],[101.66027719999998,3.102612396568175],[101.66047816214233,3.1020454182038417],[101.66004922662422,3.1020454182038417]]],[[[101.66056743501478,3.106755324149332],[101.66108564340534,3.106755324149332],[101.66108564340534,3.107540310461242],[101.66212206018646,3.1079328038302956],[101.66212206018646,3.10832529734144],[101.66057345303692,3.1091102847900705],[101.6613665,3.1107790965593622],[101.66132799999997,3.108888596561372],[101.6629593,3.108689096561632],[101.66311299999998,3.108944896561328],[101.66346839999997,3.1085471965617697],[101.66431529999998,3.1085000965618126],[101.6620383,3.107784296562599],[101.66124719999999,3.1058969965646286],[101.66056743501478,3.1058677456061234],[101.66056743501478,3.106755324149332]]],[[[101.66004922662422,3.110287767029147],[101.6595516,3.110938096559177],[101.66048320000002,3.113167196556769],[101.6607188,3.1125251965574607],[101.66002209999998,3.111126696558952],[101.66052629999999,3.110705296559432],[101.66004922662422,3.110287767029147]]],[[[101.6592804,3.1112359965588414],[101.65866305337984,3.1118577453387846],[101.6592704,3.1128126965571625],[101.6592804,3.1112359965588414]]],[[[101.65849460145255,3.1098952728072806],[101.65767349999999,3.1095814965606494],[101.65797639306199,3.1102715424041363],[101.65797639306199,3.1098952728072806],[101.65849460145255,3.1098952728072806]]],[[[101.66180979480625,3.089485768771592],[101.66326669999998,3.089289296582587],[101.66270209999999,3.0885741965833993],[101.6633735,3.0881309965838537],[101.66301499999997,3.0880263965839667],[101.66180979480625,3.089485768771592]]],[[[101.66212122075761,3.090663229752733],[101.66208761297501,3.090270742617748],[101.66171125322856,3.090270742617748],[101.66172747229864,3.090663229752733],[101.66212122075761,3.090663229752733]]],[[[101.6631584769676,3.091055717029011],[101.6631584769676,3.0907449250876002],[101.66264026857702,3.090748646160729],[101.66264026857702,3.091055717029011],[101.6631584769676,3.091055717029011]]],[[[101.66264026857702,3.0918406920055244],[101.66264026857702,3.091448204446602],[101.66160385179589,3.0918406920055244],[101.662288,3.091771396579916],[101.66215750881368,3.0926256675474337],[101.6631584769676,3.092233179705796],[101.6631584769676,3.0918406920055244],[101.66264026857702,3.0918406920055244]]],[[[101.66212206018646,3.0930181555304563],[101.66212206018646,3.0926710796244112],[101.66160385179589,3.0929218155011267],[101.66160385179589,3.0930181555304563],[101.66212206018646,3.0930181555304563]]],[[[101.6641948937487,3.0934106436548823],[101.6641948937487,3.0938031319207293],[101.66317838536244,3.0938031319207293],[101.66432539999998,3.0941344965773645],[101.66480249999998,3.0934829965780772],[101.6641948937487,3.0934106436548823]]],[[[101.66264026857702,3.0941956203280165],[101.66264026857702,3.0949805975669786],[101.6631584769676,3.0949805975669786],[101.6631584769676,3.095765575371917],[101.66264026857702,3.095765575371917],[101.66264026857702,3.0961580644866706],[101.66367543187901,3.096550553742973],[101.66317949999998,3.0958215965755427],[101.66411099999999,3.095472196575927],[101.66326939999999,3.0953448965760426],[101.66314346105855,3.0941956203280165],[101.66264026857702,3.0941956203280165]]],[[[101.66471310213926,3.0973355326802916],[101.66523131052983,3.0973355326802916],[101.66523131052983,3.097638599919118],[101.66541779999999,3.0974118965738016],[101.66471310213926,3.09701111786347],[101.66471310213926,3.0973355326802916]]],[[[101.66523131052983,3.0989054922543002],[101.66607149999999,3.0987041965724194],[101.66523131052983,3.097660247816527],[101.66523131052983,3.0989054922543002]]],[[[101.66471310213926,3.0996904728912775],[101.66471310213926,3.1008679449096186],[101.66367668535814,3.1004754540950974],[101.66367668535814,3.1008679449096186],[101.6631584769676,3.1008679449096186],[101.66264026857702,3.101494065464268],[101.66461569999998,3.101069696569872],[101.66535479999999,3.100470496570514],[101.66471310213926,3.0996904728912775]]]]},"properties":{"place_id":"58435e3d-00f4-5ae9-b421-bb90038e5e92","habitat":"disturbed_built_edge","habitat_label":"Disturbed, bare or built edge","resolution_m":50}}]}