{"type":"FeatureCollection","metadata":{"schema_version":1,"place_id":"58ceed2c-aca4-59cc-a73e-8811f1e9f8dc","place_name":"Strand Park Recreational Area","place_type":"park","osm_reference":"way/963212134","protection_context":"no protected status confirmed from included OSM tags","resolution_m":50,"raster_coverage":1.0,"interpretation":"Suggested search habitats, not predicted plant locations or probabilities of presence."},"features":[{"type":"Feature","geometry":{"type":"Polygon","coordinates":[[[101.11217387186312,4.692606073816341],[101.11230295780162,4.690942400730625],[101.112179,4.69093819488299],[101.11217387186312,4.692606073816341]]]},"properties":{"place_id":"58ceed2c-aca4-59cc-a73e-8811f1e9f8dc","habitat":"open_grassland","habitat_label":"Open grassland or shrubland","resolution_m":50}},{"type":"Feature","geometry":{"type":"Polygon","coordinates":[[[101.11217360000002,4.692694494881163],[101.1123411,4.6909436948829395],[101.112179,4.69093819488299],[101.11217360000002,4.692694494881163]]]},"properties":{"place_id":"58ceed2c-aca4-59cc-a73e-8811f1e9f8dc","habitat":"disturbed_built_edge","habitat_label":"Disturbed, bare or built edge","resolution_m":50}}]}