{"type":"FeatureCollection","metadata":{"schema_version":1,"place_id":"5a3db729-3f98-5a3b-9ac7-396b32bd09ff","place_name":"Pulau Raja","place_type":"wood","osm_reference":"way/724302121","protection_context":"no protected status confirmed from included OSM tags","resolution_m":50,"raster_coverage":1.0,"interpretation":"Suggested search habitats, not predicted plant locations or probabilities of presence."},"features":[{"type":"Feature","geometry":{"type":"MultiPolygon","coordinates":[[[[103.11725122088073,5.332664731181255],[103.11828763766185,5.332271141547316],[103.11828763766185,5.33148396301638],[103.11880584605242,5.33143938064344],[103.11733250000002,5.329849494227706],[103.1151783873185,5.328938411153103],[103.11569659570905,5.33187755215903],[103.11621480409961,5.33187755215903],[103.11621480409961,5.332664731181255],[103.11673301249017,5.332664731181255],[103.11673301249017,5.33305832106087],[103.11725122088073,5.33305832106087],[103.11725122088073,5.332664731181255]]],[[[103.11932405444297,5.332664731181255],[103.11880584605242,5.332664731181255],[103.11828763766185,5.333451911186175],[103.11906779999998,5.333088994224412],[103.1196472,5.33331059422419],[103.11932405444297,5.332269812336917],[103.11932405444297,5.332664731181255]]],[[[103.1179679050627,5.3338455015571915],[103.11828763766185,5.333680839152252],[103.11828763766185,5.333451911186175],[103.1177694292713,5.333451911186175],[103.1179679050627,5.3338455015571915]]]]},"properties":{"place_id":"5a3db729-3f98-5a3b-9ac7-396b32bd09ff","habitat":"forest_interior","habitat_label":"Forest interior","resolution_m":50}},{"type":"Feature","geometry":{"type":"MultiPolygon","coordinates":[[[[103.11880584605242,5.33305832106087],[103.11880584605242,5.332664731181255],[103.11932405444297,5.332664731181255],[103.11880584605242,5.33143938064344],[103.11828763766185,5.33148396301638],[103.11828763766185,5.332271141547316],[103.1177694292713,5.332271141547316],[103.11725122088073,5.33305832106087],[103.11621480409961,5.332664731181255],[103.11569659570905,5.330696785467915],[103.1151783873185,5.330696785467915],[103.1151783873185,5.328938411153103],[103.11436539999998,5.3289200942286685],[103.1152296,5.331702894225806],[103.1171447,5.334060994223423],[103.1179679050627,5.3338455015571915],[103.1177694292713,5.333451911186175],[103.11828763766185,5.333451911186175],[103.11828763766185,5.33305832106087],[103.11880584605242,5.33305832106087]]],[[[103.11828763766185,5.333451911186175],[103.11828763766185,5.333680839152252],[103.11875128471024,5.333451911186175],[103.11828763766185,5.333451911186175]]]]},"properties":{"place_id":"5a3db729-3f98-5a3b-9ac7-396b32bd09ff","habitat":"forest_edge_opening","habitat_label":"Forest edge or opening","resolution_m":50}},{"type":"Feature","geometry":{"type":"Polygon","coordinates":[[[103.11880584605242,5.33148396301638],[103.11828763766185,5.33148396301638],[103.11828763766185,5.332271141547316],[103.11673301249017,5.33305832106087],[103.11725122088073,5.3338455015571915],[103.11932405444297,5.332664731181255],[103.11880584605242,5.33148396301638]]]},"properties":{"place_id":"5a3db729-3f98-5a3b-9ac7-396b32bd09ff","habitat":"disturbed_built_edge","habitat_label":"Disturbed, bare or built edge","resolution_m":50}},{"type":"Feature","geometry":{"type":"MultiPolygon","coordinates":[[[[103.11466017892793,5.328839448846989],[103.114332,5.329013794228566],[103.11466017892793,5.330423215908307],[103.11466017892793,5.328839448846989]]],[[[103.1151783873185,5.330696785467915],[103.11477311137166,5.330696785467915],[103.1151783873185,5.331599731022639],[103.1151783873185,5.330696785467915]]],[[[103.11569659570905,5.33187755215903],[103.11539589999998,5.33196459422555],[103.11569659570905,5.332337495525423],[103.11569659570905,5.33187755215903]]],[[[103.11621480409961,5.332664731181255],[103.11596046795346,5.332664731181255],[103.11621480409961,5.332930884915131],[103.11621480409961,5.332664731181255]]],[[[103.11673301249017,5.33305832106087],[103.1163391497791,5.33305832106087],[103.11673301249017,5.333532382215344],[103.11673301249017,5.33305832106087]]],[[[103.11725122088073,5.3338455015571915],[103.1171447,5.334060994223423],[103.11725122088073,5.334126652941104],[103.11725122088073,5.3338455015571915]]]]},"properties":{"place_id":"5a3db729-3f98-5a3b-9ac7-396b32bd09ff","habitat":"permanent_water","habitat_label":"Permanent water","resolution_m":50}},{"type":"Feature","geometry":{"type":"MultiPolygon","coordinates":[[[[103.11673301249017,5.33305832106087],[103.1163391497791,5.33305832106087],[103.11667458292654,5.333451911186175],[103.11673301249017,5.333451911186175],[103.11673301249017,5.33305832106087]]],[[[103.11725122088073,5.3338455015571915],[103.1169750809691,5.3338455015571915],[103.11725122088073,5.334126652941104],[103.11725122088073,5.3338455015571915]]]]},"properties":{"place_id":"5a3db729-3f98-5a3b-9ac7-396b32bd09ff","habitat":"seasonal_water_wetland","habitat_label":"Seasonal water or wetland","resolution_m":50}},{"type":"Feature","geometry":{"type":"MultiPolygon","coordinates":[[[[103.1177694292713,5.3338455015571915],[103.1177694292713,5.33305832106087],[103.11673301249017,5.332664731181255],[103.11621480409961,5.330696785467915],[103.11569659570905,5.330696785467915],[103.11569659570905,5.329012675192366],[103.11466017892793,5.328839448846989],[103.11466017892793,5.330423215908307],[103.1151783873185,5.330696785467915],[103.1152296,5.331702894225806],[103.11673301249017,5.33305832106087],[103.11725122088073,5.334126652941104],[103.1177694292713,5.3338455015571915]]],[[[103.11962912947348,5.332664731181255],[103.11932405444297,5.33305832106087],[103.11981425269536,5.33305832106087],[103.11962912947348,5.332664731181255]]]]},"properties":{"place_id":"5a3db729-3f98-5a3b-9ac7-396b32bd09ff","habitat":"water_edge","habitat_label":"Water edge","resolution_m":50}}]}