{"type":"FeatureCollection","metadata":{"schema_version":1,"place_id":"5a7006db-0435-5c58-ad64-3f5e9ab9446b","place_name":"Taman Klebang Bayu Park","place_type":"park","osm_reference":"way/260753088","protection_context":"no protected status confirmed from included OSM tags","resolution_m":50,"raster_coverage":1.0,"interpretation":"Suggested search habitats, not predicted plant locations or probabilities of presence."},"features":[{"type":"Feature","geometry":{"type":"Polygon","coordinates":[[[101.11031169863298,4.665867983398902],[101.11023012423938,4.666261183415325],[101.1105950366469,4.666261183415325],[101.11031169863298,4.665867983398902]]]},"properties":{"place_id":"5a7006db-0435-5c58-ad64-3f5e9ab9446b","habitat":"forest_interior","habitat_label":"Forest interior","resolution_m":50}},{"type":"Feature","geometry":{"type":"Polygon","coordinates":[[[101.11023012423938,4.666261183415325],[101.1102065,4.66572199490911],[101.10946329999999,4.666134694908679],[101.10983489999997,4.666797894907979],[101.1106666,4.666360494908459],[101.11023012423938,4.666261183415325]]]},"properties":{"place_id":"5a7006db-0435-5c58-ad64-3f5e9ab9446b","habitat":"forest_edge_opening","habitat_label":"Forest edge or opening","resolution_m":50}},{"type":"Feature","geometry":{"type":"Polygon","coordinates":[[[101.11023012423938,4.666261183415325],[101.1102065,4.66572199490911],[101.10946329999999,4.666134694908679],[101.10983489999997,4.666797894907979],[101.1106666,4.666360494908459],[101.11023012423938,4.666261183415325]]]},"properties":{"place_id":"5a7006db-0435-5c58-ad64-3f5e9ab9446b","habitat":"disturbed_built_edge","habitat_label":"Disturbed, bare or built edge","resolution_m":50}}]}