{"type":"FeatureCollection","metadata":{"schema_version":1,"place_id":"5a86ce5c-4055-5f50-8d58-14aec1f582bc","place_name":"Banting Waterfront","place_type":"park","osm_reference":"way/1226750025","protection_context":"no protected status confirmed from included OSM tags","resolution_m":50,"raster_coverage":1.0,"interpretation":"Suggested search habitats, not predicted plant locations or probabilities of presence."},"features":[{"type":"Feature","geometry":{"type":"MultiPolygon","coordinates":[[[[101.5096206178528,2.813993807833131],[101.51028700175219,2.81464937148428],[101.51028700175219,2.8145116517125763],[101.5096206178528,2.813993807833131]]],[[[101.5107887,2.81480229688057],[101.51079309999999,2.8150950968802606],[101.51094219999997,2.8150679968802894],[101.5107887,2.81480229688057]]]]},"properties":{"place_id":"5a86ce5c-4055-5f50-8d58-14aec1f582bc","habitat":"forest_edge_opening","habitat_label":"Forest edge or opening","resolution_m":50}},{"type":"Feature","geometry":{"type":"MultiPolygon","coordinates":[[[[101.5096206178528,2.813993807833131],[101.50976879336163,2.814139577346745],[101.50976879336163,2.8140071137285005],[101.5096206178528,2.813993807833131]]],[[[101.51028700175219,2.81464937148428],[101.51015815093851,2.8143861999806856],[101.51001948657846,2.8143861999806856],[101.51028700175219,2.81464937148428]]],[[[101.51080521014275,2.8150928957744794],[101.51050496784411,2.8147785922568187],[101.51079309999999,2.8150950968802606],[101.51080521014275,2.8150928957744794]]]]},"properties":{"place_id":"5a86ce5c-4055-5f50-8d58-14aec1f582bc","habitat":"open_grassland","habitat_label":"Open grassland or shrubland","resolution_m":50}},{"type":"Feature","geometry":{"type":"MultiPolygon","coordinates":[[[[101.50976879336163,2.8140071137285005],[101.5092588,2.8131865968823098],[101.5091299,2.812669796882886],[101.5091617,2.8134564968820506],[101.50976879336163,2.8140071137285005]]],[[[101.51028700175219,2.81464937148428],[101.51015815093851,2.8143861999806856],[101.51001948657846,2.8143861999806856],[101.51028700175219,2.81464937148428]]],[[[101.5107887,2.81480229688057],[101.51079309999999,2.8150950968802606],[101.51094219999997,2.8150679968802894],[101.5107887,2.81480229688057]]]]},"properties":{"place_id":"5a86ce5c-4055-5f50-8d58-14aec1f582bc","habitat":"disturbed_built_edge","habitat_label":"Disturbed, bare or built edge","resolution_m":50}},{"type":"Feature","geometry":{"type":"MultiPolygon","coordinates":[[[[101.50925058497107,2.8132090239236858],[101.50927111086682,2.8132090239236858],[101.50925058497107,2.8131315855249546],[101.50925058497107,2.8132090239236858]]],[[[101.50948650635252,2.8136014158141367],[101.5095894,2.8139630968814817],[101.50975512694139,2.813993807833131],[101.50948650635252,2.8136014158141367]]],[[[101.51028700175219,2.8145116517125763],[101.51050496784411,2.8147785922568187],[101.51073484170351,2.8147785922568187],[101.51028700175219,2.8145116517125763]]]]},"properties":{"place_id":"5a86ce5c-4055-5f50-8d58-14aec1f582bc","habitat":"cropland","habitat_label":"Cropland","resolution_m":50}},{"type":"Feature","geometry":{"type":"Polygon","coordinates":[[[101.51080521014275,2.8150928957744794],[101.51094219999997,2.8150679968802894],[101.51080521014275,2.814830875020562],[101.51080521014275,2.8150928957744794]]]},"properties":{"place_id":"5a86ce5c-4055-5f50-8d58-14aec1f582bc","habitat":"seasonal_water_wetland","habitat_label":"Seasonal water or wetland","resolution_m":50}},{"type":"Feature","geometry":{"type":"Polygon","coordinates":[[[101.51079309999999,2.8150950968802606],[101.5096408,2.813882496881561],[101.5091299,2.812669796882886],[101.5091617,2.8134564968820506],[101.51079309999999,2.8150950968802606]]]},"properties":{"place_id":"5a86ce5c-4055-5f50-8d58-14aec1f582bc","habitat":"water_edge","habitat_label":"Water edge","resolution_m":50}}]}