{"type":"FeatureCollection","metadata":{"schema_version":1,"place_id":"5a98eb0b-9658-516c-b261-9ed51ccc8cec","place_name":"Taman Sandakan","place_type":"park","osm_reference":"way/1083489953","protection_context":"no protected status confirmed from included OSM tags","resolution_m":50,"raster_coverage":1.0,"interpretation":"Suggested search habitats, not predicted plant locations or probabilities of presence."},"features":[{"type":"Feature","geometry":{"type":"Polygon","coordinates":[[[118.04994420327617,5.887091276673016],[118.04994420327617,5.886303369006137],[118.0494259948856,5.886303369006137],[118.0494259948856,5.88787918542751],[118.05052349577166,5.88827314021266],[118.05034714426783,5.887091276673016],[118.04994420327617,5.887091276673016]]]},"properties":{"place_id":"5a98eb0b-9658-516c-b261-9ed51ccc8cec","habitat":"forest_interior","habitat_label":"Forest interior","resolution_m":50}},{"type":"Feature","geometry":{"type":"Polygon","coordinates":[[[118.04838957810449,5.887025996596818],[118.0494709,5.888078393667897],[118.04864159999997,5.888671493667273],[118.0504951,5.888528293667422],[118.04994420327617,5.88787918542751],[118.0494259948856,5.88787918542751],[118.0494259948856,5.886303369006137],[118.04994420327617,5.886303369006137],[118.04994420327617,5.887091276673016],[118.05034714426783,5.887091276673016],[118.04997789999997,5.8852635936706825],[118.0494213,5.885296093670636],[118.0494593,5.8859392936699955],[118.0483015,5.88612009366983],[118.0487728,5.88657879366939],[118.04838957810449,5.887025996596818]]]},"properties":{"place_id":"5a98eb0b-9658-516c-b261-9ed51ccc8cec","habitat":"forest_edge_opening","habitat_label":"Forest edge or opening","resolution_m":50}},{"type":"Feature","geometry":{"type":"Polygon","coordinates":[[[118.0504951,5.888528293667422],[118.04994420327617,5.88787918542751],[118.0494259948856,5.88787918542751],[118.0494259948856,5.886303369006137],[118.04994420327617,5.886303369006137],[118.04994420327617,5.887091276673016],[118.05034714426783,5.887091276673016],[118.04997789999997,5.8852635936706825],[118.0494213,5.885296093670636],[118.0494593,5.8859392936699955],[118.0483015,5.88612009366983],[118.0487728,5.88657879366939],[118.0483606,5.8869977936689635],[118.0494709,5.888078393667897],[118.04864159999997,5.888671493667273],[118.0504951,5.888528293667422]]]},"properties":{"place_id":"5a98eb0b-9658-516c-b261-9ed51ccc8cec","habitat":"disturbed_built_edge","habitat_label":"Disturbed, bare or built edge","resolution_m":50}},{"type":"Feature","geometry":{"type":"Polygon","coordinates":[[[118.0494259948856,5.88827314021266],[118.0494259948856,5.888610891910797],[118.0504951,5.888528293667422],[118.05052349577166,5.88827314021266],[118.0494259948856,5.88827314021266]]]},"properties":{"place_id":"5a98eb0b-9658-516c-b261-9ed51ccc8cec","habitat":"water_edge","habitat_label":"Water edge","resolution_m":50}}]}