{"type":"FeatureCollection","metadata":{"schema_version":1,"place_id":"5ac2cb32-0c7a-5a86-9f08-ce2baf4971ca","place_name":"Taman Gombak Ria Playground","place_type":"park","osm_reference":"way/543837365","protection_context":"no protected status confirmed from included OSM tags","resolution_m":50,"raster_coverage":1.0,"interpretation":"Suggested search habitats, not predicted plant locations or probabilities of presence."},"features":[{"type":"Feature","geometry":{"type":"Polygon","coordinates":[[[101.70179529999999,3.225135796435773],[101.70225579999999,3.224893596436009],[101.7021635,3.2246032964363347],[101.70179529999999,3.225135796435773]]]},"properties":{"place_id":"5ac2cb32-0c7a-5a86-9f08-ce2baf4971ca","habitat":"forest_edge_opening","habitat_label":"Forest edge or opening","resolution_m":50}},{"type":"Feature","geometry":{"type":"Polygon","coordinates":[[[101.70179529999999,3.225135796435773],[101.70225579999999,3.224893596436009],[101.7021635,3.2246032964363347],[101.7016572,3.2248335964360724],[101.70179529999999,3.225135796435773]]]},"properties":{"place_id":"5ac2cb32-0c7a-5a86-9f08-ce2baf4971ca","habitat":"disturbed_built_edge","habitat_label":"Disturbed, bare or built edge","resolution_m":50}}]}