{"type":"FeatureCollection","metadata":{"schema_version":1,"place_id":"5aea34c9-904e-59a4-a95c-c3141431594f","place_name":"Museum Area","place_type":"park","osm_reference":"way/492706491","protection_context":"no protected status confirmed from included OSM tags","resolution_m":50,"raster_coverage":1.0,"interpretation":"Suggested search habitats, not predicted plant locations or probabilities of presence."},"features":[{"type":"Feature","geometry":{"type":"MultiPolygon","coordinates":[[[[116.07349740167787,5.9595834542788895],[116.07346,5.959195993597473],[116.0729791932873,5.9595834542788895],[116.07349740167787,5.9595834542788895]]],[[[116.07182121772958,5.963129505505666],[116.07349740167787,5.963129505505666],[116.07349740167787,5.962341492193797],[116.07401561006843,5.962341492193797],[116.074533818459,5.961587305069807],[116.07401561006843,5.961553479983847],[116.07401561006843,5.9607654688756675],[116.07349740167787,5.9607654688756675],[116.07349740167787,5.95997745886911],[116.0729791932873,5.95997745886911],[116.0728526968501,5.9595834542788895],[116.07196827602246,5.95997745886911],[116.07246098489676,5.95997745886911],[116.07246098489676,5.9607654688756675],[116.07194277650619,5.9607654688756675],[116.07194277650619,5.961553479983847],[116.07142456811563,5.961553479983847],[116.07142456811563,5.961947485951092],[116.07246098489676,5.962341492193797],[116.07182121772958,5.963129505505666]]],[[[116.07401561006843,5.963523512574867],[116.07410309999997,5.963903193592801],[116.07496553108594,5.963523512574867],[116.07401561006843,5.963523512574867]]]]},"properties":{"place_id":"5aea34c9-904e-59a4-a95c-c3141431594f","habitat":"forest_interior","habitat_label":"Forest interior","resolution_m":50}},{"type":"Feature","geometry":{"type":"MultiPolygon","coordinates":[[[[116.0729791932873,5.9595834542788895],[116.0729791932873,5.959502749265091],[116.0728526968501,5.9595834542788895],[116.0729791932873,5.9595834542788895]]],[[[116.07349740167787,5.9607654688756675],[116.07401561006843,5.9607654688756675],[116.07401561006843,5.961553479983847],[116.0745186293353,5.961553479983847],[116.07349740167787,5.9592792840992805],[116.07349740167787,5.9595834542788895],[116.0729791932873,5.9595834542788895],[116.0729791932873,5.95997745886911],[116.07349740167787,5.95997745886911],[116.07349740167787,5.9607654688756675]]],[[[116.07246098489676,5.962735498711982],[116.07246098489676,5.962341492193797],[116.07142456811563,5.961947485951092],[116.07142456811563,5.961553479983847],[116.07194277650619,5.961553479983847],[116.07194277650619,5.9607654688756675],[116.07246098489676,5.9607654688756675],[116.07246098489676,5.95997745886911],[116.07123909999999,5.960092393596596],[116.07041300000002,5.960945993595748],[116.07062759999998,5.961746293594942],[116.07142149999999,5.962247893594437],[116.07150729999998,5.963005493593693],[116.07246098489676,5.962735498711982]]],[[[116.07401561006843,5.963523512574867],[116.0752195,5.963304293593409],[116.074533818459,5.961587305069807],[116.07317529004162,5.963129505505666],[116.07401561006843,5.963883190816981],[116.07401561006843,5.963523512574867]]],[[[116.07246098489676,5.963129505505666],[116.07246098489676,5.963266960836892],[116.07294987941323,5.963129505505666],[116.07246098489676,5.963129505505666]]]]},"properties":{"place_id":"5aea34c9-904e-59a4-a95c-c3141431594f","habitat":"forest_edge_opening","habitat_label":"Forest edge or opening","resolution_m":50}},{"type":"Feature","geometry":{"type":"MultiPolygon","coordinates":[[[[116.07363398953508,5.9595834542788895],[116.07349740167787,5.95997745886911],[116.07381091749512,5.95997745886911],[116.07363398953508,5.9595834542788895]]],[[[116.07401561006843,5.9607654688756675],[116.07416477341523,5.9607654688756675],[116.07401561006843,5.960433293403319],[116.07401561006843,5.9607654688756675]]],[[[116.07401561006843,5.962341492193797],[116.07401561006843,5.962735498711982],[116.074533818459,5.962735498711982],[116.074533818459,5.962341492193797],[116.07401561006843,5.962341492193797]]]]},"properties":{"place_id":"5aea34c9-904e-59a4-a95c-c3141431594f","habitat":"open_grassland","habitat_label":"Open grassland or shrubland","resolution_m":50}},{"type":"Feature","geometry":{"type":"MultiPolygon","coordinates":[[[[116.0729791932873,5.9595834542788895],[116.0729791932873,5.959502749265091],[116.0728526968501,5.9595834542788895],[116.0729791932873,5.9595834542788895]]],[[[116.07349740167787,5.9595834542788895],[116.07363398953508,5.9595834542788895],[116.07349740167787,5.9592792840992805],[116.07349740167787,5.9595834542788895]]],[[[116.07401561006843,5.961553479983847],[116.0745186293353,5.961553479983847],[116.07401561006843,5.960433293403319],[116.07401561006843,5.961553479983847]]],[[[116.07246098489676,5.962341492193797],[116.07142456811563,5.961947485951092],[116.07142456811563,5.961553479983847],[116.07194277650619,5.961553479983847],[116.07194277650619,5.9607654688756675],[116.07246098489676,5.9607654688756675],[116.07246098489676,5.95997745886911],[116.07123909999999,5.960092393596596],[116.07041300000002,5.960945993595748],[116.07062759999998,5.961746293594942],[116.07182121772958,5.963129505505666],[116.07246098489676,5.962341492193797]]],[[[116.074533818459,5.961947485951092],[116.07401561006843,5.961947485951092],[116.07401561006843,5.962341492193797],[116.074533818459,5.962341492193797],[116.074533818459,5.963129505505666],[116.07401561006843,5.963129505505666],[116.07401561006843,5.962735498711982],[116.07317529004162,5.963129505505666],[116.07401561006843,5.963883190816981],[116.07401561006843,5.963523512574867],[116.0752195,5.963304293593409],[116.074533818459,5.961587305069807],[116.074533818459,5.961947485951092]]],[[[116.07246098489676,5.963129505505666],[116.07246098489676,5.963266960836892],[116.07294987941323,5.963129505505666],[116.07246098489676,5.963129505505666]]]]},"properties":{"place_id":"5aea34c9-904e-59a4-a95c-c3141431594f","habitat":"disturbed_built_edge","habitat_label":"Disturbed, bare or built edge","resolution_m":50}},{"type":"Feature","geometry":{"type":"Polygon","coordinates":[[[116.0729791932873,5.959502749265091],[116.07349740167787,5.9595834542788895],[116.07346,5.959195993597473],[116.0729791932873,5.959502749265091]]]},"properties":{"place_id":"5aea34c9-904e-59a4-a95c-c3141431594f","habitat":"water_edge","habitat_label":"Water edge","resolution_m":50}}]}