{"type":"FeatureCollection","metadata":{"schema_version":1,"place_id":"5bb077f5-27ac-50be-8858-2ddcb471da28","place_name":"Harvard Park","place_type":"park","osm_reference":"way/491085944","protection_context":"no protected status confirmed from included OSM tags","resolution_m":50,"raster_coverage":1.0,"interpretation":"Suggested search habitats, not predicted plant locations or probabilities of presence."},"features":[{"type":"Feature","geometry":{"type":"Polygon","coordinates":[[[101.1311642,4.328473095261001],[101.13199487664292,4.3285794339526635],[101.1315522,4.327883795261595],[101.1311642,4.328473095261001]]]},"properties":{"place_id":"5bb077f5-27ac-50be-8858-2ddcb471da28","habitat":"forest_edge_opening","habitat_label":"Forest edge or opening","resolution_m":50}},{"type":"Feature","geometry":{"type":"Polygon","coordinates":[[[101.13251308503348,4.328972456788837],[101.1327284,4.329758395259628],[101.13277270000002,4.328296895261165],[101.13147666825236,4.32818641131512],[101.13147666825236,4.328698820263945],[101.13251308503348,4.328972456788837]]]},"properties":{"place_id":"5bb077f5-27ac-50be-8858-2ddcb471da28","habitat":"open_grassland","habitat_label":"Open grassland or shrubland","resolution_m":50}},{"type":"Feature","geometry":{"type":"Polygon","coordinates":[[[101.1311642,4.328473095261001],[101.1327284,4.329758395259628],[101.1329495,4.329697495259685],[101.13277270000002,4.328296895261165],[101.13146799999998,4.327905295261593],[101.1311642,4.328473095261001]]]},"properties":{"place_id":"5bb077f5-27ac-50be-8858-2ddcb471da28","habitat":"disturbed_built_edge","habitat_label":"Disturbed, bare or built edge","resolution_m":50}}]}