{"type":"FeatureCollection","metadata":{"schema_version":1,"place_id":"5c2cd375-ba13-5d7d-9cb1-588ce15ef84b","place_name":"Enso Woods Play Park","place_type":"park","osm_reference":"way/1510425375","protection_context":"no protected status confirmed from included OSM tags","resolution_m":50,"raster_coverage":1.0,"interpretation":"Suggested search habitats, not predicted plant locations or probabilities of presence."},"features":[{"type":"Feature","geometry":{"type":"Polygon","coordinates":[[[101.6096701,2.892007196796613],[101.6106236,2.890708896797991],[101.61036989999998,2.890575396798157],[101.6096701,2.892007196796613]]]},"properties":{"place_id":"5c2cd375-ba13-5d7d-9cb1-588ce15ef84b","habitat":"disturbed_built_edge","habitat_label":"Disturbed, bare or built edge","resolution_m":50}},{"type":"Feature","geometry":{"type":"Polygon","coordinates":[[[101.6101092822812,2.8916899837147203],[101.61020709261086,2.8909051481948795],[101.60981246548599,2.8916899837147203],[101.6101092822812,2.8916899837147203]]]},"properties":{"place_id":"5c2cd375-ba13-5d7d-9cb1-588ce15ef84b","habitat":"cropland","habitat_label":"Cropland","resolution_m":50}}]}