{"type":"FeatureCollection","metadata":{"schema_version":1,"place_id":"5c38caad-a463-5eda-9e45-a345e906dd3b","place_name":"UNM Lake Park","place_type":"park","osm_reference":"way/662591408","protection_context":"no protected status confirmed from included OSM tags","resolution_m":50,"raster_coverage":1.0,"interpretation":"Suggested search habitats, not predicted plant locations or probabilities of presence."},"features":[{"type":"Feature","geometry":{"type":"Polygon","coordinates":[[[101.8736135,2.9456414967383218],[101.87406929192576,2.9446676106175103],[101.8753729,2.944218896739893],[101.8750321,2.9430207967411737],[101.87305959999998,2.945061396738975],[101.87309169999999,2.9456418967383304],[101.8736135,2.9456414967383218]]]},"properties":{"place_id":"5c38caad-a463-5eda-9e45-a345e906dd3b","habitat":"forest_edge_opening","habitat_label":"Forest edge or opening","resolution_m":50}},{"type":"Feature","geometry":{"type":"MultiPolygon","coordinates":[[[[101.87406929192576,2.9442751747900937],[101.873769,2.9444179967396726],[101.8735510835352,2.9446676106175103],[101.87406929192576,2.9446676106175103],[101.87406929192576,2.9442751747900937]]],[[[101.8735510835352,2.945060046579498],[101.8735510835352,2.9446676106175103],[101.87349378067204,2.9446676106175103],[101.87306108865845,2.945060046579498],[101.8735510835352,2.945060046579498]]]]},"properties":{"place_id":"5c38caad-a463-5eda-9e45-a345e906dd3b","habitat":"open_grassland","habitat_label":"Open grassland or shrubland","resolution_m":50}},{"type":"Feature","geometry":{"type":"Polygon","coordinates":[[[101.8735510835352,2.945060046579498],[101.87305959999998,2.945061396738975],[101.8732506,2.945739896738228],[101.8753729,2.944218896739893],[101.8750321,2.9430207967411737],[101.8746117,2.9430732967411113],[101.8735510835352,2.945060046579498]],[[101.87458750031632,2.9438827390972317],[101.87510570870688,2.9438827390972317],[101.87510570870688,2.9442751747900937],[101.87458750031632,2.9442751747900937],[101.87458750031632,2.9438827390972317]]]},"properties":{"place_id":"5c38caad-a463-5eda-9e45-a345e906dd3b","habitat":"disturbed_built_edge","habitat_label":"Disturbed, bare or built edge","resolution_m":50}},{"type":"Feature","geometry":{"type":"MultiPolygon","coordinates":[[[[101.87510570870688,2.9434903035389057],[101.87458750031632,2.9434903035389057],[101.87458750031632,2.9442751747900937],[101.87510570870688,2.9442751747900937],[101.87510570870688,2.9434903035389057]]],[[[101.87406929192576,2.9442751747900937],[101.87406929192576,2.9446676106175103],[101.87458750031632,2.9446676106175103],[101.87458750031632,2.9442751747900937],[101.87406929192576,2.9442751747900937]]],[[[101.87406929192576,2.945060046579498],[101.87406929192576,2.9446676106175103],[101.8735510835352,2.9446676106175103],[101.8735510835352,2.945060046579498],[101.87406929192576,2.945060046579498]]]]},"properties":{"place_id":"5c38caad-a463-5eda-9e45-a345e906dd3b","habitat":"permanent_water","habitat_label":"Permanent water","resolution_m":50}},{"type":"Feature","geometry":{"type":"Polygon","coordinates":[[[101.87303287514463,2.945452482676076],[101.8736135,2.9456414967383218],[101.8753729,2.944218896739893],[101.8750321,2.9430207967411737],[101.8746117,2.9430732967411113],[101.87402679999998,2.9443310967397847],[101.873769,2.9444179967396726],[101.87305959999998,2.945061396738975],[101.87303287514463,2.945452482676076]],[[101.87406929192576,2.945060046579498],[101.8735510835352,2.945060046579498],[101.8735510835352,2.9446676106175103],[101.87406929192576,2.9446676106175103],[101.87406929192576,2.945060046579498]],[[101.87406929192576,2.9442751747900937],[101.87458750031632,2.9442751747900937],[101.87458750031632,2.9446676106175103],[101.87406929192576,2.9446676106175103],[101.87406929192576,2.9442751747900937]],[[101.87458750031632,2.9434903035389057],[101.87510570870688,2.9434903035389057],[101.87510570870688,2.9442751747900937],[101.87458750031632,2.9442751747900937],[101.87458750031632,2.9434903035389057]]]},"properties":{"place_id":"5c38caad-a463-5eda-9e45-a345e906dd3b","habitat":"water_edge","habitat_label":"Water edge","resolution_m":50}}]}