{"type":"FeatureCollection","metadata":{"schema_version":1,"place_id":"5d30845c-71f4-539b-8660-90c470c54e4d","place_name":"Taman Tasik Nilai Impian","place_type":"park","osm_reference":"way/745723200","protection_context":"no protected status confirmed from included OSM tags","resolution_m":50,"raster_coverage":1.0,"interpretation":"Suggested search habitats, not predicted plant locations or probabilities of presence."},"features":[{"type":"Feature","geometry":{"type":"MultiPolygon","coordinates":[[[[101.80307474241894,2.8414615696675143],[101.80385199999999,2.8398081968533657],[101.80306879999998,2.839358196853862],[101.8025565340284,2.8414615696675143],[101.80307474241894,2.8414615696675143]]],[[[101.80307474241894,2.8418539708591624],[101.8025565340284,2.8418539708591624],[101.8025565340284,2.842062384538277],[101.8029803,2.8421040968508597],[101.80307474241894,2.8418539708591624]]]]},"properties":{"place_id":"5d30845c-71f4-539b-8660-90c470c54e4d","habitat":"forest_edge_opening","habitat_label":"Forest edge or opening","resolution_m":50}},{"type":"Feature","geometry":{"type":"MultiPolygon","coordinates":[[[[101.80344066893016,2.8406767676736724],[101.80307474241894,2.84106916860569],[101.8025565340284,2.84106916860569],[101.8025565340284,2.8414615696675143],[101.8032752627952,2.8414615696675143],[101.80344066893016,2.8406767676736724]]],[[[101.80307474241894,2.8418539708591624],[101.8025565340284,2.8418539708591624],[101.8025565340284,2.842062384538277],[101.8029803,2.8421040968508597],[101.80307474241894,2.8418539708591624]]]]},"properties":{"place_id":"5d30845c-71f4-539b-8660-90c470c54e4d","habitat":"open_grassland","habitat_label":"Open grassland or shrubland","resolution_m":50}},{"type":"Feature","geometry":{"type":"Polygon","coordinates":[[[101.8029803,2.8421040968508597],[101.80385199999999,2.8398081968533657],[101.80306879999998,2.839358196853862],[101.80227219999999,2.84203439685093],[101.8029803,2.8421040968508597]]]},"properties":{"place_id":"5d30845c-71f4-539b-8660-90c470c54e4d","habitat":"disturbed_built_edge","habitat_label":"Disturbed, bare or built edge","resolution_m":50}}]}