{"type":"FeatureCollection","metadata":{"schema_version":1,"place_id":"5d4f9a05-39ad-5415-b033-ad0ca7a503b2","place_name":"Pulau Che Abas","place_type":"wood","osm_reference":"way/337768807","protection_context":"no protected status confirmed from included OSM tags","resolution_m":50,"raster_coverage":1.0,"interpretation":"Suggested search habitats, not predicted plant locations or probabilities of presence."},"features":[{"type":"Feature","geometry":{"type":"MultiPolygon","coordinates":[[[[103.4178120874059,3.5032488218670457],[103.4178120874059,3.5024635307771548],[103.41729387901535,3.5024635307771548],[103.41729387901535,3.502070885472665],[103.41625746223423,3.502070885472665],[103.41625746223423,3.501678240328455],[103.41470283706253,3.501678240328455],[103.41470283706253,3.5012855953445063],[103.41366642028143,3.5012855953445063],[103.41366642028143,3.5008929505208006],[103.4126300035003,3.5008929505208006],[103.4126300035003,3.5005003058573205],[103.4100389615475,3.5005003058573205],[103.4100389615475,3.5008929505208006],[103.41055716993806,3.5008929505208006],[103.41055716993806,3.502070885472665],[103.41107537832863,3.502070885472665],[103.41211179510975,3.5032488218670457],[103.41418462867199,3.503641467652482],[103.41418462867199,3.504034113598272],[103.41833029579648,3.503641467652482],[103.41833029579648,3.5032488218670457],[103.4178120874059,3.5032488218670457]]],[[[103.41884850418703,3.504034113598272],[103.41884850418703,3.503641467652482],[103.41833029579648,3.503641467652482],[103.41833029579648,3.504034113598272],[103.41884850418703,3.504034113598272]]]]},"properties":{"place_id":"5d4f9a05-39ad-5415-b033-ad0ca7a503b2","habitat":"forest_interior","habitat_label":"Forest interior","resolution_m":50}},{"type":"Feature","geometry":{"type":"Polygon","coordinates":[[[103.41314821189087,3.504034113598272],[103.41521589999999,3.5044149961352917],[103.4170291,3.504120496135601],[103.41988492096814,3.5044118360524275],[103.4179679,3.5022812961375775],[103.41672869999998,3.5015450961383694],[103.4104862,3.4998423961402088],[103.40963150000002,3.5003857961395974],[103.40999899999998,3.5017832961381137],[103.41314821189087,3.504034113598272]],[[103.41625746223423,3.503641467652482],[103.41625746223423,3.504034113598272],[103.41418462867199,3.504034113598272],[103.41418462867199,3.503641467652482],[103.41211179510975,3.5032488218670457],[103.41211179510975,3.502856176241942],[103.41055716993806,3.502070885472665],[103.41055716993806,3.5008929505208006],[103.4100389615475,3.5008929505208006],[103.4100389615475,3.5005003058573205],[103.4126300035003,3.5005003058573205],[103.4126300035003,3.5008929505208006],[103.41366642028143,3.5008929505208006],[103.41366642028143,3.5012855953445063],[103.41470283706253,3.5012855953445063],[103.41470283706253,3.501678240328455],[103.41729387901535,3.502070885472665],[103.41833029579648,3.503641467652482],[103.41625746223423,3.503641467652482]],[[103.41884850418703,3.503641467652482],[103.41884850418703,3.504034113598272],[103.41833029579648,3.504034113598272],[103.41833029579648,3.503641467652482],[103.41884850418703,3.503641467652482]]]},"properties":{"place_id":"5d4f9a05-39ad-5415-b033-ad0ca7a503b2","habitat":"forest_edge_opening","habitat_label":"Forest edge or opening","resolution_m":50}},{"type":"Feature","geometry":{"type":"MultiPolygon","coordinates":[[[[103.4100389615475,3.5005003058573205],[103.4100389615475,3.5001076613540465],[103.41197915014148,3.5001076613540465],[103.4105945,3.4998155961402166],[103.40992929999999,3.500110096139918],[103.40966369999998,3.5003108961396947],[103.4100389615475,3.5005003058573205]]],[[[103.41306140310387,3.5005003058573205],[103.41274289999998,3.5003750961396256],[103.4126300035003,3.5003352238217773],[103.4126300035003,3.5005003058573205],[103.41306140310387,3.5005003058573205]]],[[[103.4100389615475,3.5008929505208006],[103.40966685451758,3.5008929505208006],[103.4100389615475,3.5018411397898124],[103.4100389615475,3.5008929505208006]]],[[[103.41055716993806,3.502070885472665],[103.41020770790338,3.502070885472665],[103.41055716993806,3.5024521039994365],[103.41055716993806,3.502070885472665]]],[[[103.41107537832863,3.5024635307771548],[103.41057033047116,3.5024635307771548],[103.41107537832863,3.5028354984173338],[103.41107537832863,3.5024635307771548]]],[[[103.41159358671918,3.502856176241942],[103.41111721575052,3.502856176241942],[103.41159358671918,3.50309122222663],[103.41159358671918,3.502856176241942]]],[[[103.41211179510975,3.5032488218670457],[103.41191800011568,3.5032488218670457],[103.41211179510975,3.5033513882555933],[103.41211179510975,3.5032488218670457]]],[[[103.41251377917261,3.503641467652482],[103.4131801,3.504069696135645],[103.41418462867199,3.5043149498842583],[103.41418462867199,3.504034113598272],[103.41251377917261,3.503641467652482]]],[[[103.41366642028143,3.5008929505208006],[103.41397399999998,3.5008141961391632],[103.41366642028143,3.5007190092728084],[103.41366642028143,3.5008929505208006]]],[[[103.41470283706253,3.5012855953445063],[103.41583862291387,3.5012855953445063],[103.41470283706253,3.500978488215551],[103.41470283706253,3.5012855953445063]]],[[[103.41625746223423,3.501678240328455],[103.41697050477757,3.501678240328455],[103.41625746223423,3.501389750553337],[103.41625746223423,3.501678240328455]]],[[[103.41729387901535,3.502070885472665],[103.41765267308512,3.502070885472665],[103.41729387901535,3.5018594673887686],[103.41729387901535,3.502070885472665]]],[[[103.4178120874059,3.5024635307771548],[103.41815586317816,3.5024635307771548],[103.4178120874059,3.502177292856811],[103.4178120874059,3.5024635307771548]]],[[[103.41833029579648,3.5032488218670457],[103.41884850418703,3.5032488218670457],[103.4193667125776,3.5043317204899767],[103.41993389999998,3.504396296135304],[103.41833029579648,3.5026311302287096],[103.41833029579648,3.5032488218670457]]],[[[103.41833029579648,3.504171790036947],[103.41625746223423,3.504034113598272],[103.41625746223423,3.504295995184098],[103.41833029579648,3.504171790036947]]]]},"properties":{"place_id":"5d4f9a05-39ad-5415-b033-ad0ca7a503b2","habitat":"permanent_water","habitat_label":"Permanent water","resolution_m":50}},{"type":"Feature","geometry":{"type":"MultiPolygon","coordinates":[[[[103.4100389615475,3.5000539980878074],[103.41055716993806,3.5001076613540465],[103.41055716993806,3.499824833865521],[103.4100389615475,3.5000539980878074]]],[[[103.41159358671918,3.5001076613540465],[103.41197915014148,3.5001076613540465],[103.41159358671918,3.4999841364688717],[103.41159358671918,3.5001076613540465]]],[[[103.41366642028143,3.5007190092728084],[103.41418462867199,3.5008929505208006],[103.41418462867199,3.5008744543399044],[103.41366642028143,3.5007190092728084]]],[[[103.41470283706253,3.5012855953445063],[103.41573925384367,3.5012605476115164],[103.41470283706253,3.500978488215551],[103.41470283706253,3.5012855953445063]]],[[[103.41573925384367,3.5012855953445063],[103.41573925384367,3.501678240328455],[103.41625746223423,3.501678240328455],[103.41625746223423,3.501389750553337],[103.41573925384367,3.5012855953445063]]],[[[103.4100389615475,3.501678240328455],[103.40994887777819,3.501678240328455],[103.4100389615475,3.5018411397898124],[103.4100389615475,3.501678240328455]]],[[[103.4178120874059,3.5024635307771548],[103.41815586317816,3.5024635307771548],[103.4178120874059,3.502177292856811],[103.4178120874059,3.5024635307771548]]]]},"properties":{"place_id":"5d4f9a05-39ad-5415-b033-ad0ca7a503b2","habitat":"seasonal_water_wetland","habitat_label":"Seasonal water or wetland","resolution_m":50}},{"type":"Feature","geometry":{"type":"Polygon","coordinates":[[[103.41314821189087,3.503641467652482],[103.41314821189087,3.504034113598272],[103.41418462867199,3.504034113598272],[103.4143013,3.5043319961353547],[103.41612519999997,3.504337396135374],[103.41625746223423,3.504034113598272],[103.4193667125776,3.5043317204899767],[103.4193667125776,3.503641467652482],[103.41833029579648,3.5032488218670457],[103.41833029579648,3.5026311302287096],[103.41697050477757,3.501678240328455],[103.41573925384367,3.501678240328455],[103.41573925384367,3.5012855953445063],[103.41470283706253,3.5012855953445063],[103.41470283706253,3.500978488215551],[103.41197915014148,3.5001076613540465],[103.4100389615475,3.5001076613540465],[103.4096369,3.5007311961392404],[103.4100389615475,3.5008929505208006],[103.41020770790338,3.502070885472665],[103.41251377917261,3.503641467652482],[103.41314821189087,3.503641467652482]],[[103.41418462867199,3.5032488218670457],[103.41211179510975,3.502856176241942],[103.41211179510975,3.5024635307771548],[103.41107537832863,3.502070885472665],[103.41107537832863,3.5008929505208006],[103.4126300035003,3.5008929505208006],[103.4126300035003,3.5012855953445063],[103.41366642028143,3.5012855953445063],[103.41366642028143,3.501678240328455],[103.41470283706253,3.501678240328455],[103.41470283706253,3.502070885472665],[103.41573925384367,3.502070885472665],[103.41573925384367,3.5024635307771548],[103.41729387901535,3.5024635307771548],[103.41729387901535,3.5032488218670457],[103.41625746223423,3.5032488218670457],[103.41625746223423,3.503641467652482],[103.41418462867199,3.503641467652482],[103.41418462867199,3.5032488218670457]]]},"properties":{"place_id":"5d4f9a05-39ad-5415-b033-ad0ca7a503b2","habitat":"water_edge","habitat_label":"Water edge","resolution_m":50}}]}