{"type":"FeatureCollection","metadata":{"schema_version":1,"place_id":"5dc959ba-87cd-5e1d-b35b-a8a61a0a5125","place_name":"Setia Alam Central Park","place_type":"park","osm_reference":"relation/8485272","protection_context":"no protected status confirmed from included OSM tags","resolution_m":50,"raster_coverage":1.0,"interpretation":"Suggested search habitats, not predicted plant locations or probabilities of presence."},"features":[{"type":"Feature","geometry":{"type":"MultiPolygon","coordinates":[[[[101.45587512074331,3.0996904728912775],[101.45587512074331,3.1000829634223233],[101.45639332913389,3.1000829634223233],[101.45639332913389,3.0996904728912775],[101.45587512074331,3.0996904728912775]]],[[[101.45742974591502,3.1000829634223233],[101.45742974591502,3.1004754540950974],[101.45794795430555,3.1004754540950974],[101.45794795430555,3.1000829634223233],[101.45742974591502,3.1000829634223233]]],[[[101.45691153752445,3.1004754540950974],[101.45691153752445,3.1008679449096186],[101.45742974591502,3.1008679449096186],[101.45742974591502,3.1004754540950974],[101.45691153752445,3.1004754540950974]]],[[[101.45639332913389,3.1004754540950974],[101.45587512074331,3.1004754540950974],[101.45587512074331,3.1012604358659046],[101.45691153752445,3.1016529269639723],[101.45691153752445,3.1008679449096186],[101.45639332913389,3.1008679449096186],[101.45639332913389,3.1004754540950974]]],[[[101.45691153752445,3.1034669497663447],[101.45690719999999,3.1035461965671787],[101.45691153752445,3.103578677563643],[101.45691153752445,3.1034669497663447]]],[[[101.45634289999998,3.1032333965675036],[101.457326,3.103118496567623],[101.45720130000001,3.1028360965679416],[101.45691153752445,3.102830401109056],[101.45691153752445,3.1020454182038417],[101.45587512074331,3.1020454182038417],[101.45587921148817,3.102437909585531],[101.45639332913389,3.102437909585531],[101.45639332913389,3.102830401109056],[101.4559687346665,3.102830401109056],[101.45634289999998,3.1032333965675036]]],[[[101.45591802646592,3.102830401109056],[101.45603421686909,3.104007876530837],[101.45628390199464,3.104007876530837],[101.45626540000002,3.103275696567473],[101.45591802646592,3.102830401109056]]]]},"properties":{"place_id":"5dc959ba-87cd-5e1d-b35b-a8a61a0a5125","habitat":"forest_interior","habitat_label":"Forest interior","resolution_m":50}},{"type":"Feature","geometry":{"type":"MultiPolygon","coordinates":[[[[101.45691153752445,3.1020454182038417],[101.45691153752445,3.102830401109056],[101.45719383698497,3.102830401109056],[101.4570424,3.101187596569711],[101.45836469999999,3.1008748965700392],[101.45838189999999,3.0998102965712055],[101.45569039086794,3.0992979825019424],[101.45587512074331,3.1023965445648742],[101.45587512074331,3.1020454182038417],[101.45691153752445,3.1020454182038417]],[[101.45639332913389,3.1016529269639723],[101.45639332913389,3.1012604358659046],[101.45587512074331,3.1012604358659046],[101.45587512074331,3.1004754540950974],[101.45691153752445,3.1008679449096186],[101.45691153752445,3.1016529269639723],[101.45639332913389,3.1016529269639723]],[[101.45691153752445,3.1004754540950974],[101.45742974591502,3.1004754540950974],[101.45742974591502,3.1008679449096186],[101.45691153752445,3.1008679449096186],[101.45691153752445,3.1004754540950974]],[[101.45742974591502,3.1000829634223233],[101.45794795430555,3.1000829634223233],[101.45794795430555,3.1004754540950974],[101.45742974591502,3.1004754540950974],[101.45742974591502,3.1000829634223233]],[[101.45639332913389,3.0996904728912775],[101.45639332913389,3.1000829634223233],[101.45587512074331,3.1000829634223233],[101.45587512074331,3.0996904728912775],[101.45639332913389,3.0996904728912775]]],[[[101.45587921148817,3.102437909585531],[101.45591802646592,3.102830401109056],[101.45639332913389,3.102830401109056],[101.45639332913389,3.102437909585531],[101.45587921148817,3.102437909585531]]],[[[101.45619090000001,3.1065715965639122],[101.4577148,3.106356296564121],[101.45729847536509,3.1032228927744367],[101.45691153752445,3.1034669497663447],[101.4570099,3.105464196565101],[101.4571736,3.105722896564795],[101.457244,3.1061922965642976],[101.45736959999999,3.106237396564263],[101.45759749999999,3.1062178965642766],[101.45768759999999,3.1062494965642395],[101.45720130000001,3.106242796564259],[101.4571094,3.1058303965647043],[101.45639332913389,3.1059703384055672],[101.45663149999999,3.104805696565784],[101.45648389999998,3.104092996566578],[101.45603421686909,3.104007876530837],[101.45619090000001,3.1065715965639122]]]]},"properties":{"place_id":"5dc959ba-87cd-5e1d-b35b-a8a61a0a5125","habitat":"forest_edge_opening","habitat_label":"Forest edge or opening","resolution_m":50}},{"type":"Feature","geometry":{"type":"MultiPolygon","coordinates":[[[[101.45691153752445,3.1000829634223233],[101.45639332913389,3.1000829634223233],[101.45639332913389,3.1004754540950974],[101.45691153752445,3.1004754540950974],[101.45691153752445,3.1000829634223233]]],[[[101.45846616269613,3.1004754540950974],[101.45857910000001,3.1004484965705195],[101.45846616269613,3.10008299658933],[101.45846616269613,3.1004754540950974]]],[[[101.45691153752445,3.1063628312064413],[101.45715239999998,3.1058576965646703],[101.45639332913389,3.1044003686218913],[101.45639332913389,3.1065497738460213],[101.45769007191285,3.1063628312064413],[101.45691153752445,3.1063628312064413]]],[[[101.45735546553314,3.1059703384055672],[101.45730426449981,3.105185353229802],[101.45708913851449,3.105185353229802],[101.457018,3.105500696565045],[101.45735546553314,3.1059703384055672]]]]},"properties":{"place_id":"5dc959ba-87cd-5e1d-b35b-a8a61a0a5125","habitat":"open_grassland","habitat_label":"Open grassland or shrubland","resolution_m":50}},{"type":"Feature","geometry":{"type":"MultiPolygon","coordinates":[[[[101.45691153752445,3.102830401109056],[101.4570424,3.101187596569711],[101.45836469999999,3.1008748965700392],[101.45838189999999,3.0998102965712055],[101.4557241,3.099269996571793],[101.45587512074331,3.1023965445648742],[101.45587512074331,3.1020454182038417],[101.45691153752445,3.1020454182038417],[101.45691153752445,3.102830401109056]],[[101.45587512074331,3.0996904728912775],[101.45794795430555,3.1000829634223233],[101.45794795430555,3.1004754540950974],[101.45691153752445,3.1008679449096186],[101.45691153752445,3.1016529269639723],[101.45587512074331,3.1012604358659046],[101.45587512074331,3.0996904728912775]]],[[[101.45639332913389,3.102437909585531],[101.45587921148817,3.102437909585531],[101.45591802646592,3.102830401109056],[101.45639332913389,3.102830401109056],[101.45639332913389,3.102437909585531]]],[[[101.45691153752445,3.10579465721994],[101.45716118741962,3.1059703384055672],[101.45715239999998,3.1058576965646703],[101.45691153752445,3.10579465721994]]],[[[101.45719741924408,3.1059703384055672],[101.45732986501649,3.105577845746694],[101.45707157041784,3.105577845746694],[101.45719741924408,3.1059703384055672]]],[[[101.45691153752445,3.106492523482085],[101.45615466108877,3.105577845746694],[101.45619090000001,3.1065715965639122],[101.45691153752445,3.106492523482085]]],[[[101.45766130000001,3.1060696965644494],[101.45742974591502,3.1064304611476357],[101.4577148,3.106356296564121],[101.45766130000001,3.1060696965644494]]]]},"properties":{"place_id":"5dc959ba-87cd-5e1d-b35b-a8a61a0a5125","habitat":"disturbed_built_edge","habitat_label":"Disturbed, bare or built edge","resolution_m":50}},{"type":"Feature","geometry":{"type":"Polygon","coordinates":[[[101.45639332913389,3.1041098141348296],[101.45654379813105,3.1044003686218913],[101.45648389999998,3.104092996566578],[101.45639332913389,3.1041098141348296]]]},"properties":{"place_id":"5dc959ba-87cd-5e1d-b35b-a8a61a0a5125","habitat":"cropland","habitat_label":"Cropland","resolution_m":50}},{"type":"Feature","geometry":{"type":"Polygon","coordinates":[[[101.45639332913389,3.1041098141348296],[101.45654379813105,3.1044003686218913],[101.45648389999998,3.104092996566578],[101.45639332913389,3.1041098141348296]]]},"properties":{"place_id":"5dc959ba-87cd-5e1d-b35b-a8a61a0a5125","habitat":"seasonal_water_wetland","habitat_label":"Seasonal water or wetland","resolution_m":50}},{"type":"Feature","geometry":{"type":"MultiPolygon","coordinates":[[[[101.45610580685148,3.1047928608548743],[101.45655612628606,3.105185353229802],[101.45595684144371,3.1032228927744367],[101.45610580685148,3.1047928608548743]]],[[[101.45691153752445,3.1030909206051067],[101.45639332913389,3.102830401109056],[101.45634289999998,3.1032333965675036],[101.45691153752445,3.1030909206051067]]],[[[101.45729847536509,3.1032228927744367],[101.45702730819674,3.1047928608548743],[101.45727866398316,3.1047928608548743],[101.45729847536509,3.1032228927744367]]]]},"properties":{"place_id":"5dc959ba-87cd-5e1d-b35b-a8a61a0a5125","habitat":"water_edge","habitat_label":"Water edge","resolution_m":50}}]}