{"type":"FeatureCollection","metadata":{"schema_version":1,"place_id":"5e64e3da-db39-511d-b3d6-f9ec49166296","place_name":"Taman Tasik Cyberjaya","place_type":"park","osm_reference":"way/133751215","protection_context":"no protected status confirmed from included OSM tags","resolution_m":50,"raster_coverage":1.0,"interpretation":"Suggested search habitats, not predicted plant locations or probabilities of presence."},"features":[{"type":"Feature","geometry":{"type":"MultiPolygon","coordinates":[[[[101.63932089100179,2.9352491878598452],[101.63908180747697,2.9352491878598452],[101.63932089100179,2.935621412775478],[101.63932089100179,2.9352491878598452]]],[[[101.64398476651682,2.9356416205970914],[101.64470206988577,2.9356416205970914],[101.6447274,2.935542696749283],[101.64398476651682,2.9352491878598452],[101.64398476651682,2.9356416205970914]]],[[[101.64346655812628,2.936034053468493],[101.64398476651682,2.936034053468493],[101.64398476651682,2.9356416205970914],[101.64346655812628,2.9356416205970914],[101.64346655812628,2.936034053468493]]],[[[101.6445029749074,2.9368189196138403],[101.64502118329796,2.9368189196138403],[101.64502118329796,2.936426486474071],[101.6445029749074,2.936426486474071],[101.6445029749074,2.9368189196138403]]],[[[101.64346655812628,2.9383886535152075],[101.64398476651682,2.9383886535152075],[101.64398476651682,2.9379962198384866],[101.64346655812628,2.9379962198384866],[101.64346655812628,2.9383886535152075]]],[[[101.64139372456404,2.9383886535152075],[101.6403573077829,2.9379962198384866],[101.6403573077829,2.9373847294761144],[101.6399331,2.93871589674587],[101.6389997,2.939637396744834],[101.63932089100179,2.9401812937745064],[101.63983909939235,2.9395659553511404],[101.6403573077829,2.9395659553511404],[101.6403573077829,2.939958389565102],[101.64087551617348,2.939958389565102],[101.6403573077829,2.9407432583961084],[101.64087551617348,2.9407432583961084],[101.64139372456404,2.9415281277646796],[101.64294834973572,2.9415281277646796],[101.64346655812628,2.9407432583961084],[101.6445029749074,2.941135693013189],[101.64502118329796,2.9403508239134184],[101.64398476651682,2.9403508239134184],[101.64398476651682,2.939958389565102],[101.64294834973572,2.939958389565102],[101.64294834973572,2.9403508239134184],[101.64243014134514,2.9403508239134184],[101.64243014134514,2.939958389565102],[101.64191193295459,2.939958389565102],[101.64346655812628,2.9383886535152075],[101.64243014134514,2.9383886535152075],[101.64243014134514,2.9379962198384866],[101.64139372456404,2.9379962198384866],[101.64139372456404,2.9383886535152075]]],[[[101.6403573077829,2.936426486474071],[101.64087551617348,2.936426486474071],[101.64087551617348,2.936034053468493],[101.64191193295459,2.936034053468493],[101.64191193295459,2.9356416205970914],[101.64139372456404,2.9356416205970914],[101.64139372456404,2.9352491878598452],[101.63938978130165,2.9356416205970914],[101.6403573077829,2.937240452814093],[101.6403573077829,2.936426486474071]]],[[[101.64502118329796,2.9403508239134184],[101.64553939168852,2.9403508239134184],[101.64553939168852,2.939958389565102],[101.64502118329796,2.939958389565102],[101.64502118329796,2.9403508239134184]]],[[[101.63983909939235,2.9407432583961084],[101.63983909939235,2.9403508239134184],[101.63942100469103,2.9403508239134184],[101.63983079078713,2.9415281277646796],[101.63983909939235,2.941135693013189],[101.6403573077829,2.941135693013189],[101.6403573077829,2.9407432583961084],[101.63983909939235,2.9407432583961084]]],[[[101.64553939168852,2.941135693013189],[101.64550943761039,2.9407432583961084],[101.64502118329796,2.9407432583961084],[101.64502118329796,2.941135693013189],[101.64553939168852,2.941135693013189]]]]},"properties":{"place_id":"5e64e3da-db39-511d-b3d6-f9ec49166296","habitat":"forest_interior","habitat_label":"Forest interior","resolution_m":50}},{"type":"Feature","geometry":{"type":"MultiPolygon","coordinates":[[[[101.63983909939235,2.941135693013189],[101.64002789999999,2.9421050967421856],[101.64191193295459,2.942576971690886],[101.64243014134514,2.942312997670962],[101.64243014134514,2.9425916613421235],[101.64520148816061,2.942312997670962],[101.6462808,2.9412184967431316],[101.64553939168852,2.9408437837648767],[101.64502118329796,2.941135693013189],[101.64502118329796,2.9407432583961084],[101.6445029749074,2.9407432583961084],[101.6445029749074,2.941135693013189],[101.64346655812628,2.9407432583961084],[101.64294834973572,2.9415281277646796],[101.64139372456404,2.9415281277646796],[101.64087551617348,2.9407432583961084],[101.63983909939235,2.941135693013189]],[[101.64087551617348,2.9415281277646796],[101.64087551617348,2.9419205626505978],[101.6403573077829,2.9419205626505978],[101.6403573077829,2.9415281277646796],[101.64087551617348,2.9415281277646796]]],[[[101.64398476651682,2.9356416205970914],[101.64432089999998,2.9348140967501157],[101.64398476651682,2.9340428596937085],[101.64346655812628,2.934856755256738],[101.64139372456404,2.934856755256738],[101.64139372456404,2.934464322787751],[101.64191193295459,2.934464322787751],[101.64139372456404,2.933922171073228],[101.6403573077829,2.9340718904528673],[101.6403573077829,2.934856755256738],[101.63983909939235,2.934856755256738],[101.63983909939235,2.9340718904528673],[101.6390218,2.9340443967509153],[101.63932089100179,2.935621412775478],[101.64139372456404,2.9352491878598452],[101.64139372456404,2.9356416205970914],[101.64191193295459,2.9356416205970914],[101.64191193295459,2.936034053468493],[101.64087551617348,2.936034053468493],[101.64087551617348,2.936426486474071],[101.6403573077829,2.936426486474071],[101.6403573077829,2.9379962198384866],[101.64087551617348,2.9379962198384866],[101.64087551617348,2.9383886535152075],[101.64139372456404,2.9383886535152075],[101.64139372456404,2.9379962198384866],[101.64346655812628,2.9383886535152075],[101.64191193295459,2.939958389565102],[101.64243014134514,2.939958389565102],[101.64243014134514,2.9403508239134184],[101.64294834973572,2.9403508239134184],[101.64294834973572,2.939958389565102],[101.64398476651682,2.939958389565102],[101.64398476651682,2.9403508239134184],[101.64502118329796,2.9403508239134184],[101.64502118329796,2.9407432583961084],[101.64550943761039,2.9407432583961084],[101.64541069999999,2.9404118967440276],[101.6461371,2.940133996744316],[101.6462756,2.938630296745935],[101.64557869999999,2.938279296746343],[101.6458565,2.937524196747141],[101.64525029999999,2.937249596747455],[101.645175,2.9362221967485698],[101.64459,2.936079296748732],[101.64470206988577,2.9356416205970914],[101.64398476651682,2.9356416205970914]],[[101.64398476651682,2.936034053468493],[101.64346655812628,2.936034053468493],[101.64346655812628,2.9356416205970914],[101.64398476651682,2.9356416205970914],[101.64398476651682,2.936034053468493]],[[101.64346655812628,2.9379962198384866],[101.64398476651682,2.9379962198384866],[101.64398476651682,2.9383886535152075],[101.64346655812628,2.9383886535152075],[101.64346655812628,2.9379962198384866]],[[101.64502118329796,2.939958389565102],[101.64553939168852,2.939958389565102],[101.64553939168852,2.9403508239134184],[101.64502118329796,2.9403508239134184],[101.64502118329796,2.939958389565102]],[[101.64398476651682,2.939173521271517],[101.64398476651682,2.9387810873262117],[101.64553939168852,2.9387810873262117],[101.64502118329796,2.9395659553511404],[101.64398476651682,2.939173521271517]],[[101.64139372456404,2.9372113528878203],[101.64191193295459,2.936426486474071],[101.64346655812628,2.936426486474071],[101.64346655812628,2.9368189196138403],[101.64294834973572,2.9368189196138403],[101.64346655812628,2.9376037862960303],[101.64139372456404,2.9372113528878203]],[[101.64502118329796,2.936426486474071],[101.64502118329796,2.9368189196138403],[101.6445029749074,2.9368189196138403],[101.6445029749074,2.936426486474071],[101.64502118329796,2.936426486474071]]],[[[101.64087551617348,2.9403508239134184],[101.6403573077829,2.9395659553511404],[101.63932089100179,2.939958389565102],[101.63983909939235,2.9407432583961084],[101.64087551617348,2.9403508239134184]]]]},"properties":{"place_id":"5e64e3da-db39-511d-b3d6-f9ec49166296","habitat":"forest_edge_opening","habitat_label":"Forest edge or opening","resolution_m":50}},{"type":"Feature","geometry":{"type":"MultiPolygon","coordinates":[[[[101.63932089100179,2.9340718904528673],[101.63932089100179,2.934464322787751],[101.63983909939235,2.934464322787751],[101.63983909939235,2.9340718904528673],[101.63932089100179,2.9340718904528673]]],[[[101.64139372456404,2.9340718904528673],[101.64139372456404,2.9352491878598452],[101.64191193295459,2.9352491878598452],[101.64191193295459,2.9340718904528673],[101.64243014134514,2.9340718904528673],[101.64243014134514,2.933679458252067],[101.63983909939235,2.9339374542429595],[101.6403573077829,2.934464322787751],[101.64139372456404,2.9340718904528673]]],[[[101.6403573077829,2.934856755256738],[101.6403573077829,2.934464322787751],[101.63983909939235,2.934464322787751],[101.63983909939235,2.934856755256738],[101.6403573077829,2.934856755256738]]],[[[101.64346655812628,2.936426486474071],[101.64346655812628,2.936034053468493],[101.64243014134514,2.936034053468493],[101.64243014134514,2.936426486474071],[101.64346655812628,2.936426486474071]]],[[[101.64346655812628,2.9395659553511404],[101.64346655812628,2.939173521271517],[101.64294834973572,2.939173521271517],[101.64294834973572,2.9395659553511404],[101.64346655812628,2.9395659553511404]]],[[[101.64243014134514,2.9395659553511404],[101.64243014134514,2.939958389565102],[101.64294834973572,2.939958389565102],[101.64294834973572,2.9395659553511404],[101.64243014134514,2.9395659553511404]]],[[[101.6403573077829,2.9403508239134184],[101.6403573077829,2.939958389565102],[101.63983909939235,2.939958389565102],[101.63983909939235,2.9403508239134184],[101.6403573077829,2.9403508239134184]]],[[[101.64087551617348,2.9415281277646796],[101.64087551617348,2.941135693013189],[101.6403573077829,2.941135693013189],[101.6403573077829,2.9415281277646796],[101.63983909939235,2.9415281277646796],[101.64002789999999,2.9421050967421856],[101.64087551617348,2.942312997670962],[101.64087551617348,2.9419205626505978],[101.64139372456404,2.9419205626505978],[101.64139372456404,2.9415281277646796],[101.64087551617348,2.9415281277646796]]],[[[101.64294834973572,2.942312997670962],[101.64294834973572,2.9419205626505978],[101.64191193295459,2.9419205626505978],[101.64191193295459,2.942312997670962],[101.64294834973572,2.942312997670962]]],[[[101.6432461,2.933278696751756],[101.64243014134514,2.933679458252067],[101.64346655812628,2.933679458252067],[101.64346655812628,2.934856755256738],[101.64243014134514,2.934856755256738],[101.64243014134514,2.9352491878598452],[101.64398476651682,2.9352491878598452],[101.64412519999999,2.9342794967506713],[101.6432461,2.933278696751756]]],[[[101.64346655812628,2.9379962198384866],[101.64346655812628,2.9376037862960303],[101.64294834973572,2.9376037862960303],[101.64294834973572,2.9379962198384866],[101.64346655812628,2.9379962198384866]]],[[[101.64553939168852,2.9383886535152075],[101.64553939168852,2.9379962198384866],[101.64502118329796,2.9379962198384866],[101.64502118329796,2.9383886535152075],[101.64553939168852,2.9383886535152075]]],[[[101.64346655812628,2.9387810873262117],[101.64346655812628,2.939173521271517],[101.64398476651682,2.939173521271517],[101.64398476651682,2.939958389565102],[101.64502118329796,2.939958389565102],[101.64502118329796,2.939173521271517],[101.6445029749074,2.939173521271517],[101.6445029749074,2.9387810873262117],[101.64346655812628,2.9387810873262117]]],[[[101.64553939168852,2.9403508239134184],[101.64553939168852,2.940362662955797],[101.64557033763944,2.9403508239134184],[101.64553939168852,2.9403508239134184]]],[[[101.64605760007909,2.9415281277646796],[101.6462808,2.9412184967431316],[101.64605760007909,2.941111499301354],[101.64605760007909,2.9415281277646796]]],[[[101.6445029749074,2.941135693013189],[101.6445029749074,2.9415281277646796],[101.64502118329796,2.9415281277646796],[101.64502118329796,2.941135693013189],[101.6445029749074,2.941135693013189]]],[[[101.64520148816061,2.942312997670962],[101.64605760007909,2.9415281277646796],[101.64398476651682,2.9419205626505978],[101.64398476651682,2.941135693013189],[101.64346655812628,2.941135693013189],[101.64346655812628,2.942312997670962],[101.64520148816061,2.942312997670962]]]]},"properties":{"place_id":"5e64e3da-db39-511d-b3d6-f9ec49166296","habitat":"open_grassland","habitat_label":"Open grassland or shrubland","resolution_m":50}},{"type":"Feature","geometry":{"type":"MultiPolygon","coordinates":[[[[101.64346655812628,2.9340718904528673],[101.64400199497229,2.9340718904528673],[101.64295199999997,2.9332231967518227],[101.64191193295459,2.933808335214726],[101.64243014134514,2.934464322787751],[101.64346655812628,2.934464322787751],[101.64346655812628,2.9340718904528673]]],[[[101.64243014134514,2.9352491878598452],[101.64294834973572,2.9352491878598452],[101.64294834973572,2.934856755256738],[101.64243014134514,2.934856755256738],[101.64243014134514,2.934464322787751],[101.64139372456404,2.934464322787751],[101.64139372456404,2.9340718904528673],[101.6390218,2.9340443967509153],[101.63932089100179,2.935621412775478],[101.64191193295459,2.9352491878598452],[101.64191193295459,2.936034053468493],[101.64139372456404,2.936034053468493],[101.64191193295459,2.9368189196138403],[101.64294834973572,2.936426486474071],[101.64294834973572,2.936034053468493],[101.64243014134514,2.936034053468493],[101.64243014134514,2.9352491878598452]]],[[[101.64346655812628,2.9372113528878203],[101.64398476651682,2.9372113528878203],[101.64398476651682,2.9383886535152075],[101.64346655812628,2.9383886535152075],[101.64346655812628,2.9387810873262117],[101.64398476651682,2.9387810873262117],[101.64502118329796,2.939958389565102],[101.64605760007909,2.939958389565102],[101.64627108719614,2.9387810873262117],[101.64553939168852,2.9383886535152075],[101.64584130769043,2.9376037862960303],[101.64502118329796,2.9372113528878203],[101.64502118329796,2.9368189196138403],[101.6445029749074,2.9368189196138403],[101.6445029749074,2.936426486474071],[101.64502118329796,2.936426486474071],[101.6445029749074,2.9356416205970914],[101.64294834973572,2.936426486474071],[101.64346655812628,2.9372113528878203]]]]},"properties":{"place_id":"5e64e3da-db39-511d-b3d6-f9ec49166296","habitat":"disturbed_built_edge","habitat_label":"Disturbed, bare or built edge","resolution_m":50}},{"type":"Feature","geometry":{"type":"Polygon","coordinates":[[[101.64294834973572,2.9368189196138403],[101.64294834973572,2.936426486474071],[101.64243014134514,2.936426486474071],[101.64243014134514,2.9368189196138403],[101.64294834973572,2.9368189196138403]]]},"properties":{"place_id":"5e64e3da-db39-511d-b3d6-f9ec49166296","habitat":"cropland","habitat_label":"Cropland","resolution_m":50}},{"type":"Feature","geometry":{"type":"MultiPolygon","coordinates":[[[[101.64191193295459,2.9340718904528673],[101.64191193295459,2.934856755256738],[101.64346655812628,2.934856755256738],[101.64346655812628,2.9340718904528673],[101.64191193295459,2.9340718904528673]]],[[[101.64243014134514,2.9376037862960303],[101.64243014134514,2.9379962198384866],[101.64294834973572,2.9379962198384866],[101.64294834973572,2.9376037862960303],[101.64398476651682,2.9376037862960303],[101.64398476651682,2.9372113528878203],[101.64346655812628,2.9372113528878203],[101.64346655812628,2.936426486474071],[101.64294834973572,2.936426486474071],[101.64294834973572,2.9368189196138403],[101.64243014134514,2.9368189196138403],[101.64243014134514,2.936426486474071],[101.64087551617348,2.936426486474071],[101.64087551617348,2.9379962198384866],[101.64139372456404,2.9379962198384866],[101.64139372456404,2.9376037862960303],[101.64243014134514,2.9376037862960303]]],[[[101.64553939168852,2.9374138105198986],[101.64584130769043,2.9376037862960303],[101.6458565,2.937524196747141],[101.64553939168852,2.9374138105198986]]],[[[101.64294834973572,2.942312997670962],[101.64082552653943,2.942312997670962],[101.6421666,2.94260009674163],[101.64294834973572,2.942575074590805],[101.64294834973572,2.942312997670962]]],[[[101.64346655812628,2.942312997670962],[101.6443175,2.9424378967417955],[101.64520148816061,2.942312997670962],[101.64346655812628,2.942312997670962]]]]},"properties":{"place_id":"5e64e3da-db39-511d-b3d6-f9ec49166296","habitat":"permanent_water","habitat_label":"Permanent water","resolution_m":50}},{"type":"Feature","geometry":{"type":"MultiPolygon","coordinates":[[[[101.64294834973572,2.933679458252067],[101.64294834973572,2.9340718904528673],[101.64346655812628,2.9340718904528673],[101.64346655812628,2.933679458252067],[101.64294834973572,2.933679458252067]]],[[[101.64346655812628,2.934856755256738],[101.64398476651682,2.934856755256738],[101.64398476651682,2.934464322787751],[101.64346655812628,2.934464322787751],[101.64346655812628,2.934856755256738]]],[[[101.64191193295459,2.9352491878598452],[101.64243014134514,2.9352491878598452],[101.64243014134514,2.934464322787751],[101.64191193295459,2.934464322787751],[101.64191193295459,2.9352491878598452]]],[[[101.64502118329796,2.9368189196138403],[101.64521873490386,2.9368189196138403],[101.64502118329796,2.936184623402068],[101.64502118329796,2.9368189196138403]]],[[[101.6403573077829,2.9379962198384866],[101.64087551617348,2.9379962198384866],[101.64087551617348,2.9376037862960303],[101.6403573077829,2.9376037862960303],[101.6403573077829,2.9379962198384866]]],[[[101.6403573077829,2.939173521271517],[101.64087551617348,2.939173521271517],[101.64087551617348,2.9383886535152075],[101.6403573077829,2.9383886535152075],[101.6403573077829,2.939173521271517]]],[[[101.64087551617348,2.9423324339227905],[101.64138029999998,2.942528696741725],[101.64139372456404,2.9425299157597116],[101.64139372456404,2.942312997670962],[101.64087551617348,2.9423324339227905]]]]},"properties":{"place_id":"5e64e3da-db39-511d-b3d6-f9ec49166296","habitat":"seasonal_water_wetland","habitat_label":"Seasonal water or wetland","resolution_m":50}},{"type":"Feature","geometry":{"type":"MultiPolygon","coordinates":[[[[101.64294834973572,2.9332870261853325],[101.64087551617348,2.9340718904528673],[101.64087551617348,2.9352491878598452],[101.64139372456404,2.9352491878598452],[101.64139372456404,2.9356416205970914],[101.64000463532585,2.936426486474071],[101.6403838,2.937301596747404],[101.63946956574158,2.939173521271517],[101.64087551617348,2.939958389565102],[101.64087551617348,2.9395659553511404],[101.64191193295459,2.939173521271517],[101.64191193295459,2.9383886535152075],[101.64294834973572,2.9387810873262117],[101.64294834973572,2.9383886535152075],[101.64398476651682,2.9383886535152075],[101.64398476651682,2.9379962198384866],[101.64502118329796,2.9376037862960303],[101.64502118329796,2.9383886535152075],[101.64553939168852,2.9383886535152075],[101.64553939168852,2.939958389565102],[101.64605760007909,2.9401644111518266],[101.6462756,2.938630296745935],[101.64557869999999,2.938279296746343],[101.64584130769043,2.9376037862960303],[101.64459,2.936079296748732],[101.6447274,2.935542696749283],[101.64398476651682,2.9356416205970914],[101.64426070000002,2.934571796750362],[101.6439239,2.9339402967510386],[101.64294834973572,2.9332870261853325]],[[101.64398476651682,2.936034053468493],[101.64346655812628,2.936034053468493],[101.64346655812628,2.9356416205970914],[101.64398476651682,2.9356416205970914],[101.64398476651682,2.936034053468493]],[[101.64087551617348,2.9383886535152075],[101.64087551617348,2.939173521271517],[101.6403573077829,2.939173521271517],[101.6403573077829,2.9383886535152075],[101.64087551617348,2.9383886535152075]],[[101.64087551617348,2.9376037862960303],[101.64087551617348,2.936426486474071],[101.64243014134514,2.936426486474071],[101.64243014134514,2.9368189196138403],[101.64346655812628,2.936426486474071],[101.64346655812628,2.9372113528878203],[101.64398476651682,2.9372113528878203],[101.64398476651682,2.9376037862960303],[101.64294834973572,2.9376037862960303],[101.64294834973572,2.9379962198384866],[101.64243014134514,2.9379962198384866],[101.64243014134514,2.9376037862960303],[101.6403573077829,2.9379962198384866],[101.6403573077829,2.9376037862960303],[101.64087551617348,2.9376037862960303]],[[101.64294834973572,2.9356416205970914],[101.64294834973572,2.936034053468493],[101.64243014134514,2.936034053468493],[101.64243014134514,2.9356416205970914],[101.64294834973572,2.9356416205970914]],[[101.64294834973572,2.9340718904528673],[101.64294834973572,2.933679458252067],[101.64346655812628,2.933679458252067],[101.64346655812628,2.934464322787751],[101.64398476651682,2.934464322787751],[101.64398476651682,2.934856755256738],[101.64243014134514,2.934856755256738],[101.64243014134514,2.9352491878598452],[101.64191193295459,2.9352491878598452],[101.64191193295459,2.9340718904528673],[101.64294834973572,2.9340718904528673]]],[[[101.64294834973572,2.942575074590805],[101.64520148816061,2.942312997670962],[101.64590519999997,2.9419421967423474],[101.6462808,2.9412184967431316],[101.64605760007909,2.9415281277646796],[101.64346655812628,2.9415281277646796],[101.64346655812628,2.9419205626505978],[101.64294834973572,2.9419205626505978],[101.64294834973572,2.9415281277646796],[101.63983909939235,2.9415281277646796],[101.64002789999999,2.9421050967421856],[101.64082552653943,2.942312997670962],[101.64294834973572,2.942312997670962],[101.64294834973572,2.942575074590805]]]]},"properties":{"place_id":"5e64e3da-db39-511d-b3d6-f9ec49166296","habitat":"water_edge","habitat_label":"Water edge","resolution_m":50}}]}