{"type":"FeatureCollection","metadata":{"schema_version":1,"place_id":"5e7f71df-9b11-5d86-8939-6ea2a16051b8","place_name":"Sungei Parit Bunian Park","place_type":"park","osm_reference":"way/616069855","protection_context":"no protected status confirmed from included OSM tags","resolution_m":50,"raster_coverage":1.0,"interpretation":"Suggested search habitats, not predicted plant locations or probabilities of presence."},"features":[{"type":"Feature","geometry":{"type":"MultiPolygon","coordinates":[[[[100.59616740080322,5.422015971797338],[100.59564919241265,5.422015971797338],[100.59564919241265,5.42240961792509],[100.59616740080322,5.42240961792509],[100.59616740080322,5.422015971797338]]],[[[100.59564919241265,5.423590557807859],[100.59470789662936,5.423196910930334],[100.59513098402209,5.425165147817769],[100.59564919241265,5.425165147817769],[100.59564919241265,5.423590557807859]]]]},"properties":{"place_id":"5e7f71df-9b11-5d86-8939-6ea2a16051b8","habitat":"forest_interior","habitat_label":"Forest interior","resolution_m":50}},{"type":"Feature","geometry":{"type":"MultiPolygon","coordinates":[[[[100.59668560919378,5.4298889418557215],[100.5959816,5.424956894131436],[100.59642070000001,5.422119294134341],[100.5951611,5.42127649413515],[100.5943955,5.422752294133706],[100.59513098402209,5.423590557807859],[100.59564919241265,5.423590557807859],[100.59564919241265,5.425165147817769],[100.59491995776416,5.424771499940284],[100.59461277563155,5.425647711067361],[100.59461277563155,5.426476498812551],[100.59564919241265,5.427527040334089],[100.59564919241265,5.428314339840512],[100.59497749441161,5.429101640347673],[100.59513098402209,5.429495290976577],[100.59616740080322,5.429495290976577],[100.59616740080322,5.4298889418557215],[100.59668560919378,5.4298889418557215]],[[100.59616740080322,5.422015971797338],[100.59616740080322,5.42240961792509],[100.59564919241265,5.42240961792509],[100.59564919241265,5.422015971797338],[100.59616740080322,5.422015971797338]]],[[[100.59513098402209,5.430282592985125],[100.59461277563155,5.429614351501611],[100.59420449999998,5.430188294126151],[100.59500489999999,5.430747194125621],[100.59461277563155,5.431802430028767],[100.59564919241265,5.431857200005699],[100.5958204,5.432234994124099],[100.59616740080322,5.431857200005699],[100.59697360000001,5.43199329412437],[100.59679715215161,5.4298889418557215],[100.59668560919378,5.4298889418557215],[100.59668560919378,5.430282592985125],[100.59513098402209,5.430282592985125]]]]},"properties":{"place_id":"5e7f71df-9b11-5d86-8939-6ea2a16051b8","habitat":"forest_edge_opening","habitat_label":"Forest edge or opening","resolution_m":50}},{"type":"Feature","geometry":{"type":"MultiPolygon","coordinates":[[[[100.59497379954746,5.422015971797338],[100.59513098402209,5.421622325919472],[100.59501388781678,5.421622325919472],[100.59497379954746,5.422015971797338]]],[[[100.59616740080322,5.422015971797338],[100.59626188067597,5.422015971797338],[100.59616740080322,5.421952881199851],[100.59616740080322,5.422015971797338]]],[[[100.59616740080322,5.42240961792509],[100.59631757397084,5.4228032643027495],[100.5963769262353,5.42240961792509],[100.59616740080322,5.42240961792509]]],[[[100.59513098402209,5.423196910930334],[100.59564919241265,5.423196910930334],[100.59564919241265,5.4228032643027495],[100.59513098402209,5.4228032643027495],[100.59513098402209,5.423196910930334]]],[[[100.59616740080322,5.423792339651547],[100.5962224,5.423434494132982],[100.59625822170635,5.423196910930334],[100.59616740080322,5.423196910930334],[100.59616740080322,5.423792339651547]]],[[[100.59564919241265,5.426739741828259],[100.59616740080322,5.426739741828259],[100.59616740080322,5.426346092950517],[100.59564919241265,5.426346092950517],[100.59564919241265,5.426739741828259]]],[[[100.59668560919378,5.429495290976577],[100.59616740080322,5.429495290976577],[100.59656438651139,5.428707989968991],[100.59616740080322,5.428707989968991],[100.59616740080322,5.427527040334089],[100.59564919241265,5.427527040334089],[100.59564919241265,5.429101640347673],[100.59469746970403,5.429495290976577],[100.59461277563155,5.430282592985125],[100.59513098402209,5.430282592985125],[100.59513098402209,5.431463547875074],[100.59616740080322,5.431463547875074],[100.59616740080322,5.431857200005699],[100.59668560919378,5.431857200005699],[100.59668560919378,5.429495290976577]],[[100.59564919241265,5.431069895994783],[100.59564919241265,5.430676244364806],[100.59616740080322,5.430676244364806],[100.59616740080322,5.431069895994783],[100.59564919241265,5.431069895994783]]],[[[100.59513098402209,5.431857200005699],[100.59513098402209,5.431463547875074],[100.59461277563155,5.431463547875074],[100.59461277563155,5.431802430028767],[100.59513098402209,5.431857200005699]]],[[[100.59616740080322,5.431857200005699],[100.59564919241265,5.431857200005699],[100.59564919241265,5.4322151427706],[100.59616740080322,5.432215013379215],[100.59616740080322,5.431857200005699]]]]},"properties":{"place_id":"5e7f71df-9b11-5d86-8939-6ea2a16051b8","habitat":"open_grassland","habitat_label":"Open grassland or shrubland","resolution_m":50}},{"type":"Feature","geometry":{"type":"MultiPolygon","coordinates":[[[[100.59616740080322,5.4228032643027495],[100.59564919241265,5.4228032643027495],[100.59616740080322,5.423792339651547],[100.59642070000001,5.422119294134341],[100.5951611,5.42127649413515],[100.5943955,5.422752294133706],[100.59461277563155,5.423030659924486],[100.59513098402209,5.42240961792509],[100.59564919241265,5.42240961792509],[100.59564919241265,5.422015971797338],[100.59616740080322,5.422015971797338],[100.59616740080322,5.4228032643027495]],[[100.59513098402209,5.422015971797338],[100.59513098402209,5.421622325919472],[100.59564919241265,5.421622325919472],[100.59564919241265,5.422015971797338],[100.59513098402209,5.422015971797338]]],[[[100.59564919241265,5.425165147817769],[100.59491995776416,5.424771499940284],[100.59426409999999,5.42626809413012],[100.5952621,5.42686779412954],[100.5954259,5.428220894128173],[100.59420449999998,5.430188294126151],[100.59500489999999,5.430747194125621],[100.5944435,5.431664794124691],[100.5958204,5.432234994124099],[100.59717460000002,5.431849794124498],[100.59709519756629,5.431463547875074],[100.59564919241265,5.431463547875074],[100.59564919241265,5.430676244364806],[100.59461277563155,5.430282592985125],[100.59461277563155,5.4298889418557215],[100.59564919241265,5.429495290976577],[100.59564919241265,5.428707989968991],[100.59616740080322,5.428707989968991],[100.59616740080322,5.430282592985125],[100.5969391701423,5.430676244364806],[100.5963423297283,5.427527040334089],[100.59564919241265,5.42713339095611],[100.59564919241265,5.426346092950517],[100.59616740080322,5.426346092950517],[100.59622651345005,5.426739741828259],[100.5961379120119,5.423984204935347],[100.59564919241265,5.423984204935347],[100.59564919241265,5.425165147817769]]]]},"properties":{"place_id":"5e7f71df-9b11-5d86-8939-6ea2a16051b8","habitat":"disturbed_built_edge","habitat_label":"Disturbed, bare or built edge","resolution_m":50}}]}