{"type":"FeatureCollection","metadata":{"schema_version":1,"place_id":"5ebf922c-92d3-5423-9e49-072019f2632e","place_name":"Open Feild/Leisure Park","place_type":"park","osm_reference":"way/586096401","protection_context":"no protected status confirmed from included OSM tags","resolution_m":50,"raster_coverage":1.0,"interpretation":"Suggested search habitats, not predicted plant locations or probabilities of presence."},"features":[{"type":"Feature","geometry":{"type":"Polygon","coordinates":[[[113.07192489999998,3.1958880964673186],[113.07203440355065,3.1965115363459797],[113.07270889999998,3.196496696466675],[113.07269139999997,3.1958530964673795],[113.07192489999998,3.1958880964673186]]]},"properties":{"place_id":"5ebf922c-92d3-5423-9e49-072019f2632e","habitat":"forest_edge_opening","habitat_label":"Forest edge or opening","resolution_m":50}},{"type":"Feature","geometry":{"type":"Polygon","coordinates":[[[113.07193999999998,3.1964452964667274],[113.07270889999998,3.196496696466675],[113.07269139999997,3.1958530964673795],[113.07192489999998,3.1958880964673186],[113.07193999999998,3.1964452964667274]]]},"properties":{"place_id":"5ebf922c-92d3-5423-9e49-072019f2632e","habitat":"disturbed_built_edge","habitat_label":"Disturbed, bare or built edge","resolution_m":50}}]}