{"type":"FeatureCollection","metadata":{"schema_version":1,"place_id":"5ec84160-c904-54ed-9886-c26ef143b9e4","place_name":"Zoo Negara","place_type":"park","osm_reference":"relation/17633468","protection_context":"no protected status confirmed from included OSM tags","resolution_m":50,"raster_coverage":1.0,"interpretation":"Suggested search habitats, not predicted plant locations or probabilities of presence."},"features":[{"type":"Feature","geometry":{"type":"MultiPolygon","coordinates":[[[[101.75695419565906,3.2088083615721237],[101.75695419565906,3.209200892200229],[101.75747240404962,3.209200892200229],[101.75747240404962,3.2088083615721237],[101.75695419565906,3.2088083615721237]]],[[[101.75591777887793,3.2095934229750918],[101.75591777887793,3.209200892200229],[101.75539957048738,3.209217376958054],[101.75539957048738,3.2095934229750918],[101.75591777887793,3.2095934229750918]]],[[[101.75591777887793,3.2095934229750918],[101.75591777887793,3.209985953896732],[101.75643598726849,3.209985953896732],[101.75643598726849,3.2095934229750918],[101.75591777887793,3.2095934229750918]]],[[[101.76058165439298,3.210771016180413],[101.76109986278354,3.209200892200229],[101.75954523761186,3.209200892200229],[101.75954523761186,3.2088083615721237],[101.7590270292213,3.2088083615721237],[101.7590270292213,3.2095934229750918],[101.76006344600243,3.209985953896732],[101.76006344600243,3.210771016180413],[101.76058165439298,3.210771016180413]]],[[[101.76265448795523,3.2103784849651658],[101.76307546478388,3.2103784849651658],[101.76265448795523,3.209802814208493],[101.76265448795523,3.2103784849651658]]],[[[101.7590270292213,3.2103784849651658],[101.75799061244018,3.2103784849651658],[101.75799061244018,3.209985953896732],[101.75695419565906,3.2103784849651658],[101.75695419565906,3.209985953896732],[101.75643598726849,3.209985953896732],[101.75643598726849,3.210771016180413],[101.75747240404962,3.21116354754249],[101.75747240404962,3.21194861070721],[101.75799061244018,3.21194861070721],[101.75799061244018,3.2115560790514164],[101.7590270292213,3.21194861070721],[101.7590270292213,3.2127336744594692],[101.75850882083073,3.2127336744594692],[101.75835077374295,3.2131262065559723],[101.7590352571552,3.213911271189813],[101.75954523761186,3.213911271189813],[101.75954523761186,3.2115560790514164],[101.7590270292213,3.2115560790514164],[101.7590270292213,3.2103784849651658]]]]},"properties":{"place_id":"5ec84160-c904-54ed-9886-c26ef143b9e4","habitat":"forest_interior","habitat_label":"Forest interior","resolution_m":50}},{"type":"Feature","geometry":{"type":"MultiPolygon","coordinates":[[[[101.75695419565906,3.2103784849651658],[101.75747240404962,3.2103784849651658],[101.75747240404962,3.209985953896732],[101.75799061244018,3.209985953896732],[101.75799061244018,3.2103784849651658],[101.7590270292213,3.2103784849651658],[101.7590270292213,3.2115560790514164],[101.75954523761186,3.2115560790514164],[101.75954523761186,3.213911271189813],[101.7590352571552,3.213911271189813],[101.7593754,3.214301396447455],[101.760077,3.2131979964486415],[101.75930719999998,3.2106177964514293],[101.7610654,3.21135159645066],[101.76089064125532,3.209985953896732],[101.76058165439298,3.210771016180413],[101.76006344600243,3.210771016180413],[101.76006344600243,3.209985953896732],[101.7590270292213,3.2095934229750918],[101.7590270292213,3.2088083615721237],[101.75954523761186,3.2088083615721237],[101.75954523761186,3.209200892200229],[101.76109986278354,3.209200892200229],[101.7617816,3.210400896451656],[101.76224829999998,3.2099884964521115],[101.76289739999999,3.2107074964513216],[101.7630851,3.2104128964516656],[101.76265448795523,3.2103784849651658],[101.76265448795523,3.209802814208493],[101.76152809999999,3.208476696453758],[101.7581894,3.208622696453608],[101.7569563,3.2070144964553355],[101.7565741,3.2071510964551706],[101.75638899999998,3.2076880964546186],[101.75695419565906,3.207630770568178],[101.7569187,3.208349496453891],[101.75557633475613,3.209200892200229],[101.75643598726849,3.2095934229750918],[101.75643598726849,3.209985953896732],[101.75695419565906,3.209985953896732],[101.75695419565906,3.2103784849651658]],[[101.75747240404962,3.2088083615721237],[101.75747240404962,3.209200892200229],[101.75695419565906,3.209200892200229],[101.75695419565906,3.2088083615721237],[101.75747240404962,3.2088083615721237]]],[[[101.75850882083073,3.2131262065559723],[101.75850882083073,3.2127336744594692],[101.7590270292213,3.2127336744594692],[101.7590270292213,3.21194861070721],[101.75850882083073,3.21194861070721],[101.75850882083073,3.2115560790514164],[101.75747240404962,3.21194861070721],[101.75747240404962,3.21116354754249],[101.75643598726849,3.210771016180413],[101.75643598726849,3.209985953896732],[101.75591777887793,3.209985953896732],[101.755394,3.209217896452955],[101.75513769999999,3.2094409964527006],[101.75850882083073,3.2131262065559723]]]]},"properties":{"place_id":"5ec84160-c904-54ed-9886-c26ef143b9e4","habitat":"forest_edge_opening","habitat_label":"Forest edge or opening","resolution_m":50}},{"type":"Feature","geometry":{"type":"MultiPolygon","coordinates":[[[[101.75643598726849,3.209200892200229],[101.75643598726849,3.208813499696979],[101.75557633475613,3.209200892200229],[101.75643598726849,3.209200892200229]]],[[[101.76265448795523,3.2103784849651658],[101.76265448795523,3.209802814208493],[101.76152809999999,3.208476696453758],[101.7581894,3.208622696453608],[101.7569563,3.2070144964553355],[101.7565741,3.2071510964551706],[101.75638899999998,3.2076880964546186],[101.7569187,3.208349496453891],[101.75644443979836,3.2088083615721237],[101.75747240404962,3.2088083615721237],[101.75747240404962,3.209985953896732],[101.75799061244018,3.209985953896732],[101.75799061244018,3.2103784849651658],[101.7590270292213,3.2103784849651658],[101.7590270292213,3.2115560790514164],[101.75954523761186,3.2115560790514164],[101.75954523761186,3.213911271189813],[101.7590352571552,3.213911271189813],[101.7593754,3.214301396447455],[101.760077,3.2131979964486415],[101.75930719999998,3.2106177964514293],[101.7610654,3.21135159645066],[101.76089064125532,3.209985953896732],[101.76058165439298,3.210771016180413],[101.76006344600243,3.210771016180413],[101.76006344600243,3.209985953896732],[101.7590270292213,3.2095934229750918],[101.7590270292213,3.2088083615721237],[101.75954523761186,3.2088083615721237],[101.75954523761186,3.209200892200229],[101.76109986278354,3.209200892200229],[101.7617816,3.210400896451656],[101.76224829999998,3.2099884964521115],[101.76289739999999,3.2107074964513216],[101.76307546478388,3.2103784849651658],[101.76265448795523,3.2103784849651658]]],[[[101.7590270292213,3.2127336744594692],[101.7590270292213,3.21194861070721],[101.75850882083073,3.21194861070721],[101.75850882083073,3.2115560790514164],[101.75747240404962,3.21194861070721],[101.75747240404962,3.21116354754249],[101.75643598726849,3.210771016180413],[101.75643598726849,3.209985953896732],[101.75591777887793,3.209985953896732],[101.755394,3.209217896452955],[101.75513769999999,3.2094409964527006],[101.75835077374295,3.2131262065559723],[101.75850882083073,3.2127336744594692],[101.7590270292213,3.2127336744594692]]]]},"properties":{"place_id":"5ec84160-c904-54ed-9886-c26ef143b9e4","habitat":"disturbed_built_edge","habitat_label":"Disturbed, bare or built edge","resolution_m":50}},{"type":"Feature","geometry":{"type":"MultiPolygon","coordinates":[[[[101.75643598726849,3.209200892200229],[101.75643598726849,3.2095934229750918],[101.75695419565906,3.2095934229750918],[101.75695419565906,3.209200892200229],[101.75643598726849,3.209200892200229]]],[[[101.75747240404962,3.209985953896732],[101.75747240404962,3.2095934229750918],[101.75695419565906,3.2095934229750918],[101.75695419565906,3.209985953896732],[101.75747240404962,3.209985953896732]]]]},"properties":{"place_id":"5ec84160-c904-54ed-9886-c26ef143b9e4","habitat":"permanent_water","habitat_label":"Permanent water","resolution_m":50}},{"type":"Feature","geometry":{"type":"Polygon","coordinates":[[[101.75539957048738,3.2095934229750918],[101.75591777887793,3.2095934229750918],[101.75695419565906,3.210771016180413],[101.75850882083073,3.209985953896732],[101.75695419565906,3.2084158310907602],[101.75539957048738,3.209217376958054],[101.75539957048738,3.2095934229750918]],[[101.75747240404962,3.2095934229750918],[101.75747240404962,3.209985953896732],[101.75695419565906,3.209985953896732],[101.75695419565906,3.2095934229750918],[101.75747240404962,3.2095934229750918]],[[101.75643598726849,3.2095934229750918],[101.75643598726849,3.209200892200229],[101.75695419565906,3.209200892200229],[101.75695419565906,3.2095934229750918],[101.75643598726849,3.2095934229750918]]]},"properties":{"place_id":"5ec84160-c904-54ed-9886-c26ef143b9e4","habitat":"water_edge","habitat_label":"Water edge","resolution_m":50}}]}