{"type":"FeatureCollection","metadata":{"schema_version":1,"place_id":"5ed111fc-728b-599c-ae76-850afc876496","place_name":"Maligan Virgin Jungle Reserve","place_type":"park","osm_reference":"way/1498579019","protection_context":"mapped protected boundary","resolution_m":50,"raster_coverage":1.0,"interpretation":"Suggested search habitats, not predicted plant locations or probabilities of presence."},"features":[{"type":"Feature","geometry":{"type":"MultiPolygon","coordinates":[[[[115.62628356062403,4.639524069714558],[115.62628356062403,4.639917255408766],[115.62680176901459,4.639917255408766],[115.62680176901459,4.641096813770407],[115.62628356062403,4.641096813770407],[115.62628356062403,4.642669561237662],[115.62680176901459,4.642669561237662],[115.62680176901459,4.643062748637647],[115.62576535223349,4.643455936250935],[115.62576535223349,4.643062748637647],[115.62472893545235,4.643062748637647],[115.62456524979328,4.642669561237662],[115.62448480000002,4.6433638949323335],[115.62564415804124,4.644635500370814],[115.62576535223349,4.6442423121175],[115.62680176901459,4.644635500370814],[115.62628356062403,4.6453368099574615],[115.63388920833836,4.653678889126667],[115.63405668648244,4.653285695960999],[115.63509310326357,4.653678889126667],[115.63509310326357,4.654465276099423],[115.63460616923375,4.654465276099423],[115.65117629999999,4.672640194901926],[115.66652029999997,4.600357594977012],[115.62825950000001,4.524608695055914],[115.63086609999999,4.52461279505591],[115.6343483,4.525829395054619],[115.63577,4.527433195052943],[115.6401517,4.527753495052617],[115.62600879999998,4.499743795081833],[115.6072076,4.508257695072933],[115.60456029999999,4.510188995070934],[115.60428659999997,4.5125300950684855],[115.60495000000002,4.513284895067709],[115.60479069999998,4.5138806950670975],[115.60360860000002,4.514872795066035],[115.60085020000001,4.516006595064855],[115.5995878,4.517134295063683],[115.59752409999999,4.516723295064108],[115.5953686,4.513978695066972],[115.5944642,4.51361719506735],[115.5930637,4.513906795067045],[115.59136269999999,4.51322379506776],[115.58803729999998,4.514129895066826],[115.5857134,4.512678395068347],[115.58463539999998,4.5127367950682915],[115.58142319999999,4.51159999506946],[115.5799482,4.510117995071004],[115.5749151,4.506700595074564],[115.57471950000001,4.508035995073187],[115.57556460000002,4.509062795072101],[115.57707009999997,4.513438095067524],[115.57950209999997,4.515964895064881],[115.57998009999999,4.517079795063729],[115.5789338,4.52190799505869],[115.5777553,4.5232908950572535],[115.5748477,4.524514495056015],[115.573081,4.526850295053554],[115.57439979999995,4.536968195043002],[115.5675308,4.542461095037271],[115.56253939999999,4.549704895029751],[115.56240089999999,4.550608495028801],[115.5663271,4.5554404950237695],[115.56698089999999,4.559097495019968],[115.56882639999999,4.562728495016175],[115.5737918,4.56532859501345],[115.57473369999998,4.565503095013295],[115.57602800000001,4.564927595013882],[115.57899409999997,4.564969195013849],[115.5816912,4.5643702950144585],[115.58391590000001,4.5610820950179125],[115.58552819999998,4.560113195018895],[115.5865766,4.560251595018753],[115.58754199999998,4.561833895017113],[115.58876719999999,4.561775495017168],[115.591227,4.5640112950148435],[115.59339669999996,4.564751095014088],[115.5954635,4.5646773950141455],[115.6301284,4.6158960949608545],[115.62966110000002,4.617854094958819],[115.62777539999998,4.620693794955874],[115.62783818579572,4.622617286250166],[115.62835639418628,4.622617286250166],[115.62835639418628,4.623010462795972],[115.62783818579572,4.623010462795972],[115.62726849999999,4.624808294951594],[115.6265546,4.62550039495089],[115.6251119353745,4.637951329068943],[115.62576535223349,4.637951329068943],[115.62576535223349,4.637558144440248],[115.62680176901459,4.637951329068943],[115.62628356062403,4.638737698965546],[115.62524714384291,4.638737698965546],[115.62524714384291,4.6391308842334915],[115.62576535223349,4.6391308842334915],[115.62576535223349,4.639524069714558],[115.62628356062403,4.639524069714558]],[[115.62887460257683,4.647387824119635],[115.62835639418628,4.647387824119635],[115.62835639418628,4.646994634372286],[115.6293928109674,4.646601444838426],[115.6293928109674,4.6458150664110995],[115.62991101935796,4.6458150664110995],[115.62991101935796,4.6454218775175935],[115.63042922774852,4.6454218775175935],[115.63042922774852,4.6458150664110995],[115.63094743613907,4.6458150664110995],[115.63094743613907,4.646601444838426],[115.6319838529202,4.646994634372286],[115.63042922774852,4.648567394642795],[115.6293928109674,4.648567394642795],[115.6293928109674,4.648174204254869],[115.62887460257683,4.648174204254869],[115.62887460257683,4.647387824119635]],[[115.65478502210487,4.639917255408766],[115.65582143888598,4.639524069714558],[115.65633964727655,4.640310441316131],[115.65530323049542,4.640703627436672],[115.65478502210487,4.639917255408766]],[[115.62576535223349,4.63637859183238],[115.62628356062403,4.63637859183238],[115.62628356062403,4.635592224492128],[115.62576535223349,4.635592224492128],[115.62576535223349,4.634805858003696],[115.62628356062403,4.634805858003696],[115.62628356062403,4.6344126750788694],[115.62576535223349,4.6344126750788694],[115.62576535223349,4.634019492366941],[115.62680176901459,4.633626309867896],[115.62680176901459,4.634019492366941],[115.62731997740516,4.634019492366941],[115.62731997740516,4.6344126750788694],[115.62680176901459,4.6344126750788694],[115.62680176901459,4.634805858003696],[115.62731997740516,4.634805858003696],[115.62731997740516,4.635592224492128],[115.62680176901459,4.635592224492128],[115.62680176901459,4.63637859183238],[115.62731997740516,4.63637859183238],[115.62731997740516,4.636771775821987],[115.62628356062403,4.637164960024603],[115.62576535223349,4.63637859183238]],[[115.61954685154674,4.5978475911947765],[115.62058326832788,4.597454428202276],[115.62110147671844,4.598240754398469],[115.6200650599373,4.598633917813369],[115.61954685154674,4.5978475911947765]],[[115.62058326832788,4.5840870119851935],[115.62161968510898,4.58369385637283],[115.62213789349956,4.584480167808104],[115.62110147671844,4.584873323841584],[115.62058326832788,4.5840870119851935]]],[[[115.62492970684745,4.639524069714558],[115.62524714384291,4.6391308842334915],[115.62497526397921,4.6391308842334915],[115.62492970684745,4.639524069714558]]],[[[115.62488414971567,4.639917255408766],[115.62479303545214,4.640703627436672],[115.62524714384291,4.640703627436672],[115.62524714384291,4.639917255408766],[115.62488414971567,4.639917255408766]]],[[[115.63042922774852,4.647387824119635],[115.63042922774852,4.647781014080489],[115.63094743613907,4.647781014080489],[115.63094743613907,4.647387824119635],[115.63042922774852,4.647387824119635]]]]},"properties":{"place_id":"5ed111fc-728b-599c-ae76-850afc876496","habitat":"forest_interior","habitat_label":"Forest interior","resolution_m":50}},{"type":"Feature","geometry":{"type":"MultiPolygon","coordinates":[[[[115.62213789349956,4.5840870119851935],[115.62110147671844,4.58369385637283],[115.62058326832788,4.584480167808104],[115.62161968510898,4.584873323841584],[115.62213789349956,4.5840870119851935]]],[[[115.62110147671844,4.5978475911947765],[115.6200650599373,4.597454428202276],[115.61954685154674,4.598240754398469],[115.62058326832788,4.598633917813369],[115.62110147671844,4.5978475911947765]]],[[[115.62835639418628,4.623010462795972],[115.62783818579572,4.622453277840603],[115.62778927496686,4.623403639554145],[115.62783818579572,4.623010462795972],[115.62835639418628,4.623010462795972]]],[[[115.62680176901459,4.63637859183238],[115.62680176901459,4.635592224492128],[115.62731997740516,4.635592224492128],[115.62731997740516,4.634805858003696],[115.62680176901459,4.634805858003696],[115.62680176901459,4.6344126750788694],[115.62731997740516,4.6344126750788694],[115.62731997740516,4.634019492366941],[115.62628356062403,4.633626309867896],[115.62628356062403,4.634019492366941],[115.62576535223349,4.634019492366941],[115.62576535223349,4.6344126750788694],[115.62628356062403,4.6344126750788694],[115.62628356062403,4.634805858003696],[115.62576535223349,4.634805858003696],[115.62576535223349,4.635592224492128],[115.62628356062403,4.635592224492128],[115.62628356062403,4.63637859183238],[115.62576535223349,4.63637859183238],[115.62576535223349,4.636771775821987],[115.62680176901459,4.637164960024603],[115.62680176901459,4.636771775821987],[115.62731997740516,4.636771775821987],[115.62731997740516,4.63637859183238],[115.62680176901459,4.63637859183238]]],[[[115.62680176901459,4.638344513910701],[115.62680176901459,4.637951329068943],[115.62576535223349,4.637558144440248],[115.62576535223349,4.637951329068943],[115.6251119353745,4.637951329068943],[115.62497526397921,4.6391308842334915],[115.62524714384291,4.638737698965546],[115.62628356062403,4.638737698965546],[115.62628356062403,4.638344513910701],[115.62680176901459,4.638344513910701]]],[[[115.65633964727655,4.639917255408766],[115.65530323049542,4.639524069714558],[115.65478502210487,4.640310441316131],[115.65582143888598,4.640703627436672],[115.65633964727655,4.639917255408766]]],[[[115.62680176901459,4.642669561237662],[115.62628356062403,4.642669561237662],[115.62680176901459,4.639917255408766],[115.62524714384291,4.6391308842334915],[115.62472893545235,4.643062748637647],[115.62576535223349,4.643062748637647],[115.62576535223349,4.643455936250935],[115.62628356062403,4.643455936250935],[115.62680176901459,4.642669561237662]]],[[[115.62680176901459,4.644635500370814],[115.62628356062403,4.644635500370814],[115.62628356062403,4.6442423121175],[115.62576535223349,4.6442423121175],[115.62628356062403,4.6453368099574615],[115.62680176901459,4.644635500370814]]],[[[115.63146564452964,4.646994634372286],[115.63146564452964,4.646601444838426],[115.63094743613907,4.646601444838426],[115.63094743613907,4.6458150664110995],[115.62991101935796,4.6454218775175935],[115.62991101935796,4.6458150664110995],[115.6293928109674,4.6458150664110995],[115.6293928109674,4.646601444838426],[115.62887460257683,4.646601444838426],[115.62835639418628,4.647387824119635],[115.62887460257683,4.647387824119635],[115.62887460257683,4.648174204254869],[115.6293928109674,4.648174204254869],[115.6293928109674,4.648567394642795],[115.63042922774852,4.648567394642795],[115.63042922774852,4.648174204254869],[115.6319838529202,4.647387824119635],[115.6319838529202,4.646994634372286],[115.63146564452964,4.646994634372286]],[[115.63042922774852,4.647781014080489],[115.63042922774852,4.647387824119635],[115.63094743613907,4.647387824119635],[115.63094743613907,4.647781014080489],[115.63042922774852,4.647781014080489]]],[[[115.63405668648244,4.653285695960999],[115.63388920833836,4.653678889126667],[115.63460616923375,4.654465276099423],[115.63509310326357,4.654465276099423],[115.63509310326357,4.653678889126667],[115.63405668648244,4.653285695960999]]]]},"properties":{"place_id":"5ed111fc-728b-599c-ae76-850afc876496","habitat":"forest_edge_opening","habitat_label":"Forest edge or opening","resolution_m":50}},{"type":"Feature","geometry":{"type":"MultiPolygon","coordinates":[[[[115.62161968510898,4.584480167808104],[115.62161968510898,4.5840870119851935],[115.62110147671844,4.5840870119851935],[115.62110147671844,4.584480167808104],[115.62161968510898,4.584480167808104]]],[[[115.62058326832788,4.598240754398469],[115.62058326832788,4.5978475911947765],[115.6200650599373,4.5978475911947765],[115.6200650599373,4.598240754398469],[115.62058326832788,4.598240754398469]]],[[[115.62680176901459,4.636771775821987],[115.62680176901459,4.63637859183238],[115.62628356062403,4.63637859183238],[115.62628356062403,4.636771775821987],[115.62680176901459,4.636771775821987]]],[[[115.62628356062403,4.638344513910701],[115.62628356062403,4.637951329068943],[115.62576535223349,4.637951329068943],[115.62576535223349,4.638344513910701],[115.62628356062403,4.638344513910701]]],[[[115.625020821111,4.638737698965546],[115.62524714384291,4.638344513910701],[115.62506637824272,4.638344513910701],[115.625020821111,4.638737698965546]]],[[[115.62576535223349,4.639917255408766],[115.62576535223349,4.639524069714558],[115.62524714384291,4.639524069714558],[115.62524714384291,4.639917255408766],[115.62576535223349,4.639917255408766]]],[[[115.62628356062403,4.641096813770407],[115.62628356062403,4.639917255408766],[115.62576535223349,4.639917255408766],[115.62576535223349,4.641096813770407],[115.62628356062403,4.641096813770407]]],[[[115.62474747832036,4.641096813770407],[115.62472893545235,4.642669561237662],[115.62576535223349,4.642669561237662],[115.62576535223349,4.641490000317354],[115.62524714384291,4.641490000317354],[115.62524714384291,4.641096813770407],[115.62474747832036,4.641096813770407]]],[[[115.62628356062403,4.643062748637647],[115.62628356062403,4.642669561237662],[115.62576535223349,4.642669561237662],[115.62576535223349,4.643062748637647],[115.62628356062403,4.643062748637647]]],[[[115.62600263848893,4.645028688837506],[115.62628356062403,4.644635500370814],[115.62576535223349,4.644635500370814],[115.62600263848893,4.645028688837506]]],[[[115.62780609144727,4.623010462795972],[115.62783818579572,4.622617286250166],[115.62779816695738,4.622617286250166],[115.62780609144727,4.623010462795972]]],[[[115.62680176901459,4.6344126750788694],[115.62680176901459,4.634019492366941],[115.62628356062403,4.634019492366941],[115.62628356062403,4.6344126750788694],[115.62680176901459,4.6344126750788694]]],[[[115.62680176901459,4.634805858003696],[115.62628356062403,4.634805858003696],[115.62628356062403,4.635592224492128],[115.62680176901459,4.635592224492128],[115.62680176901459,4.634805858003696]]],[[[115.65582143888598,4.639917255408766],[115.65530323049542,4.639917255408766],[115.65530323049542,4.640310441316131],[115.65582143888598,4.640310441316131],[115.65582143888598,4.639917255408766]]],[[[115.63042922774852,4.646994634372286],[115.63042922774852,4.6458150664110995],[115.62991101935796,4.6458150664110995],[115.62991101935796,4.646994634372286],[115.63042922774852,4.646994634372286]]],[[[115.6293928109674,4.647387824119635],[115.6293928109674,4.646994634372286],[115.62887460257683,4.646994634372286],[115.62887460257683,4.647387824119635],[115.6293928109674,4.647387824119635]]],[[[115.63146564452964,4.647387824119635],[115.63146564452964,4.646994634372286],[115.63094743613907,4.646994634372286],[115.63094743613907,4.647387824119635],[115.63146564452964,4.647387824119635]]],[[[115.6293928109674,4.648174204254869],[115.63042922774852,4.648174204254869],[115.63042922774852,4.647781014080489],[115.62991101935796,4.647781014080489],[115.62991101935796,4.647387824119635],[115.6293928109674,4.647387824119635],[115.6293928109674,4.648174204254869]]],[[[115.63457489487301,4.653678889126667],[115.63405668648244,4.653862584746189],[115.63457489487301,4.654430973304367],[115.63457489487301,4.653678889126667]]]]},"properties":{"place_id":"5ed111fc-728b-599c-ae76-850afc876496","habitat":"open_grassland","habitat_label":"Open grassland or shrubland","resolution_m":50}}]}