{"type":"FeatureCollection","metadata":{"schema_version":1,"place_id":"5ee76187-b945-5d9d-ace6-2b2d09bf38fb","place_name":"Buntal Esplanade","place_type":"park","osm_reference":"way/355061625","protection_context":"no protected status confirmed from included OSM tags","resolution_m":50,"raster_coverage":1.0,"interpretation":"Suggested search habitats, not predicted plant locations or probabilities of presence."},"features":[{"type":"Feature","geometry":{"type":"MultiPolygon","coordinates":[[[[110.37268689712027,1.6976974101210662],[110.37247297878339,1.6973053110791636],[110.37248480796292,1.6976974101210662],[110.37268689712027,1.6976974101210662]]],[[[110.37268689712027,1.6988629378210662],[110.37250846632197,1.6984816084370988],[110.3725199,1.6988605981065967],[110.37268689712027,1.6988629378210662]]]]},"properties":{"place_id":"5ee76187-b945-5d9d-ace6-2b2d09bf38fb","habitat":"forest_interior","habitat_label":"Forest interior","resolution_m":50}},{"type":"Feature","geometry":{"type":"Polygon","coordinates":[[[110.37218199999998,1.6960776981096946],[110.37286249999998,1.6988653981065995],[110.3730081,1.6954770981103504],[110.37249309999999,1.6954234981104457],[110.37218199999998,1.6960776981096946]]]},"properties":{"place_id":"5ee76187-b945-5d9d-ace6-2b2d09bf38fb","habitat":"forest_edge_opening","habitat_label":"Forest edge or opening","resolution_m":50}},{"type":"Feature","geometry":{"type":"MultiPolygon","coordinates":[[[[110.37298008622325,1.6961290144176917],[110.37268689712027,1.6965211132274944],[110.37296323718063,1.6965211132274944],[110.37298008622325,1.6961290144176917]]],[[[110.37294638813802,1.6969132121146453],[110.37268689712027,1.6973053110791636],[110.3729295390954,1.6973053110791636],[110.37294638813802,1.6969132121146453]]]]},"properties":{"place_id":"5ee76187-b945-5d9d-ace6-2b2d09bf38fb","habitat":"open_grassland","habitat_label":"Open grassland or shrubland","resolution_m":50}},{"type":"Feature","geometry":{"type":"Polygon","coordinates":[[[110.37218199999998,1.6960776981096946],[110.37286249999998,1.6988653981065995],[110.3730081,1.6954770981103504],[110.37249309999999,1.6954234981104457],[110.37218199999998,1.6960776981096946]]]},"properties":{"place_id":"5ee76187-b945-5d9d-ace6-2b2d09bf38fb","habitat":"disturbed_built_edge","habitat_label":"Disturbed, bare or built edge","resolution_m":50}},{"type":"Feature","geometry":{"type":"Polygon","coordinates":[[[110.37268689712027,1.6954436680629519],[110.37286249999998,1.6988653981065995],[110.3730081,1.6954770981103504],[110.37268689712027,1.6954436680629519]]]},"properties":{"place_id":"5ee76187-b945-5d9d-ace6-2b2d09bf38fb","habitat":"water_edge","habitat_label":"Water edge","resolution_m":50}},{"type":"Feature","geometry":{"type":"Polygon","coordinates":[[[110.37299693526585,1.6957369156852204],[110.37268689712027,1.6961290144176917],[110.37298008622325,1.6961290144176917],[110.37299693526585,1.6957369156852204]]]},"properties":{"place_id":"5ee76187-b945-5d9d-ace6-2b2d09bf38fb","habitat":"mangrove","habitat_label":"Mangrove","resolution_m":50}}]}