{"type":"FeatureCollection","metadata":{"schema_version":1,"place_id":"5f09568d-a73e-544b-b400-0ebf4201063d","place_name":"Pulau Petang","place_type":"wood","osm_reference":"way/724499161","protection_context":"no protected status confirmed from included OSM tags","resolution_m":50,"raster_coverage":1.0,"interpretation":"Suggested search habitats, not predicted plant locations or probabilities of presence."},"features":[{"type":"Feature","geometry":{"type":"Polygon","coordinates":[[[102.78197039218801,4.983251726732623],[102.78248860057855,4.983251726732623],[102.78248860057855,4.982071591058956],[102.78300680896912,4.982071591058956],[102.78300680896912,4.981678212959457],[102.78456143414081,4.981678212959457],[102.78456143414081,4.980891457447938],[102.78503579669781,4.980891457447938],[102.78507964253136,4.980498080035881],[102.78352501735968,4.980498080035881],[102.78352501735968,4.980891457447938],[102.78197039218801,4.981442425310921],[102.78197039218801,4.983251726732623]]]},"properties":{"place_id":"5f09568d-a73e-544b-b400-0ebf4201063d","habitat":"forest_interior","habitat_label":"Forest interior","resolution_m":50}},{"type":"Feature","geometry":{"type":"MultiPolygon","coordinates":[[[[102.78248860057855,4.9812848350891255],[102.78248860057855,4.981088655548431],[102.78218452693487,4.9812848350891255],[102.78248860057855,4.9812848350891255]]],[[[102.78352501735968,4.980891457447938],[102.78352501735968,4.980498080035881],[102.78507964253136,4.980498080035881],[102.78507964253136,4.980836025374267],[102.7850926,4.980184994584483],[102.7837166,4.980295894584368],[102.78279947555313,4.980891457447938],[102.78352501735968,4.980891457447938]]],[[[102.78456143414081,4.980891457447938],[102.78456143414081,4.981678212959457],[102.78300680896912,4.981678212959457],[102.78300680896912,4.982071591058956],[102.78248860057855,4.982071591058956],[102.78248860057855,4.983251726732623],[102.78197039218801,4.983251726732623],[102.78197039218801,4.981442425310921],[102.7817211,4.981627994583024],[102.781949,4.983338094581284],[102.7828556,4.983370194581228],[102.7829307,4.9825043945821195],[102.78361739999998,4.981806994582845],[102.7848861,4.981963294582676],[102.78503579669781,4.980891457447938],[102.78456143414081,4.980891457447938]]]]},"properties":{"place_id":"5f09568d-a73e-544b-b400-0ebf4201063d","habitat":"forest_edge_opening","habitat_label":"Forest edge or opening","resolution_m":50}},{"type":"Feature","geometry":{"type":"MultiPolygon","coordinates":[[[[102.78352501735968,4.980498080035881],[102.78352501735968,4.980427435160314],[102.78345235159978,4.980498080035881],[102.78352501735968,4.980498080035881]]],[[[102.78507964253136,4.980498080035881],[102.78522458253974,4.980498080035881],[102.78507964253136,4.980178544593213],[102.78507964253136,4.980498080035881]]],[[[102.78507964253136,4.981408407957417],[102.785104,4.98127729458337],[102.78507964253136,4.9811291998961424],[102.78507964253136,4.981408407957417]]],[[[102.78197039218801,4.981678212959457],[102.78197039218801,4.981442425310921],[102.78167474457389,4.981678212959457],[102.78197039218801,4.981678212959457]]],[[[102.78300680896912,4.982395111595116],[102.78318819999997,4.982148994582464],[102.78325498149991,4.982071591058956],[102.78300680896912,4.982071591058956],[102.78300680896912,4.982395111595116]]],[[[102.78435550150738,4.982071591058956],[102.7845709,4.982099594582522],[102.78468967684996,4.982071591058956],[102.78435550150738,4.982071591058956]]],[[[102.78197039218801,4.983251726732623],[102.78185898104026,4.983251726732623],[102.78197039218801,4.9833494326471754],[102.78197039218801,4.983251726732623]]]]},"properties":{"place_id":"5f09568d-a73e-544b-b400-0ebf4201063d","habitat":"permanent_water","habitat_label":"Permanent water","resolution_m":50}},{"type":"Feature","geometry":{"type":"MultiPolygon","coordinates":[[[[102.78300680896912,4.980891457447938],[102.78300680896912,4.980760334192366],[102.78279947555313,4.980891457447938],[102.78300680896912,4.980891457447938]]],[[[102.78248860057855,4.9812848350891255],[102.78248860057855,4.981088655548431],[102.78218452693487,4.9812848350891255],[102.78248860057855,4.9812848350891255]]],[[[102.78161310818737,4.982071591058956],[102.781686046108,4.982464969387636],[102.78197039218801,4.982464969387636],[102.78197039218801,4.982071591058956],[102.78161310818737,4.982071591058956]]],[[[102.78197039218801,4.98285834794552],[102.78173449999998,4.983132294581448],[102.78197039218801,4.983251726732623],[102.78197039218801,4.98285834794552]]]]},"properties":{"place_id":"5f09568d-a73e-544b-b400-0ebf4201063d","habitat":"seasonal_water_wetland","habitat_label":"Seasonal water or wetland","resolution_m":50}},{"type":"Feature","geometry":{"type":"Polygon","coordinates":[[[102.78164964810378,4.98285834794552],[102.78197039218801,4.9833494326471754],[102.7827671,4.983436994581142],[102.78300680896912,4.982071591058956],[102.78377559999998,4.98178829458286],[102.7848861,4.981963294582676],[102.78507964253136,4.980178544593213],[102.78364819999999,4.980319994584357],[102.78167474457389,4.981678212959457],[102.78197039218801,4.982464969387636],[102.78164964810378,4.98285834794552]],[[102.78352501735968,4.980891457447938],[102.78404322575025,4.980891457447938],[102.78404322575025,4.9812848350891255],[102.78352501735968,4.9812848350891255],[102.78352501735968,4.980891457447938]]]},"properties":{"place_id":"5f09568d-a73e-544b-b400-0ebf4201063d","habitat":"water_edge","habitat_label":"Water edge","resolution_m":50}}]}