{"type":"FeatureCollection","metadata":{"schema_version":1,"place_id":"5f4c6b4b-5cd8-55ca-8ca1-1a55576b53d5","place_name":"Bukit Ekspo UPM","place_type":"park","osm_reference":"way/372972353","protection_context":"no protected status confirmed from included OSM tags","resolution_m":50,"raster_coverage":1.0,"interpretation":"Suggested search habitats, not predicted plant locations or probabilities of presence."},"features":[{"type":"Feature","geometry":{"type":"MultiPolygon","coordinates":[[[[101.71083364889917,2.9862665750662414],[101.71083364889917,2.9866590253952907],[101.71135185728971,2.9866590253952907],[101.71135185728971,2.9862665750662414],[101.71083364889917,2.9862665750662414]]],[[[101.71238827407083,2.9878363772015404],[101.71279681927304,2.9878363772015404],[101.71238827407083,2.9872331872233286],[101.71238827407083,2.9878363772015404]]],[[[101.7129064824614,2.9882288280767173],[101.71292233865071,2.9882288280767173],[101.7129064824614,2.9881668416812865],[101.7129064824614,2.9882288280767173]]],[[[101.7130221748048,2.9886212790884703],[101.7129064824614,2.98901373023682],[101.71238827407083,2.98901373023682],[101.71238827407083,2.9886212790884703],[101.71135185728971,2.98901373023682],[101.71135185728971,2.9886212790884703],[101.71056777329504,2.9882288280767173],[101.7106849,2.9896188966906103],[101.71151419999998,2.989309996690965],[101.71262439999997,2.9900097966901855],[101.7128107,2.989824996690376],[101.7130221748048,2.9886212790884703]]]]},"properties":{"place_id":"5f4c6b4b-5cd8-55ca-8ca1-1a55576b53d5","habitat":"forest_interior","habitat_label":"Forest interior","resolution_m":50}},{"type":"Feature","geometry":{"type":"MultiPolygon","coordinates":[[[[101.7103154405086,2.9846967751147306],[101.71034504510996,2.9846967751147306],[101.7103154405086,2.984671433239576],[101.7103154405086,2.9846967751147306]]],[[[101.71187006568027,2.9886212790884703],[101.7129064824614,2.98901373023682],[101.7128372,2.9878959966924907],[101.71238827407083,2.9878363772015404],[101.71238827407083,2.9872331872233286],[101.7108474,2.9851267966955013],[101.7103154405086,2.9850892248979406],[101.70940319999998,2.9866997966937983],[101.71045510000002,2.9869800966934754],[101.71083364889917,2.9886212790884703],[101.71135185728971,2.9886212790884703],[101.71135185728971,2.98901373023682],[101.71187006568027,2.98901373023682],[101.71187006568027,2.9886212790884703]],[[101.71135185728971,2.9862665750662414],[101.71135185728971,2.9866590253952907],[101.71083364889917,2.9866590253952907],[101.71083364889917,2.9862665750662414],[101.71135185728971,2.9862665750662414]]]]},"properties":{"place_id":"5f4c6b4b-5cd8-55ca-8ca1-1a55576b53d5","habitat":"forest_edge_opening","habitat_label":"Forest edge or opening","resolution_m":50}},{"type":"Feature","geometry":{"type":"MultiPolygon","coordinates":[[[[101.7103154405086,2.9846967751147306],[101.71000489999999,2.984914496695711],[101.70979723211804,2.985874124873679],[101.71110240562338,2.985481674817585],[101.7103154405086,2.9846967751147306]]],[[[101.7103154405086,2.9862665750662414],[101.71083364889917,2.9862665750662414],[101.71083364889917,2.985874124873679],[101.7103154405086,2.985874124873679],[101.7103154405086,2.9862665750662414]]],[[[101.71135185728971,2.985874124873679],[101.7116735634742,2.9862665750662414],[101.71138440930812,2.985874124873679],[101.71135185728971,2.985874124873679]]],[[[101.70941694114791,2.9866590253952907],[101.70979723211804,2.9862665750662414],[101.70954920868056,2.9862665750662414],[101.70941694114791,2.9866590253952907]]],[[[101.71187006568027,2.987051475860845],[101.71226064077752,2.987051475860845],[101.71196710212588,2.9866590253952907],[101.71187006568027,2.9866590253952907],[101.71187006568027,2.987051475860845]]],[[[101.71083364889917,2.9882288280767173],[101.71187006568027,2.9886212790884703],[101.71187006568027,2.987051475860845],[101.71083364889917,2.987051475860845],[101.71083364889917,2.9882288280767173]]],[[[101.71238827407083,2.9886212790884703],[101.7129064824614,2.9886212790884703],[101.7129064824614,2.9882288280767173],[101.71238827407083,2.9882288280767173],[101.71238827407083,2.9886212790884703]]]]},"properties":{"place_id":"5f4c6b4b-5cd8-55ca-8ca1-1a55576b53d5","habitat":"open_grassland","habitat_label":"Open grassland or shrubland","resolution_m":50}},{"type":"Feature","geometry":{"type":"MultiPolygon","coordinates":[[[[101.71011847793788,2.9846967751147306],[101.7103154405086,2.9850892248979406],[101.71080350831225,2.9850892248979406],[101.7102918,2.9846511966959928],[101.71011847793788,2.9846967751147306]]],[[[101.71083364889917,2.985481674817585],[101.71110240562338,2.985481674817585],[101.71083364889917,2.985115025592373],[101.71083364889917,2.985481674817585]]],[[[101.71135185728971,2.985874124873679],[101.71138440930812,2.985874124873679],[101.71135185728971,2.985828823893206],[101.71135185728971,2.985874124873679]]],[[[101.70979723211804,2.985874124873679],[101.70940319999998,2.9866997966937983],[101.71034659999998,2.986876296693571],[101.71083364889917,2.987443926462922],[101.71135185728971,2.9866590253952907],[101.71083364889917,2.9866590253952907],[101.71083364889917,2.9862665750662414],[101.70979723211804,2.9862665750662414],[101.70979723211804,2.985874124873679]]],[[[101.7116735634742,2.9862665750662414],[101.71135185728971,2.9866590253952907],[101.71226064077752,2.987051475860845],[101.7116735634742,2.9862665750662414]]]]},"properties":{"place_id":"5f4c6b4b-5cd8-55ca-8ca1-1a55576b53d5","habitat":"disturbed_built_edge","habitat_label":"Disturbed, bare or built edge","resolution_m":50}},{"type":"Feature","geometry":{"type":"Polygon","coordinates":[[[101.71187006568027,2.9866590253952907],[101.71196710212588,2.9866590253952907],[101.71187006568027,2.986529291238578],[101.71187006568027,2.9866590253952907]]]},"properties":{"place_id":"5f4c6b4b-5cd8-55ca-8ca1-1a55576b53d5","habitat":"seasonal_water_wetland","habitat_label":"Seasonal water or wetland","resolution_m":50}},{"type":"Feature","geometry":{"type":"MultiPolygon","coordinates":[[[[101.7103154405086,2.9850892248979406],[101.7101289,2.9846767966959633],[101.70994601127853,2.9850892248979406],[101.7103154405086,2.9850892248979406]]],[[[101.71238827407083,2.9872331872233286],[101.71135185728971,2.985828823893206],[101.71083364889917,2.985874124873679],[101.71083364889917,2.9866590253952907],[101.71135185728971,2.9866590253952907],[101.71187006568027,2.987443926462922],[101.71238827407083,2.9872331872233286]]]]},"properties":{"place_id":"5f4c6b4b-5cd8-55ca-8ca1-1a55576b53d5","habitat":"water_edge","habitat_label":"Water edge","resolution_m":50}}]}