{"type":"FeatureCollection","metadata":{"schema_version":1,"place_id":"5f59c60e-14fd-5d94-b948-d171674d3736","place_name":"Taman Jajar Lebuh Bukit Kecil","place_type":"park","osm_reference":"way/988176373","protection_context":"no protected status confirmed from included OSM tags","resolution_m":50,"raster_coverage":1.0,"interpretation":"Suggested search habitats, not predicted plant locations or probabilities of presence."},"features":[{"type":"Feature","geometry":{"type":"Polygon","coordinates":[[[100.30000639999999,5.330411694227117],[100.3011004,5.3305682942270005],[100.30112920000002,5.330336994227206],[100.30000639999999,5.330411694227117]]]},"properties":{"place_id":"5f59c60e-14fd-5d94-b948-d171674d3736","habitat":"forest_edge_opening","habitat_label":"Forest edge or opening","resolution_m":50}},{"type":"Feature","geometry":{"type":"Polygon","coordinates":[[[100.30078861818366,5.330329834431597],[100.3011004,5.3305682942270005],[100.30112920000002,5.330336994227206],[100.30078861818366,5.330329834431597]]]},"properties":{"place_id":"5f59c60e-14fd-5d94-b948-d171674d3736","habitat":"open_grassland","habitat_label":"Open grassland or shrubland","resolution_m":50}},{"type":"Feature","geometry":{"type":"Polygon","coordinates":[[[100.30000639999999,5.330411694227117],[100.3011004,5.3305682942270005],[100.30112920000002,5.330336994227206],[100.30000639999999,5.330411694227117]]]},"properties":{"place_id":"5f59c60e-14fd-5d94-b948-d171674d3736","habitat":"disturbed_built_edge","habitat_label":"Disturbed, bare or built edge","resolution_m":50}}]}