{"type":"FeatureCollection","metadata":{"schema_version":1,"place_id":"5f88dc2d-160d-5865-bb39-b73466f25be7","place_name":"Hutan Bandar MBJB","place_type":"park","osm_reference":"way/407622575","protection_context":"no protected status confirmed from included OSM tags","resolution_m":50,"raster_coverage":1.0,"interpretation":"Suggested search habitats, not predicted plant locations or probabilities of presence."},"features":[{"type":"Feature","geometry":{"type":"MultiPolygon","coordinates":[[[[103.7458379986308,1.480877948852341],[103.7465194,1.4809412983481913],[103.74687441541191,1.4816620670190737],[103.74739262380247,1.4816620670190737],[103.7471598,1.4802852983489165],[103.7458379986308,1.4805514716679955],[103.7458379986308,1.480877948852341]]],[[[103.74635620702136,1.4820541262037326],[103.74635620702136,1.4824461854559434],[103.74687441541191,1.4824461854559434],[103.74687441541191,1.4820541262037326],[103.74635620702136,1.4820541262037326]]],[[[103.74739262380247,1.4836223636180683],[103.74635620702136,1.4824461854559434],[103.74428337345911,1.4824461854559434],[103.74428337345911,1.4832303041630934],[103.74480158184967,1.4832303041630934],[103.74531979024023,1.4840144231406667],[103.74739262380247,1.4836223636180683]]],[[[103.7484290405836,1.4828382447757247],[103.74791083219304,1.4828382447757247],[103.74791083219304,1.4836223636180683],[103.7484290405836,1.4836223636180683],[103.7484290405836,1.4844064827309071],[103.74894724897418,1.4844024656853474],[103.74894724897418,1.4832303041630934],[103.7484290405836,1.4832303041630934],[103.7484290405836,1.4828382447757247]]],[[[103.74480158184967,1.4851906021143837],[103.74531979024023,1.4851906021143837],[103.74531979024023,1.4847985423888064],[103.74480158184967,1.4847985423888064],[103.74480158184967,1.4851906021143837]]]]},"properties":{"place_id":"5f88dc2d-160d-5865-bb39-b73466f25be7","habitat":"forest_interior","habitat_label":"Forest interior","resolution_m":50}},{"type":"Feature","geometry":{"type":"MultiPolygon","coordinates":[[[[103.74635620702136,1.4809671911384474],[103.7458379986308,1.4805514716679955],[103.7449435,1.480731598348407],[103.74500649999999,1.481213798347913],[103.74635620702136,1.4809671911384474]]],[[[103.74687441541191,1.4851906021143837],[103.74889768772714,1.4844064827309071],[103.7484290405836,1.4844064827309071],[103.7484290405836,1.4836223636180683],[103.74791083219304,1.4836223636180683],[103.74791083219304,1.4828382447757247],[103.74894724897418,1.4832303041630934],[103.74894724897418,1.4844024656853474],[103.74928489999998,1.484375098344403],[103.74885629999999,1.4828204983461162],[103.74765459999999,1.4821755983468254],[103.74739262380247,1.4814823708090967],[103.74687441541191,1.4816620670190737],[103.7465500630218,1.4812700079019492],[103.7465105,1.481828998347232],[103.743113,1.482716798346213],[103.74408940000001,1.4827211983462367],[103.74389059999999,1.4828050983461405],[103.7451188,1.4842536983445276],[103.74415569999998,1.485092898343592],[103.744394,1.4861388983424337],[103.74550349999998,1.4858146983428175],[103.74623249999999,1.4862916983422612],[103.74687441541191,1.4851906021143837]],[[103.74531979024023,1.4847985423888064],[103.74531979024023,1.4851906021143837],[103.74480158184967,1.4851906021143837],[103.74480158184967,1.4847985423888064],[103.74531979024023,1.4847985423888064]],[[103.74687441541191,1.4828382447757247],[103.74739262380247,1.4836223636180683],[103.74635620702136,1.4836223636180683],[103.74635620702136,1.4840144231406667],[103.74531979024023,1.4840144231406667],[103.74531979024023,1.4836223636180683],[103.74428337345911,1.4832303041630934],[103.74428337345911,1.4824461854559434],[103.74635620702136,1.4824461854559434],[103.74635620702136,1.4828382447757247],[103.74687441541191,1.4828382447757247]],[[103.74635620702136,1.4820541262037326],[103.74687441541191,1.4820541262037326],[103.74687441541191,1.4824461854559434],[103.74635620702136,1.4824461854559434],[103.74635620702136,1.4820541262037326]]]]},"properties":{"place_id":"5f88dc2d-160d-5865-bb39-b73466f25be7","habitat":"forest_edge_opening","habitat_label":"Forest edge or opening","resolution_m":50}},{"type":"Feature","geometry":{"type":"MultiPolygon","coordinates":[[[[103.7458379986308,1.4844064827309071],[103.74531979024023,1.4844064827309071],[103.74531979024023,1.4847985423888064],[103.7458379986308,1.4847985423888064],[103.7458379986308,1.4844064827309071]]],[[[103.74480158184967,1.4851906021143837],[103.74428337345911,1.4851906021143837],[103.74428337345911,1.4855826619076564],[103.74480158184967,1.4855826619076564],[103.74480158184967,1.4851906021143837]]]]},"properties":{"place_id":"5f88dc2d-160d-5865-bb39-b73466f25be7","habitat":"open_grassland","habitat_label":"Open grassland or shrubland","resolution_m":50}},{"type":"Feature","geometry":{"type":"MultiPolygon","coordinates":[[[[103.74635620702136,1.4809671911384474],[103.7458379986308,1.4805514716679955],[103.7449435,1.480731598348407],[103.74500649999999,1.481213798347913],[103.74635620702136,1.4809671911384474]]],[[[103.74885629999999,1.4828204983461162],[103.7465500630218,1.4812700079019492],[103.7465105,1.481828998347232],[103.743113,1.482716798346213],[103.74408940000001,1.4827211983462367],[103.74389059999999,1.4828050983461405],[103.7451188,1.4842536983445276],[103.74415569999998,1.485092898343592],[103.744394,1.4861388983424337],[103.74550349999998,1.4858146983428175],[103.74623249999999,1.4862916983422612],[103.7474646,1.48486979834387],[103.74889768772714,1.4844064827309071],[103.7484290405836,1.4844064827309071],[103.7484290405836,1.4836223636180683],[103.74791083219304,1.4836223636180683],[103.74791083219304,1.4828382447757247],[103.74894724897418,1.4832303041630934],[103.74894724897418,1.4844024656853474],[103.74928489999998,1.484375098344403],[103.74885629999999,1.4828204983461162]],[[103.74428337345911,1.4855826619076564],[103.74428337345911,1.4851906021143837],[103.74531979024023,1.4847985423888064],[103.74531979024023,1.4855826619076564],[103.74428337345911,1.4855826619076564]],[[103.74531979024023,1.4844064827309071],[103.7458379986308,1.4844064827309071],[103.7458379986308,1.4847985423888064],[103.74531979024023,1.4847985423888064],[103.74531979024023,1.4844064827309071]],[[103.74480158184967,1.4836223636180683],[103.74480158184967,1.4832303041630934],[103.74428337345911,1.4832303041630934],[103.74428337345911,1.4824461854559434],[103.74635620702136,1.4824461854559434],[103.74635620702136,1.4820541262037326],[103.74739262380247,1.4820541262037326],[103.74739262380247,1.4824461854559434],[103.74687441541191,1.4824461854559434],[103.74687441541191,1.4828382447757247],[103.74739262380247,1.4828382447757247],[103.74739262380247,1.4836223636180683],[103.74635620702136,1.4836223636180683],[103.74635620702136,1.4840144231406667],[103.74531979024023,1.4840144231406667],[103.74531979024023,1.4836223636180683],[103.74480158184967,1.4836223636180683]]]]},"properties":{"place_id":"5f88dc2d-160d-5865-bb39-b73466f25be7","habitat":"disturbed_built_edge","habitat_label":"Disturbed, bare or built edge","resolution_m":50}},{"type":"Feature","geometry":{"type":"Polygon","coordinates":[[[103.74739262380247,1.4828382447757247],[103.74739262380247,1.4824461854559434],[103.74687441541191,1.4824461854559434],[103.74687441541191,1.4828382447757247],[103.74739262380247,1.4828382447757247]]]},"properties":{"place_id":"5f88dc2d-160d-5865-bb39-b73466f25be7","habitat":"permanent_water","habitat_label":"Permanent water","resolution_m":50}},{"type":"Feature","geometry":{"type":"Polygon","coordinates":[[[103.7484290405836,1.4828382447757247],[103.74739262380247,1.4816620670190737],[103.74687441541191,1.4816620670190737],[103.74687441541191,1.4820541262037326],[103.7458379986308,1.4824461854559434],[103.74687441541191,1.4836223636180683],[103.7484290405836,1.4828382447757247]],[[103.74687441541191,1.4824461854559434],[103.74739262380247,1.4824461854559434],[103.74739262380247,1.4828382447757247],[103.74687441541191,1.4828382447757247],[103.74687441541191,1.4824461854559434]]]},"properties":{"place_id":"5f88dc2d-160d-5865-bb39-b73466f25be7","habitat":"water_edge","habitat_label":"Water edge","resolution_m":50}}]}