{"type":"FeatureCollection","metadata":{"schema_version":1,"place_id":"5f9563af-c04e-56cb-95d2-6bfc59469384","place_name":"Pulau Tanjung Ragut","place_type":"wood","osm_reference":"way/257191451","protection_context":"no protected status confirmed from included OSM tags","resolution_m":50,"raster_coverage":1.0,"interpretation":"Suggested search habitats, not predicted plant locations or probabilities of presence."},"features":[{"type":"Feature","geometry":{"type":"MultiPolygon","coordinates":[[[[102.7840194694905,5.139834879896081],[102.78352501735968,5.139897189793459],[102.78352501735968,5.1402283516165],[102.78404322575025,5.1402283516165],[102.7840194694905,5.139834879896081]]],[[[102.78352501735968,5.14062182357353],[102.78352501735968,5.140934387858412],[102.78404322575025,5.1410152957671915],[102.78404322575025,5.14062182357353],[102.78352501735968,5.14062182357353]]],[[[102.7793793502352,5.142195713768156],[102.77989755862575,5.142195713768156],[102.77989755862575,5.141802240864488],[102.7793793502352,5.141802240864488],[102.77989755862575,5.1410152957671915],[102.78093397540688,5.141408768197506],[102.78093397540688,5.142195713768156],[102.78145218379744,5.142195713768156],[102.78145218379744,5.1425891869085305],[102.78248860057855,5.142195713768156],[102.78248860057855,5.1410152957671915],[102.78197039218801,5.1410152957671915],[102.78248860057855,5.139465818840147],[102.78160546619972,5.139834879896081],[102.781646,5.1407019944201515],[102.78093397540688,5.139834879896081],[102.77886114184464,5.1402283516165],[102.77905759999999,5.141633594419193],[102.77827818902028,5.1410152957671915],[102.77793909999998,5.141017894419822],[102.7780049,5.141713794419083],[102.7767883082824,5.141408768197506],[102.77627009989183,5.14298266028563],[102.77730651667297,5.143376133899471],[102.77782472506351,5.1425891869085305],[102.77886114184464,5.14298266028563],[102.7793793502352,5.142195713768156]]],[[[102.77906044156197,5.143376133899471],[102.7793793502352,5.14298266028563],[102.77886114184464,5.14298266028563],[102.77906044156197,5.143376133899471]]],[[[102.78093397540688,5.143769607750075],[102.78093397540688,5.143376133899471],[102.7793793502352,5.143376133899471],[102.7793793502352,5.144163081837458],[102.78145218379744,5.144163081837458],[102.78145218379744,5.143769607750075],[102.78093397540688,5.143769607750075]]]]},"properties":{"place_id":"5f9563af-c04e-56cb-95d2-6bfc59469384","habitat":"forest_interior","habitat_label":"Forest interior","resolution_m":50}},{"type":"Feature","geometry":{"type":"MultiPolygon","coordinates":[[[[102.7822369235941,5.13944140841226],[102.7820939,5.139405694421463],[102.78198799654004,5.13944140841226],[102.7822369235941,5.13944140841226]]],[[[102.78160546619972,5.139834879896081],[102.78197039218801,5.13962319804988],[102.7816232,5.139651394421234],[102.78160546619972,5.139834879896081]]],[[[102.78093397540688,5.139834879896081],[102.78118080955703,5.1402283516165],[102.78099479999999,5.13983309442103],[102.7799203838749,5.139834879896081],[102.78093397540688,5.139834879896081]]],[[[102.77886114184464,5.14062182357353],[102.7786687,5.140583794420279],[102.77864687598895,5.14062182357353],[102.77886114184464,5.14062182357353]]],[[[102.77886114184464,5.1402283516165],[102.77989755862575,5.1402283516165],[102.77989755862575,5.139890956915975],[102.7798019,5.1401208944207575],[102.77886114184464,5.1402283516165]]],[[[102.77827818902028,5.1410152957671915],[102.77807729999999,5.140944394419913],[102.77794041055964,5.1410152957671915],[102.77827818902028,5.1410152957671915]]],[[[102.7767883082824,5.141802240864488],[102.7767883082824,5.141408768197506],[102.77770075045787,5.141408768197506],[102.7768495,5.140888994419939],[102.77641099999998,5.141554194419285],[102.7767883082824,5.141802240864488]]],[[[102.78110666178901,5.1449500307226375],[102.78197039218801,5.145343505520472],[102.78197039218801,5.1449500307226375],[102.78300680896912,5.14455655616164],[102.78404322575025,5.143376133899471],[102.78456143414081,5.143376133899471],[102.78446499999998,5.142047694418753],[102.78559785092192,5.141607796291457],[102.78532859999999,5.140114894420751],[102.7843107,5.139408294421475],[102.7838762,5.139533894421322],[102.78404322575025,5.1402283516165],[102.78352501735968,5.1402283516165],[102.78352501735968,5.139897189793459],[102.783317,5.140383394420486],[102.7834323,5.140878994419985],[102.78404322575025,5.14062182357353],[102.78404322575025,5.1410152957671915],[102.78303399999999,5.141246294419568],[102.78234869999999,5.14085019442002],[102.7827993,5.139975994420903],[102.78248860057855,5.139465818840147],[102.78248860057855,5.1402283516165],[102.78197039218801,5.1402283516165],[102.78248860057855,5.142195713768156],[102.78197039218801,5.142195713768156],[102.78197039218801,5.1425891869085305],[102.78093397540688,5.142195713768156],[102.78093397540688,5.141408768197506],[102.78041576701631,5.141408768197506],[102.78041576701631,5.1410152957671915],[102.7793793502352,5.141408768197506],[102.77989755862575,5.142195713768156],[102.77886114184464,5.1425891869085305],[102.7793793502352,5.143376133899471],[102.77878269999998,5.144361194416404],[102.7792534,5.144644294416097],[102.7814381,5.144425294416344],[102.7816312,5.14482859441591],[102.78110666178901,5.1449500307226375]],[[102.78300680896912,5.143769607750075],[102.78300680896912,5.143376133899471],[102.78352501735968,5.143376133899471],[102.78352501735968,5.143769607750075],[102.78300680896912,5.143769607750075]],[[102.78248860057855,5.143376133899471],[102.78248860057855,5.143769607750075],[102.78197039218801,5.143769607750075],[102.78197039218801,5.14298266028563],[102.78300680896912,5.14298266028563],[102.78300680896912,5.143376133899471],[102.78248860057855,5.143376133899471]],[[102.78093397540688,5.143376133899471],[102.78145218379744,5.144163081837458],[102.7793793502352,5.144163081837458],[102.7793793502352,5.143376133899471],[102.78093397540688,5.143376133899471]]],[[[102.77782472506351,5.14298266028563],[102.7767883082824,5.143376133899471],[102.7767883082824,5.14298266028563],[102.77627009989183,5.14298266028563],[102.77627009989183,5.142024488808557],[102.7755962,5.142087094418729],[102.77549429999999,5.142595994418215],[102.77664229999999,5.143555694417252],[102.77834293345407,5.142964663764455],[102.77834293345407,5.1425891869085305],[102.77782472506351,5.1425891869085305],[102.77782472506351,5.14298266028563]]],[[[102.77886114184464,5.143144569126778],[102.77835370645876,5.14298266028563],[102.77843869999998,5.14335399441744],[102.77886114184464,5.143144569126778]]]]},"properties":{"place_id":"5f9563af-c04e-56cb-95d2-6bfc59469384","habitat":"forest_edge_opening","habitat_label":"Forest edge or opening","resolution_m":50}},{"type":"Feature","geometry":{"type":"MultiPolygon","coordinates":[[[[102.78507964253136,5.141802240864488],[102.78559785092192,5.141291403772784],[102.78507964253136,5.1410152957671915],[102.78507964253136,5.139834879896081],[102.78456143414081,5.139834879896081],[102.78456143414081,5.1402283516165],[102.78404322575025,5.1402283516165],[102.78404322575025,5.14062182357353],[102.78456143414081,5.14062182357353],[102.78404322575025,5.141408768197506],[102.78507964253136,5.141408768197506],[102.78507964253136,5.141802240864488]]],[[[102.77989755862575,5.141408768197506],[102.77989755862575,5.141802240864488],[102.78041576701631,5.141802240864488],[102.78041576701631,5.141408768197506],[102.77989755862575,5.141408768197506]]],[[[102.78197039218801,5.1425891869085305],[102.78197039218801,5.14298266028563],[102.78145218379744,5.14298266028563],[102.78093397540688,5.142195713768156],[102.78041576701631,5.142195713768156],[102.78041576701631,5.1425891869085305],[102.7793793502352,5.1425891869085305],[102.7793793502352,5.14298266028563],[102.78093397540688,5.14298266028563],[102.78093397540688,5.143376133899471],[102.78197039218801,5.143769607750075],[102.78197039218801,5.1449500307226375],[102.78109070000001,5.144955494415788],[102.78093397540688,5.1453192170956905],[102.782585617975,5.145343505520472],[102.7824922,5.144855394415913],[102.78337329999998,5.1448499944159165],[102.78471639999998,5.143827494416935],[102.78660691908956,5.143769607750075],[102.78536889999998,5.143002694417809],[102.7847238,5.143428794417343],[102.7843228,5.14232549441848],[102.78507964253136,5.141802240864488],[102.78404322575025,5.141802240864488],[102.78404322575025,5.141408768197506],[102.78300680896912,5.141408768197506],[102.78300680896912,5.142195713768156],[102.78197039218801,5.1425891869085305]],[[102.78404322575025,5.142195713768156],[102.78404322575025,5.143376133899471],[102.78352501735968,5.143376133899471],[102.78352501735968,5.14298266028563],[102.78300680896912,5.14298266028563],[102.78300680896912,5.142195713768156],[102.78404322575025,5.142195713768156]],[[102.78300680896912,5.144163081837458],[102.78248860057855,5.144163081837458],[102.78248860057855,5.143769607750075],[102.78300680896912,5.143769607750075],[102.78300680896912,5.144163081837458]]]]},"properties":{"place_id":"5f9563af-c04e-56cb-95d2-6bfc59469384","habitat":"open_grassland","habitat_label":"Open grassland or shrubland","resolution_m":50}},{"type":"Feature","geometry":{"type":"Polygon","coordinates":[[[102.78559785092192,5.143769607750075],[102.78580131266041,5.144163081837458],[102.78647729999997,5.144150094416635],[102.78660691908956,5.143769607750075],[102.78559785092192,5.143769607750075]]]},"properties":{"place_id":"5f9563af-c04e-56cb-95d2-6bfc59469384","habitat":"cropland","habitat_label":"Cropland","resolution_m":50}},{"type":"Feature","geometry":{"type":"MultiPolygon","coordinates":[[[[102.77886114184464,5.1402283516165],[102.77886114184464,5.140074161079242],[102.77876529999999,5.140224494420623],[102.77886114184464,5.1402283516165]]],[[[102.77691961395254,5.1410152957671915],[102.7768495,5.140888994419939],[102.77663739949725,5.1410152957671915],[102.77691961395254,5.1410152957671915]]],[[[102.77827818902028,5.1410152957671915],[102.77807729999999,5.140944394419913],[102.77794041055964,5.1410152957671915],[102.77827818902028,5.1410152957671915]]],[[[102.77575189150127,5.142195713768156],[102.77627009989183,5.142195713768156],[102.77627009989183,5.142024488808557],[102.7755962,5.142087094418729],[102.77575189150127,5.142706548786283],[102.77575189150127,5.142195713768156]]],[[[102.77782472506351,5.14298266028563],[102.77782472506351,5.143029242569977],[102.77786889395809,5.14298266028563],[102.77782472506351,5.14298266028563]]],[[[102.7767883082824,5.143376133899471],[102.7764028791298,5.143376133899471],[102.7767883082824,5.143581014964875],[102.7767883082824,5.143376133899471]]],[[[102.77730651667297,5.143376133899471],[102.7774034,5.143432194417373],[102.77752093786867,5.143376133899471],[102.77730651667297,5.143376133899471]]],[[[102.77886114184464,5.144119477764681],[102.7787371,5.144234294416533],[102.77886114184464,5.144442594220978],[102.77886114184464,5.144119477764681]]],[[[102.77900226908577,5.14455655616164],[102.7792534,5.144644294416097],[102.77999977590923,5.14455655616164],[102.77900226908577,5.14455655616164]]],[[[102.78145218379744,5.1449500307226375],[102.78117249999998,5.144927494415815],[102.78110666178901,5.1449500307226375],[102.78145218379744,5.1449500307226375]]],[[[102.78093397540688,5.1453192170956905],[102.7807957,5.145231994415513],[102.7809137,5.145325494415435],[102.78093397540688,5.1453192170956905]]],[[[102.7822369235941,5.13944140841226],[102.7820939,5.139405694421463],[102.78198799654004,5.13944140841226],[102.7822369235941,5.13944140841226]]],[[[102.78437070545988,5.13944140841226],[102.78423430000001,5.1394016944214735],[102.78399558903618,5.13944140841226],[102.78437070545988,5.13944140841226]]],[[[102.78093397540688,5.139834879896081],[102.78099909498141,5.139834879896081],[102.78093397540688,5.139821727201991],[102.78093397540688,5.139834879896081]]],[[[102.78507964253136,5.139834879896081],[102.7851176743594,5.139834879896081],[102.78507964253136,5.139731503574983],[102.78507964253136,5.139834879896081]]],[[[102.78248860057855,5.1410152957671915],[102.78251629999998,5.14100449441981],[102.78248860057855,5.140981166089315],[102.78248860057855,5.1410152957671915]]],[[[102.78248860057855,5.1402283516165],[102.78248860057855,5.140683813783728],[102.78271304353858,5.1402283516165],[102.78248860057855,5.1402283516165]]],[[[102.78559785092192,5.141607796291457],[102.78577790000001,5.14141059441941],[102.78559785092192,5.141291403772784],[102.78559785092192,5.141607796291457]]],[[[102.78507964253136,5.14180314778504],[102.78508415165886,5.141802240864488],[102.78507964253136,5.141802240864488],[102.78507964253136,5.14180314778504]]],[[[102.78580131266041,5.144163081837458],[102.78602059999999,5.144315694416429],[102.78646599122534,5.144163081837458],[102.78580131266041,5.144163081837458]]],[[[102.78352501735968,5.14455655616164],[102.78352501735968,5.14474429279177],[102.78376585730817,5.14455655616164],[102.78352501735968,5.14455655616164]]],[[[102.782585617975,5.145343505520472],[102.7824815,5.145603394415149],[102.7825753,5.145628694415129],[102.782585617975,5.145343505520472]]],[[[102.78156356937126,5.145343505520472],[102.7818793,5.145467094415287],[102.78205571278173,5.145343505520472],[102.78156356937126,5.145343505520472]]]]},"properties":{"place_id":"5f9563af-c04e-56cb-95d2-6bfc59469384","habitat":"permanent_water","habitat_label":"Permanent water","resolution_m":50}},{"type":"Feature","geometry":{"type":"MultiPolygon","coordinates":[[[[102.78093397540688,5.139834879896081],[102.7805047,5.139733594421127],[102.7799203838749,5.139834879896081],[102.78093397540688,5.139834879896081]]],[[[102.77886114184464,5.1402283516165],[102.77886114184464,5.140074161079242],[102.77876529999999,5.140224494420623],[102.77886114184464,5.1402283516165]]],[[[102.7767883082824,5.141408768197506],[102.77770075045787,5.141408768197506],[102.7768495,5.140888994419939],[102.7767883082824,5.141408768197506]]],[[[102.7754842,5.14257459441822],[102.77575189150127,5.142195713768156],[102.77556652903137,5.142195713768156],[102.7754842,5.14257459441822]]],[[[102.77730651667297,5.143376133899471],[102.7764028791298,5.143376133899471],[102.77709889999998,5.143586394417178],[102.77730651667297,5.143376133899471]]],[[[102.77886114184464,5.144163081837458],[102.7787371,5.144234294416533],[102.77886114184464,5.144442594220978],[102.77886114184464,5.144163081837458]]],[[[102.7793793502352,5.14455655616164],[102.77900226908577,5.14455655616164],[102.7792534,5.144644294416097],[102.7793793502352,5.14455655616164]]],[[[102.78145218379744,5.144917279333962],[102.7810116,5.144991594415743],[102.7808265,5.145308194415469],[102.78145218379744,5.14523917670551],[102.78145218379744,5.144917279333962]]],[[[102.78404322575025,5.139834879896081],[102.78404322575025,5.13944140841226],[102.78399558903618,5.13944140841226],[102.7838695,5.139595294421271],[102.78404322575025,5.139834879896081]]],[[[102.78197039218801,5.14062182357353],[102.78197039218801,5.13962319804988],[102.7817237,5.139604694421253],[102.781591,5.139778294421065],[102.78197039218801,5.14062182357353]]],[[[102.78145218379744,5.140447477532361],[102.78147299999998,5.140380694420493],[102.78145218379744,5.140349679358706],[102.78145218379744,5.140447477532361]]],[[[102.78507964253136,5.1410152957671915],[102.78521994122765,5.14062182357353],[102.78507964253136,5.14062182357353],[102.78507964253136,5.1410152957671915]]],[[[102.78428929000255,5.1425891869085305],[102.78404322575025,5.14298266028563],[102.78443190243529,5.14298266028563],[102.78428929000255,5.1425891869085305]]],[[[102.78456143414081,5.144045496534698],[102.7848814,5.143820194416952],[102.78602059999999,5.144315694416429],[102.78660869999999,5.143749394417038],[102.78611605931249,5.143390538044071],[102.78611605931249,5.143769607750075],[102.78559785092192,5.143769607750075],[102.78559785092192,5.143376133899471],[102.78610066357794,5.143376133899471],[102.78518919999999,5.1430013944177935],[102.78481899999997,5.1434581944173265],[102.78456143414081,5.143156201831201],[102.78456143414081,5.144045496534698]]],[[[102.7834672,5.144801894415972],[102.78300680896912,5.14455655616164],[102.78300680896912,5.14484287943291],[102.7834672,5.144801894415972]]],[[[102.78248860057855,5.1456081851668545],[102.7826102,5.1455886944151485],[102.78248860057855,5.145185910217214],[102.78248860057855,5.1456081851668545]]]]},"properties":{"place_id":"5f9563af-c04e-56cb-95d2-6bfc59469384","habitat":"seasonal_water_wetland","habitat_label":"Seasonal water or wetland","resolution_m":50}},{"type":"Feature","geometry":{"type":"MultiPolygon","coordinates":[[[[102.78248860057855,5.145185910217214],[102.78300680896912,5.14455655616164],[102.78456143414081,5.144045496534698],[102.78404322575025,5.1425891869085305],[102.78559785092192,5.141607796291457],[102.78507964253136,5.1410152957671915],[102.78505439999999,5.139703494421176],[102.78404322575025,5.13944140841226],[102.78401569999998,5.139903894420983],[102.78341079999998,5.140033494420844],[102.7833679,5.1407974944200605],[102.78456143414081,5.1410152957671915],[102.78456143414081,5.141802240864488],[102.78300680896912,5.1425891869085305],[102.78300680896912,5.14298266028563],[102.78352501735968,5.14298266028563],[102.78352501735968,5.143769607750075],[102.78300680896912,5.143769607750075],[102.78248860057855,5.14455655616164],[102.78197039218801,5.14455655616164],[102.78145218379744,5.143769607750075],[102.77989755862575,5.143769607750075],[102.77989755862575,5.143376133899471],[102.77782472506351,5.142195713768156],[102.77782472506351,5.141802240864488],[102.77869557624679,5.141408768197506],[102.7783965,5.141084694419762],[102.77794041055964,5.1410152957671915],[102.77796459999999,5.141715094419107],[102.7767883082824,5.141408768197506],[102.77663739949725,5.1410152957671915],[102.7765431,5.141876694418954],[102.77575189150127,5.142195713768156],[102.7764028791298,5.143376133899471],[102.77752093786867,5.143376133899471],[102.77822479999999,5.142883894417934],[102.77846019999998,5.14336399441744],[102.779008,5.143235194417563],[102.77899589999998,5.144553494416203],[102.7812678,5.144390494416364],[102.78165399999999,5.144553494416203],[102.78156356937126,5.145343505520472],[102.78248860057855,5.145185910217214]],[[102.77782472506351,5.1425891869085305],[102.7767883082824,5.1425891869085305],[102.7767883082824,5.142195713768156],[102.77782472506351,5.142195713768156],[102.77782472506351,5.1425891869085305]],[[102.78456143414081,5.1402283516165],[102.78456143414081,5.14062182357353],[102.78404322575025,5.14062182357353],[102.78404322575025,5.1402283516165],[102.78456143414081,5.1402283516165]]],[[[102.78198799654004,5.13944140841226],[102.78197039218801,5.14062182357353],[102.78144079999998,5.140675894420183],[102.78099909498141,5.139834879896081],[102.7799203838749,5.139834879896081],[102.7797617,5.1401322944207495],[102.77886114184464,5.140074161079242],[102.77872769999999,5.140995194419862],[102.7793793502352,5.1410152957671915],[102.7793793502352,5.14062182357353],[102.78093397540688,5.14062182357353],[102.78145218379744,5.141408768197506],[102.78248860057855,5.141408768197506],[102.78248860057855,5.141802240864488],[102.78300680896912,5.141802240864488],[102.78352501735968,5.141145085028693],[102.78248860057855,5.1410152957671915],[102.7827966,5.139923894420943],[102.78198799654004,5.13944140841226]]],[[[102.78611605931249,5.143390538044071],[102.78559785092192,5.143376133899471],[102.78559785092192,5.143769607750075],[102.78611605931249,5.143769607750075],[102.78611605931249,5.143390538044071]]]]},"properties":{"place_id":"5f9563af-c04e-56cb-95d2-6bfc59469384","habitat":"water_edge","habitat_label":"Water edge","resolution_m":50}}]}