{"type":"FeatureCollection","metadata":{"schema_version":1,"place_id":"5fe3a83f-68e1-55ab-a95c-7a1d032a0f79","place_name":"Muzium Pekan Park","place_type":"park","osm_reference":"way/655870274","protection_context":"no protected status confirmed from included OSM tags","resolution_m":50,"raster_coverage":1.0,"interpretation":"Suggested search habitats, not predicted plant locations or probabilities of presence."},"features":[{"type":"Feature","geometry":{"type":"Polygon","coordinates":[[[103.39086525109676,3.4934327292924703],[103.39086525109676,3.493825371075003],[103.3903470427062,3.4936199486056254],[103.38962519999997,3.494218296146235],[103.38979449999998,3.4948748961455],[103.391162,3.4935922961468733],[103.39086525109676,3.4934327292924703]]]},"properties":{"place_id":"5fe3a83f-68e1-55ab-a95c-7a1d032a0f79","habitat":"forest_edge_opening","habitat_label":"Forest edge or opening","resolution_m":50}},{"type":"Feature","geometry":{"type":"Polygon","coordinates":[[[103.38982883431564,3.494218013017434],[103.3903470427062,3.494218013017434],[103.3903470427062,3.493825371075003],[103.39011018425047,3.493825371075003],[103.38982883431564,3.494218013017434]]]},"properties":{"place_id":"5fe3a83f-68e1-55ab-a95c-7a1d032a0f79","habitat":"open_grassland","habitat_label":"Open grassland or shrubland","resolution_m":50}},{"type":"Feature","geometry":{"type":"Polygon","coordinates":[[[103.38982883431564,3.494218013017434],[103.38979449999998,3.4948748961455],[103.391162,3.4935922961468733],[103.3908632,3.4931722961473333],[103.38982883431564,3.494218013017434]]]},"properties":{"place_id":"5fe3a83f-68e1-55ab-a95c-7a1d032a0f79","habitat":"disturbed_built_edge","habitat_label":"Disturbed, bare or built edge","resolution_m":50}},{"type":"Feature","geometry":{"type":"Polygon","coordinates":[[[103.38982883431564,3.49483753884993],[103.3897263671998,3.4946106551197818],[103.38979449999998,3.4948748961455],[103.38982883431564,3.49483753884993]]]},"properties":{"place_id":"5fe3a83f-68e1-55ab-a95c-7a1d032a0f79","habitat":"seasonal_water_wetland","habitat_label":"Seasonal water or wetland","resolution_m":50}},{"type":"Feature","geometry":{"type":"Polygon","coordinates":[[[103.38982883431564,3.4940565944471684],[103.38982883431564,3.49483753884993],[103.3903470427062,3.494218013017434],[103.38982883431564,3.4940565944471684]]]},"properties":{"place_id":"5fe3a83f-68e1-55ab-a95c-7a1d032a0f79","habitat":"water_edge","habitat_label":"Water edge","resolution_m":50}}]}