{"type":"FeatureCollection","metadata":{"schema_version":1,"place_id":"6156ac5b-d92a-5cc4-b216-0d0843993cad","place_name":"Hutan Simpanan Kekal Lenggeng","place_type":"forest","osm_reference":"relation/16315063","protection_context":"mapped protected boundary","resolution_m":50,"raster_coverage":1.0,"interpretation":"Suggested search habitats, not predicted plant locations or probabilities of presence."},"features":[{"type":"Feature","geometry":{"type":"MultiPolygon","coordinates":[[[[102.00051213922255,2.850128336347065],[101.99999393083199,2.8500944259050396],[101.99999393083199,2.850122110756716],[102.00051213922255,2.850128336347065]]],[[[101.93107221488744,2.9368189196138403],[101.9300357981063,2.9372113528878203],[101.9300357981063,2.9376037862960303],[101.93055400649686,2.9376037862960303],[101.9300357981063,2.9383886535152075],[101.92848117293462,2.9376037862960303],[101.92589013098183,2.944378538916652],[101.92640833937239,2.9446676106175103],[101.92640833937239,2.9462373552730745],[101.92488464221799,2.9470222284086494],[101.92433550581015,2.949769288626539],[101.92329908902902,2.9501617263396063],[101.92329908902902,2.949769288626539],[101.92278088063846,2.949769288626539],[101.92278088063846,2.9485504071194395],[101.92193960000002,2.9485358967351805],[101.92293889999999,2.9509332967325808],[101.92295799999998,2.952493996730926],[101.9170805883423,2.952699598239784],[101.91749829999999,2.9547422967284396],[101.91947560000001,2.9582811967245988],[101.92368709999998,2.9687071967133094],[101.92518369999999,2.964625396717729],[101.92897039999998,2.9639027967185094],[101.931787,2.9637955967186365],[101.9329645,2.962561996719985],[101.93767389999998,2.961698096720915],[101.9373871,2.957128596725894],[101.93807279999999,2.9569594967260575],[101.9412756,2.9581580967247585],[101.94274179999998,2.959342296723486],[101.9462602,2.9572363967257416],[101.9468946,2.9571174967258878],[101.9485829,2.9578215967251316],[101.9514255,2.9564367967266083],[101.94941279999999,2.953395396729895],[101.94834249999997,2.9484158967353262],[101.9486326,2.947770296736015],[101.95036950000001,2.9471493967366866],[101.95220839999999,2.947975396735828],[101.95353829999998,2.947525396736299],[101.956013,2.9478076967360014],[101.95762269999999,2.9449012967391566],[101.9607149,2.946558796737339],[101.9615068,2.946593496737291],[101.96444789999998,2.9447596967393013],[101.9661267,2.9446755967393834],[101.9722238,2.940933396743458],[101.97460659999997,2.940275496744161],[101.976717,2.9385294967460465],[101.97754379999998,2.936495496748248],[101.98160400000002,2.93009329675522],[101.9816086,2.9286780967567676],[101.9807475,2.9277420967577625],[101.9803632,2.9278049967577013],[101.98108240000002,2.923240396762666],[101.9864088,2.9192075967670426],[101.98695929999998,2.9172797967691393],[101.99035809999998,2.91638339677009],[101.9861618,2.910920696776053],[101.9862538,2.9086566967784933],[101.9836995,2.905958296781431],[101.98356679999999,2.9034669967841658],[101.9843292,2.9029037967847664],[101.98501009999998,2.9014061967864007],[101.98465539999998,2.897895096790212],[101.98669299999999,2.8949590967934054],[101.9892616,2.8932702967952286],[101.9891525,2.8921943967963806],[101.98776209999997,2.890448996798276],[101.98695359999999,2.883829496805497],[101.98528169999999,2.8786162968111424],[101.9881344,2.8729021968173933],[101.99037250000002,2.871299496819115],[101.9896035,2.8700884968204345],[101.9901583,2.869243896821356],[101.98977719999998,2.86616089682469],[101.99149909999998,2.863345496827766],[101.99151459999999,2.8616959968295586],[101.99315989999998,2.858302496833233],[101.99250759999998,2.8578837968337005],[101.99322909999997,2.856763496834894],[101.99301989999998,2.8557441968360013],[101.99414559999997,2.85525999683656],[101.99387999999998,2.8544326968374425],[101.9953257,2.854803896837034],[101.9960957,2.854343796837543],[101.99589509999998,2.852417296839659],[101.99693859999998,2.850541196841676],[101.99947572244143,2.8501158851664004],[101.99895751405089,2.8500944259050396],[101.99895751405089,2.8489172145292763],[102.00051213922255,2.8481324075962973],[102.00051213922255,2.846955198172766],[102.00103034761312,2.846955198172766],[102.00103034761312,2.8461703925408233],[102.00148947970747,2.8461703925408233],[102.00103034761312,2.845385587429044],[101.99999393083199,2.844993185068168],[101.99999393083199,2.84460078283728],[102.00051213922255,2.84460078283728],[102.00048200356277,2.8442083807363603],[101.99999393083199,2.8442083807363603],[102.000482,2.8426612968502436],[101.99999393083199,2.842638773632001],[101.99984523774832,2.84106916860569],[101.99895751405089,2.8406767676736724],[101.99895751405089,2.838714764960039],[101.99947572244143,2.838714764960039],[101.99958356464141,2.838322364806476],[101.99895751405089,2.837537564888373],[101.99843930566031,2.837537564888373],[101.99843930566031,2.8371451651237947],[101.99895751405089,2.8371451651237947],[101.999031,2.833713696859981],[101.99843930566031,2.832828776264746],[101.99880569999999,2.832828776264746],[101.99917590000001,2.8309195968630427],[101.99870779999999,2.826824796867481],[101.99803319999998,2.826409596867945],[101.99792109726975,2.825668673336123],[101.99688468048865,2.8253732323811516],[101.99688468048865,2.8249808366265694],[101.99731157123264,2.8249808366265694],[101.9972205,2.823892696870683],[101.9937416,2.823946996870626],[101.98848789999998,2.826926296867393],[101.98511350000001,2.822358796872346],[101.9804507,2.825719096868685],[101.97963459999998,2.8277483968664705],[101.9799048,2.8286772968654548],[101.9775358,2.832413096861398],[101.97865829999999,2.8377253968556437],[101.9775439,2.8412464968517894],[101.97313159999999,2.842634796850275],[101.972172,2.845071596847629],[101.96965139999999,2.8453615968473325],[101.96794159999999,2.8471080968454134],[101.9656663,2.8473432968451693],[101.9688083,2.850768196841453],[101.9649478,2.8540402968378897],[101.96760210000001,2.859882596831521],[101.9656172,2.861409496829881],[101.96371934349276,2.8618584106016165],[101.96423755188331,2.8618666042024214],[101.96395825233667,2.863436236856609],[101.96472149999998,2.8681008968225834],[101.95579229999998,2.867351896823403],[101.95470519999999,2.866142596824711],[101.95392009999998,2.866252896824591],[101.9542868,2.866663796824181],[101.95294999999999,2.867655996823071],[101.9529216,2.868642396822018],[101.94713609999998,2.872619896817654],[101.94765488338537,2.8732628693740057],[101.94817309177593,2.8732464884186064],[101.94817309177593,2.873638900185925],[101.9486913001665,2.873638900185925],[101.9486913001665,2.874031312084547],[101.94827490218252,2.874031312084547],[101.9512823421193,2.8777586986400787],[101.9512823421193,2.8763857862346702],[101.95180055050986,2.8763857862346702],[101.95180055050986,2.8759933735478462],[101.95283696729098,2.8763857862346702],[101.95283696729098,2.877955438296449],[101.9523187589004,2.877955438296449],[101.9523187589004,2.8783478516406045],[101.9512823421193,2.877955438296449],[101.95069599516232,2.8795250924622664],[101.95718589999998,2.8862455968028735],[101.96134959999999,2.891334796797321],[101.96160749999999,2.8935224967949327],[101.9606804,2.8944427967939323],[101.95838059999998,2.8952471967930498],[101.9574443,2.8963680967918726],[101.9579438,2.897685596790448],[101.9601498,2.900215996787686],[101.95998340000001,2.9020621967856783],[101.95919619999998,2.903617896783995],[101.9592145,2.906205796781182],[101.94402949999998,2.9152250967713873],[101.94350632747734,2.916805000205176],[101.94402742465145,2.9175898532429994],[101.94311648106516,2.91798227996189],[101.9406836,2.9245630967612475],[101.9394975,2.9256676967600233],[101.93991719999998,2.929808596755548],[101.93958889999999,2.9308963967543566],[101.9360662,2.9340033967509624],[101.93107221488744,2.9352301358352357],[101.931590423278,2.9352491878598452],[101.931590423278,2.9356416205970914],[101.93055400649686,2.936034053468493],[101.93107221488744,2.9368189196138403]],[[101.95646442602491,2.920336843076093],[101.95750084280601,2.919944415556868],[101.95801905119659,2.920729270728771],[101.95698263441547,2.9211216985149195],[101.95646442602491,2.920336843076093]],[[101.94610025821369,2.91798227996189],[101.94713667499481,2.9175898532429994],[101.94765488338537,2.9183747068141264],[101.94661846660426,2.9187671337997227],[101.94610025821369,2.91798227996189]],[[101.9486913001665,2.916805000205176],[101.9497277169476,2.916412573886208],[101.9497277169476,2.916805000205176],[101.95024592533817,2.916805000205176],[101.95024592533817,2.9175898532429994],[101.94920950855706,2.91798227996189],[101.94920950855706,2.9175898532429994],[101.9486913001665,2.9175898532429994],[101.9486913001665,2.916805000205176]],[[101.96268292671162,2.9093489229167533],[101.96371934349276,2.90895649912686],[101.96423755188331,2.9097413468395925],[101.9632011351022,2.9101337708953974],[101.96268292671162,2.9093489229167533]],[[101.95957367636827,2.9085640754698954],[101.96061009314938,2.9081716519458416],[101.96112830153996,2.90895649912686],[101.96009188475882,2.9093489229167533],[101.95957367636827,2.9085640754698954]],[[101.96371934349276,2.9038550019481852],[101.96475576027386,2.90346258001765],[101.96527396866443,2.904247424011414],[101.96423755188331,2.904639846207355],[101.96371934349276,2.9038550019481852]],[[101.965792177055,2.90346258001765],[101.96631038544555,2.90346258001765],[101.96734680222667,2.9022853150220276],[101.9683832190078,2.9022853150220276],[101.9683832190078,2.902677736554589],[101.96890142739835,2.902677736554589],[101.96890142739835,2.9038550019481852],[101.9683832190078,2.9038550019481852],[101.9683832190078,2.904247424011414],[101.96734680222667,2.904247424011414],[101.96734680222667,2.904639846207355],[101.96631038544555,2.904639846207355],[101.96631038544555,2.904247424011414],[101.965792177055,2.904247424011414],[101.965792177055,2.90346258001765]],[[101.9683832190078,2.899538368006492],[101.96941963578892,2.899145947534399],[101.96993784417947,2.8999307886110812],[101.96890142739835,2.900323209348184],[101.9683832190078,2.899538368006492]],[[101.96631038544555,2.8673603276530235],[101.96734680222667,2.866967917984112],[101.96786501061723,2.86775273745295],[101.96682859383611,2.86814514738391],[101.96631038544555,2.8673603276530235]]],[[[101.9512823421193,2.877955438296449],[101.9512823421193,2.8778804069755535],[101.95114433467838,2.877955438296449],[101.9512823421193,2.877955438296449]]],[[[101.9300357981063,2.935275286471835],[101.92930789999998,2.9353069967495715],[101.92969961384804,2.936034053468493],[101.93055400649686,2.936034053468493],[101.9300357981063,2.935275286471835]]]]},"properties":{"place_id":"6156ac5b-d92a-5cc4-b216-0d0843993cad","habitat":"forest_interior","habitat_label":"Forest interior","resolution_m":50}},{"type":"Feature","geometry":{"type":"MultiPolygon","coordinates":[[[[101.94920950855706,2.871194438086156],[101.94907860801115,2.8712844315509427],[101.94920950855706,2.8712844315509427],[101.94920950855706,2.871194438086156]]],[[[101.9486913001665,2.871676842662012],[101.9486913001665,2.871550703780164],[101.94850782414112,2.871676842662012],[101.9486913001665,2.871676842662012]]],[[[101.94765488338537,2.8732628693740057],[101.94827490218252,2.874031312084547],[101.9486913001665,2.874031312084547],[101.94817309177593,2.8732464884186064],[101.94765488338537,2.8732628693740057]]],[[[101.9523187589004,2.8759933735478462],[101.9512823421193,2.8763857862346702],[101.9512823421193,2.877955438296449],[101.95180055050986,2.877955438296449],[101.95180055050986,2.8783478516406045],[101.95283696729098,2.877955438296449],[101.95283696729098,2.8763857862346702],[101.9523187589004,2.8763857862346702],[101.9523187589004,2.8759933735478462]]],[[[101.95076413372874,2.8795250924622664],[101.95076413372874,2.878740265116281],[101.9512823421193,2.878740265116281],[101.9512823421193,2.877955438296449],[101.949812,2.8786797968110918],[101.95076413372874,2.8795250924622664]]],[[[101.94765488338537,2.913071753517295],[101.94731578008266,2.9132731681307305],[101.94765488338537,2.9132731681307305],[101.94765488338537,2.913071753517295]]],[[[101.94713667499481,2.913379549833729],[101.94665508986247,2.9136655933840307],[101.94713667499481,2.9136655933840307],[101.94713667499481,2.913379549833729]]],[[[101.94920950855706,2.916412573886208],[101.94920950855706,2.916805000205176],[101.9486913001665,2.916805000205176],[101.9486913001665,2.9175898532429994],[101.9497277169476,2.91798227996189],[101.9497277169476,2.9175898532429994],[101.95024592533817,2.9175898532429994],[101.95024592533817,2.916805000205176],[101.94920950855706,2.916412573886208]]],[[[101.94350632747734,2.916805000205176],[101.94311648106516,2.91798227996189],[101.94402742465145,2.9175898532429994],[101.94350632747734,2.916805000205176]]],[[[101.94713667499481,2.9175898532429994],[101.94610025821369,2.91798227996189],[101.94661846660426,2.9187671337997227],[101.94765488338537,2.9183747068141264],[101.94713667499481,2.9175898532429994]]],[[[101.95750084280601,2.919944415556868],[101.95646442602491,2.920336843076093],[101.95698263441547,2.9211216985149195],[101.95801905119659,2.920729270728771],[101.95750084280601,2.919944415556868]]],[[[101.931590423278,2.9352491878598452],[101.9300357981063,2.935275286471835],[101.93055400649686,2.936034053468493],[101.931590423278,2.9356416205970914],[101.931590423278,2.9352491878598452]]],[[[101.92951758971576,2.9356416205970914],[101.92949659551549,2.9356416205970914],[101.92951758971576,2.935678850741037],[101.92951758971576,2.9356416205970914]]],[[[101.92831756258207,2.9379962198384866],[101.92848117293462,2.9376037862960303],[101.9289993813252,2.9376037862960303],[101.9289993813252,2.9379962198384866],[101.9300357981063,2.9383886535152075],[101.9300357981063,2.9379962198384866],[101.93055400649686,2.9379962198384866],[101.9300357981063,2.9372113528878203],[101.93055400649686,2.9372113528878203],[101.93107221488744,2.936426486474071],[101.92969961384804,2.936034053468493],[101.92951758971576,2.9368189196138403],[101.92870969999997,2.936965196747756],[101.92831756258207,2.9379962198384866]]],[[[101.92640833937239,2.9446676106175103],[101.92589013098183,2.944378538916652],[101.92488464221799,2.9470222284086494],[101.92640833937239,2.9462373552730745],[101.92640833937239,2.9446676106175103]]],[[[101.9248537142007,2.9474146651784485],[101.9248537142007,2.947103546245925],[101.92473538481084,2.9474146651784485],[101.9248537142007,2.9474146651784485]]],[[[101.92226267224791,2.9489844136048076],[101.92196297547457,2.948591976296107],[101.92212655390446,2.9489844136048076],[101.92226267224791,2.9489844136048076]]],[[[101.92329908902902,2.949769288626539],[101.92329908902902,2.9501617263396063],[101.92433550581015,2.949769288626539],[101.92433550581015,2.94846605234544],[101.92278088063846,2.9485504071194395],[101.92278088063846,2.949769288626539],[101.92329908902902,2.949769288626539]]],[[[101.9170805883423,2.952699598239784],[101.9170206,2.9527016967306716],[101.9170805883423,2.952957949850671],[101.9170805883423,2.952699598239784]]],[[[101.9974028888792,2.825765628264817],[101.99792109726975,2.825668673336123],[101.99688468048865,2.8249808366265694],[101.99688468048865,2.8253732323811516],[101.9974028888792,2.8253732323811516],[101.9974028888792,2.825765628264817]]],[[[101.99880569999999,2.832828776264746],[101.99843930566031,2.833221174604437],[101.99891800025308,2.833221174604437],[101.99880569999999,2.832828776264746]]],[[[101.99895751405089,2.833613573073573],[101.99902944153557,2.833613573073573],[101.99895751405089,2.8333199099518027],[101.99895751405089,2.833613573073573]]],[[[101.99843930566031,2.837537564888373],[101.99895751405089,2.837537564888373],[101.99895751405089,2.837929964782594],[101.99939812174308,2.837929964782594],[101.99895751405089,2.8370013393328013],[101.99843930566031,2.837537564888373]]],[[[101.99947572244143,2.838322364806476],[101.99947572244143,2.838714764960039],[101.99895751405089,2.838714764960039],[101.99895751405089,2.8406767676736724],[101.99984523774832,2.84106916860569],[101.9993543,2.8399267968532316],[101.9996399,2.838782296854484],[101.99947572244143,2.838322364806476]]],[[[102.000154003468,2.8418539708591624],[101.99999393083199,2.842638773632001],[102.00047575042602,2.842638773632001],[102.000154003468,2.8418539708591624]]],[[[102.00051213922255,2.843036335002297],[102.0005142,2.842990796849904],[102.00051213922255,2.842935583565731],[102.00051213922255,2.843036335002297]]],[[[101.99999393083199,2.8442083807363603],[102.00048200356277,2.8442083807363603],[102.00046697512258,2.8434235769243528],[101.99999393083199,2.8434235769243528],[101.99999393083199,2.8442083807363603]]],[[[102.00051213922255,2.844993185068168],[102.00133692262952,2.8457779899199225],[102.00051213922255,2.844262936338062],[101.99999393083199,2.844993185068168],[102.00051213922255,2.844993185068168]]],[[[102.00103034761312,2.8461703925408233],[102.00051213922255,2.8481324075962973],[101.99895751405089,2.8489172145292763],[101.99895751405089,2.8500944259050396],[102.0008751,2.850132696842117],[102.00078919999999,2.8484577968439533],[102.00152409999998,2.8464679968461013],[102.00103034761312,2.8461703925408233]]],[[[101.96395825233667,2.863436236856609],[101.96423755188331,2.8618666042024214],[101.96371934349276,2.8618584106016165],[101.96395825233667,2.863436236856609]]],[[[101.96423755188331,2.8642210539686377],[101.96402245967644,2.8638286453471977],[101.96408666701623,2.8642210539686377],[101.96423755188331,2.8642210539686377]]],[[[101.96682859383611,2.866967917984112],[101.96631038544555,2.86775273745295],[101.96734680222667,2.86814514738391],[101.96786501061723,2.8673603276530235],[101.96682859383611,2.866967917984112]]],[[[101.96890142739835,2.899145947534399],[101.9683832190078,2.8999307886110812],[101.96941963578892,2.900323209348184],[101.96993784417947,2.899538368006492],[101.96890142739835,2.899145947534399]]],[[[101.95957367636827,2.9028719107699192],[101.95927479181387,2.90346258001765],[101.95957367636827,2.90346258001765],[101.95957367636827,2.9028719107699192]]],[[[101.96890142739835,2.902677736554589],[101.9683832190078,2.902677736554589],[101.9683832190078,2.9022853150220276],[101.96734680222667,2.9022853150220276],[101.96734680222667,2.902677736554589],[101.965792177055,2.90346258001765],[101.965792177055,2.904247424011414],[101.96631038544555,2.904247424011414],[101.96631038544555,2.904639846207355],[101.9683832190078,2.904247424011414],[101.9683832190078,2.9038550019481852],[101.96890142739835,2.9038550019481852],[101.96890142739835,2.902677736554589]],[[101.96682859383611,2.9038550019481852],[101.96682859383611,2.90346258001765],[101.96734680222667,2.90346258001765],[101.96734680222667,2.9038550019481852],[101.96682859383611,2.9038550019481852]],[[101.96734680222667,2.9030701582197906],[101.96786501061723,2.9030701582197906],[101.96786501061723,2.90346258001765],[101.96734680222667,2.90346258001765],[101.96734680222667,2.9030701582197906]]],[[[101.96475576027386,2.90346258001765],[101.96371934349276,2.9038550019481852],[101.96423755188331,2.904639846207355],[101.96527396866443,2.904247424011414],[101.96475576027386,2.90346258001765]]],[[[101.96009188475882,2.9081716519458416],[101.95957367636827,2.90895649912686],[101.96061009314938,2.9093489229167533],[101.96112830153996,2.9085640754698954],[101.96009188475882,2.9081716519458416]]],[[[101.9632011351022,2.90895649912686],[101.96268292671162,2.9097413468395925],[101.96371934349276,2.9101337708953974],[101.96423755188331,2.9093489229167533],[101.9632011351022,2.90895649912686]]]]},"properties":{"place_id":"6156ac5b-d92a-5cc4-b216-0d0843993cad","habitat":"forest_edge_opening","habitat_label":"Forest edge or opening","resolution_m":50}},{"type":"Feature","geometry":{"type":"MultiPolygon","coordinates":[[[[101.94817309177593,2.873638900185925],[101.94795828428632,2.873638900185925],[101.94817309177593,2.873905129642032],[101.94817309177593,2.873638900185925]]],[[[101.9523187589004,2.8763857862346702],[101.95180055050986,2.8763857862346702],[101.95180055050986,2.877955438296449],[101.9523187589004,2.877955438296449],[101.9523187589004,2.8763857862346702]]],[[[101.95076413372874,2.878740265116281],[101.95076413372874,2.8781621444182175],[101.949812,2.8786797968110918],[101.94987523669961,2.878740265116281],[101.95076413372874,2.878740265116281]]],[[[101.96061009314938,2.9085640754698954],[101.96009188475882,2.9085640754698954],[101.96009188475882,2.90895649912686],[101.96061009314938,2.90895649912686],[101.96061009314938,2.9085640754698954]]],[[[101.9497277169476,2.916805000205176],[101.94920950855706,2.916805000205176],[101.94920950855706,2.9175898532429994],[101.9497277169476,2.9175898532429994],[101.9497277169476,2.916805000205176]]],[[[101.94350921626089,2.9175898532429994],[101.94337637867329,2.917197426657434],[101.94324642986922,2.9175898532429994],[101.94350921626089,2.9175898532429994]]],[[[101.94713667499481,2.91798227996189],[101.94661846660426,2.91798227996189],[101.94661846660426,2.9183747068141264],[101.94713667499481,2.9183747068141264],[101.94713667499481,2.91798227996189]]],[[[101.95750084280601,2.920729270728771],[101.95750084280601,2.920336843076093],[101.95698263441547,2.920336843076093],[101.95698263441547,2.920729270728771],[101.95750084280601,2.920729270728771]]],[[[101.93107221488744,2.9352491878598452],[101.93055400649686,2.9352527111533133],[101.93055400649686,2.9356416205970914],[101.93107221488744,2.9356416205970914],[101.93107221488744,2.9352491878598452]]],[[[101.93055400649686,2.936426486474071],[101.92899104372104,2.9368189196138403],[101.9289993813252,2.9376037862960303],[101.92951758971576,2.9376037862960303],[101.93055400649686,2.936426486474071]]],[[[101.92848117293462,2.9375660489651003],[101.92846681998918,2.9376037862960303],[101.92848117293462,2.9376037862960303],[101.92848117293462,2.9375660489651003]]],[[[101.9300357981063,2.9376037862960303],[101.92951758971576,2.9376037862960303],[101.92951758971576,2.9379962198384866],[101.9300357981063,2.9379962198384866],[101.9300357981063,2.9376037862960303]]],[[[101.92589013098183,2.9446676106175103],[101.92537192259125,2.9462373552730745],[101.92589013098183,2.9462373552730745],[101.92589013098183,2.9446676106175103]]],[[[101.92381729741959,2.94856828320653],[101.92329908902902,2.94855934516295],[101.92329908902902,2.949769288626539],[101.92381729741959,2.949769288626539],[101.92381729741959,2.94856828320653]]],[[[101.9974028888792,2.8253732323811516],[101.99750479999999,2.825301796869146],[101.9974028888792,2.825201092370324],[101.9974028888792,2.8253732323811516]]],[[[101.99902394198288,2.8371451651237947],[101.99895751405089,2.837537564888373],[101.99921103186298,2.837537564888373],[101.99902394198288,2.8371451651237947]]],[[[101.99947572244143,2.838714764960039],[101.99947572244143,2.839279294400072],[101.9996443319536,2.838714764960039],[101.99947572244143,2.838714764960039]]],[[[101.99947572244143,2.8406767676736724],[101.99967270648915,2.8406767676736724],[101.99947572244143,2.8402464620361147],[101.99947572244143,2.8406767676736724]]],[[[102.00123065253588,2.847347601183843],[102.00103034761312,2.8477400043250136],[102.00105404543213,2.8477400043250136],[102.00123065253588,2.847347601183843]]],[[[101.99999393083199,2.8489172145292763],[101.99947572244143,2.8489172145292763],[101.99947572244143,2.8493096181910063],[101.99999393083199,2.8493096181910063],[101.99999393083199,2.8489172145292763]]],[[[102.00073464242276,2.8489172145292763],[102.00051213922255,2.8493096181910063],[102.00074079654514,2.8493096181910063],[102.00073464242276,2.8489172145292763]]],[[[101.99999393083199,2.8500944259050396],[101.99999393083199,2.849702021982922],[101.99947572244143,2.849702021982922],[101.99947572244143,2.8500944259050396],[101.99999393083199,2.8500944259050396]]],[[[101.96371934349276,2.8618666042024214],[101.9637014229775,2.8618666042024214],[101.96371934349276,2.861976126760803],[101.96371934349276,2.8618666042024214]]],[[[101.96734680222667,2.8673603276530235],[101.96682859383611,2.8673603276530235],[101.96682859383611,2.86775273745295],[101.96734680222667,2.86775273745295],[101.96734680222667,2.8673603276530235]]],[[[101.96941963578892,2.899538368006492],[101.96890142739835,2.899538368006492],[101.96890142739835,2.8999307886110812],[101.96941963578892,2.8999307886110812],[101.96941963578892,2.899538368006492]]],[[[101.96734680222667,2.9030701582197906],[101.96631038544555,2.90346258001765],[101.96631038544555,2.904247424011414],[101.9683832190078,2.9038550019481852],[101.9683832190078,2.902677736554589],[101.96734680222667,2.902677736554589],[101.96734680222667,2.9030701582197906]]],[[[101.96475576027386,2.9038550019481852],[101.96423755188331,2.9038550019481852],[101.96423755188331,2.904247424011414],[101.96475576027386,2.904247424011414],[101.96475576027386,2.9038550019481852]]],[[[101.96371934349276,2.9093489229167533],[101.9632011351022,2.9093489229167533],[101.9632011351022,2.9097413468395925],[101.96371934349276,2.9097413468395925],[101.96371934349276,2.9093489229167533]]]]},"properties":{"place_id":"6156ac5b-d92a-5cc4-b216-0d0843993cad","habitat":"open_grassland","habitat_label":"Open grassland or shrubland","resolution_m":50}},{"type":"Feature","geometry":{"type":"MultiPolygon","coordinates":[[[[102.00051213922255,2.84460078283728],[101.99999393083199,2.84460078283728],[101.99999393083199,2.844993185068168],[102.00103034761312,2.845385587429044],[102.00051213922255,2.844262936338062],[102.00051213922255,2.84460078283728]]],[[[102.00103034761312,2.846955198172766],[102.00051213922255,2.846955198172766],[102.00051213922255,2.847347601183843],[102.00103034761312,2.847347601183843],[102.00105404543213,2.8477400043250136],[102.00151555730193,2.846562795291766],[102.00103034761312,2.846562795291766],[102.00103034761312,2.846955198172766]]],[[[101.99895751405089,2.849702021982922],[101.99947572244143,2.849702021982922],[101.99947572244143,2.8500944259050396],[102.0008751,2.850132696842117],[102.00103034761312,2.8477400043250136],[101.99999393083199,2.8481324075962973],[101.99999393083199,2.8489172145292763],[101.99947572244143,2.8489172145292763],[101.99895751405089,2.849702021982922]],[[102.00051213922255,2.8489172145292763],[102.00051213922255,2.8493096181910063],[101.99999393083199,2.8493096181910063],[101.99999393083199,2.8489172145292763],[102.00051213922255,2.8489172145292763]]],[[[101.94920950855706,2.8712844315509427],[101.94920950855706,2.871194438086156],[101.94907860801115,2.8712844315509427],[101.94920950855706,2.8712844315509427]]],[[[101.9486913001665,2.871550703780164],[101.94850782414112,2.871676842662012],[101.9486913001665,2.871676842662012],[101.9486913001665,2.871550703780164]]],[[[101.92589013098183,2.945844918907262],[101.92537192259125,2.9457410417699146],[101.92488464221799,2.9470222284086494],[101.92537192259125,2.9470222284086494],[101.92537192259125,2.9462373552730745],[101.92589013098183,2.9462373552730745],[101.92589013098183,2.945844918907262]]],[[[101.9248537142007,2.947103546245925],[101.92473538481084,2.9474146651784485],[101.9248537142007,2.9474146651784485],[101.9248537142007,2.947103546245925]]]]},"properties":{"place_id":"6156ac5b-d92a-5cc4-b216-0d0843993cad","habitat":"disturbed_built_edge","habitat_label":"Disturbed, bare or built edge","resolution_m":50}}]}