{"type":"FeatureCollection","metadata":{"schema_version":1,"place_id":"617b3f54-3413-5284-a8dc-487852afe741","place_name":"Taman Pekaka PKNS Kota Damansara","place_type":"park","osm_reference":"way/823493827","protection_context":"no protected status confirmed from included OSM tags","resolution_m":50,"raster_coverage":1.0,"interpretation":"Suggested search habitats, not predicted plant locations or probabilities of presence."},"features":[{"type":"Feature","geometry":{"type":"Polygon","coordinates":[[[101.5760994673534,3.175443792666403],[101.57599045435839,3.1750512745918043],[101.57560229999999,3.175217696489659],[101.57572742560129,3.175443792666403],[101.5760994673534,3.175443792666403]]]},"properties":{"place_id":"617b3f54-3413-5284-a8dc-487852afe741","habitat":"forest_edge_opening","habitat_label":"Forest edge or opening","resolution_m":50}},{"type":"Feature","geometry":{"type":"Polygon","coordinates":[[[101.5758784,3.175716596489155],[101.5762464,3.1755134964893648],[101.5759702,3.1750146964898898],[101.57560229999999,3.175217696489659],[101.5758784,3.175716596489155]]]},"properties":{"place_id":"617b3f54-3413-5284-a8dc-487852afe741","habitat":"disturbed_built_edge","habitat_label":"Disturbed, bare or built edge","resolution_m":50}}]}