{"type":"FeatureCollection","metadata":{"schema_version":1,"place_id":"61dde21f-65da-573c-a0d8-b57025cc9bd0","place_name":"Taman Rekreasi Bukit Jalil","place_type":"park","osm_reference":"way/104732875","protection_context":"no protected status confirmed from included OSM tags","resolution_m":50,"raster_coverage":1.0,"interpretation":"Suggested search habitats, not predicted plant locations or probabilities of presence."},"features":[{"type":"Feature","geometry":{"type":"MultiPolygon","coordinates":[[[[101.67559547834104,3.0518076858857426],[101.67559547834104,3.0522001592615644],[101.67766831190329,3.0522001592615644],[101.67922293707495,3.0506302665952343],[101.67766831190329,3.0506302665952343],[101.67715010351272,3.0498453210988443],[101.67507726995048,3.0498453210988443],[101.67507726995048,3.04945284855978],[101.67455906155992,3.04945284855978],[101.67455906155992,3.051415212649426],[101.67559547834104,3.0518076858857426]]],[[[101.67404085316934,3.0518076858857426],[101.67455906155992,3.0518076858857426],[101.67455906155992,3.051415212649426],[101.67404085316934,3.051415212649426],[101.67404085316934,3.0518076858857426]]],[[[101.67404085316934,3.0525926327769084],[101.67455906155992,3.0525926327769084],[101.67455906155992,3.0522001592615644],[101.67404085316934,3.0522001592615644],[101.67404085316934,3.0525926327769084]]],[[[101.67507726995048,3.0525926327769084],[101.67559547834104,3.0525926327769084],[101.67559547834104,3.0522001592615644],[101.67507726995048,3.0522001592615644],[101.67507726995048,3.0525926327769084]]],[[[101.67404085316934,3.0541625282338756],[101.67507726995048,3.053770054160259],[101.67455906155992,3.0529851064317937],[101.6735226447788,3.0529851064317937],[101.6735226447788,3.0533775802262384],[101.67300443638824,3.0533775802262384],[101.67300443638824,3.0541625282338756],[101.6735226447788,3.0541625282338756],[101.6735226447788,3.053770054160259],[101.67404085316934,3.053770054160259],[101.67404085316934,3.0541625282338756]]],[[[101.67300443638824,3.0541625282338756],[101.67248622799768,3.0541625282338756],[101.67248622799768,3.054947476799966],[101.6735226447788,3.054947476799966],[101.67300443638824,3.0541625282338756]]],[[[101.67404085316934,3.054947476799966],[101.67455906155992,3.054947476799966],[101.67455906155992,3.0545550024471058],[101.67404085316934,3.0545550024471058],[101.67404085316934,3.054947476799966]]]]},"properties":{"place_id":"61dde21f-65da-573c-a0d8-b57025cc9bd0","habitat":"forest_interior","habitat_label":"Forest interior","resolution_m":50}},{"type":"Feature","geometry":{"type":"MultiPolygon","coordinates":[[[[101.67974114546553,3.050237793777323],[101.6799559,3.049404696625814],[101.67922293707495,3.04945284855978],[101.67922293707495,3.0498453210988443],[101.67974114546553,3.0498453210988443],[101.67974114546553,3.050237793777323]]],[[[101.67870472868441,3.04945284855978],[101.6740336,3.0493987966257885],[101.6739268,3.051324296623723],[101.6717836,3.0552946966194185],[101.6741611,3.0564312966181895],[101.67550309999999,3.0529549966219567],[101.6772202,3.052899596622001],[101.67912429999997,3.0513660966236813],[101.67974114546553,3.0504190844676735],[101.67870472868441,3.0498453210988443],[101.67870472868441,3.04945284855978]],[[101.6735226447788,3.0545550024471058],[101.6735226447788,3.054947476799966],[101.67248622799768,3.054947476799966],[101.67248622799768,3.0541625282338756],[101.6735226447788,3.0545550024471058]],[[101.67300443638824,3.0533775802262384],[101.6735226447788,3.0533775802262384],[101.6735226447788,3.0529851064317937],[101.67455906155992,3.0529851064317937],[101.67507726995048,3.053770054160259],[101.67455906155992,3.053770054160259],[101.67455906155992,3.0541625282338756],[101.67404085316934,3.0541625282338756],[101.67404085316934,3.053770054160259],[101.67300443638824,3.0541625282338756],[101.67300443638824,3.0533775802262384]],[[101.67455906155992,3.0545550024471058],[101.67455906155992,3.054947476799966],[101.67404085316934,3.054947476799966],[101.67404085316934,3.0545550024471058],[101.67455906155992,3.0545550024471058]],[[101.67455906155992,3.0522001592615644],[101.67455906155992,3.0525926327769084],[101.67404085316934,3.0525926327769084],[101.67404085316934,3.0522001592615644],[101.67455906155992,3.0522001592615644]],[[101.67507726995048,3.0525926327769084],[101.67507726995048,3.0522001592615644],[101.67559547834104,3.0522001592615644],[101.67559547834104,3.0525926327769084],[101.67507726995048,3.0525926327769084]],[[101.67559547834104,3.0518076858857426],[101.67455906155992,3.051415212649426],[101.67455906155992,3.04945284855978],[101.67507726995048,3.04945284855978],[101.67507726995048,3.0498453210988443],[101.67715010351272,3.0498453210988443],[101.67766831190329,3.0506302665952343],[101.67922293707495,3.0506302665952343],[101.67766831190329,3.0522001592615644],[101.67559547834104,3.0522001592615644],[101.67559547834104,3.0518076858857426]],[[101.67455906155992,3.0518076858857426],[101.67404085316934,3.0518076858857426],[101.67404085316934,3.051415212649426],[101.67455906155992,3.051415212649426],[101.67455906155992,3.0518076858857426]]]]},"properties":{"place_id":"61dde21f-65da-573c-a0d8-b57025cc9bd0","habitat":"forest_edge_opening","habitat_label":"Forest edge or opening","resolution_m":50}},{"type":"Feature","geometry":{"type":"MultiPolygon","coordinates":[[[[101.67870472868441,3.0498453210988443],[101.67818652029383,3.0498453210988443],[101.67818652029383,3.050237793777323],[101.67870472868441,3.050237793777323],[101.67870472868441,3.0498453210988443]]],[[[101.67404085316934,3.0541625282338756],[101.6735226447788,3.0541625282338756],[101.6735226447788,3.0545550024471058],[101.67404085316934,3.0545550024471058],[101.67404085316934,3.0541625282338756]]]]},"properties":{"place_id":"61dde21f-65da-573c-a0d8-b57025cc9bd0","habitat":"open_grassland","habitat_label":"Open grassland or shrubland","resolution_m":50}},{"type":"Feature","geometry":{"type":"Polygon","coordinates":[[[101.6717836,3.0552946966194185],[101.6741611,3.0564312966181895],[101.67550309999999,3.0529549966219567],[101.6772202,3.052899596622001],[101.67912429999997,3.0513660966236813],[101.6799559,3.049404696625814],[101.6740336,3.0493987966257885],[101.6739268,3.051324296623723],[101.6717836,3.0552946966194185]],[[101.67248622799768,3.0541625282338756],[101.67300443638824,3.0541625282338756],[101.67300443638824,3.0533775802262384],[101.6735226447788,3.0533775802262384],[101.6735226447788,3.0529851064317937],[101.67455906155992,3.0529851064317937],[101.67455906155992,3.0533775802262384],[101.67507726995048,3.0533775802262384],[101.67507726995048,3.053770054160259],[101.67455906155992,3.053770054160259],[101.67455906155992,3.054947476799966],[101.67248622799768,3.054947476799966],[101.67248622799768,3.0541625282338756]],[[101.67404085316934,3.0522001592615644],[101.67455906155992,3.0522001592615644],[101.67455906155992,3.0525926327769084],[101.67404085316934,3.0525926327769084],[101.67404085316934,3.0522001592615644]],[[101.67559547834104,3.0525926327769084],[101.67507726995048,3.0525926327769084],[101.67507726995048,3.0522001592615644],[101.67559547834104,3.0522001592615644],[101.67559547834104,3.0525926327769084]],[[101.67559547834104,3.0518076858857426],[101.67455906155992,3.051415212649426],[101.67455906155992,3.04945284855978],[101.67507726995048,3.04945284855978],[101.67507726995048,3.0498453210988443],[101.67715010351272,3.0498453210988443],[101.67766831190329,3.0506302665952343],[101.67818652029383,3.0506302665952343],[101.67818652029383,3.050237793777323],[101.67922293707495,3.0506302665952343],[101.67766831190329,3.0522001592615644],[101.67559547834104,3.0522001592615644],[101.67559547834104,3.0518076858857426]],[[101.67455906155992,3.0518076858857426],[101.67404085316934,3.0518076858857426],[101.67404085316934,3.051415212649426],[101.67455906155992,3.051415212649426],[101.67455906155992,3.0518076858857426]]]},"properties":{"place_id":"61dde21f-65da-573c-a0d8-b57025cc9bd0","habitat":"disturbed_built_edge","habitat_label":"Disturbed, bare or built edge","resolution_m":50}},{"type":"Feature","geometry":{"type":"Polygon","coordinates":[[[101.67507726995048,3.0529851064317937],[101.67507726995048,3.0533775802262384],[101.67534120509949,3.0533775802262384],[101.67549156470734,3.0529851064317937],[101.67507726995048,3.0529851064317937]]]},"properties":{"place_id":"61dde21f-65da-573c-a0d8-b57025cc9bd0","habitat":"permanent_water","habitat_label":"Permanent water","resolution_m":50}},{"type":"Feature","geometry":{"type":"MultiPolygon","coordinates":[[[[101.67559547834104,3.0525926327769084],[101.67559547834104,3.0522001592615644],[101.67507726995048,3.0522001592615644],[101.67507726995048,3.0525926327769084],[101.67404085316934,3.0529851064317937],[101.67507726995048,3.0540614169119324],[101.67507726995048,3.0529851064317937],[101.6761136867316,3.0529155512840287],[101.6761136867316,3.0525926327769084],[101.67559547834104,3.0525926327769084]]],[[[101.67628980948831,3.0529851064317937],[101.67659439999998,3.053105396621795],[101.67663189512216,3.0529851064317937],[101.67628980948831,3.0529851064317937]]],[[[101.67248622799768,3.0541625282338756],[101.67248622799768,3.0537727497721248],[101.67219507784603,3.0541625282338756],[101.67248622799768,3.0541625282338756]]]]},"properties":{"place_id":"61dde21f-65da-573c-a0d8-b57025cc9bd0","habitat":"water_edge","habitat_label":"Water edge","resolution_m":50}}]}