{"type":"FeatureCollection","metadata":{"schema_version":1,"place_id":"61f05ab5-16bc-525b-b290-daacf5c6e3d9","place_name":"Riang Park","place_type":"park","osm_reference":"way/494798872","protection_context":"no protected status confirmed from included OSM tags","resolution_m":50,"raster_coverage":1.0,"interpretation":"Suggested search habitats, not predicted plant locations or probabilities of presence."},"features":[{"type":"Feature","geometry":{"type":"Polygon","coordinates":[[[103.90078230740843,1.5057109368180897],[103.901300515799,1.5059698648860826],[103.901300515799,1.5055778015479822],[103.90078230740843,1.5057109368180897]]]},"properties":{"place_id":"61f05ab5-16bc-525b-b290-daacf5c6e3d9","habitat":"open_grassland","habitat_label":"Open grassland or shrubland","resolution_m":50}},{"type":"Feature","geometry":{"type":"Polygon","coordinates":[[[103.90072659999997,1.5057354983206823],[103.9010389,1.5064542983198927],[103.90161119999999,1.5061955983201727],[103.90129429999999,1.50548519832097],[103.90072659999997,1.5057354983206823]]]},"properties":{"place_id":"61f05ab5-16bc-525b-b290-daacf5c6e3d9","habitat":"disturbed_built_edge","habitat_label":"Disturbed, bare or built edge","resolution_m":50}},{"type":"Feature","geometry":{"type":"Polygon","coordinates":[[[103.90108426862209,1.5055778015479822],[103.901300515799,1.5059698648860826],[103.90151050332543,1.5059698648860826],[103.90129429999999,1.50548519832097],[103.90108426862209,1.5055778015479822]]]},"properties":{"place_id":"61f05ab5-16bc-525b-b290-daacf5c6e3d9","habitat":"water_edge","habitat_label":"Water edge","resolution_m":50}}]}