{"type":"FeatureCollection","metadata":{"schema_version":1,"place_id":"6267f0a8-ea37-5294-98de-5a5cc0b30c46","place_name":"Taman Indah Jaya Park","place_type":"park","osm_reference":"way/658674530","protection_context":"no protected status confirmed from included OSM tags","resolution_m":50,"raster_coverage":1.0,"interpretation":"Suggested search habitats, not predicted plant locations or probabilities of presence."},"features":[{"type":"Feature","geometry":{"type":"Polygon","coordinates":[[[118.06704508016466,5.844151890401149],[118.0665876185239,5.84454581511498],[118.06704508016466,5.844480497485878],[118.06704508016466,5.844151890401149]]]},"properties":{"place_id":"6267f0a8-ea37-5294-98de-5a5cc0b30c46","habitat":"open_grassland","habitat_label":"Open grassland or shrubland","resolution_m":50}},{"type":"Feature","geometry":{"type":"Polygon","coordinates":[[[118.06659489999998,5.844578793711046],[118.06735789999999,5.844412193711236],[118.0672806,5.844061993711561],[118.06651759999997,5.844228693711399],[118.06659489999998,5.844578793711046]]]},"properties":{"place_id":"6267f0a8-ea37-5294-98de-5a5cc0b30c46","habitat":"disturbed_built_edge","habitat_label":"Disturbed, bare or built edge","resolution_m":50}}]}