{"type":"FeatureCollection","metadata":{"schema_version":1,"place_id":"63067e00-80aa-578d-9043-01d79dcc6f29","place_name":"Taman Masjid","place_type":"park","osm_reference":"way/622915522","protection_context":"no protected status confirmed from included OSM tags","resolution_m":50,"raster_coverage":1.0,"interpretation":"Suggested search habitats, not predicted plant locations or probabilities of presence."},"features":[{"type":"Feature","geometry":{"type":"Polygon","coordinates":[[[101.9944998,2.670595597037747],[101.99482080000001,2.6701735970382203],[101.99465319999999,2.6694769970389634],[101.9943907,2.6696830970387784],[101.9944998,2.670595597037747]]]},"properties":{"place_id":"63067e00-80aa-578d-9043-01d79dcc6f29","habitat":"forest_edge_opening","habitat_label":"Forest edge or opening","resolution_m":50}},{"type":"Feature","geometry":{"type":"Polygon","coordinates":[[[101.9944998,2.670595597037747],[101.99482080000001,2.6701735970382203],[101.99465319999999,2.6694769970389634],[101.9943907,2.6696830970387784],[101.9944998,2.670595597037747]]]},"properties":{"place_id":"63067e00-80aa-578d-9043-01d79dcc6f29","habitat":"disturbed_built_edge","habitat_label":"Disturbed, bare or built edge","resolution_m":50}}]}