{"type":"FeatureCollection","metadata":{"schema_version":1,"place_id":"635ebbf3-ea51-508b-bd07-56b1c7f7dc20","place_name":"Taman Permainan Audik","place_type":"park","osm_reference":"way/1270658052","protection_context":"no protected status confirmed from included OSM tags","resolution_m":50,"raster_coverage":1.0,"interpretation":"Suggested search habitats, not predicted plant locations or probabilities of presence."},"features":[{"type":"Feature","geometry":{"type":"Polygon","coordinates":[[[101.7336706,3.2007379964621134],[101.73447329999999,3.2011235964616995],[101.73443260000002,3.200609196462271],[101.7336706,3.2007379964621134]]]},"properties":{"place_id":"635ebbf3-ea51-508b-bd07-56b1c7f7dc20","habitat":"forest_edge_opening","habitat_label":"Forest edge or opening","resolution_m":50}},{"type":"Feature","geometry":{"type":"Polygon","coordinates":[[[101.7336706,3.2007379964621134],[101.73447329999999,3.2011235964616995],[101.73443260000002,3.200609196462271],[101.7336706,3.2007379964621134]]]},"properties":{"place_id":"635ebbf3-ea51-508b-bd07-56b1c7f7dc20","habitat":"disturbed_built_edge","habitat_label":"Disturbed, bare or built edge","resolution_m":50}}]}