{"type":"FeatureCollection","metadata":{"schema_version":1,"place_id":"63774f17-5ad8-5697-a443-84be34c469c3","place_name":"Taman BSP Avenue","place_type":"park","osm_reference":"way/1484016648","protection_context":"no protected status confirmed from included OSM tags","resolution_m":50,"raster_coverage":1.0,"interpretation":"Suggested search habitats, not predicted plant locations or probabilities of presence."},"features":[{"type":"Feature","geometry":{"type":"MultiPolygon","coordinates":[[[[101.5793923,2.9358607967489543],[101.5786905093062,2.936034053468493],[101.5786905093062,2.9363883559923414],[101.57920019999999,2.9362876967485034],[101.5793923,2.9358607967489543]]],[[[101.57817230091564,2.936034053468493],[101.5780249401475,2.936034053468493],[101.57817230091564,2.9361305916749356],[101.57817230091564,2.936034053468493]]]]},"properties":{"place_id":"63774f17-5ad8-5697-a443-84be34c469c3","habitat":"forest_edge_opening","habitat_label":"Forest edge or opening","resolution_m":50}},{"type":"Feature","geometry":{"type":"Polygon","coordinates":[[[101.57920871769676,2.936034053468493],[101.57817230091564,2.936034053468493],[101.57817230091564,2.9361305916749356],[101.57901334151333,2.936426486474071],[101.57920871769676,2.936034053468493]]]},"properties":{"place_id":"63774f17-5ad8-5697-a443-84be34c469c3","habitat":"open_grassland","habitat_label":"Open grassland or shrubland","resolution_m":50}},{"type":"Feature","geometry":{"type":"Polygon","coordinates":[[[101.5780634,2.935832796748967],[101.579064,2.936567796748196],[101.5793923,2.9358607967489543],[101.5780634,2.935832796748967]]]},"properties":{"place_id":"63774f17-5ad8-5697-a443-84be34c469c3","habitat":"disturbed_built_edge","habitat_label":"Disturbed, bare or built edge","resolution_m":50}}]}