{"type":"FeatureCollection","metadata":{"schema_version":1,"place_id":"640e9c2f-f2b3-5b77-8344-6b604c9cbe38","place_name":"Pulau Pasir Binjai","place_type":"wood","osm_reference":"relation/20162499","protection_context":"no protected status confirmed from included OSM tags","resolution_m":50,"raster_coverage":1.0,"interpretation":"Suggested search habitats, not predicted plant locations or probabilities of presence."},"features":[{"type":"Feature","geometry":{"type":"Polygon","coordinates":[[[103.0048138,5.087706194474278],[103.00534649999999,5.091014894470913],[103.00565729999998,5.091387694470562],[103.0048138,5.087706194474278]]]},"properties":{"place_id":"640e9c2f-f2b3-5b77-8344-6b604c9cbe38","habitat":"forest_edge_opening","habitat_label":"Forest edge or opening","resolution_m":50}},{"type":"Feature","geometry":{"type":"Polygon","coordinates":[[[103.00480000012908,5.088685564073589],[103.00479469591673,5.088685564073589],[103.00480000012908,5.0887100154507925],[103.00480000012908,5.088685564073589]]]},"properties":{"place_id":"640e9c2f-f2b3-5b77-8344-6b604c9cbe38","habitat":"open_grassland","habitat_label":"Open grassland or shrubland","resolution_m":50}},{"type":"Feature","geometry":{"type":"Polygon","coordinates":[[[103.00529586667624,5.089865888130811],[103.00534649999999,5.091014894470913],[103.00568419999999,5.09138229447053],[103.00529586667624,5.089865888130811]]]},"properties":{"place_id":"640e9c2f-f2b3-5b77-8344-6b604c9cbe38","habitat":"disturbed_built_edge","habitat_label":"Disturbed, bare or built edge","resolution_m":50}},{"type":"Feature","geometry":{"type":"Polygon","coordinates":[[[103.00526000084997,5.090652772006825],[103.00531820851965,5.090259329951686],[103.00517745837627,5.090259329951686],[103.00526000084997,5.090652772006825]]]},"properties":{"place_id":"640e9c2f-f2b3-5b77-8344-6b604c9cbe38","habitat":"cropland","habitat_label":"Cropland","resolution_m":50}},{"type":"Feature","geometry":{"type":"Polygon","coordinates":[[[103.00480000012908,5.088685564073589],[103.00480000012908,5.087731665511097],[103.0047467,5.088149594473837],[103.00480000012908,5.088685564073589]]]},"properties":{"place_id":"640e9c2f-f2b3-5b77-8344-6b604c9cbe38","habitat":"permanent_water","habitat_label":"Permanent water","resolution_m":50}},{"type":"Feature","geometry":{"type":"MultiPolygon","coordinates":[[[[103.00480000012908,5.087898682539756],[103.00480000012908,5.087731665511097],[103.00475461263636,5.087898682539756],[103.00480000012908,5.087898682539756]]],[[[103.00480000012908,5.088292123189587],[103.0047816,5.0886251944733605],[103.00480000012908,5.0887100154507925],[103.00480000012908,5.088292123189587]]],[[[103.00529586667624,5.089865888130811],[103.00517745837627,5.090259329951686],[103.00531820851965,5.090259329951686],[103.00529586667624,5.089865888130811]]],[[[103.00526000084997,5.090652772006825],[103.00531820851965,5.090896454203414],[103.00531820851965,5.090652772006825],[103.00526000084997,5.090652772006825]]]]},"properties":{"place_id":"640e9c2f-f2b3-5b77-8344-6b604c9cbe38","habitat":"seasonal_water_wetland","habitat_label":"Seasonal water or wetland","resolution_m":50}},{"type":"Feature","geometry":{"type":"MultiPolygon","coordinates":[[[[103.0048138,5.087706194474278],[103.00508724072768,5.089865888130811],[103.00529586667624,5.089865888130811],[103.0048138,5.087706194474278]]],[[[103.00531820851965,5.089927565112556],[103.00534649999999,5.091014894470913],[103.00568419999999,5.09138229447053],[103.00531820851965,5.089927565112556]]]]},"properties":{"place_id":"640e9c2f-f2b3-5b77-8344-6b604c9cbe38","habitat":"water_edge","habitat_label":"Water edge","resolution_m":50}}]}