{"type":"FeatureCollection","metadata":{"schema_version":1,"place_id":"643b15dd-5b26-595b-8030-2d5447dff6f0","place_name":"PD Ostrich Show Farm","place_type":"park","osm_reference":"way/588476070","protection_context":"no protected status confirmed from included OSM tags","resolution_m":50,"raster_coverage":1.0,"interpretation":"Suggested search habitats, not predicted plant locations or probabilities of presence."},"features":[{"type":"Feature","geometry":{"type":"Polygon","coordinates":[[[101.86128566522125,2.446376389913418],[101.86163229055231,2.446991380284779],[101.8629848,2.447647097281559],[101.86215049894287,2.446376389913418],[101.86128566522125,2.446376389913418]]]},"properties":{"place_id":"643b15dd-5b26-595b-8030-2d5447dff6f0","habitat":"forest_interior","habitat_label":"Forest interior","resolution_m":50}},{"type":"Feature","geometry":{"type":"MultiPolygon","coordinates":[[[[101.86299628607092,2.447160949206688],[101.86266870733343,2.446304644348312],[101.86141099999999,2.4457294972836636],[101.86128566522125,2.446376389913418],[101.86215049894287,2.446376389913418],[101.86215049894287,2.446768669504205],[101.86299628607092,2.447160949206688]]],[[[101.86163229055231,2.446768669504205],[101.86149354663539,2.446768669504205],[101.86163229055231,2.446991380284779],[101.86163229055231,2.446768669504205]]]]},"properties":{"place_id":"643b15dd-5b26-595b-8030-2d5447dff6f0","habitat":"forest_edge_opening","habitat_label":"Forest edge or opening","resolution_m":50}},{"type":"Feature","geometry":{"type":"MultiPolygon","coordinates":[[[[101.86215049894287,2.446376389913418],[101.86215049894287,2.446768669504205],[101.86299628607092,2.447160949206688],[101.8630128,2.4464619972828863],[101.86141099999999,2.4457294972836636],[101.86128566522125,2.446376389913418],[101.86215049894287,2.446376389913418]]],[[[101.86163229055231,2.446768669504205],[101.86149354663539,2.446768669504205],[101.86163229055231,2.446991380284779],[101.86163229055231,2.446768669504205]]]]},"properties":{"place_id":"643b15dd-5b26-595b-8030-2d5447dff6f0","habitat":"disturbed_built_edge","habitat_label":"Disturbed, bare or built edge","resolution_m":50}}]}