{"type":"FeatureCollection","metadata":{"schema_version":1,"place_id":"648641d6-6d5a-51a1-bc63-02235a240970","place_name":"Mahkota Park","place_type":"park","osm_reference":"way/536536798","protection_context":"no protected status confirmed from included OSM tags","resolution_m":50,"raster_coverage":1.0,"interpretation":"Suggested search habitats, not predicted plant locations or probabilities of presence."},"features":[{"type":"Feature","geometry":{"type":"Polygon","coordinates":[[[103.63692329999999,1.42412109841128],[103.63735779999999,1.4249911984103303],[103.6382858,1.424724398410612],[103.6381102,1.4239480984114905],[103.6373712,1.4235807984118944],[103.63692329999999,1.42412109841128]]]},"properties":{"place_id":"648641d6-6d5a-51a1-bc63-02235a240970","habitat":"forest_edge_opening","habitat_label":"Forest edge or opening","resolution_m":50}},{"type":"Feature","geometry":{"type":"Polygon","coordinates":[[[103.63805065339417,1.4244221414841851],[103.63805065339417,1.4240300920349678],[103.63753244500361,1.4240300920349678],[103.63753244500361,1.4244221414841851],[103.63805065339417,1.4244221414841851]]]},"properties":{"place_id":"648641d6-6d5a-51a1-bc63-02235a240970","habitat":"open_grassland","habitat_label":"Open grassland or shrubland","resolution_m":50}},{"type":"Feature","geometry":{"type":"Polygon","coordinates":[[[103.63692329999999,1.42412109841128],[103.63735779999999,1.4249911984103303],[103.6382858,1.424724398410612],[103.6381102,1.4239480984114905],[103.6373712,1.4235807984118944],[103.63692329999999,1.42412109841128]]]},"properties":{"place_id":"648641d6-6d5a-51a1-bc63-02235a240970","habitat":"disturbed_built_edge","habitat_label":"Disturbed, bare or built edge","resolution_m":50}}]}