{"type":"FeatureCollection","metadata":{"schema_version":1,"place_id":"649ff061-bae8-5c19-bbf0-657e0758d1ed","place_name":"Suria Villa Park","place_type":"park","osm_reference":"way/1299114743","protection_context":"no protected status confirmed from included OSM tags","resolution_m":50,"raster_coverage":1.0,"interpretation":"Suggested search habitats, not predicted plant locations or probabilities of presence."},"features":[{"type":"Feature","geometry":{"type":"MultiPolygon","coordinates":[[[[101.80411115920006,2.956739053425874],[101.80489761660795,2.9560483082247],[101.80332629999998,2.9557515967273496],[101.80411115920006,2.956739053425874]]],[[[101.8051475759812,2.9561766883042386],[101.80462936759064,2.9564407480971306],[101.80462936759064,2.956833188104676],[101.8042105826096,2.956833188104676],[101.8045116,2.9569694967260154],[101.8052976,2.956617496726435],[101.8051475759812,2.9561766883042386]]]]},"properties":{"place_id":"649ff061-bae8-5c19-bbf0-657e0758d1ed","habitat":"forest_edge_opening","habitat_label":"Forest edge or opening","resolution_m":50}},{"type":"Feature","geometry":{"type":"MultiPolygon","coordinates":[[[[101.80359295080952,2.9562427205849042],[101.80411115920006,2.9564407480971306],[101.80411115920006,2.955728106958956],[101.80359295080952,2.95574361623123],[101.80359295080952,2.9562427205849042]]],[[[101.80481597092717,2.956833188104676],[101.80527760022166,2.9564407480971306],[101.80462936759064,2.9560483082247],[101.80411115920006,2.956739053425874],[101.80481597092717,2.956833188104676]]]]},"properties":{"place_id":"649ff061-bae8-5c19-bbf0-657e0758d1ed","habitat":"open_grassland","habitat_label":"Open grassland or shrubland","resolution_m":50}},{"type":"Feature","geometry":{"type":"Polygon","coordinates":[[[101.80437429999999,2.9569881967260163],[101.80462936759064,2.9564407480971306],[101.8052976,2.956617496726435],[101.80525389999998,2.9562312967268323],[101.80426519999999,2.955723496727377],[101.80332629999998,2.9557515967273496],[101.80437429999999,2.9569881967260163]]]},"properties":{"place_id":"649ff061-bae8-5c19-bbf0-657e0758d1ed","habitat":"disturbed_built_edge","habitat_label":"Disturbed, bare or built edge","resolution_m":50}},{"type":"Feature","geometry":{"type":"Polygon","coordinates":[[[101.80462936759064,2.9564407480971306],[101.80462936759064,2.9560483082247],[101.80411115920006,2.9560483082247],[101.80411115920006,2.9564407480971306],[101.80462936759064,2.9564407480971306]]]},"properties":{"place_id":"649ff061-bae8-5c19-bbf0-657e0758d1ed","habitat":"seasonal_water_wetland","habitat_label":"Seasonal water or wetland","resolution_m":50}},{"type":"Feature","geometry":{"type":"Polygon","coordinates":[[[101.80359295080952,2.95574361623123],[101.80437429999999,2.9569881967260163],[101.8051475759812,2.956684683046995],[101.80525389999998,2.9562312967268323],[101.80426519999999,2.955723496727377],[101.80359295080952,2.95574361623123]],[[101.80411115920006,2.9560483082247],[101.80462936759064,2.9560483082247],[101.80462936759064,2.9564407480971306],[101.80411115920006,2.9564407480971306],[101.80411115920006,2.9560483082247]]]},"properties":{"place_id":"649ff061-bae8-5c19-bbf0-657e0758d1ed","habitat":"water_edge","habitat_label":"Water edge","resolution_m":50}}]}