{"type":"FeatureCollection","metadata":{"schema_version":1,"place_id":"64ba1ad5-fdad-5ee3-926c-095aa68bf168","place_name":"D Kayangan Park","place_type":"park","osm_reference":"relation/12289245","protection_context":"no protected status confirmed from included OSM tags","resolution_m":50,"raster_coverage":1.0,"interpretation":"Suggested search habitats, not predicted plant locations or probabilities of presence."},"features":[{"type":"Feature","geometry":{"type":"Polygon","coordinates":[[[101.54193009999999,3.0749192965981664],[101.54086129679527,3.074289446078251],[101.5398824,3.0753859965976567],[101.5398824,3.0760899965968806],[101.5418977135764,3.076125447247452],[101.54193009999999,3.0749192965981664]],[[101.54074190000001,3.074832296598263],[101.5414706,3.0748085965982996],[101.5415441,3.075555196597476],[101.5408279,3.075452996597567],[101.54074190000001,3.074832296598263]]]},"properties":{"place_id":"64ba1ad5-fdad-5ee3-926c-095aa68bf168","habitat":"forest_edge_opening","habitat_label":"Forest edge or opening","resolution_m":50}},{"type":"Feature","geometry":{"type":"MultiPolygon","coordinates":[[[[101.54137950518583,3.074818619975838],[101.54086129679527,3.074571372872385],[101.54086129679527,3.0748218363033],[101.54137950518583,3.074818619975838]]],[[[101.5403430884047,3.075748817788198],[101.5398824,3.075748817788198],[101.5398824,3.0760899965968806],[101.5403430884047,3.0761057494682467],[101.5403430884047,3.075748817788198]]]]},"properties":{"place_id":"64ba1ad5-fdad-5ee3-926c-095aa68bf168","habitat":"open_grassland","habitat_label":"Open grassland or shrubland","resolution_m":50}},{"type":"Feature","geometry":{"type":"Polygon","coordinates":[[[101.5398824,3.0760899965968806],[101.54193009999999,3.0761255965968806],[101.54193009999999,3.0749192965981664],[101.54095569999998,3.074183696598958],[101.5398824,3.0753859965976567],[101.5398824,3.0760899965968806]],[[101.54137950518583,3.075748817788198],[101.54086129679527,3.075748817788198],[101.54074190000001,3.074832296598263],[101.54154809999999,3.0749119965981873],[101.54137950518583,3.075748817788198]]]},"properties":{"place_id":"64ba1ad5-fdad-5ee3-926c-095aa68bf168","habitat":"disturbed_built_edge","habitat_label":"Disturbed, bare or built edge","resolution_m":50}},{"type":"Feature","geometry":{"type":"Polygon","coordinates":[[[101.5403430884047,3.0753563360090106],[101.5403430884047,3.075748817788198],[101.54137950518583,3.0761230575384797],[101.54137950518583,3.075748817788198],[101.5418977135764,3.075748817788198],[101.5418977135764,3.074894847233527],[101.54095569999998,3.074183696598958],[101.53990887816084,3.0753563360090106],[101.5403430884047,3.0753563360090106]],[[101.54074190000001,3.074832296598263],[101.5414706,3.0748085965982996],[101.5415441,3.075555196597476],[101.5408279,3.075452996597567],[101.54074190000001,3.074832296598263]]]},"properties":{"place_id":"64ba1ad5-fdad-5ee3-926c-095aa68bf168","habitat":"water_edge","habitat_label":"Water edge","resolution_m":50}}]}