{"type":"FeatureCollection","metadata":{"schema_version":1,"place_id":"65186e24-1003-5803-9486-2d340e7ac027","place_name":"Hutan Simpanan Kekal Triang","place_type":"forest","osm_reference":"relation/16369368","protection_context":"mapped protected boundary","resolution_m":50,"raster_coverage":1.0,"interpretation":"Suggested search habitats, not predicted plant locations or probabilities of presence."},"features":[{"type":"Feature","geometry":{"type":"MultiPolygon","coordinates":[[[[102.10415381733468,2.9069943821709634],[102.10415381733468,2.9066019591783716],[102.10363560894413,2.9066019591783716],[102.10363560894413,2.9069943821709634],[102.10415381733468,2.9069943821709634]]],[[[102.09741710825739,2.9160201477005123],[102.09741710825739,2.9152352957288623],[102.09689889986683,2.9152352957288623],[102.09689889986683,2.9160201477005123],[102.09741710825739,2.9160201477005123]]],[[[102.17618478362262,2.9803798364987917],[102.17408829999997,2.977848996703395],[102.1714305,2.975685196705715],[102.1687146704143,2.9682140071791765],[102.16582061581141,2.96664423225812],[102.16582061581141,2.965859345611164],[102.16633882420196,2.965859345611164],[102.16633882420196,2.9654669024910163],[102.16729046127806,2.965859345611164],[102.16768142776021,2.9650744595063974],[102.16685703259253,2.96468201665729],[102.16685703259253,2.9642895739436756],[102.16633882420196,2.9642895739436756],[102.16685703259253,2.9635046889228542],[102.16737524098308,2.9635046889228542],[102.16789344937365,2.9642895739436756],[102.16838569999999,2.963660596718787],[102.17234919999999,2.9656512967166018],[102.1751976,2.968957496713012],[102.1777802,2.9750562967064154],[102.1811082,2.9798914967011734],[102.1819575,2.981830196699048],[102.18343970109046,2.980238790153914],[102.18343970109046,2.9795949403401294],[102.18395790948102,2.9795949403401294],[102.18550144068111,2.978025149656816],[102.18499432626214,2.978025149656816],[102.18499432626214,2.9776327023263014],[102.18551253465272,2.9776327023263014],[102.18551253465272,2.9772402551318757],[102.1861868,2.977289296703966],[102.18812809999999,2.9789336967022146],[102.19322410000001,2.963874096718538],[102.1954947,2.964376096717999],[102.1971356,2.9612545967213744],[102.20417859999999,2.9629912967195065],[102.20626439999997,2.9626912967198162],[102.2072235,2.9617218967208574],[102.21122169999998,2.9612314967214117],[102.20551909999999,2.95588839672724],[102.20468624510345,2.9544785500857524],[102.20468624510345,2.9536936718264912],[102.20520445349402,2.9536936718264912],[102.20520445349402,2.953301232899351],[102.20572266188456,2.953544578086488],[102.20771460000002,2.9523398967310803],[102.2064435,2.9491662967344947],[102.20367019999998,2.9478564967359366],[102.20179819999997,2.948433496735316],[102.1901734,2.946356296737541],[102.186129,2.9337081967512946],[102.18823210000001,2.924314396761491],[102.18906410000001,2.9235526967623247],[102.19432207729223,2.9237457809169913],[102.1948402856828,2.9234762680356985],[102.1948402856828,2.9237648106374867],[102.19566229999998,2.92379499676206],[102.1958125,2.923471896762419],[102.19352449999997,2.9222254967637746],[102.19241520000001,2.9199404967662765],[102.1941601,2.9187287967675424],[102.19605520000002,2.920632996765486],[102.19986849999998,2.9228948967630286],[102.2165661,2.9232871967626037],[102.2163696,2.919328896766913],[102.2184958,2.9156358967709304],[102.22311799999997,2.9141010967725958],[102.2254002,2.9141731967725275],[102.2255389,2.9208463967652527],[102.226450997507,2.92083784294278],[102.22696920589756,2.919944415556868],[102.22800562267868,2.920336843076093],[102.22800562267868,2.920823330574372],[102.2304731,2.920800296765326],[102.2334255,2.9244066967614],[102.22812149999999,2.9269801967585836],[102.22607619999998,2.92573379675995],[102.22621490000002,2.922467896763498],[102.22385995555419,2.9234762680356985],[102.22334174716363,2.9242611256112063],[102.22230533038251,2.9240889306059477],[102.221038,2.9246143967611578],[102.2183167,2.9275802967579576],[102.21835139999999,2.933113896751936],[102.21922379999998,2.933090796751974],[102.22038519999998,2.93120389675402],[102.22426199999997,2.9302345967550925],[102.2258451,2.9313192967539066],[102.22843349999998,2.9308807967543804],[102.23050199999999,2.933188896751861],[102.23028819999999,2.936258596748516],[102.2339513,2.9386531967459257],[102.2349161,2.939740896744726],[102.23733119999997,2.940084196744377],[102.24028359999998,2.9386819967458964],[102.2412254,2.938757096745808],[102.24313779999999,2.936772096747977],[102.24361739999999,2.934821796750071],[102.2458938,2.9340312967509234],[102.24862089999998,2.934204396750758],[102.2501347,2.9333734967516496],[102.25379799999999,2.9335180967515093],[102.24984779999998,2.9291433967562717],[102.2489325,2.924064896761752],[102.2481695,2.9234493967624524],[102.24511689999999,2.923911496761918],[102.24404859999999,2.92329609676262],[102.24267499999999,2.923296296762628],[102.2402328,2.924681596761092],[102.23743959999999,2.920117596766068],[102.23762959999998,2.9181776967681508],[102.2384022,2.9169870967694522],[102.24042929999999,2.910677296776308],[102.2435273,2.906669696780659],[102.24298209999999,2.905136496782347],[102.23851919999998,2.90312529678451],[102.2342825,2.9068304967804797],[102.2319931,2.9071385967801504],[102.2307722,2.9057536967816735],[102.22588850000001,2.9034457967841814],[102.22087980000002,2.907531796779738],[102.217254,2.907613896779649],[102.21482519999998,2.9082972967788785],[102.2115872,2.910300396776727],[102.20818339999998,2.9097575967773186],[102.2072677,2.909295996777805],[102.2026044,2.9110790967758664],[102.19795809999998,2.906526796780831],[102.19764979999997,2.9043868967831634],[102.1939912,2.897908996790174],[102.19170199999999,2.8966779967915115],[102.1894132,2.893754196794696],[102.1878869,2.893908196794525],[102.18391840000001,2.896678696791517],[102.1819343,2.896678796791516],[102.17883419999998,2.897800496790297],[102.1772336,2.899258896788713],[102.1740096,2.900510996787359],[102.1699824,2.9030411967846055],[102.16882549999998,2.9030422967846112],[102.16580039999998,2.9014306967863708],[102.16478139999998,2.8993894967885594],[102.1627871,2.8993253967886443],[102.1613213,2.89863419678939],[102.15946419999999,2.8985982967894226],[102.15772149999998,2.8996019967883404],[102.15622050000002,2.8988843967891054],[102.15393119999997,2.895877596792393],[102.15289949999999,2.895336196792973],[102.15013139999999,2.8949739967933503],[102.14845069999998,2.8938468967946],[102.14748229999998,2.893777296794702],[102.14489919999998,2.895196196793146],[102.14326110000002,2.8954258967928883],[102.1421941,2.898529196789514],[102.14097849999999,2.8991893967887865],[102.1335207,2.8958632967924016],[102.13204530000002,2.8960912967921724],[102.1298489,2.895763496792521],[102.12792080000001,2.893377396795111],[102.12415049999998,2.8899165967988765],[102.11941359999999,2.8865914968024913],[102.11473829999998,2.884348096804933],[102.1094285,2.8790202968107335],[102.10703809999998,2.878769196810971],[102.10643649999999,2.878325896811462],[102.1033501,2.881322596808219],[102.10167639999999,2.883615696805706],[102.1010756,2.8854372968037336],[102.09970229999999,2.886573096802485],[102.09667829999998,2.8874517968015483],[102.1009423,2.9006100967872386],[102.10050319999999,2.9075344967797085],[102.0992552,2.908711596778432],[102.097545,2.9088269967783336],[102.09528009999997,2.911689096775192],[102.0933619,2.9113428967755772],[102.09220639999998,2.910073396776956],[102.09004549999997,2.9099579967770945],[102.0879193,2.9112043967757595],[102.0876189,2.9121160967747346],[102.08848260000002,2.913033496773752],[102.08750910000002,2.914452996772223],[102.08797129999998,2.916305296770194],[102.0906579,2.917828596768529],[102.09158239999998,2.9187979967675006],[102.09147840000001,2.9200327967661526],[102.0892828,2.92087529676525],[102.0898028,2.9223524967636236],[102.09119860757067,2.9229849160099217],[102.09119860757067,2.9226914109945774],[102.09223502435178,2.9226914109945774],[102.09223502435178,2.9230838394483487],[102.09275323274235,2.9230838394483487],[102.09275323274235,2.924207708184074],[102.09477169999997,2.9268531967587426],[102.0961121,2.9281226967573555],[102.09789160000001,2.928538096756893],[102.09909339999999,2.929669096755693],[102.09793789999999,2.9329003967521556],[102.09826139999998,2.933500496751513],[102.09948629999997,2.9340081967509906],[102.1006418,2.9362931967484918],[102.10205160000001,2.9367547967480054],[102.1030916,2.9381626967464656],[102.10334579999999,2.939524496744971],[102.10438579999999,2.9408861967434956],[102.10541419999998,2.9464947967373973],[102.10622665089694,2.947010452815682],[102.10622665089694,2.9462373552730745],[102.10570844250637,2.9462373552730745],[102.10570844250637,2.9438827390972317],[102.10622665089694,2.9438827390972317],[102.10622665089694,2.9434903035389057],[102.10726306767805,2.9434903035389057],[102.10726306767805,2.9419205626505978],[102.10674485928747,2.9419205626505978],[102.10726306767805,2.9395659553511404],[102.10778127606861,2.9395659553511404],[102.10778127606861,2.939173521271517],[102.10881769284973,2.939173521271517],[102.10933590124029,2.939958389565102],[102.11037231802142,2.939958389565102],[102.11140873480252,2.941135693013189],[102.11244515158366,2.941135693013189],[102.11244515158366,2.9415281277646796],[102.11296335997422,2.9415281277646796],[102.11244515158366,2.942312997670962],[102.11296335997422,2.942312997670962],[102.11296335997422,2.9427054328257887],[102.11348156836479,2.9427054328257887],[102.11348156836479,2.9434903035389057],[102.1145179851459,2.9438827390972317],[102.1145179851459,2.945060046579498],[102.11555440192703,2.945452482676076],[102.11555440192703,2.9462373552730745],[102.11607261031759,2.9462373552730745],[102.11710902709869,2.9474146651784485],[102.11814544387983,2.9474146651784485],[102.11814544387983,2.947807102082945],[102.1186636522704,2.947807102082945],[102.1197000690515,2.950946602170232],[102.11918186066093,2.950946602170232],[102.11918186066093,2.9513390402878277],[102.1186636522704,2.9513390402878277],[102.1186636522704,2.950946602170232],[102.11762723548927,2.950946602170232],[102.11762723548927,2.951317576575614],[102.1192692,2.9513646967321443],[102.1198008,2.9520686967313567],[102.1199394,2.9536842967295933],[102.12136079999999,2.9545958967286134],[102.12659539999999,2.955069096728112],[102.1270345,2.953522696729802],[102.1281034,2.954284396728956],[102.12902782008159,2.954331513079373],[102.13213707042496,2.953187759332513],[102.13213707042496,2.9529087941071803],[102.13594949999998,2.9521840967312345],[102.14075079999999,2.9524609967309257],[102.1437321,2.955311396727841],[102.15156669999998,2.9553344967278226],[102.1528147,2.964139596718261],[102.1558075,2.9669090967152645],[102.1547213,2.970024896711878],[102.15476730520115,2.9721384539802482],[102.1554564480002,2.9721384539802482],[102.15597465639075,2.97292334496992],[102.15493823960963,2.9733157906685563],[102.15484839999999,2.975864096705546],[102.1525142,2.976025696705352],[102.15093109999998,2.9778719967033394],[102.1494867,2.976441096704911],[102.15154359999998,2.974710096706798],[102.15147429999999,2.9739715967075764],[102.1527454,2.9728059967088534],[102.15290709999998,2.9702210967116627],[102.15157829999997,2.970440396711416],[102.1513934,2.9715135967102575],[102.1497063,2.9713865967103987],[102.1506769,2.9688362967131594],[102.14987959999999,2.9679015967141904],[102.14749919999998,2.9678553967142336],[102.1449917,2.968732496713278],[102.14150859999998,2.9669668967151814],[102.1372662,2.977606696703645],[102.13719319999997,2.987407096693018],[102.13780810000002,2.988408596691912],[102.1377532,2.991975296688065],[102.15048050000001,2.992008296688023],[102.1464476,2.9953547966844076],[102.1464361,2.999082096680363],[102.1489898,3.0043786966746153],[102.15875419999999,3.0042863966747158],[102.1663692,2.998447396681045],[102.1667159,2.994823896684949],[102.1730136,2.9922851966877033],[102.1803398,2.9988050966806705],[102.18592099999998,3.002105496677087],[102.1866606,3.0020938966770836],[102.18669529999998,3.0014707966777583],[102.18401439999997,2.9996705966796973],[102.18343970109046,2.99804014439066],[102.1829214926999,2.99804014439066],[102.1829214926999,2.997647690095637],[102.18343970109046,2.997647690095637],[102.18381789999998,2.9932891966866344],[102.18348279999998,2.9922390966877783],[102.1816455,2.9908369966892683],[102.17944999999999,2.9857882966947793],[102.17861219999999,2.98503829669558],[102.17480469999998,2.986094196694458],[102.17312919999999,2.9876115966928],[102.1712225,2.9876692966927187],[102.16959319999998,2.9898733966903333],[102.1654217,2.9911542966889426],[102.16453189999997,2.9901272966900527],[102.1622093,2.990433096689737],[102.16045859999998,2.9878366966925345],[102.16022750000002,2.985747996694794],[102.1611519,2.9836649966970654],[102.1610999,2.9828052966979883],[102.1600715,2.9828110966979824],[102.1594475,2.9820205966988613],[102.16003970000001,2.979626096701455],[102.163047,2.979634796701451],[102.16433839999999,2.980214596700797],[102.16706259999998,2.980214596700797],[102.16755080000001,2.9793490967017373],[102.16848390000001,2.9794010967017135],[102.1682528,2.9818763966989903],[102.17008429999998,2.9826263966981985],[102.1752496,2.981397496699539],[102.1759198,2.981131996699809],[102.17618478362262,2.9803798364987917]],[[102.1606385319058,2.9776327023263014],[102.16167494868692,2.978025149656816],[102.16115674029635,2.978810044726186],[102.16012032351523,2.9784175971234386],[102.1606385319058,2.9776327023263014]],[[102.15856569834355,2.9772402551318757],[102.15960211512468,2.9776327023263014],[102.15908390673411,2.9784175971234386],[102.15804748995299,2.978025149656816],[102.15856569834355,2.9772402551318757]],[[102.16737524098308,2.9737082365030827],[102.16841165776421,2.9737082365030827],[102.16892986615477,2.97292334496992],[102.16996628293589,2.9733157906685563],[102.16841165776421,2.974885574822186],[102.16737524098308,2.974885574822186],[102.16737524098308,2.97449312857988],[102.16685703259253,2.97449312857988],[102.16737524098308,2.9737082365030827]],[[102.17981224235653,2.9682140071791765],[102.18084865913767,2.9686064512485353],[102.1803304507471,2.969391339794291],[102.17929403396597,2.968998895453567],[102.17981224235653,2.9682140071791765]],[[102.17203911649813,2.9642895739436756],[102.17100269971701,2.9642895739436756],[102.17100269971701,2.963897131365537],[102.16944807454533,2.9631122466156117],[102.16944807454533,2.9627198044437897],[102.16996628293589,2.9627198044437897],[102.16996628293589,2.9615424787406672],[102.17048449132645,2.9615424787406672],[102.17100269971701,2.960757595615359],[102.17255732488869,2.960757595615359],[102.17307553327926,2.9599727130313003],[102.1751483668415,2.9599727130313003],[102.1751483668415,2.9603651542556824],[102.17566657523206,2.9603651542556824],[102.17566657523206,2.961150037110347],[102.17618478362262,2.961150037110347],[102.17618478362262,2.9615424787406672],[102.17566657523206,2.9615424787406672],[102.17566657523206,2.9627198044437897],[102.17463015845092,2.9631122466156117],[102.1751483668415,2.963897131365537],[102.17463015845092,2.963897131365537],[102.17463015845092,2.9642895739436756],[102.1735937416698,2.9642895739436756],[102.1735937416698,2.96468201665729],[102.17307553327926,2.96468201665729],[102.17255732488869,2.963897131365537],[102.17203911649813,2.963897131365537],[102.17203911649813,2.9642895739436756]],[[102.15701107317187,2.9560483082247],[102.15804748995299,2.9564407480971306],[102.15752928156245,2.957225628247353],[102.15649286478131,2.956833188104676],[102.15701107317187,2.9560483082247]],[[102.12591856973825,2.950554164187498],[102.12695498651935,2.950946602170232],[102.12643677812878,2.9517314785403017],[102.12540036134767,2.9513390402878277],[102.12591856973825,2.950554164187498]],[[102.19173103533943,2.948591976296107],[102.19276745212056,2.9489844136048076],[102.19224924372999,2.949769288626539],[102.19121282694887,2.9493768510482794],[102.19173103533943,2.948591976296107]],[[102.19224924372999,2.9470222284086494],[102.19328566051112,2.9474146651784485],[102.19276745212056,2.948199539122159],[102.19173103533943,2.947807102082945],[102.19224924372999,2.9470222284086494]],[[102.18862178499607,2.9462373552730745],[102.18965820177719,2.9466297917735313],[102.18913999338662,2.9474146651784485],[102.18810357660551,2.9470222284086494],[102.18862178499607,2.9462373552730745]],[[102.18654895143382,2.9407432583961084],[102.18758536821495,2.941135693013189],[102.18706715982438,2.9419205626505978],[102.18603074304326,2.9415281277646796],[102.18654895143382,2.9407432583961084]],[[102.18343970109046,2.9356416205970914],[102.18447611787158,2.936034053468493],[102.18395790948102,2.9368189196138403],[102.1829214926999,2.936426486474071],[102.18343970109046,2.9356416205970914]],[[102.09948994181963,2.916412573886208],[102.09948994181963,2.9183747068141264],[102.10052635860076,2.9187671337997227],[102.09948994181963,2.920336843076093],[102.09845352503852,2.920336843076093],[102.09845352503852,2.919944415556868],[102.09793531664796,2.919944415556868],[102.09793531664796,2.920336843076093],[102.09638069147627,2.920336843076093],[102.09638069147627,2.919944415556868],[102.09534427469515,2.920336843076093],[102.09534427469515,2.919944415556868],[102.09430785791403,2.919944415556868],[102.09430785791403,2.919551988171076],[102.09378964952349,2.919551988171076],[102.09378964952349,2.9156277216480695],[102.09430785791403,2.9156277216480695],[102.09430785791403,2.9132731681307305],[102.09482606630459,2.9132731681307305],[102.09482606630459,2.912880743010558],[102.09534427469515,2.912880743010558],[102.09534427469515,2.9132731681307305],[102.09638069147627,2.9132731681307305],[102.09638069147627,2.9136655933840307],[102.09689889986683,2.9136655933840307],[102.09689889986683,2.9132731681307305],[102.09845352503852,2.9132731681307305],[102.09845352503852,2.9136655933840307],[102.10052635860076,2.9132731681307305],[102.10052635860076,2.9136655933840307],[102.10104456699133,2.9136655933840307],[102.10104456699133,2.9148428699428734],[102.1000081502102,2.9152352957288623],[102.1000081502102,2.916412573886208],[102.09948994181963,2.916412573886208]],[[102.10156277538188,2.9148428699428734],[102.10156277538188,2.9144504442900834],[102.10208098377244,2.9144504442900834],[102.102599192163,2.9152352957288623],[102.10156277538188,2.9156277216480695],[102.10156277538188,2.9152352957288623],[102.10104456699133,2.9152352957288623],[102.10104456699133,2.9148428699428734],[102.10156277538188,2.9148428699428734]],[[102.10363560894413,2.910526195084184],[102.10415381733468,2.910526195084184],[102.10415381733468,2.9101337708953974],[102.10467202572524,2.9101337708953974],[102.10467202572524,2.910526195084184],[102.10570844250637,2.910526195084184],[102.10570844250637,2.9101337708953974],[102.10622665089694,2.9101337708953974],[102.10674485928747,2.910918619405972],[102.10622665089694,2.910918619405972],[102.10622665089694,2.9113110438607794],[102.10519023411581,2.910918619405972],[102.10519023411581,2.9113110438607794],[102.10363560894413,2.9120958931695227],[102.10363560894413,2.9117034684486236],[102.10311740055357,2.9117034684486236],[102.10311740055357,2.9113110438607794],[102.10363560894413,2.9113110438607794],[102.10363560894413,2.910526195084184]],[[102.10156277538188,2.9101337708953974],[102.102599192163,2.910526195084184],[102.10208098377244,2.9113110438607794],[102.10104456699133,2.910918619405972],[102.10156277538188,2.9101337708953974]],[[102.10415381733468,2.9085640754698954],[102.10519023411581,2.90895649912686],[102.10467202572524,2.9097413468395925],[102.10363560894413,2.9093489229167533],[102.10415381733468,2.9085640754698954]],[[102.10311740055357,2.9066019591783716],[102.102599192163,2.9066019591783716],[102.102599192163,2.906209536318599],[102.10363560894413,2.90581711359163],[102.10415381733468,2.9066019591783716],[102.10519023411581,2.9066019591783716],[102.10519023411581,2.906209536318599],[102.10622665089694,2.9066019591783716],[102.10622665089694,2.906209536318599],[102.10674485928747,2.906209536318599],[102.10726306767805,2.9069943821709634],[102.10674485928747,2.9069943821709634],[102.10674485928747,2.9073868052963934],[102.10570844250637,2.9069943821709634],[102.10570844250637,2.9073868052963934],[102.10467202572524,2.9073868052963934],[102.10467202572524,2.9077792285546806],[102.10415381733468,2.9077792285546806],[102.10311740055357,2.9066019591783716]],[[102.10156277538188,2.902677736554589],[102.10104456699133,2.902677736554589],[102.10104456699133,2.9022853150220276],[102.10208098377244,2.9018928936220876],[102.10208098377244,2.9022853150220276],[102.102599192163,2.9022853150220276],[102.102599192163,2.902677736554589],[102.10208098377244,2.902677736554589],[102.10208098377244,2.90346258001765],[102.102599192163,2.90346258001765],[102.102599192163,2.9050322685360257],[102.10208098377244,2.9050322685360257],[102.10208098377244,2.9054246909974455],[102.10104456699133,2.9050322685360257],[102.10104456699133,2.90346258001765],[102.10156277538188,2.90346258001765],[102.10156277538188,2.902677736554589]],[[102.10622665089694,2.902677736554589],[102.10726306767805,2.9030701582197906],[102.10674485928747,2.9038550019481852],[102.10570844250637,2.90346258001765],[102.10622665089694,2.902677736554589]],[[102.10674485928747,2.901108051220001],[102.10778127606861,2.9015004723547517],[102.10726306767805,2.9022853150220276],[102.10622665089694,2.9018928936220876],[102.10674485928747,2.901108051220001]],[[102.10467202572524,2.8999307886110812],[102.10570844250637,2.900323209348184],[102.10519023411581,2.901108051220001],[102.10415381733468,2.9007156302178183],[102.10467202572524,2.8999307886110812]],[[102.10415381733468,2.8858037301890276],[102.10519023411581,2.8861961461670225],[102.10467202572524,2.886980978518675],[102.10363560894413,2.8865885622768985],[102.10415381733468,2.8858037301890276]]],[[[102.16685703259253,2.96664423225812],[102.16685703259253,2.9667294774920023],[102.16689949479594,2.96664423225812],[102.16685703259253,2.96664423225812]]],[[[102.10748182477654,2.947807102082945],[102.10801419999999,2.948144996735631],[102.10985410963085,2.948414568158872],[102.10933590124029,2.947807102082945],[102.10748182477654,2.947807102082945]]],[[[102.11296335997422,2.949769288626539],[102.11296335997422,2.9493768510482794],[102.11244515158366,2.9493768510482794],[102.11253354112867,2.949769288626539],[102.11296335997422,2.949769288626539]]],[[[102.11296335997422,2.950554164187498],[102.11292189811742,2.950554164187498],[102.11296335997422,2.9506379592817784],[102.11296335997422,2.950554164187498]]],[[[102.16892986615477,2.974100682473518],[102.16892986615477,2.9737082365030827],[102.16841165776421,2.9737082365030827],[102.16841165776421,2.974100682473518],[102.16892986615477,2.974100682473518]]],[[[102.1948402856828,3.0825841932475226],[102.19432207729223,3.0820285453901155],[102.19535849407336,3.081636061359037],[102.19535849407336,3.0808510937195],[102.19587670246392,3.080458610111005],[102.19691311924504,3.080458610111005],[102.19697310912245,3.0808510937195],[102.19773330637778,3.074963854370412],[102.19691311924504,3.0753563360090106],[102.19691311924504,3.074963854370412],[102.19639491085447,3.074963854370412],[102.19639491085447,3.0741788915149115],[102.19691311924504,3.0741788915149115],[102.19691311924504,3.0737864102979735],[102.1978346660118,3.0741788915149115],[102.19813874491393,3.071824006320677],[102.1974313276356,3.072216486835211],[102.19639491085447,3.071039045712872],[102.19691311924504,3.071039045712872],[102.1974313276356,3.0702540856666296],[102.19834146418204,3.0702540856666296],[102.19965220000002,3.060103396614196],[102.17909570000002,3.05757499661697],[102.1789455,3.03955459663646],[102.1806836,3.031797796644892],[102.19282859999998,3.0310263966457063],[102.1987724,3.026858696650214],[102.201004,3.0123305966659797],[102.1986973,3.010289596668182],[102.19010349999999,2.987216696693201],[102.18762519999999,2.9872594966931723],[102.18717449999998,2.9880844966922844],[102.18860149999999,2.9898630966903412],[102.1895885,2.992541696687437],[102.18943829999999,3.004412896674556],[102.18818839999999,3.006539696672265],[102.18805429999998,3.008087896670567],[102.1862492,3.0090761966695028],[102.1872496,3.0130591966651856],[102.1835643,3.0168465966610696],[102.18408459999999,3.0178696966599627],[102.1869171,3.0186518966591165],[102.1858388,3.022776696654645],[102.18248069999999,3.021978496655539],[102.18176189999998,3.0244962966527846],[102.1795839,3.026306996650838],[102.17913329999999,3.0271854966498735],[102.17772239999996,3.0277372966493012],[102.17648859999998,3.0268265966502663],[102.1746111,3.023580296653767],[102.1385917,3.0236043966537407],[102.13853269999998,3.027657896649355],[102.13991019628337,3.028860447977547],[102.14173649999998,3.0291397966477525],[102.1430643,3.026695596650393],[102.1440955,3.026725796650381],[102.14629770000002,3.025798996651387],[102.147054,3.027277596649769],[102.1478278,3.027989996649015],[102.14881219999998,3.032287596644346],[102.149991,3.033731296642793],[102.15158889999996,3.0345157966419274],[102.1533661,3.037330796638876],[102.15597465639075,3.0387516697177235],[102.15493823960963,3.037678737125859],[102.1554564480002,3.037678737125859],[102.15597465639075,3.036893800812324],[102.15804748995299,3.036893800812324],[102.15804748995299,3.037286268899673],[102.15856569834355,3.037286268899673],[102.15856569834355,3.038071205490899],[102.15804748995299,3.038071205490899],[102.15752928156245,3.038771317078579],[102.15821179999998,3.03881329663727],[102.1605493,3.0372163966389873],[102.1618983,3.036825996639409],[102.1628518,3.0392300966368078],[102.16391690000002,3.040386796635574],[102.16173979999999,3.040827896635067],[102.16163689999999,3.0413912966344676],[102.1643363,3.0449754966306055],[102.16588919999998,3.0454730966300594],[102.1696991,3.049516796625697],[102.1709761,3.052148796622812],[102.17086469999998,3.0534543966214143],[102.17159870000002,3.055517596619175],[102.17132060000002,3.0571037966174717],[102.1698777,3.0589068966155057],[102.16703349999999,3.0595999966147405],[102.16719499999999,3.0618871966122785],[102.16861519999999,3.0635129966105232],[102.1683177,3.0685142966051147],[102.16908069999998,3.069399196604122],[102.17128599999998,3.0681624966055],[102.1719502,3.068243196605372],[102.17246089999998,3.0700394966034663],[102.1715673,3.0725262966007354],[102.17273819999998,3.073138596600096],[102.17443279999999,3.0731045966001207],[102.17524169999999,3.0737677965994012],[102.1766139,3.074115696599023],[102.17722009999999,3.075188996597868],[102.1770938,3.077135496595777],[102.17981120000002,3.0771021965958094],[102.181791,3.077825896595026],[102.18447929999999,3.0778220965950274],[102.187802,3.079652496593031],[102.18913999338662,3.0792811601303933],[102.19017641016775,3.080458610111005],[102.19121282694887,3.080066126643334],[102.19121282694887,3.080458610111005],[102.19173103533943,3.080458610111005],[102.19121282694887,3.0812435774688383],[102.19173103533943,3.0812435774688383],[102.19173103533943,3.081636061359037],[102.19224924372999,3.081636061359037],[102.19173103533943,3.0822622182692614],[102.19252839999999,3.0822063965902893],[102.1936436,3.083030396589382],[102.1948402856828,3.0825841932475226]],[[102.1948402856828,3.0702540856666296],[102.19587670246392,3.070646565619565],[102.19535849407336,3.0714315259465708],[102.19432207729223,3.071039045712872],[102.1948402856828,3.0702540856666296]],[[102.17100269971701,3.0663292938537863],[102.17203911649813,3.0667217724039917],[102.17152090810757,3.067506729924994],[102.17048449132645,3.067114251094388],[102.17100269971701,3.0663292938537863]],[[102.16996628293589,3.064366903205005],[102.17100269971701,3.0647593810545226],[102.17048449132645,3.065544337173879],[102.16944807454533,3.0651518590441413],[102.16996628293589,3.064366903205005]],[[102.19173103533943,3.0624045160583044],[102.19276745212056,3.0624045160583044],[102.19328566051112,3.06318947049688],[102.19276745212056,3.06318947049688],[102.19276745212056,3.0635819479262016],[102.19173103533943,3.0635819479262016],[102.19173103533943,3.06318947049688],[102.19121282694887,3.06318947049688],[102.19173103533943,3.0624045160583044]],[[102.16892986615477,3.0624045160583044],[102.16841165776421,3.0624045160583044],[102.16841165776421,3.061619562179699],[102.16944807454533,3.0612270854503416],[102.16892986615477,3.0604421324114233],[102.16996628293589,3.0600496561018264],[102.16996628293589,3.0604421324114233],[102.17048449132645,3.0604421324114233],[102.17048449132645,3.060834608860922],[102.16996628293589,3.060834608860922],[102.17048449132645,3.0624045160583044],[102.16996628293589,3.0624045160583044],[102.16996628293589,3.062796993207586],[102.16892986615477,3.062796993207586],[102.16892986615477,3.0624045160583044]],[[102.17048449132645,3.0612270854503416],[102.17100269971701,3.0612270854503416],[102.17100269971701,3.0604421324114233],[102.17152090810757,3.0604421324114233],[102.17152090810757,3.0600496561018264],[102.17203911649813,3.0600496561018264],[102.17203911649813,3.0604421324114233],[102.17255732488869,3.0604421324114233],[102.17307553327926,3.059657179932115],[102.17411195006038,3.0600496561018264],[102.17411195006038,3.0604421324114233],[102.1735937416698,3.0604421324114233],[102.17411195006038,3.062012039049014],[102.1735937416698,3.062012039049014],[102.17307553327926,3.062796993207586],[102.17203911649813,3.0624045160583044],[102.17203911649813,3.061619562179699],[102.17100269971701,3.062012039049014],[102.17048449132645,3.0612270854503416]],[[102.17463015845092,3.0557324259246537],[102.17566657523206,3.056124900696517],[102.17566657523206,3.0569098506593724],[102.1751483668415,3.0569098506593724],[102.1751483668415,3.0573023258504],[102.17411195006038,3.0569098506593724],[102.17411195006038,3.056124900696517],[102.17463015845092,3.056124900696517],[102.17463015845092,3.0557324259246537]],[[102.17152090810757,3.0525926327769084],[102.17255732488869,3.0529851064317937],[102.17255732488869,3.053770054160259],[102.17203911649813,3.053770054160259],[102.17203911649813,3.0541625282338756],[102.17100269971701,3.053770054160259],[102.17100269971701,3.0529851064317937],[102.17152090810757,3.0529851064317937],[102.17152090810757,3.0525926327769084]],[[102.17411195006038,3.0529851064317937],[102.1751483668415,3.0533775802262384],[102.17463015845092,3.0541625282338756],[102.1735937416698,3.053770054160259],[102.17411195006038,3.0529851064317937]],[[102.1751483668415,3.0510227395525957],[102.17618478362262,3.051415212649426],[102.17566657523206,3.0522001592615644],[102.17463015845092,3.0518076858857426],[102.1751483668415,3.0510227395525957]],[[102.17618478362262,3.0435657771912425],[102.17670299201318,3.0435657771912425],[102.17618478362262,3.042780836708564],[102.17722120040374,3.042388366675866],[102.17722120040374,3.042780836708564],[102.1777394087943,3.042780836708564],[102.1777394087943,3.04317330688035],[102.17722120040374,3.04317330688035],[102.17722120040374,3.0435657771912425],[102.1777394087943,3.0435657771912425],[102.1777394087943,3.0443507182304232],[102.17722120040374,3.0443507182304232],[102.17670299201318,3.045135659826248],[102.17566657523206,3.044743188958746],[102.17566657523206,3.0443507182304232],[102.17618478362262,3.0443507182304232],[102.17618478362262,3.0435657771912425]],[[102.15234719765682,3.033754061109452],[102.15338361443796,3.034146528086765],[102.15286540604738,3.0349314624574824],[102.15182898926626,3.0345389952027686],[102.15234719765682,3.033754061109452]],[[102.1513107808757,3.032184194586752],[102.15234719765682,3.03257666100948],[102.15182898926626,3.0333615942708123],[102.15079257248514,3.0329691275708277],[102.1513107808757,3.032184194586752]],[[102.14871973892289,3.0278670730804285],[102.14975615570403,3.0282595379795403],[102.14975615570403,3.0290444681930424],[102.14923794731347,3.0290444681930424],[102.14923794731347,3.0294369335074687],[102.14820153053235,3.0290444681930424],[102.14820153053235,3.0282595379795403],[102.14871973892289,3.0282595379795403],[102.14871973892289,3.0278670730804285]],[[102.13939198789281,3.027474608319719],[102.14042840467394,3.027082143697393],[102.14146482145505,3.0282595379795403],[102.14042840467394,3.0286520030170725],[102.13939198789281,3.027474608319719]],[[102.14664690536065,3.0259047506605405],[102.14716511375121,3.0259047506605405],[102.14716511375121,3.02551228659157],[102.14820153053235,3.02551228659157],[102.14820153053235,3.0259047506605405],[102.14871973892289,3.0259047506605405],[102.14871973892289,3.027082143697393],[102.14768332214179,3.027474608319719],[102.14664690536065,3.0259047506605405]],[[102.19328566051112,3.0200178041386088],[102.19432207729223,3.0204102662731103],[102.19380386890167,3.02119519095631],[102.19276745212056,3.020802728545672],[102.19328566051112,3.0200178041386088]],[[102.19328566051112,3.0070666310327163],[102.19380386890167,3.0070666310327163],[102.19380386890167,3.0066741735814597],[102.1948402856828,3.0066741735814597],[102.1948402856828,3.0070666310327163],[102.19535849407336,3.0070666310327163],[102.19535849407336,3.0066741735814597],[102.19639491085447,3.0066741735814597],[102.1974313276356,3.0078515463475815],[102.19691311924504,3.0078515463475815],[102.19691311924504,3.0082440042112255],[102.1948402856828,3.0078515463475815],[102.1948402856828,3.0082440042112255],[102.19380386890167,3.0082440042112255],[102.19380386890167,3.0086364622123685],[102.19328566051112,3.0086364622123685],[102.19328566051112,3.0082440042112255],[102.19276745212056,3.0082440042112255],[102.19276745212056,3.0078515463475815],[102.19328566051112,3.0078515463475815],[102.19328566051112,3.0070666310327163]]],[[[102.17255732488869,2.9623273624073696],[102.17152090810757,2.9627198044437897],[102.17203911649813,2.9635046889228542],[102.17411195006038,2.9627198044437897],[102.17411195006038,2.9623273624073696],[102.17307553327926,2.9623273624073696],[102.17307553327926,2.961934920506335],[102.17255732488869,2.961934920506335],[102.17255732488869,2.9623273624073696]]],[[[102.17411195006038,2.9631122466156117],[102.17463015845092,2.9631122466156117],[102.17463015845092,2.9627198044437897],[102.17411195006038,2.9627198044437897],[102.17411195006038,2.9631122466156117]]],[[[102.17255732488869,3.0604421324114233],[102.17255732488869,3.060834608860922],[102.17203911649813,3.060834608860922],[102.17203911649813,3.061619562179699],[102.17307553327926,3.0612270854503416],[102.17307553327926,3.0604421324114233],[102.17255732488869,3.0604421324114233]]],[[[102.19017641016775,3.080598924180577],[102.18965820177719,3.080458610111005],[102.18965820177719,3.0805964024618193],[102.19017641016775,3.080598924180577]]],[[[102.19103379309458,3.081636061359037],[102.19121282694887,3.0812435774688383],[102.19108214329347,3.0812435774688383],[102.19103379309458,3.081636061359037]]],[[[102.19121282694887,3.0820285453901155],[102.19113570663568,3.0820285453901155],[102.19121282694887,3.082145957870497],[102.19121282694887,3.0820285453901155]]],[[[102.19587670246392,3.0820285453901155],[102.19587670246392,3.08230645570205],[102.19593529999999,3.08215719659031],[102.19587670246392,3.0820285453901155]]],[[[102.19535849407336,3.082421029562089],[102.19535849407336,3.0826181967547885],[102.19580737120398,3.082421029562089],[102.19535849407336,3.082421029562089]]]]},"properties":{"place_id":"65186e24-1003-5803-9486-2d340e7ac027","habitat":"forest_interior","habitat_label":"Forest interior","resolution_m":50}},{"type":"Feature","geometry":{"type":"MultiPolygon","coordinates":[[[[102.10415381733468,2.8858037301890276],[102.10363560894413,2.8865885622768985],[102.10467202572524,2.886980978518675],[102.10519023411581,2.8861961461670225],[102.10415381733468,2.8858037301890276]]],[[[102.10467202572524,2.8999307886110812],[102.10415381733468,2.9007156302178183],[102.10519023411581,2.901108051220001],[102.10570844250637,2.900323209348184],[102.10467202572524,2.8999307886110812]]],[[[102.10674485928747,2.901108051220001],[102.10622665089694,2.9018928936220876],[102.10726306767805,2.9022853150220276],[102.10778127606861,2.9015004723547517],[102.10674485928747,2.901108051220001]]],[[[102.10622665089694,2.9030701582197906],[102.10570844250637,2.9030701582197906],[102.10570844250637,2.90346258001765],[102.10674485928747,2.9038550019481852],[102.10726306767805,2.9030701582197906],[102.10674485928747,2.9030701582197906],[102.10674485928747,2.902677736554589],[102.10622665089694,2.902677736554589],[102.10622665089694,2.9030701582197906]]],[[[102.102599192163,2.9022853150220276],[102.10208098377244,2.9022853150220276],[102.10208098377244,2.9018928936220876],[102.10104456699133,2.9022853150220276],[102.10104456699133,2.902677736554589],[102.10156277538188,2.902677736554589],[102.10156277538188,2.90346258001765],[102.10104456699133,2.90346258001765],[102.10104456699133,2.9050322685360257],[102.10156277538188,2.9050322685360257],[102.10156277538188,2.9054246909974455],[102.102599192163,2.9050322685360257],[102.102599192163,2.90346258001765],[102.10208098377244,2.90346258001765],[102.10208098377244,2.902677736554589],[102.102599192163,2.902677736554589],[102.102599192163,2.9022853150220276]]],[[[102.102599192163,2.9066019591783716],[102.10363560894413,2.9069943821709634],[102.10415381733468,2.906209536318599],[102.10311740055357,2.90581711359163],[102.102599192163,2.9066019591783716]]],[[[102.10570844250637,2.9069943821709634],[102.10674485928747,2.9073868052963934],[102.10726306767805,2.9066019591783716],[102.10674485928747,2.9066019591783716],[102.10674485928747,2.906209536318599],[102.10622665089694,2.906209536318599],[102.10622665089694,2.9066019591783716],[102.10519023411581,2.906209536318599],[102.10519023411581,2.9066019591783716],[102.10415381733468,2.9066019591783716],[102.10363560894413,2.9073868052963934],[102.10467202572524,2.9077792285546806],[102.10467202572524,2.9073868052963934],[102.10570844250637,2.9073868052963934],[102.10570844250637,2.9069943821709634]]],[[[102.10415381733468,2.9085640754698954],[102.10363560894413,2.9093489229167533],[102.10467202572524,2.9097413468395925],[102.10519023411581,2.90895649912686],[102.10415381733468,2.9085640754698954]]],[[[102.10156277538188,2.910526195084184],[102.10104456699133,2.910526195084184],[102.10104456699133,2.910918619405972],[102.10208098377244,2.9113110438607794],[102.102599192163,2.910526195084184],[102.10208098377244,2.910526195084184],[102.10208098377244,2.9101337708953974],[102.10156277538188,2.9101337708953974],[102.10156277538188,2.910526195084184]]],[[[102.10570844250637,2.9113110438607794],[102.10622665089694,2.9113110438607794],[102.10674485928747,2.910526195084184],[102.10622665089694,2.910526195084184],[102.10622665089694,2.9101337708953974],[102.10570844250637,2.9101337708953974],[102.10570844250637,2.910526195084184],[102.10467202572524,2.910526195084184],[102.10467202572524,2.9101337708953974],[102.10415381733468,2.9101337708953974],[102.10311740055357,2.9117034684486236],[102.10415381733468,2.9120958931695227],[102.10519023411581,2.910918619405972],[102.10570844250637,2.910918619405972],[102.10570844250637,2.9113110438607794]]],[[[102.102599192163,2.9148428699428734],[102.10156277538188,2.9144504442900834],[102.10104456699133,2.9152352957288623],[102.10208098377244,2.9156277216480695],[102.102599192163,2.9148428699428734]]],[[[102.09845352503852,2.9132731681307305],[102.09689889986683,2.9132731681307305],[102.09689889986683,2.9136655933840307],[102.09638069147627,2.9136655933840307],[102.09638069147627,2.9132731681307305],[102.09534427469515,2.9132731681307305],[102.09534427469515,2.912880743010558],[102.09430785791403,2.9132731681307305],[102.09430785791403,2.9156277216480695],[102.09378964952349,2.9156277216480695],[102.09378964952349,2.919551988171076],[102.09430785791403,2.919551988171076],[102.09430785791403,2.919944415556868],[102.09534427469515,2.919944415556868],[102.09534427469515,2.920336843076093],[102.09586248308572,2.920336843076093],[102.09586248308572,2.919944415556868],[102.09638069147627,2.919944415556868],[102.09638069147627,2.920336843076093],[102.09793531664796,2.920336843076093],[102.09793531664796,2.919944415556868],[102.09845352503852,2.919944415556868],[102.09845352503852,2.920336843076093],[102.09948994181963,2.920336843076093],[102.09948994181963,2.919944415556868],[102.1000081502102,2.919944415556868],[102.1000081502102,2.9191595609187],[102.10052635860076,2.9191595609187],[102.10052635860076,2.9187671337997227],[102.09948994181963,2.9183747068141264],[102.09948994181963,2.916412573886208],[102.1000081502102,2.916412573886208],[102.1000081502102,2.9152352957288623],[102.10104456699133,2.9148428699428734],[102.10104456699133,2.9136655933840307],[102.10052635860076,2.9136655933840307],[102.10052635860076,2.9132731681307305],[102.09845352503852,2.9136655933840307],[102.09845352503852,2.9132731681307305]],[[102.09586248308572,2.9175898532429994],[102.09689889986683,2.9175898532429994],[102.09689889986683,2.91798227996189],[102.09741710825739,2.91798227996189],[102.09741710825739,2.9175898532429994],[102.09845352503852,2.917197426657434],[102.09845352503852,2.9183747068141264],[102.09741710825739,2.9187671337997227],[102.09741710825739,2.919551988171076],[102.09638069147627,2.919551988171076],[102.09638069147627,2.9191595609187],[102.09534427469515,2.919551988171076],[102.09534427469515,2.9191595609187],[102.09482606630459,2.9191595609187],[102.09482606630459,2.9187671337997227],[102.09586248308572,2.9183747068141264],[102.09586248308572,2.9175898532429994]],[[102.09534427469515,2.917197426657434],[102.09482606630459,2.917197426657434],[102.09482606630459,2.916805000205176],[102.09534427469515,2.916805000205176],[102.09534427469515,2.917197426657434]],[[102.09897173342908,2.916412573886208],[102.09845352503852,2.916412573886208],[102.09845352503852,2.9160201477005123],[102.09897173342908,2.9160201477005123],[102.09897173342908,2.916412573886208]],[[102.09741710825739,2.9160201477005123],[102.09689889986683,2.9160201477005123],[102.09689889986683,2.9152352957288623],[102.09741710825739,2.9152352957288623],[102.09741710825739,2.9160201477005123]],[[102.09586248308572,2.9152352957288623],[102.09534427469515,2.9152352957288623],[102.09534427469515,2.914058018770475],[102.09586248308572,2.914058018770475],[102.09586248308572,2.9152352957288623]]],[[[102.09275323274235,2.9230838394483487],[102.09223502435178,2.9230838394483487],[102.09223502435178,2.9226914109945774],[102.09119860757067,2.9226914109945774],[102.09275323274235,2.924207708184074],[102.09275323274235,2.9230838394483487]]],[[[102.11037231802142,2.9415281277646796],[102.10933590124029,2.941135693013189],[102.10881769284973,2.9419205626505978],[102.11089052641198,2.943097868115098],[102.11140873480252,2.942312997670962],[102.11089052641198,2.942312997670962],[102.11037231802142,2.9415281277646796]]],[[[102.10505655625215,2.945452482676076],[102.10519023411581,2.945060046579498],[102.10500957631581,2.945060046579498],[102.10505655625215,2.945452482676076]]],[[[102.1186636522704,2.9513390402878277],[102.1197000690515,2.950946602170232],[102.1186636522704,2.947807102082945],[102.11814544387983,2.947807102082945],[102.11814544387983,2.9474146651784485],[102.11710902709869,2.9474146651784485],[102.11710902709869,2.9470222284086494],[102.11555440192703,2.9462373552730745],[102.11555440192703,2.945452482676076],[102.1145179851459,2.945060046579498],[102.1145179851459,2.9438827390972317],[102.11399977675532,2.9438827390972317],[102.11399977675532,2.9434903035389057],[102.11348156836479,2.9434903035389057],[102.11348156836479,2.9427054328257887],[102.11244515158366,2.942312997670962],[102.11296335997422,2.9415281277646796],[102.11244515158366,2.9415281277646796],[102.11244515158366,2.941135693013189],[102.11140873480252,2.941135693013189],[102.11140873480252,2.9407432583961084],[102.11089052641198,2.9407432583961084],[102.11037231802142,2.939958389565102],[102.10933590124029,2.939958389565102],[102.10881769284973,2.939173521271517],[102.10778127606861,2.939173521271517],[102.10778127606861,2.9395659553511404],[102.10726306767805,2.9395659553511404],[102.10726306767805,2.9407432583961084],[102.10674485928747,2.9407432583961084],[102.10726306767805,2.9434903035389057],[102.10622665089694,2.9434903035389057],[102.10622665089694,2.9438827390972317],[102.10570844250637,2.9438827390972317],[102.10570844250637,2.9462373552730745],[102.10622665089694,2.9462373552730745],[102.10622665089694,2.947010452815682],[102.10748182477654,2.947807102082945],[102.10933590124029,2.947807102082945],[102.10933590124029,2.948199539122159],[102.11100709999998,2.948583496735144],[102.11244515158366,2.9495906520460675],[102.11296335997422,2.9493768510482794],[102.11296335997422,2.949769288626539],[102.11253354112867,2.949769288626539],[102.11323729999998,2.951191596732332],[102.11762723548927,2.951317576575614],[102.11762723548927,2.950946602170232],[102.1186636522704,2.950946602170232],[102.1186636522704,2.9513390402878277]],[[102.11296335997422,2.947807102082945],[102.11192694319308,2.947807102082945],[102.11192694319308,2.9474146651784485],[102.11140873480252,2.9474146651784485],[102.11140873480252,2.9462373552730745],[102.11089052641198,2.9462373552730745],[102.11089052641198,2.945844918907262],[102.11192694319308,2.945452482676076],[102.11192694319308,2.9446676106175103],[102.11244515158366,2.9446676106175103],[102.11244515158366,2.9462373552730745],[102.11296335997422,2.9462373552730745],[102.11296335997422,2.9466297917735313],[102.11503619353645,2.9462373552730745],[102.11503619353645,2.9470222284086494],[102.11399977675532,2.9474146651784485],[102.11399977675532,2.947807102082945],[102.1145179851459,2.947807102082945],[102.1145179851459,2.948591976296107],[102.11503619353645,2.948591976296107],[102.11503619353645,2.9489844136048076],[102.1145179851459,2.9489844136048076],[102.11503619353645,2.949769288626539],[102.11555440192703,2.949769288626539],[102.11555440192703,2.9493768510482794],[102.11607261031759,2.9493768510482794],[102.11607261031759,2.948591976296107],[102.11659081870813,2.948591976296107],[102.11555440192703,2.9474146651784485],[102.11659081870813,2.9474146651784485],[102.11659081870813,2.947807102082945],[102.11814544387983,2.948591976296107],[102.11814544387983,2.9489844136048076],[102.11710902709869,2.9493768510482794],[102.11710902709869,2.950554164187498],[102.11348156836479,2.950554164187498],[102.11348156836479,2.949769288626539],[102.11399977675532,2.949769288626539],[102.11399977675532,2.9493768510482794],[102.11348156836479,2.9493768510482794],[102.11348156836479,2.948199539122159],[102.11296335997422,2.948199539122159],[102.11296335997422,2.947807102082945]],[[102.10985410963085,2.9470222284086494],[102.10933590124029,2.9470222284086494],[102.10933590124029,2.9466297917735313],[102.10985410963085,2.9466297917735313],[102.10985410963085,2.9470222284086494]],[[102.10674485928747,2.9462373552730745],[102.10674485928747,2.9442751747900937],[102.10726306767805,2.9442751747900937],[102.10726306767805,2.9438827390972317],[102.10829948445918,2.9438827390972317],[102.10829948445918,2.9442751747900937],[102.10881769284973,2.9442751747900937],[102.10829948445918,2.945060046579498],[102.10881769284973,2.945060046579498],[102.10933590124029,2.945844918907262],[102.10881769284973,2.945844918907262],[102.10881769284973,2.9462373552730745],[102.10778127606861,2.9462373552730745],[102.10778127606861,2.9466297917735313],[102.10674485928747,2.9462373552730745]],[[102.10985410963085,2.945844918907262],[102.10985410963085,2.9462373552730745],[102.10933590124029,2.9462373552730745],[102.10933590124029,2.945844918907262],[102.10985410963085,2.945844918907262]],[[102.10985410963085,2.9446676106175103],[102.10933590124029,2.9446676106175103],[102.10933590124029,2.9442751747900937],[102.10985410963085,2.9442751747900937],[102.10985410963085,2.9446676106175103]],[[102.11244515158366,2.9442751747900937],[102.11192694319308,2.9442751747900937],[102.11192694319308,2.9438827390972317],[102.11244515158366,2.9438827390972317],[102.11244515158366,2.9442751747900937]],[[102.10829948445918,2.9403508239134184],[102.10881769284973,2.9403508239134184],[102.10881769284973,2.9407432583961084],[102.11037231802142,2.9407432583961084],[102.11037231802142,2.9415281277646796],[102.11089052641198,2.9415281277646796],[102.11089052641198,2.9419205626505978],[102.11192694319308,2.942312997670962],[102.11192694319308,2.943097868115098],[102.11089052641198,2.943097868115098],[102.11089052641198,2.9434903035389057],[102.11037231802142,2.9434903035389057],[102.11037231802142,2.943097868115098],[102.10933590124029,2.943097868115098],[102.10933590124029,2.9434903035389057],[102.10881769284973,2.9434903035389057],[102.10881769284973,2.943097868115098],[102.10829948445918,2.943097868115098],[102.10829948445918,2.9419205626505978],[102.10778127606861,2.9419205626505978],[102.10778127606861,2.9407432583961084],[102.10829948445918,2.9407432583961084],[102.10829948445918,2.9403508239134184]]],[[[102.12591856973825,2.950554164187498],[102.12540036134767,2.9513390402878277],[102.12643677812878,2.9517314785403017],[102.12695498651935,2.950946602170232],[102.12591856973825,2.950554164187498]]],[[[102.13213707042496,2.9529087941071803],[102.13213707042496,2.953187759332513],[102.13319672427322,2.9529087941071803],[102.13213707042496,2.9529087941071803]]],[[[102.13161886203439,2.9533241832666044],[102.13170603934948,2.953301232899351],[102.13161886203439,2.953301232899351],[102.13161886203439,2.9533241832666044]]],[[[102.12799140330048,2.954086110888619],[102.12782514388522,2.954086110888619],[102.12799140330048,2.9542045876622214],[102.12799140330048,2.954086110888619]]],[[[102.12902782008159,2.954086110888619],[102.1294611,2.954353596728884],[102.1299935881538,2.954086110888619],[102.12902782008159,2.954086110888619]]],[[[102.15493823960963,2.970568673630795],[102.15474167848481,2.970961118514467],[102.15493823960963,2.970961118514467],[102.15493823960963,2.970568673630795]]],[[[102.14716511375121,3.02551228659157],[102.14664690536065,3.026297214867822],[102.14716511375121,3.026297214867822],[102.14716511375121,3.027082143697393],[102.14820153053235,3.027474608319719],[102.14820153053235,3.027082143697393],[102.14871973892289,3.027082143697393],[102.14871973892289,3.0259047506605405],[102.14820153053235,3.0259047506605405],[102.14820153053235,3.02551228659157],[102.14716511375121,3.02551228659157]]],[[[102.14042840467394,3.027082143697393],[102.13991019628337,3.027082143697393],[102.13939198789281,3.0278670730804285],[102.14094661306449,3.0286520030170725],[102.14146482145505,3.0278670730804285],[102.14094661306449,3.0278670730804285],[102.14042840467394,3.027082143697393]]],[[[102.14871973892289,3.0282595379795403],[102.14820153053235,3.0282595379795403],[102.14820153053235,3.0290444681930424],[102.14923794731347,3.0294369335074687],[102.14923794731347,3.0290444681930424],[102.14975615570403,3.0290444681930424],[102.14975615570403,3.0282595379795403],[102.14923794731347,3.0282595379795403],[102.14923794731347,3.0278670730804285],[102.14871973892289,3.0278670730804285],[102.14871973892289,3.0282595379795403]]],[[[102.13991019628337,3.0286520030170725],[102.1397436,3.0287954966481183],[102.13991019628337,3.028860447977547],[102.13991019628337,3.0286520030170725]]],[[[102.1513107808757,3.032184194586752],[102.15079257248514,3.0329691275708277],[102.15182898926626,3.0333615942708123],[102.15234719765682,3.03257666100948],[102.1513107808757,3.032184194586752]]],[[[102.15234719765682,3.033754061109452],[102.15182898926626,3.0345389952027686],[102.15286540604738,3.0349314624574824],[102.15338361443796,3.034146528086765],[102.15234719765682,3.033754061109452]]],[[[102.15701107317187,2.9564407480971306],[102.15649286478131,2.9564407480971306],[102.15649286478131,2.956833188104676],[102.15752928156245,2.957225628247353],[102.15804748995299,2.9564407480971306],[102.15752928156245,2.9564407480971306],[102.15752928156245,2.9560483082247],[102.15701107317187,2.9560483082247],[102.15701107317187,2.9564407480971306]]],[[[102.17566657523206,2.9603651542556824],[102.1751483668415,2.9603651542556824],[102.1751483668415,2.9599727130313003],[102.17307553327926,2.9599727130313003],[102.17255732488869,2.960757595615359],[102.17100269971701,2.960757595615359],[102.17100269971701,2.961150037110347],[102.16996628293589,2.9615424787406672],[102.16996628293589,2.9627198044437897],[102.16944807454533,2.9627198044437897],[102.16944807454533,2.9631122466156117],[102.16996628293589,2.9631122466156117],[102.17100269971701,2.9642895739436756],[102.17203911649813,2.9642895739436756],[102.17203911649813,2.963897131365537],[102.17255732488869,2.963897131365537],[102.17307553327926,2.96468201665729],[102.1735937416698,2.96468201665729],[102.1735937416698,2.9642895739436756],[102.17463015845092,2.9642895739436756],[102.17463015845092,2.963897131365537],[102.1751483668415,2.963897131365537],[102.17463015845092,2.9631122466156117],[102.17566657523206,2.9627198044437897],[102.17566657523206,2.9615424787406672],[102.17618478362262,2.9615424787406672],[102.17618478362262,2.961150037110347],[102.17566657523206,2.961150037110347],[102.17566657523206,2.9603651542556824]],[[102.17411195006038,2.9631122466156117],[102.17411195006038,2.9627198044437897],[102.17463015845092,2.9627198044437897],[102.17463015845092,2.9631122466156117],[102.17411195006038,2.9631122466156117]],[[102.1735937416698,2.9627198044437897],[102.1735937416698,2.9631122466156117],[102.17255732488869,2.9631122466156117],[102.17255732488869,2.9635046889228542],[102.17152090810757,2.9631122466156117],[102.17255732488869,2.961934920506335],[102.17307553327926,2.961934920506335],[102.17307553327926,2.9623273624073696],[102.17411195006038,2.9623273624073696],[102.17411195006038,2.9627198044437897],[102.1735937416698,2.9627198044437897]],[[102.17100269971701,2.961934920506335],[102.17100269971701,2.9615424787406672],[102.17152090810757,2.9615424787406672],[102.17152090810757,2.961934920506335],[102.17100269971701,2.961934920506335]],[[102.17463015845092,2.960757595615359],[102.17411195006038,2.9615424787406672],[102.17307553327926,2.9615424787406672],[102.17307553327926,2.960757595615359],[102.17463015845092,2.960757595615359]]],[[[102.16807239424234,2.9642895739436756],[102.16737524098308,2.9635046889228542],[102.16685703259253,2.9635046889228542],[102.16633882420196,2.9642895739436756],[102.16685703259253,2.9642895739436756],[102.16685703259253,2.96468201665729],[102.16768142776021,2.9650744595063974],[102.16807239424234,2.9642895739436756]]],[[[102.1696379995563,2.9642895739436756],[102.16996628293589,2.964454456890498],[102.16996628293589,2.9642895739436756],[102.1696379995563,2.9642895739436756]]],[[[102.17041935633034,2.96468201665729],[102.17048449132645,2.964714731238209],[102.17048449132645,2.96468201665729],[102.17041935633034,2.96468201665729]]],[[[102.16633882420196,2.965859345611164],[102.16582061581141,2.965859345611164],[102.16582061581141,2.96664423225812],[102.16670536884394,2.967036675784963],[102.16729046127806,2.965859345611164],[102.16633882420196,2.9654669024910163],[102.16633882420196,2.965859345611164]]],[[[102.16789344937365,2.9678215632454736],[102.16815410921107,2.9678215632454736],[102.16789344937365,2.967680344915067],[102.16789344937365,2.9678215632454736]]],[[[102.16841165776421,2.9682140071791765],[102.1687146704143,2.9682140071791765],[102.16841165776421,2.9679610959848723],[102.16841165776421,2.9682140071791765]]],[[[102.17981224235653,2.9686064512485353],[102.17929403396597,2.9686064512485353],[102.17929403396597,2.968998895453567],[102.1803304507471,2.969391339794291],[102.18084865913767,2.9686064512485353],[102.1803304507471,2.9686064512485353],[102.1803304507471,2.9682140071791765],[102.17981224235653,2.9682140071791765],[102.17981224235653,2.9686064512485353]]],[[[102.1554564480002,2.9721384539802482],[102.15476730520115,2.9721384539802482],[102.15480147415626,2.9737082365030827],[102.1554564480002,2.97292334496992],[102.15597465639075,2.97292334496992],[102.1554564480002,2.9721384539802482]]],[[[102.16944807454533,2.9733157906685563],[102.16944807454533,2.97292334496992],[102.16892986615477,2.97292334496992],[102.16841165776421,2.9737082365030827],[102.16944807454533,2.974100682473518],[102.16944807454533,2.9737082365030827],[102.16996628293589,2.9737082365030827],[102.16996628293589,2.9733157906685563],[102.16944807454533,2.9733157906685563]]],[[[102.16737524098308,2.974100682473518],[102.16685703259253,2.974100682473518],[102.16737524098308,2.974885574822186],[102.16841165776421,2.974885574822186],[102.16841165776421,2.97449312857988],[102.16892986615477,2.97449312857988],[102.16841165776421,2.9737082365030827],[102.16737524098308,2.9737082365030827],[102.16737524098308,2.974100682473518]]],[[[102.15856569834355,2.9776327023263014],[102.15804748995299,2.9776327023263014],[102.15804748995299,2.978025149656816],[102.15908390673411,2.9784175971234386],[102.15960211512468,2.9776327023263014],[102.15908390673411,2.9776327023263014],[102.15908390673411,2.9772402551318757],[102.15856569834355,2.9772402551318757],[102.15856569834355,2.9776327023263014]]],[[[102.1606385319058,2.9776327023263014],[102.16012032351523,2.9784175971234386],[102.16115674029635,2.978810044726186],[102.16167494868692,2.978025149656816],[102.1606385319058,2.9776327023263014]]],[[[102.17618478362262,2.9803798364987917],[102.1762722,2.980260796700779],[102.17618478362262,2.980164257924041],[102.17618478362262,2.9803798364987917]]],[[[102.18343970109046,2.99804014439066],[102.18355238689286,2.998432598822713],[102.18343970109046,2.9974017930946806],[102.1829214926999,2.997647690095637],[102.1829214926999,2.99804014439066],[102.18343970109046,2.99804014439066]]],[[[102.17929403396597,3.037999153440965],[102.17945377283094,3.037286268899673],[102.17929403396597,3.037286268899673],[102.17929403396597,3.037999153440965]]],[[[102.15804748995299,3.036893800812324],[102.15597465639075,3.036893800812324],[102.15493823960963,3.038071205490899],[102.1554564480002,3.038071205490899],[102.15597465639075,3.0387516697177235],[102.15752928156245,3.038771317078579],[102.15804748995299,3.038071205490899],[102.15856569834355,3.038071205490899],[102.15856569834355,3.037286268899673],[102.15804748995299,3.037286268899673],[102.15804748995299,3.036893800812324]],[[102.15649286478131,3.038071205490899],[102.15649286478131,3.037678737125859],[102.15752928156245,3.037678737125859],[102.15752928156245,3.038071205490899],[102.15649286478131,3.038071205490899]]],[[[102.17722120040374,3.0435657771912425],[102.1777394087943,3.042780836708564],[102.17670299201318,3.042388366675866],[102.17670299201318,3.042780836708564],[102.17618478362262,3.042780836708564],[102.17670299201318,3.0435657771912425],[102.17618478362262,3.0435657771912425],[102.17618478362262,3.0443507182304232],[102.17566657523206,3.0443507182304232],[102.17618478362262,3.045135659826248],[102.1777394087943,3.0443507182304232],[102.1777394087943,3.0435657771912425],[102.17722120040374,3.0435657771912425]]],[[[102.1751483668415,3.0510227395525957],[102.17463015845092,3.0518076858857426],[102.17566657523206,3.0522001592615644],[102.17618478362262,3.051415212649426],[102.1751483668415,3.0510227395525957]]],[[[102.17152090810757,3.0525926327769084],[102.17152090810757,3.0529851064317937],[102.17100269971701,3.0529851064317937],[102.17100269971701,3.053770054160259],[102.17203911649813,3.0541625282338756],[102.17203911649813,3.053770054160259],[102.17255732488869,3.053770054160259],[102.17255732488869,3.0529851064317937],[102.17152090810757,3.0525926327769084]]],[[[102.17411195006038,3.0533775802262384],[102.1735937416698,3.0533775802262384],[102.1735937416698,3.053770054160259],[102.17463015845092,3.0541625282338756],[102.1751483668415,3.0533775802262384],[102.17463015845092,3.0533775802262384],[102.17463015845092,3.0529851064317937],[102.17411195006038,3.0529851064317937],[102.17411195006038,3.0533775802262384]]],[[[102.17463015845092,3.056124900696517],[102.17411195006038,3.056124900696517],[102.17411195006038,3.0569098506593724],[102.1751483668415,3.0573023258504],[102.1751483668415,3.0569098506593724],[102.17566657523206,3.0569098506593724],[102.17566657523206,3.056124900696517],[102.1751483668415,3.056124900696517],[102.1751483668415,3.0557324259246537],[102.17463015845092,3.0557324259246537],[102.17463015845092,3.056124900696517]]],[[[102.17048449132645,3.0612270854503416],[102.17048449132645,3.061619562179699],[102.17152090810757,3.062012039049014],[102.17255732488869,3.0604421324114233],[102.17152090810757,3.0600496561018264],[102.17152090810757,3.0604421324114233],[102.17100269971701,3.0604421324114233],[102.17100269971701,3.0612270854503416],[102.17048449132645,3.0612270854503416]]],[[[102.1735937416698,3.062012039049014],[102.17411195006038,3.062012039049014],[102.17411195006038,3.0612270854503416],[102.1735937416698,3.0612270854503416],[102.1735937416698,3.0604421324114233],[102.17411195006038,3.0604421324114233],[102.17411195006038,3.0600496561018264],[102.17307553327926,3.059657179932115],[102.17307553327926,3.0600496561018264],[102.17255732488869,3.0600496561018264],[102.17255732488869,3.0604421324114233],[102.17307553327926,3.0604421324114233],[102.17307553327926,3.0612270854503416],[102.17203911649813,3.061619562179699],[102.17203911649813,3.0624045160583044],[102.17307553327926,3.062796993207586],[102.1735937416698,3.062012039049014]]],[[[102.17048449132645,3.060834608860922],[102.16996628293589,3.0600496561018264],[102.16892986615477,3.0604421324114233],[102.16892986615477,3.060834608860922],[102.16944807454533,3.060834608860922],[102.16944807454533,3.0612270854503416],[102.16841165776421,3.061619562179699],[102.16841165776421,3.0624045160583044],[102.16892986615477,3.0624045160583044],[102.16892986615477,3.062796993207586],[102.16996628293589,3.062796993207586],[102.16996628293589,3.0624045160583044],[102.17048449132645,3.0624045160583044],[102.17048449132645,3.061619562179699],[102.16996628293589,3.061619562179699],[102.16996628293589,3.060834608860922],[102.17048449132645,3.060834608860922]]],[[[102.16996628293589,3.0647593810545226],[102.16944807454533,3.0647593810545226],[102.16944807454533,3.0651518590441413],[102.17048449132645,3.065544337173879],[102.17100269971701,3.0647593810545226],[102.17048449132645,3.0647593810545226],[102.17048449132645,3.064366903205005],[102.16996628293589,3.064366903205005],[102.16996628293589,3.0647593810545226]]],[[[102.17100269971701,3.0667217724039917],[102.17048449132645,3.0667217724039917],[102.17048449132645,3.067114251094388],[102.17152090810757,3.067506729924994],[102.17203911649813,3.0667217724039917],[102.17152090810757,3.0667217724039917],[102.17152090810757,3.0663292938537863],[102.17100269971701,3.0663292938537863],[102.17100269971701,3.0667217724039917]]],[[[102.226450997507,2.920336843076093],[102.226450997507,2.92083784294278],[102.22800562267868,2.920823330574372],[102.22748741428812,2.919944415556868],[102.226450997507,2.920336843076093]]],[[[102.1948402856828,2.9234762680356985],[102.19432207729223,2.9237457809169913],[102.1948402856828,2.9237648106374867],[102.1948402856828,2.9234762680356985]]],[[[102.22230533038251,2.9242611256112063],[102.22334174716363,2.9242611256112063],[102.22334174716363,2.9238686967566445],[102.22385995555419,2.9238686967566445],[102.22437816394475,2.923229483659075],[102.22230533038251,2.9242611256112063]]],[[[102.18343970109046,2.936034053468493],[102.1829214926999,2.936034053468493],[102.1829214926999,2.936426486474071],[102.18395790948102,2.9368189196138403],[102.18447611787158,2.936034053468493],[102.18395790948102,2.936034053468493],[102.18395790948102,2.9356416205970914],[102.18343970109046,2.9356416205970914],[102.18343970109046,2.936034053468493]]],[[[102.18654895143382,2.941135693013189],[102.18603074304326,2.941135693013189],[102.18603074304326,2.9415281277646796],[102.18706715982438,2.9419205626505978],[102.18758536821495,2.941135693013189],[102.18706715982438,2.941135693013189],[102.18706715982438,2.9407432583961084],[102.18654895143382,2.9407432583961084],[102.18654895143382,2.941135693013189]]],[[[102.18862178499607,2.9462373552730745],[102.18810357660551,2.9470222284086494],[102.18913999338662,2.9474146651784485],[102.18965820177719,2.9466297917735313],[102.18862178499607,2.9462373552730745]]],[[[102.19224924372999,2.9470222284086494],[102.19173103533943,2.947807102082945],[102.19276745212056,2.948199539122159],[102.19328566051112,2.9474146651784485],[102.19224924372999,2.9470222284086494]]],[[[102.19173103533943,2.948591976296107],[102.19121282694887,2.9493768510482794],[102.19224924372999,2.949769288626539],[102.19276745212056,2.9489844136048076],[102.19173103533943,2.948591976296107]]],[[[102.20468624510345,2.9544785500857524],[102.20496526544186,2.9544785500857524],[102.20481419999997,2.9540939967291546],[102.20572266188456,2.953301232899351],[102.20468624510345,2.9536936718264912],[102.20468624510345,2.9544785500857524]]],[[[102.20520445349402,2.955263428885106],[102.20527359197139,2.955263428885106],[102.20520445349402,2.9550874293054044],[102.20520445349402,2.955263428885106]]],[[[102.18499432626214,2.978025149656816],[102.18603074304326,2.9774568510662207],[102.18603074304326,2.9772402551318757],[102.18499432626214,2.9776327023263014],[102.18499432626214,2.978025149656816]]],[[[102.18343970109046,2.9795949403401294],[102.18343970109046,2.980238790153914],[102.18440488711035,2.9792024924650766],[102.18395790948102,2.9792024924650766],[102.18395790948102,2.9795949403401294],[102.18343970109046,2.9795949403401294]]],[[[102.19121282694887,2.9905835361965285],[102.19135753390218,2.9905835361965285],[102.19121282694887,2.9901950253839393],[102.19121282694887,2.9905835361965285]]],[[[102.19276745212056,2.994508060666313],[102.19281928187269,2.994508060666313],[102.19276745212056,2.9943689070799846],[102.19276745212056,2.994508060666313]]],[[[102.19328566051112,2.9960778742854677],[102.19355015585793,2.9964703280325575],[102.19340398106088,2.9960778742854677],[102.19328566051112,2.9960778742854677]]],[[[102.19380386890167,2.997647690095637],[102.19398868024909,2.997647690095637],[102.19380386890167,2.9971515034762266],[102.19380386890167,2.997647690095637]]],[[[102.19691311924504,3.0082440042112255],[102.1974313276356,3.0074590886214176],[102.19691311924504,3.0074590886214176],[102.19639491085447,3.0066741735814597],[102.19535849407336,3.0066741735814597],[102.19535849407336,3.0070666310327163],[102.1948402856828,3.0070666310327163],[102.1948402856828,3.0066741735814597],[102.19380386890167,3.0066741735814597],[102.19380386890167,3.0070666310327163],[102.19328566051112,3.0070666310327163],[102.19328566051112,3.0078515463475815],[102.19276745212056,3.0078515463475815],[102.19328566051112,3.0086364622123685],[102.19380386890167,3.0086364622123685],[102.19380386890167,3.0082440042112255],[102.1948402856828,3.0082440042112255],[102.1948402856828,3.0078515463475815],[102.19691311924504,3.0082440042112255]]],[[[102.19328566051112,3.0200178041386088],[102.19276745212056,3.020802728545672],[102.19380386890167,3.02119519095631],[102.19432207729223,3.0204102662731103],[102.19328566051112,3.0200178041386088]]],[[[102.19173103533943,3.062796993207586],[102.19121282694887,3.062796993207586],[102.19173103533943,3.0635819479262016],[102.19276745212056,3.0635819479262016],[102.19276745212056,3.06318947049688],[102.19328566051112,3.06318947049688],[102.19276745212056,3.0624045160583044],[102.19173103533943,3.0624045160583044],[102.19173103533943,3.062796993207586]]],[[[102.1948402856828,3.070646565619565],[102.19432207729223,3.070646565619565],[102.19432207729223,3.071039045712872],[102.19535849407336,3.0714315259465708],[102.19587670246392,3.070646565619565],[102.19535849407336,3.070646565619565],[102.19535849407336,3.0702540856666296],[102.1948402856828,3.0702540856666296],[102.1948402856828,3.070646565619565]]],[[[102.19691311924504,3.070646565619565],[102.19639491085447,3.0714315259465708],[102.19794953602617,3.072216486835211],[102.19834146418204,3.0702540856666296],[102.19691311924504,3.070646565619565]]],[[[102.19691311924504,3.0741788915149115],[102.19639491085447,3.0741788915149115],[102.19639491085447,3.074963854370412],[102.1974313276356,3.0753563360090106],[102.1978346660118,3.0741788915149115],[102.1974313276356,3.0741788915149115],[102.1974313276356,3.0737864102979735],[102.19691311924504,3.0737864102979735],[102.19691311924504,3.0741788915149115]]],[[[102.18913999338662,3.0792811601303933],[102.18810357660551,3.07970856229418],[102.18965820177719,3.0805964024618193],[102.19017641016775,3.080458610111005],[102.18913999338662,3.0792811601303933]]],[[[102.19069461855833,3.080066126643334],[102.19017641016775,3.080598924180577],[102.19121282694887,3.0812435774688383],[102.19173103533943,3.080458610111005],[102.19121282694887,3.080458610111005],[102.19121282694887,3.080066126643334],[102.19069461855833,3.080066126643334]]],[[[102.19686759999999,3.0816681965908317],[102.19691311924504,3.080458610111005],[102.19587670246392,3.080458610111005],[102.19686759999999,3.0816681965908317]]],[[[102.19535849407336,3.0808510937195],[102.19535849407336,3.081636061359037],[102.19432207729223,3.0820285453901155],[102.1948402856828,3.0825841932475226],[102.19587670246392,3.08230645570205],[102.19535849407336,3.0808510937195]]],[[[102.19121282694887,3.0812435774688383],[102.1913888,3.082229896590255],[102.19224924372999,3.0820285453901155],[102.19173103533943,3.0812435774688383],[102.19121282694887,3.0812435774688383]]]]},"properties":{"place_id":"65186e24-1003-5803-9486-2d340e7ac027","habitat":"forest_edge_opening","habitat_label":"Forest edge or opening","resolution_m":50}},{"type":"Feature","geometry":{"type":"MultiPolygon","coordinates":[[[[102.10415381733468,2.8861961461670225],[102.10415381733468,2.8865885622768985],[102.10467202572524,2.8865885622768985],[102.10467202572524,2.8861961461670225],[102.10415381733468,2.8861961461670225]]],[[[102.10467202572524,2.900323209348184],[102.10467202572524,2.9007156302178183],[102.10519023411581,2.9007156302178183],[102.10519023411581,2.900323209348184],[102.10467202572524,2.900323209348184]]],[[[102.10674485928747,2.9015004723547517],[102.10674485928747,2.9018928936220876],[102.10726306767805,2.9018928936220876],[102.10726306767805,2.9015004723547517],[102.10674485928747,2.9015004723547517]]],[[[102.10156277538188,2.9022853150220276],[102.10156277538188,2.902677736554589],[102.10208098377244,2.902677736554589],[102.10208098377244,2.9022853150220276],[102.10156277538188,2.9022853150220276]]],[[[102.10622665089694,2.9030701582197906],[102.10622665089694,2.90346258001765],[102.10674485928747,2.90346258001765],[102.10674485928747,2.9030701582197906],[102.10622665089694,2.9030701582197906]]],[[[102.10156277538188,2.90346258001765],[102.10156277538188,2.9050322685360257],[102.10208098377244,2.9050322685360257],[102.10208098377244,2.90346258001765],[102.10156277538188,2.90346258001765]]],[[[102.10311740055357,2.906209536318599],[102.10311740055357,2.9066019591783716],[102.10363560894413,2.9066019591783716],[102.10363560894413,2.906209536318599],[102.10311740055357,2.906209536318599]]],[[[102.10519023411581,2.9069943821709634],[102.10570844250637,2.9069943821709634],[102.10570844250637,2.9066019591783716],[102.10519023411581,2.9066019591783716],[102.10519023411581,2.9069943821709634]]],[[[102.10622665089694,2.9069943821709634],[102.10674485928747,2.9069943821709634],[102.10674485928747,2.9066019591783716],[102.10622665089694,2.9066019591783716],[102.10622665089694,2.9069943821709634]]],[[[102.10415381733468,2.9069943821709634],[102.10415381733468,2.9073868052963934],[102.10467202572524,2.9073868052963934],[102.10467202572524,2.9069943821709634],[102.10415381733468,2.9069943821709634]]],[[[102.10415381733468,2.90895649912686],[102.10415381733468,2.9093489229167533],[102.10467202572524,2.9093489229167533],[102.10467202572524,2.90895649912686],[102.10415381733468,2.90895649912686]]],[[[102.10156277538188,2.910526195084184],[102.10156277538188,2.910918619405972],[102.10208098377244,2.910918619405972],[102.10208098377244,2.910526195084184],[102.10156277538188,2.910526195084184]]],[[[102.10570844250637,2.910918619405972],[102.10622665089694,2.910918619405972],[102.10622665089694,2.910526195084184],[102.10570844250637,2.910526195084184],[102.10570844250637,2.910918619405972]]],[[[102.10415381733468,2.9113110438607794],[102.10467202572524,2.9113110438607794],[102.10467202572524,2.910526195084184],[102.10415381733468,2.910526195084184],[102.10415381733468,2.9113110438607794]]],[[[102.10363560894413,2.9113110438607794],[102.10363560894413,2.9117034684486236],[102.10415381733468,2.9117034684486236],[102.10415381733468,2.9113110438607794],[102.10363560894413,2.9113110438607794]]],[[[102.09741710825739,2.914058018770475],[102.09741710825739,2.9152352957288623],[102.09793531664796,2.9152352957288623],[102.09793531664796,2.9148428699428734],[102.09845352503852,2.9148428699428734],[102.09845352503852,2.9136655933840307],[102.09689889986683,2.9136655933840307],[102.09689889986683,2.914058018770475],[102.09741710825739,2.914058018770475]]],[[[102.10156277538188,2.9148428699428734],[102.10156277538188,2.9152352957288623],[102.10208098377244,2.9152352957288623],[102.10208098377244,2.9148428699428734],[102.10156277538188,2.9148428699428734]]],[[[102.09845352503852,2.919944415556868],[102.09948994181963,2.919944415556868],[102.09948994181963,2.9191595609187],[102.1000081502102,2.9191595609187],[102.1000081502102,2.9187671337997227],[102.09897173342908,2.9187671337997227],[102.09897173342908,2.916412573886208],[102.09948994181963,2.916412573886208],[102.09948994181963,2.9152352957288623],[102.10052635860076,2.9148428699428734],[102.10052635860076,2.9136655933840307],[102.09948994181963,2.9136655933840307],[102.1000081502102,2.9144504442900834],[102.09897173342908,2.9144504442900834],[102.09897173342908,2.9156277216480695],[102.09793531664796,2.9152352957288623],[102.09793531664796,2.917197426657434],[102.09689889986683,2.9175898532429994],[102.09638069147627,2.9136655933840307],[102.09534427469515,2.9136655933840307],[102.09534427469515,2.9132731681307305],[102.09482606630459,2.9132731681307305],[102.09482606630459,2.9152352957288623],[102.09534427469515,2.9152352957288623],[102.09534427469515,2.9160201477005123],[102.09430785791403,2.9156277216480695],[102.09430785791403,2.919551988171076],[102.09534427469515,2.919551988171076],[102.09534427469515,2.919944415556868],[102.09586248308572,2.919944415556868],[102.09586248308572,2.919551988171076],[102.09638069147627,2.919551988171076],[102.09638069147627,2.919944415556868],[102.09793531664796,2.919944415556868],[102.09793531664796,2.9187671337997227],[102.09845352503852,2.9187671337997227],[102.09845352503852,2.919944415556868]],[[102.09534427469515,2.9175898532429994],[102.09534427469515,2.9183747068141264],[102.09482606630459,2.9183747068141264],[102.09482606630459,2.9175898532429994],[102.09534427469515,2.9175898532429994]],[[102.09534427469515,2.917197426657434],[102.09586248308572,2.917197426657434],[102.09586248308572,2.9175898532429994],[102.09534427469515,2.9175898532429994],[102.09534427469515,2.917197426657434]],[[102.09534427469515,2.916805000205176],[102.09534427469515,2.916412573886208],[102.09638069147627,2.916412573886208],[102.09638069147627,2.916805000205176],[102.09534427469515,2.916805000205176]]],[[[102.09223502435178,2.9230838394483487],[102.09141694064844,2.9230838394483487],[102.09223502435178,2.9234545009631643],[102.09223502435178,2.9230838394483487]]],[[[102.11244515158366,2.948199539122159],[102.11296335997422,2.948199539122159],[102.11296335997422,2.9493768510482794],[102.11348156836479,2.9493768510482794],[102.11348156836479,2.949769288626539],[102.11296335997422,2.949769288626539],[102.11348156836479,2.9511986066049793],[102.11762723548927,2.950946602170232],[102.11762723548927,2.9493768510482794],[102.11814544387983,2.9493768510482794],[102.11814544387983,2.950554164187498],[102.11918186066093,2.950946602170232],[102.11814544387983,2.947807102082945],[102.11710902709869,2.947807102082945],[102.11710902709869,2.9474146651784485],[102.11503619353645,2.9462373552730745],[102.11503619353645,2.945452482676076],[102.1145179851459,2.945452482676076],[102.1145179851459,2.945060046579498],[102.11348156836479,2.945060046579498],[102.11348156836479,2.945452482676076],[102.11399977675532,2.945452482676076],[102.11399977675532,2.9462373552730745],[102.11296335997422,2.9462373552730745],[102.11296335997422,2.9446676106175103],[102.11244515158366,2.9446676106175103],[102.11244515158366,2.9442751747900937],[102.11348156836479,2.9442751747900937],[102.11348156836479,2.9446676106175103],[102.11399977675532,2.9446676106175103],[102.11399977675532,2.9438827390972317],[102.11348156836479,2.9438827390972317],[102.11348156836479,2.9434903035389057],[102.11296335997422,2.9434903035389057],[102.11296335997422,2.9427054328257887],[102.11192694319308,2.942312997670962],[102.11244515158366,2.9415281277646796],[102.11089052641198,2.9415281277646796],[102.11089052641198,2.9407432583961084],[102.11037231802142,2.9407432583961084],[102.11037231802142,2.9403508239134184],[102.10881769284973,2.9403508239134184],[102.10881769284973,2.9395659553511404],[102.10778127606861,2.9395659553511404],[102.10778127606861,2.9407432583961084],[102.10726306767805,2.9407432583961084],[102.10778127606861,2.9434903035389057],[102.10726306767805,2.9434903035389057],[102.10726306767805,2.9438827390972317],[102.10622665089694,2.9438827390972317],[102.10622665089694,2.9462373552730745],[102.10674485928747,2.9462373552730745],[102.10674485928747,2.947339355652882],[102.10881769284973,2.9474146651784485],[102.10881769284973,2.9470222284086494],[102.10933590124029,2.9470222284086494],[102.10933590124029,2.947807102082945],[102.10985410963085,2.947807102082945],[102.10985410963085,2.948199539122159],[102.11089052641198,2.948199539122159],[102.11089052641198,2.9474146651784485],[102.11192694319308,2.947807102082945],[102.11192694319308,2.948591976296107],[102.11244515158366,2.948591976296107],[102.11244515158366,2.948199539122159]],[[102.11296335997422,2.9438827390972317],[102.11244515158366,2.9438827390972317],[102.11244515158366,2.9434903035389057],[102.11296335997422,2.9434903035389057],[102.11296335997422,2.9438827390972317]],[[102.11192694319308,2.9434903035389057],[102.11192694319308,2.943097868115098],[102.11244515158366,2.943097868115098],[102.11244515158366,2.9434903035389057],[102.11192694319308,2.9434903035389057]],[[102.10985410963085,2.9470222284086494],[102.11037231802142,2.9470222284086494],[102.11037231802142,2.947807102082945],[102.10985410963085,2.947807102082945],[102.10985410963085,2.9470222284086494]],[[102.11037231802142,2.9466297917735313],[102.10985410963085,2.9466297917735313],[102.10985410963085,2.9462373552730745],[102.11089052641198,2.9462373552730745],[102.11089052641198,2.9470222284086494],[102.11037231802142,2.9470222284086494],[102.11037231802142,2.9466297917735313]],[[102.11555440192703,2.9493768510482794],[102.11503619353645,2.9493768510482794],[102.11503619353645,2.9489844136048076],[102.11555440192703,2.9489844136048076],[102.11555440192703,2.9493768510482794]],[[102.11607261031759,2.948591976296107],[102.11503619353645,2.948591976296107],[102.11503619353645,2.948199539122159],[102.11607261031759,2.948199539122159],[102.11607261031759,2.948591976296107]],[[102.1145179851459,2.9474146651784485],[102.11503619353645,2.9474146651784485],[102.11503619353645,2.947807102082945],[102.1145179851459,2.947807102082945],[102.1145179851459,2.9474146651784485]],[[102.11503619353645,2.9470222284086494],[102.11555440192703,2.9470222284086494],[102.11555440192703,2.9474146651784485],[102.11503619353645,2.9474146651784485],[102.11503619353645,2.9470222284086494]],[[102.10829948445918,2.9470222284086494],[102.10778127606861,2.9470222284086494],[102.10778127606861,2.9466297917735313],[102.10829948445918,2.9466297917735313],[102.10829948445918,2.9470222284086494]],[[102.10933590124029,2.9466297917735313],[102.10881769284973,2.9466297917735313],[102.10881769284973,2.9462373552730745],[102.10933590124029,2.9462373552730745],[102.10933590124029,2.9466297917735313]],[[102.11140873480252,2.945452482676076],[102.10933590124029,2.945452482676076],[102.10933590124029,2.945060046579498],[102.11140873480252,2.9446676106175103],[102.11140873480252,2.945452482676076]],[[102.10881769284973,2.945060046579498],[102.10881769284973,2.9446676106175103],[102.10933590124029,2.9446676106175103],[102.10933590124029,2.945060046579498],[102.10881769284973,2.945060046579498]],[[102.11140873480252,2.9442751747900937],[102.11192694319308,2.9442751747900937],[102.11192694319308,2.9446676106175103],[102.11140873480252,2.9446676106175103],[102.11140873480252,2.9442751747900937]],[[102.10881769284973,2.9438827390972317],[102.10933590124029,2.9438827390972317],[102.10933590124029,2.9442751747900937],[102.10881769284973,2.9442751747900937],[102.10881769284973,2.9438827390972317]],[[102.10829948445918,2.9438827390972317],[102.10829948445918,2.9434903035389057],[102.10881769284973,2.9434903035389057],[102.10881769284973,2.9438827390972317],[102.10829948445918,2.9438827390972317]],[[102.10933590124029,2.9434903035389057],[102.11037231802142,2.9434903035389057],[102.11037231802142,2.9442751747900937],[102.10985410963085,2.9442751747900937],[102.10933590124029,2.9434903035389057]],[[102.11140873480252,2.9438827390972317],[102.11089052641198,2.9438827390972317],[102.11089052641198,2.9434903035389057],[102.11140873480252,2.9434903035389057],[102.11140873480252,2.9438827390972317]],[[102.11037231802142,2.9427054328257887],[102.11037231802142,2.942312997670962],[102.11089052641198,2.942312997670962],[102.11089052641198,2.9427054328257887],[102.11037231802142,2.9427054328257887]],[[102.10985410963085,2.942312997670962],[102.10985410963085,2.9419205626505978],[102.11037231802142,2.9419205626505978],[102.11037231802142,2.942312997670962],[102.10985410963085,2.942312997670962]],[[102.10933590124029,2.9419205626505978],[102.10933590124029,2.9415281277646796],[102.10985410963085,2.9415281277646796],[102.10985410963085,2.9419205626505978],[102.10933590124029,2.9419205626505978]]],[[[102.11140873480252,2.948199539122159],[102.11089052641198,2.948199539122159],[102.11089052641198,2.9485664171375268],[102.11140873480252,2.948591976296107],[102.11140873480252,2.948199539122159]]],[[[102.11178840102444,2.9489844136048076],[102.11192694319308,2.949055505158893],[102.11192694319308,2.9489844136048076],[102.11178840102444,2.9489844136048076]]],[[[102.12591856973825,2.9513390402878277],[102.12643677812878,2.9513390402878277],[102.12643677812878,2.950946602170232],[102.12591856973825,2.950946602170232],[102.12591856973825,2.9513390402878277]]],[[[102.14820153053235,3.0259047506605405],[102.14716511375121,3.0259047506605405],[102.14716511375121,3.026297214867822],[102.14768332214179,3.026297214867822],[102.14768332214179,3.027082143697393],[102.14820153053235,3.027082143697393],[102.14820153053235,3.0259047506605405]]],[[[102.13991019628337,3.0278670730804285],[102.14042840467394,3.0278670730804285],[102.14042840467394,3.027474608319719],[102.13991019628337,3.027474608319719],[102.13991019628337,3.0278670730804285]]],[[[102.14094661306449,3.0278670730804285],[102.14042840467394,3.0278670730804285],[102.14042840467394,3.0282595379795403],[102.14094661306449,3.0282595379795403],[102.14094661306449,3.0278670730804285]]],[[[102.15701107317187,2.9564407480971306],[102.15701107317187,2.956833188104676],[102.15752928156245,2.956833188104676],[102.15752928156245,2.9564407480971306],[102.15701107317187,2.9564407480971306]]],[[[102.17307553327926,2.960757595615359],[102.17255732488869,2.960757595615359],[102.17255732488869,2.961150037110347],[102.17100269971701,2.961150037110347],[102.17100269971701,2.9615424787406672],[102.17048449132645,2.9615424787406672],[102.17048449132645,2.9623273624073696],[102.17203911649813,2.9623273624073696],[102.17203911649813,2.9615424787406672],[102.17307553327926,2.9615424787406672],[102.17307553327926,2.961934920506335],[102.17463015845092,2.961934920506335],[102.17463015845092,2.9627198044437897],[102.1751483668415,2.9627198044437897],[102.1751483668415,2.9615424787406672],[102.17463015845092,2.9615424787406672],[102.17463015845092,2.961150037110347],[102.1751483668415,2.961150037110347],[102.1751483668415,2.9603651542556824],[102.17307553327926,2.9603651542556824],[102.17307553327926,2.960757595615359]]],[[[102.16996628293589,2.9631122466156117],[102.17048449132645,2.9631122466156117],[102.17048449132645,2.9627198044437897],[102.16996628293589,2.9627198044437897],[102.16996628293589,2.9631122466156117]]],[[[102.17203911649813,2.963897131365537],[102.17203911649813,2.9635046889228542],[102.17100269971701,2.9631122466156117],[102.17100269971701,2.963897131365537],[102.17203911649813,2.963897131365537]]],[[[102.1735937416698,2.9631122466156117],[102.1735937416698,2.9635046889228542],[102.17255732488869,2.9635046889228542],[102.17307553327926,2.9642895739436756],[102.1735937416698,2.9642895739436756],[102.1735937416698,2.963897131365537],[102.17463015845092,2.963897131365537],[102.17463015845092,2.9635046889228542],[102.1735937416698,2.9631122466156117]]],[[[102.16685703259253,2.9642895739436756],[102.16737524098308,2.9642895739436756],[102.16737524098308,2.963897131365537],[102.16685703259253,2.963897131365537],[102.16685703259253,2.9642895739436756]]],[[[102.16737524098308,2.96468201665729],[102.1678769110013,2.96468201665729],[102.16789344937365,2.9642895739436756],[102.16737524098308,2.9642895739436756],[102.16737524098308,2.96468201665729]]],[[[102.16633882420196,2.96664423225812],[102.16685703259253,2.96664423225812],[102.16685703259253,2.965859345611164],[102.16633882420196,2.965859345611164],[102.16633882420196,2.96664423225812]]],[[[102.15493823960963,2.9733157906685563],[102.15493823960963,2.97292334496992],[102.1554564480002,2.97292334496992],[102.1554564480002,2.9725308994071566],[102.15477584743991,2.9725308994071566],[102.15493823960963,2.9733157906685563]]],[[[102.16892986615477,2.9733157906685563],[102.16892986615477,2.9737082365030827],[102.16944807454533,2.9737082365030827],[102.16944807454533,2.9733157906685563],[102.16892986615477,2.9733157906685563]]],[[[102.1606385319058,2.978025149656816],[102.1606385319058,2.9784175971234386],[102.16115674029635,2.9784175971234386],[102.16115674029635,2.978025149656816],[102.1606385319058,2.978025149656816]]],[[[102.14871973892289,3.0290444681930424],[102.14923794731347,3.0290444681930424],[102.14923794731347,3.0282595379795403],[102.14871973892289,3.0282595379795403],[102.14871973892289,3.0290444681930424]]],[[[102.1513107808757,3.0329691275708277],[102.15182898926626,3.0329691275708277],[102.15182898926626,3.03257666100948],[102.1513107808757,3.03257666100948],[102.1513107808757,3.0329691275708277]]],[[[102.15234719765682,3.034146528086765],[102.15234719765682,3.0345389952027686],[102.15286540604738,3.0345389952027686],[102.15286540604738,3.034146528086765],[102.15234719765682,3.034146528086765]]],[[[102.15752928156245,3.037286268899673],[102.15752928156245,3.037678737125859],[102.15804748995299,3.037678737125859],[102.15804748995299,3.037286268899673],[102.15752928156245,3.037286268899673]]],[[[102.15649286478131,3.038071205490899],[102.15649286478131,3.037286268899673],[102.15597465639075,3.037286268899673],[102.1554564480002,3.038071205490899],[102.15649286478131,3.038071205490899]]],[[[102.17152090810757,3.0529851064317937],[102.17152090810757,3.053770054160259],[102.17203911649813,3.053770054160259],[102.17203911649813,3.0529851064317937],[102.17152090810757,3.0529851064317937]]],[[[102.17463015845092,3.056124900696517],[102.17463015845092,3.0569098506593724],[102.1751483668415,3.0569098506593724],[102.1751483668415,3.056124900696517],[102.17463015845092,3.056124900696517]]],[[[102.17307553327926,3.0600496561018264],[102.17307553327926,3.0604421324114233],[102.1735937416698,3.0604421324114233],[102.1735937416698,3.0600496561018264],[102.17307553327926,3.0600496561018264]]],[[[102.16944807454533,3.0604421324114233],[102.16944807454533,3.060834608860922],[102.16996628293589,3.060834608860922],[102.16996628293589,3.0604421324114233],[102.16944807454533,3.0604421324114233]]],[[[102.17152090810757,3.060834608860922],[102.17203911649813,3.060834608860922],[102.17203911649813,3.0604421324114233],[102.17152090810757,3.0604421324114233],[102.17152090810757,3.060834608860922]]],[[[102.17100269971701,3.061619562179699],[102.17152090810757,3.061619562179699],[102.17152090810757,3.0612270854503416],[102.17100269971701,3.0612270854503416],[102.17100269971701,3.061619562179699]]],[[[102.17255732488869,3.061619562179699],[102.17255732488869,3.0624045160583044],[102.17307553327926,3.0624045160583044],[102.17307553327926,3.062012039049014],[102.1735937416698,3.062012039049014],[102.1735937416698,3.0612270854503416],[102.17255732488869,3.061619562179699]]],[[[102.16892986615477,3.061619562179699],[102.16892986615477,3.0624045160583044],[102.16996628293589,3.0624045160583044],[102.16996628293589,3.061619562179699],[102.16892986615477,3.061619562179699]]],[[[102.16996628293589,3.0647593810545226],[102.16996628293589,3.0651518590441413],[102.17048449132645,3.0651518590441413],[102.17048449132645,3.0647593810545226],[102.16996628293589,3.0647593810545226]]],[[[102.17100269971701,3.067114251094388],[102.17152090810757,3.067114251094388],[102.17152090810757,3.0667217724039917],[102.17100269971701,3.0667217724039917],[102.17100269971701,3.067114251094388]]],[[[102.22696920589756,2.9208330054866236],[102.22748741428812,2.9208281680304875],[102.22748741428812,2.920336843076093],[102.22696920589756,2.920336843076093],[102.22696920589756,2.9208330054866236]]],[[[102.22385995555419,2.9234762680356985],[102.22385995555419,2.9234443453357173],[102.22378296365193,2.9234762680356985],[102.22385995555419,2.9234762680356985]]],[[[102.22334174716363,2.9238686967566445],[102.22334174716363,2.9236592070524083],[102.22283649520828,2.9238686967566445],[102.22334174716363,2.9238686967566445]]],[[[102.18343970109046,2.936034053468493],[102.18343970109046,2.936426486474071],[102.18395790948102,2.936426486474071],[102.18395790948102,2.936034053468493],[102.18343970109046,2.936034053468493]]],[[[102.18654895143382,2.9415281277646796],[102.18706715982438,2.9415281277646796],[102.18706715982438,2.941135693013189],[102.18654895143382,2.941135693013189],[102.18654895143382,2.9415281277646796]]],[[[102.18862178499607,2.9470222284086494],[102.18913999338662,2.9470222284086494],[102.18913999338662,2.9466297917735313],[102.18862178499607,2.9466297917735313],[102.18862178499607,2.9470222284086494]]],[[[102.19224924372999,2.9474146651784485],[102.19224924372999,2.947807102082945],[102.19276745212056,2.947807102082945],[102.19276745212056,2.9474146651784485],[102.19224924372999,2.9474146651784485]]],[[[102.19173103533943,2.9489844136048076],[102.19173103533943,2.9493768510482794],[102.19224924372999,2.9493768510482794],[102.19224924372999,2.9489844136048076],[102.19173103533943,2.9489844136048076]]],[[[102.20520445349402,2.9536936718264912],[102.20520445349402,2.9538579795906577],[102.20547613584182,2.9536936718264912],[102.20520445349402,2.9536936718264912]]],[[[102.1751483668415,2.9615424787406672],[102.17566657523206,2.9615424787406672],[102.17566657523206,2.961150037110347],[102.1751483668415,2.961150037110347],[102.1751483668415,2.9615424787406672]]],[[[102.17981224235653,2.968998895453567],[102.1803304507471,2.968998895453567],[102.1803304507471,2.9686064512485353],[102.17981224235653,2.9686064512485353],[102.17981224235653,2.968998895453567]]],[[[102.18551253465272,2.9776327023263014],[102.18551253465272,2.9780132383365125],[102.18586695853803,2.9776327023263014],[102.18551253465272,2.9776327023263014]]],[[[102.18395790948102,2.9795949403401294],[102.18395790948102,2.979682401789026],[102.18403936925343,2.9795949403401294],[102.18395790948102,2.9795949403401294]]],[[[102.18346658211156,2.997647690095637],[102.18343970109046,2.99804014439066],[102.1835094845022,2.99804014439066],[102.18346658211156,2.997647690095637]]],[[[102.19380386890167,3.0078515463475815],[102.1948402856828,3.0078515463475815],[102.1948402856828,3.0070666310327163],[102.19380386890167,3.0070666310327163],[102.19380386890167,3.0078515463475815]]],[[[102.19587670246392,3.0078515463475815],[102.19691311924504,3.0078515463475815],[102.19691311924504,3.0074590886214176],[102.19639491085447,3.0074590886214176],[102.19639491085447,3.0070666310327163],[102.19535849407336,3.0070666310327163],[102.19587670246392,3.0078515463475815]]],[[[102.19328566051112,3.0078515463475815],[102.19328566051112,3.0082440042112255],[102.19380386890167,3.0082440042112255],[102.19380386890167,3.0078515463475815],[102.19328566051112,3.0078515463475815]]],[[[102.19328566051112,3.0204102662731103],[102.19328566051112,3.020802728545672],[102.19380386890167,3.020802728545672],[102.19380386890167,3.0204102662731103],[102.19328566051112,3.0204102662731103]]],[[[102.17670299201318,3.042780836708564],[102.17670299201318,3.04317330688035],[102.17722120040374,3.04317330688035],[102.17722120040374,3.042780836708564],[102.17670299201318,3.042780836708564]]],[[[102.17670299201318,3.0443507182304232],[102.17722120040374,3.0443507182304232],[102.17722120040374,3.0435657771912425],[102.17670299201318,3.0435657771912425],[102.17670299201318,3.0443507182304232]]],[[[102.17670299201318,3.0443507182304232],[102.17618478362262,3.0443507182304232],[102.17618478362262,3.044743188958746],[102.17670299201318,3.044743188958746],[102.17670299201318,3.0443507182304232]]],[[[102.1751483668415,3.051415212649426],[102.1751483668415,3.0518076858857426],[102.17566657523206,3.0518076858857426],[102.17566657523206,3.051415212649426],[102.1751483668415,3.051415212649426]]],[[[102.19173103533943,3.062796993207586],[102.19173103533943,3.06318947049688],[102.19276745212056,3.06318947049688],[102.19276745212056,3.062796993207586],[102.19173103533943,3.062796993207586]]],[[[102.1948402856828,3.070646565619565],[102.1948402856828,3.071039045712872],[102.19535849407336,3.071039045712872],[102.19535849407336,3.070646565619565],[102.1948402856828,3.070646565619565]]],[[[102.19691311924504,3.0714315259465708],[102.19794953602617,3.071824006320677],[102.19829078436503,3.070646565619565],[102.1974313276356,3.070646565619565],[102.19691311924504,3.0714315259465708]]],[[[102.19691311924504,3.074963854370412],[102.1974313276356,3.074963854370412],[102.1974313276356,3.0741788915149115],[102.19691311924504,3.0741788915149115],[102.19691311924504,3.074963854370412]]]]},"properties":{"place_id":"65186e24-1003-5803-9486-2d340e7ac027","habitat":"open_grassland","habitat_label":"Open grassland or shrubland","resolution_m":50}},{"type":"Feature","geometry":{"type":"MultiPolygon","coordinates":[[[[102.11140873480252,2.948199539122159],[102.11089052641198,2.948199539122159],[102.11089052641198,2.9485664171375268],[102.11192694319308,2.9489844136048076],[102.11140873480252,2.948199539122159]]],[[[102.16892986615477,2.974100682473518],[102.16841165776421,2.974100682473518],[102.16841165776421,2.9737082365030827],[102.16737524098308,2.9737082365030827],[102.16685703259253,2.97449312857988],[102.16737524098308,2.97449312857988],[102.16737524098308,2.974885574822186],[102.16841165776421,2.974885574822186],[102.16892986615477,2.974100682473518]]],[[[102.15960211512468,2.9776327023263014],[102.15856569834355,2.9772402551318757],[102.15804748995299,2.978025149656816],[102.15908390673411,2.9784175971234386],[102.15960211512468,2.9776327023263014]]],[[[102.15804748995299,3.038071205490899],[102.15856569834355,3.038071205490899],[102.15856569834355,3.037678737125859],[102.15804748995299,3.037678737125859],[102.15752928156245,3.036893800812324],[102.15649286478131,3.036893800812324],[102.15649286478131,3.037286268899673],[102.15597465639075,3.037286268899673],[102.15597465639075,3.0384636739948103],[102.15649286478131,3.0384636739948103],[102.15649286478131,3.0387875724413616],[102.15752928156245,3.038771317078579],[102.15804748995299,3.038071205490899]]],[[[102.18913999338662,3.0796736433164695],[102.18913999338662,3.0792811601303933],[102.18862178499607,3.0792811601303933],[102.18862178499607,3.0796736433164695],[102.18810357660551,3.07970856229418],[102.18965820177719,3.0805964024618193],[102.19017641016775,3.080458610111005],[102.19017641016775,3.080066126643334],[102.18913999338662,3.0796736433164695]]],[[[102.19121282694887,3.0812435774688383],[102.19173103533943,3.080458610111005],[102.19069461855833,3.080066126643334],[102.19017641016775,3.080598924180577],[102.19121282694887,3.0812435774688383]]],[[[102.19691311924504,3.0813156781274045],[102.19692242930543,3.0812435774688383],[102.19691311924504,3.0812435774688383],[102.19691311924504,3.0813156781274045]]],[[[102.19685199560651,3.081636061359037],[102.19686759999999,3.0816681965908317],[102.19687174948841,3.081636061359037],[102.19685199560651,3.081636061359037]]]]},"properties":{"place_id":"65186e24-1003-5803-9486-2d340e7ac027","habitat":"disturbed_built_edge","habitat_label":"Disturbed, bare or built edge","resolution_m":50}},{"type":"Feature","geometry":{"type":"MultiPolygon","coordinates":[[[[102.15649286478131,3.0384636739948103],[102.15649286478131,3.0387875724413616],[102.15701107317187,3.0387775241971524],[102.15701107317187,3.0384636739948103],[102.15649286478131,3.0384636739948103]]],[[[102.17411195006038,3.053770054160259],[102.17463015845092,3.053770054160259],[102.17463015845092,3.0533775802262384],[102.17411195006038,3.0533775802262384],[102.17411195006038,3.053770054160259]]],[[[102.19687174948841,3.081636061359037],[102.19691311924504,3.0808510937195],[102.1963047133862,3.0808510937195],[102.19664619999999,3.0811757965913955],[102.19687174948841,3.081636061359037]]],[[[102.19121282694887,3.081636061359037],[102.19121282694887,3.0820285453901155],[102.19173103533943,3.0820285453901155],[102.19173103533943,3.081636061359037],[102.19121282694887,3.081636061359037]]],[[[102.19535849407336,3.0820285453901155],[102.19587670246392,3.0820285453901155],[102.19583103885344,3.081636061359037],[102.19535849407336,3.081636061359037],[102.19535849407336,3.0820285453901155]]],[[[102.19535849407336,3.0820285453901155],[102.1948402856828,3.0820285453901155],[102.1948402856828,3.082421029562089],[102.19535849407336,3.082421029562089],[102.19535849407336,3.0820285453901155]]]]},"properties":{"place_id":"65186e24-1003-5803-9486-2d340e7ac027","habitat":"cropland","habitat_label":"Cropland","resolution_m":50}}]}