{"type":"FeatureCollection","metadata":{"schema_version":1,"place_id":"6521b387-2767-5837-bd95-afae4b0fd42f","place_name":"Taman Poket Fajar","place_type":"park","osm_reference":"way/1276496241","protection_context":"no protected status confirmed from included OSM tags","resolution_m":50,"raster_coverage":1.0,"interpretation":"Suggested search habitats, not predicted plant locations or probabilities of presence."},"features":[{"type":"Feature","geometry":{"type":"Polygon","coordinates":[[[117.89068240000002,4.246352395347214],[117.8909289,4.24627959534729],[117.89030680000002,4.246378695347187],[117.89068240000002,4.246352395347214]]]},"properties":{"place_id":"6521b387-2767-5837-bd95-afae4b0fd42f","habitat":"disturbed_built_edge","habitat_label":"Disturbed, bare or built edge","resolution_m":50}},{"type":"Feature","geometry":{"type":"Polygon","coordinates":[[[117.89033601898349,4.246318635613216],[117.89093349999999,4.246362195347208],[117.8909289,4.24627959534729],[117.89033601898349,4.246318635613216]]]},"properties":{"place_id":"6521b387-2767-5837-bd95-afae4b0fd42f","habitat":"seasonal_water_wetland","habitat_label":"Seasonal water or wetland","resolution_m":50}},{"type":"Feature","geometry":{"type":"Polygon","coordinates":[[[117.89033601898349,4.246376649395972],[117.89032599999999,4.2463192953472575],[117.89030680000002,4.246378695347187],[117.89033601898349,4.246376649395972]]]},"properties":{"place_id":"6521b387-2767-5837-bd95-afae4b0fd42f","habitat":"water_edge","habitat_label":"Water edge","resolution_m":50}}]}