{"type":"FeatureCollection","metadata":{"schema_version":1,"place_id":"65228816-125d-56a8-9dbd-e4d3fad8ee57","place_name":"Taman Poket Jesselton","place_type":"park","osm_reference":"way/560119683","protection_context":"no protected status confirmed from included OSM tags","resolution_m":50,"raster_coverage":1.0,"interpretation":"Suggested search habitats, not predicted plant locations or probabilities of presence."},"features":[{"type":"Feature","geometry":{"type":"Polygon","coordinates":[[[100.30130682657422,5.425165147817769],[100.30069659571566,5.425165147817769],[100.30130682657422,5.425484836531602],[100.30130682657422,5.425165147817769]]]},"properties":{"place_id":"65228816-125d-56a8-9dbd-e4d3fad8ee57","habitat":"forest_interior","habitat_label":"Forest interior","resolution_m":50}},{"type":"Feature","geometry":{"type":"Polygon","coordinates":[[[100.3006621,5.425096694131287],[100.3014258,5.425525694130873],[100.3011066,5.424528394131874],[100.3006621,5.425096694131287]]]},"properties":{"place_id":"65228816-125d-56a8-9dbd-e4d3fad8ee57","habitat":"forest_edge_opening","habitat_label":"Forest edge or opening","resolution_m":50}},{"type":"Feature","geometry":{"type":"Polygon","coordinates":[[[100.3006621,5.425096694131287],[100.3014258,5.425525694130873],[100.3011066,5.424528394131874],[100.3006621,5.425096694131287]]]},"properties":{"place_id":"65228816-125d-56a8-9dbd-e4d3fad8ee57","habitat":"disturbed_built_edge","habitat_label":"Disturbed, bare or built edge","resolution_m":50}}]}