{"type":"FeatureCollection","metadata":{"schema_version":1,"place_id":"65370419-e5f8-5b19-ab69-383c7309c106","place_name":"Taman Poket Lengkok Nipah 3","place_type":"park","osm_reference":"way/1018472514","protection_context":"no protected status confirmed from included OSM tags","resolution_m":50,"raster_coverage":1.0,"interpretation":"Suggested search habitats, not predicted plant locations or probabilities of presence."},"features":[{"type":"Feature","geometry":{"type":"Polygon","coordinates":[[[100.29341809999998,5.343759494213613],[100.2936805,5.344034394213306],[100.2937074,5.3437511942135885],[100.29341809999998,5.343759494213613]]]},"properties":{"place_id":"65370419-e5f8-5b19-ab69-383c7309c106","habitat":"forest_edge_opening","habitat_label":"Forest edge or opening","resolution_m":50}},{"type":"Feature","geometry":{"type":"Polygon","coordinates":[[[100.29341809999998,5.343759494213613],[100.2936805,5.344034394213306],[100.2937074,5.3437511942135885],[100.29341809999998,5.343759494213613]]]},"properties":{"place_id":"65370419-e5f8-5b19-ab69-383c7309c106","habitat":"disturbed_built_edge","habitat_label":"Disturbed, bare or built edge","resolution_m":50}}]}