{"type":"FeatureCollection","metadata":{"schema_version":1,"place_id":"6588222b-71f9-5b5b-9f5e-d9db1bc2c1b5","place_name":"Hutan Simpanan Kekal Gunung Stong Utara","place_type":"park","osm_reference":"relation/18098557","protection_context":"mapped protected boundary","resolution_m":50,"raster_coverage":1.0,"interpretation":"Suggested search habitats, not predicted plant locations or probabilities of presence."},"features":[{"type":"Feature","geometry":{"type":"MultiPolygon","coordinates":[[[[101.90153433662547,5.348408518188697],[101.90101612823491,5.348166984861367],[101.8863465,5.349436994207845],[101.88692809999999,5.3811444941757545],[101.888237,5.382938994173944],[101.89141269999999,5.384498494172335],[101.8926787,5.386335694170485],[101.8967557,5.387660194169162],[101.90345050000002,5.387638794169176],[101.90536019999999,5.38719019416963],[101.9069052,5.385182094171662],[101.90737719999998,5.382426294174448],[101.9084072,5.382169894174716],[101.9115615,5.385331694171524],[101.91224809999999,5.385481194171374],[101.9131279,5.387617494169204],[101.9144895463895,5.388010906566624],[101.91397133799893,5.387376089004921],[101.91500775478005,5.386982465044418],[101.91500775478005,5.387376089004921],[101.91552596317061,5.387376089004921],[101.91500775478005,5.388160629501731],[101.91926479999998,5.3893905941674225],[101.921432,5.389326494167484],[101.92267649999997,5.3897323941670745],[101.92492959999998,5.389540094167269],[101.9260669,5.387382494169432],[101.9269252,5.382832194174046],[101.9288134,5.379627694177292],[101.9288564,5.377469994179439],[101.9261212,5.369552594187502],[101.90390949999998,5.347916494209384],[101.90153433662547,5.34812212150146],[101.90153433662547,5.348408518188697]],[[101.91552596317061,5.3826526178582546],[101.91656237995174,5.382258996875337],[101.9170805883423,5.383046239089201],[101.91604417156117,5.383439860568197],[101.91552596317061,5.3826526178582546]],[[101.90878925409332,5.367695194703061],[101.9093074624839,5.367695194703061],[101.9093074624839,5.367301583131537],[101.9077528373122,5.366514360730393],[101.90827104570276,5.365727139318327],[101.90878925409332,5.365727139318327],[101.90878925409332,5.366120749900735],[101.91086208765556,5.367301583131537],[101.90982567087445,5.368482418588099],[101.9093074624839,5.368482418588099],[101.90878925409332,5.367695194703061]]],[[[101.78182819840598,5.40508942445147],[101.78158627918955,5.405483059850836],[101.78182819840598,5.405483059850836],[101.78182819840598,5.40508942445147]]],[[[101.78182819840598,5.406270331396908],[101.78166599195778,5.406270331396908],[101.78182819840598,5.406586924684219],[101.78182819840598,5.406270331396908]]],[[[101.78597386553045,5.409813065689033],[101.78545565713989,5.409813065689033],[101.78545565713989,5.410053289523327],[101.78597386553045,5.410206704078914],[101.78597386553045,5.409813065689033]]],[[[101.80048370046616,5.442485902226471],[101.80048370046616,5.4420922433298236],[101.8025565340284,5.440911268144812],[101.8025565340284,5.441304926289012],[101.80359295080952,5.44169858468401],[101.80359295080952,5.4428795613739736],[101.80307474241894,5.4428795613739736],[101.80333999999999,5.443368794112861],[101.81195909999998,5.4476165941085695],[101.81233349999998,5.448368594107808],[101.8115012,5.449113094107058],[101.81159989999999,5.449867794106278],[101.8132703,5.449402594106763],[101.8137336,5.449941094106255],[101.8145231,5.4491647941069985],[101.81552499999997,5.449260294106913],[101.8191038,5.451812494104356],[101.821126,5.4525410941036005],[101.82299900000001,5.4525437941036135],[101.8263148,5.454263094101868],[101.8284725,5.4546868941014495],[101.8322518,5.453647494102475],[101.83338879999998,5.45374859410239],[101.83531189999998,5.452765294103388],[101.8360891,5.453283694102866],[101.8387083,5.453251794102903],[101.83914229999999,5.454669594101446],[101.8399963,5.45494469410119],[101.84179869999998,5.452788294103351],[101.8437882,5.452061194104097],[101.8444811,5.451238994104914],[101.8468712,5.450759194105379],[101.84946960000002,5.451301994104838],[101.8499912,5.451860294104302],[101.8486871,5.454439894101686],[101.84941089999998,5.4557132941004225],[101.8529854,5.455881194100245],[101.8534797,5.4557683941003505],[101.85533119999998,5.452749594103372],[101.8586665,5.455155794100956],[101.8612675,5.459724694096351],[101.86663979999999,5.466451994089555],[101.8683125,5.467440294088583],[101.87175749999999,5.454575694101562],[101.8726373,5.438928894117361],[101.87450409999998,5.427180194129197],[101.87426799999999,5.424787794131612],[101.8691182,5.417503394138984],[101.86381809999999,5.408787694147812],[101.86293839999999,5.405903794150733],[101.86250919999999,5.400712794155958],[101.8631315,5.396247994160447],[101.8621015,5.394068994162674],[101.85495609999998,5.393577694163174],[101.8527015,5.352349694204891],[101.7871866,5.358021494199169],[101.7685272,5.37365369418333],[101.76940569999996,5.376137794180833],[101.76918759999998,5.376767194180171],[101.77093790000002,5.379522694177409],[101.7704339,5.380881394176002],[101.770675,5.382236294174632],[101.77198849999999,5.3841648941726765],[101.77227109999998,5.385629494171197],[101.77401899999998,5.386331494170484],[101.77455399999997,5.387273894169548],[101.77470730000002,5.389329994167448],[101.77560669999997,5.39063999416613],[101.77694849999999,5.391390394165405],[101.77835439999998,5.3950691941616835],[101.77920499999999,5.3953437941613736],[101.77975536484372,5.397450352560269],[101.78027357323428,5.39721676874808],[101.78027357323428,5.397610399169198],[101.78079178162484,5.397610399169198],[101.7800944,5.398880194157806],[101.78027357323428,5.399432849838043],[101.78079178162484,5.399184923341223],[101.78079178162484,5.399578555006209],[101.7813099900154,5.399578555006209],[101.7813099900154,5.3999721869200235],[101.78079178162484,5.3999721869200235],[101.78107999999997,5.401197994155487],[101.77986529197636,5.402333983629349],[101.7813099900154,5.403121251190597],[101.78062802634335,5.403908519747828],[101.78128905769513,5.404302154399985],[101.7813099900154,5.403908519747828],[101.78182819840598,5.403908519747828],[101.78182819840598,5.404302154399985],[101.78234640679652,5.404302154399985],[101.78182819840598,5.40508942445147],[101.78234640679652,5.40508942445147],[101.78234640679652,5.405483059850836],[101.7828646151871,5.405483059850836],[101.7828646151871,5.406270331396908],[101.78191252514704,5.406663967543652],[101.78335699999997,5.407422194149175],[101.78485787626663,5.409419427548464],[101.78493744874933,5.40902578965719],[101.78545565713989,5.40902578965719],[101.78545565713989,5.409419427548464],[101.78701028231157,5.410206704078914],[101.78701028231157,5.410600342718122],[101.78649207392101,5.410600342718122],[101.78576059999999,5.41142479414514],[101.785649,5.412325094144226],[101.78759589999999,5.412889894143638],[101.78863039999999,5.41466829414186],[101.79124219999999,5.4160047941405125],[101.7891549,5.419471794137006],[101.7902586,5.420927694135518],[101.7901537,5.4229342941335155],[101.7907755,5.424902194131493],[101.7901283,5.427043794129334],[101.7885972,5.429427794126933],[101.7892741,5.431724194124644],[101.7914108,5.432468094123866],[101.7924498,5.434421494121873],[101.79374699138886,5.434465671613112],[101.7932287829983,5.434219118047491],[101.7932287829983,5.433431811031905],[101.79374699138886,5.433431811031905],[101.79374699138886,5.433038157899761],[101.79478340816998,5.433431811031905],[101.79478340816998,5.434219118047491],[101.79426519977942,5.434219118047491],[101.79414281759344,5.43461277193097],[101.79478340816998,5.43526722858066],[101.79530161656055,5.43461277193097],[101.79633803334167,5.43500642606493],[101.7958198249511,5.435793735084373],[101.7949058741158,5.4354000804493925],[101.79561929999998,5.436759894119554],[101.7957982,5.438219894118052],[101.7959444,5.438471894117813],[101.7966271,5.4386551941176045],[101.7975913,5.438667594117612],[101.7979398,5.439909494116334],[101.79853589999999,5.440346594115885],[101.79889245040735,5.440123952608735],[101.79789265851335,5.439730295216817],[101.79789265851335,5.4393366380756225],[101.79841086690391,5.4393366380756225],[101.79841086690391,5.438942981185135],[101.79944728368503,5.4393366380756225],[101.79892907529447,5.440074205548608],[101.7992974,5.439993094116257],[101.8002816,5.4411195941151265],[101.80048370046616,5.442485902226471]],[[101.79633803334167,5.438155668156197],[101.7958198249511,5.438155668156197],[101.7958198249511,5.4373683561298565],[101.79685624173221,5.436974700492614],[101.79789265851335,5.438155668156197],[101.79737445012279,5.438155668156197],[101.79737445012279,5.438549324545331],[101.79633803334167,5.438549324545331],[101.79633803334167,5.438155668156197]],[[101.85178633113166,5.454689452538142],[101.85178633113166,5.454295785856389],[101.85230453952222,5.454295785856389],[101.85282274791277,5.455083119471321],[101.85178633113166,5.455476786655952],[101.85178633113166,5.455083119471321],[101.85126812274109,5.455083119471321],[101.85126812274109,5.454689452538142],[101.85178633113166,5.454689452538142]],[[101.84142216332044,5.447997153127637],[101.84142216332044,5.447603490717346],[101.841940371711,5.447603490717346],[101.84245858010158,5.448390815789039],[101.84142216332044,5.448784478701577],[101.84142216332044,5.448390815789039],[101.84090395492987,5.448390815789039],[101.84090395492987,5.447997153127637],[101.84142216332044,5.447997153127637]],[[101.85178633113166,5.445241521527954],[101.85178633113166,5.4448478608749395],[101.85230453952222,5.4448478608749395],[101.85282274791277,5.445635182431952],[101.85178633113166,5.4460288435869515],[101.85178633113166,5.445635182431952],[101.85126812274109,5.445635182431952],[101.85126812274109,5.445241521527954],[101.85178633113166,5.445241521527954]],[[101.82898516194699,5.4448478608749395],[101.82898516194699,5.444454200472891],[101.82794874516586,5.4440605403217885],[101.82794874516586,5.442485902226471],[101.82743053677531,5.442485902226471],[101.82794874516586,5.44169858468401],[101.82898516194699,5.4420922433298236],[101.82950337033755,5.4440605403217885],[101.83002157872812,5.4440605403217885],[101.83002157872812,5.444454200472891],[101.83105799550923,5.444454200472891],[101.83157620389979,5.445241521527954],[101.83053978711865,5.445635182431952],[101.83053978711865,5.445241521527954],[101.82950337033755,5.445241521527954],[101.82950337033755,5.4448478608749395],[101.82898516194699,5.4448478608749395]],[[101.85126812274109,5.4428795613739736],[101.85126812274109,5.442485902226471],[101.85178633113166,5.442485902226471],[101.85230453952222,5.443273220772348],[101.85126812274109,5.443666880421614],[101.85126812274109,5.443273220772348],[101.85074991435053,5.443273220772348],[101.85074991435053,5.4428795613739736],[101.85126812274109,5.4428795613739736]],[[101.81654816057353,5.442485902226471],[101.81654816057353,5.4420922433298236],[101.81706636896409,5.4420922433298236],[101.81758457735465,5.4428795613739736],[101.81654816057353,5.443273220772348],[101.81654816057353,5.4428795613739736],[101.81602995218296,5.4428795613739736],[101.81602995218296,5.442485902226471],[101.81654816057353,5.442485902226471]],[[101.82691232838475,5.440911268144812],[101.82691232838475,5.440517610251393],[101.82743053677531,5.440517610251393],[101.82794874516586,5.441304926289012],[101.82691232838475,5.44169858468401],[101.82691232838475,5.441304926289012],[101.82639411999418,5.441304926289012],[101.82639411999418,5.440911268144812],[101.82691232838475,5.440911268144812]],[[101.82432128643194,5.440123952608735],[101.82432128643194,5.439730295216817],[101.82483949482251,5.439730295216817],[101.82535770321307,5.440517610251393],[101.82432128643194,5.440911268144812],[101.82432128643194,5.440517610251393],[101.82380307804138,5.440517610251393],[101.82380307804138,5.440123952608735],[101.82432128643194,5.440123952608735]],[[101.84815887239772,5.440123952608735],[101.84815887239772,5.439730295216817],[101.84867708078829,5.439730295216817],[101.84919528917885,5.440517610251393],[101.84815887239772,5.440911268144812],[101.84815887239772,5.440517610251393],[101.84764066400717,5.440517610251393],[101.84764066400717,5.440123952608735],[101.84815887239772,5.440123952608735]],[[101.807738617934,5.4361873899698905],[101.807738617934,5.435793735084373],[101.80825682632455,5.435793735084373],[101.80877503471511,5.436581045105965],[101.807738617934,5.436974700492614],[101.807738617934,5.436581045105965],[101.80722040954343,5.436581045105965],[101.80722040954343,5.4361873899698905],[101.807738617934,5.4361873899698905]],[[101.83261262068092,5.43461277193097],[101.83261262068092,5.434219118047491],[101.83313082907146,5.434219118047491],[101.83364903746202,5.43500642606493],[101.83261262068092,5.4354000804493925],[101.83261262068092,5.43500642606493],[101.83209441229036,5.43500642606493],[101.83209441229036,5.43461277193097],[101.83261262068092,5.43461277193097]],[[101.83986753814877,5.42713339095611],[101.84038574653931,5.426346092950517],[101.84142216332044,5.426739741828259],[101.84038574653931,5.427920689962219],[101.8393493297582,5.427527040334089],[101.8393493297582,5.42713339095611],[101.83986753814877,5.42713339095611]],[[101.8232848696508,5.407451240584648],[101.8232848696508,5.407057603939559],[101.82432128643194,5.407057603939559],[101.82432128643194,5.407451240584648],[101.82483949482251,5.407451240584648],[101.82483949482251,5.408238514622444],[101.82432128643194,5.408238514622444],[101.82432128643194,5.408632152015189],[101.8232848696508,5.408632152015189],[101.8232848696508,5.408238514622444],[101.82276666126026,5.408238514622444],[101.82276666126026,5.407451240584648],[101.8232848696508,5.407451240584648]],[[101.81136607666792,5.39721676874808],[101.81136607666792,5.396823138575677],[101.81188428505848,5.396823138575677],[101.81240249344904,5.397610399169198],[101.81136607666792,5.398004029839053],[101.81136607666792,5.397610399169198],[101.81084786827736,5.397610399169198],[101.81084786827736,5.39721676874808],[101.81136607666792,5.39721676874808]],[[101.78390103196821,5.377929182427948],[101.78390103196821,5.377535564419948],[101.78441924035877,5.377535564419948],[101.78493744874933,5.378322800683758],[101.78390103196821,5.378716419187391],[101.78390103196821,5.378322800683758],[101.78338282357764,5.378322800683758],[101.78338282357764,5.377929182427948],[101.78390103196821,5.377929182427948]],[[101.80670220115287,5.37163132402421],[101.80670220115287,5.371237709978604],[101.80722040954343,5.371237709978604],[101.807738617934,5.372024938317325],[101.80670220115287,5.372418552857971],[101.80670220115287,5.372024938317325],[101.80618399276231,5.372024938317325],[101.80618399276231,5.37163132402421],[101.80670220115287,5.37163132402421]],[[101.80722040954343,5.367695194703061],[101.80722040954343,5.367301583131537],[101.807738617934,5.367301583131537],[101.80825682632455,5.368088806521906],[101.80722040954343,5.368482418588099],[101.80722040954343,5.368088806521906],[101.80670220115287,5.368088806521906],[101.80670220115287,5.367695194703061],[101.80722040954343,5.367695194703061]],[[101.83831291297707,5.36533352898315],[101.83831291297707,5.364939918895188],[101.83883112136763,5.364939918895188],[101.8393493297582,5.365727139318327],[101.83831291297707,5.366120749900735],[101.83831291297707,5.365727139318327],[101.83779470458653,5.365727139318327],[101.83779470458653,5.36533352898315],[101.83831291297707,5.36533352898315]],[[101.81810278574521,5.361791047088944],[101.81810278574521,5.361397439225066],[101.81913920252633,5.361791047088944],[101.81913920252633,5.362578263557855],[101.81862099413577,5.362578263557855],[101.81862099413577,5.362971872162925],[101.81758457735465,5.362578263557855],[101.81758457735465,5.361791047088944],[101.81810278574521,5.361791047088944]],[[101.79996549207559,5.361003831608217],[101.79996549207559,5.361397439225066],[101.79892907529447,5.361397439225066],[101.79841086690391,5.3606102242383775],[101.79996549207559,5.359823010239651],[101.79996549207559,5.360216617115528],[101.80048370046616,5.360216617115528],[101.80048370046616,5.361003831608217],[101.79996549207559,5.361003831608217]],[[101.79996549207559,5.359429403610729],[101.79944728368503,5.359429403610729],[101.79944728368503,5.358642191093669],[101.80048370046616,5.358248585205496],[101.80048370046616,5.358642191093669],[101.8010019088567,5.358642191093669],[101.8010019088567,5.359429403610729],[101.80048370046616,5.359429403610729],[101.80048370046616,5.359823010239651],[101.79996549207559,5.359823010239651],[101.79996549207559,5.359429403610729]],[[101.8103296598868,5.3606102242383775],[101.8103296598868,5.360216617115528],[101.81084786827736,5.360216617115528],[101.81136607666792,5.361003831608217],[101.8103296598868,5.361397439225066],[101.8103296598868,5.361003831608217],[101.80981145149624,5.361003831608217],[101.80981145149624,5.3606102242383775],[101.8103296598868,5.3606102242383775]],[[101.83261262068092,5.357461374169769],[101.83261262068092,5.3570677690221755],[101.83364903746202,5.3570677690221755],[101.8341672458526,5.357854979564199],[101.83364903746202,5.357854979564199],[101.83364903746202,5.358248585205496],[101.83261262068092,5.358248585205496],[101.83261262068092,5.357854979564199],[101.83209441229036,5.357854979564199],[101.83209441229036,5.357461374169769],[101.83261262068092,5.357461374169769]]],[[[101.80203832563782,5.443273220772348],[101.80203832563782,5.4436109364153085],[101.80280403382599,5.443273220772348],[101.80203832563782,5.443273220772348]]]]},"properties":{"place_id":"6588222b-71f9-5b5b-9f5e-d9db1bc2c1b5","habitat":"forest_interior","habitat_label":"Forest interior","resolution_m":50}},{"type":"Feature","geometry":{"type":"MultiPolygon","coordinates":[[[[101.80048370046616,5.358248585205496],[101.79944728368503,5.358642191093669],[101.79944728368503,5.359429403610729],[101.79996549207559,5.359429403610729],[101.79996549207559,5.359823010239651],[101.8010019088567,5.359429403610729],[101.8010019088567,5.358642191093669],[101.80048370046616,5.358642191093669],[101.80048370046616,5.358248585205496]]],[[[101.79841086690391,5.361003831608217],[101.79892907529447,5.361003831608217],[101.79892907529447,5.361397439225066],[101.79996549207559,5.361397439225066],[101.79996549207559,5.361003831608217],[101.80048370046616,5.361003831608217],[101.80048370046616,5.360216617115528],[101.79944728368503,5.359823010239651],[101.79841086690391,5.361003831608217]]],[[[101.81084786827736,5.360216617115528],[101.80981145149624,5.3606102242383775],[101.8103296598868,5.361397439225066],[101.81136607666792,5.361003831608217],[101.81084786827736,5.360216617115528]]],[[[101.80722040954343,5.367301583131537],[101.80670220115287,5.368088806521906],[101.807738617934,5.368482418588099],[101.80825682632455,5.367695194703061],[101.80722040954343,5.367301583131537]]],[[[101.80670220115287,5.371237709978604],[101.80618399276231,5.372024938317325],[101.80722040954343,5.372418552857971],[101.807738617934,5.37163132402421],[101.80670220115287,5.371237709978604]]],[[[101.78441924035877,5.377535564419948],[101.78338282357764,5.377929182427948],[101.78390103196821,5.378716419187391],[101.78493744874933,5.378322800683758],[101.78441924035877,5.377535564419948]]],[[[101.78027357323428,5.39721676874808],[101.77975536484372,5.39721676874808],[101.7802188364796,5.3983976607576665],[101.78027357323428,5.398004029839053],[101.78079178162484,5.398004029839053],[101.78027357323428,5.39721676874808]]],[[[101.78079178162484,5.399184923341223],[101.78027357323428,5.399184923341223],[101.78079178162484,5.400198031323601],[101.7813099900154,5.3999721869200235],[101.78079178162484,5.399184923341223]]],[[[101.78027357323428,5.4027276172854855],[101.78027357323428,5.402333983629349],[101.77986529197636,5.402333983629349],[101.78079178162484,5.403908519747828],[101.7813099900154,5.403121251190597],[101.78027357323428,5.4027276172854855]]],[[[101.7813099900154,5.403908519747828],[101.7815180749036,5.40508942445147],[101.78182819840598,5.40508942445147],[101.78234640679652,5.404302154399985],[101.7813099900154,5.403908519747828]]],[[[101.78234640679652,5.40508942445147],[101.78158627918955,5.405483059850836],[101.78191252514704,5.406663967543652],[101.7828646151871,5.406270331396908],[101.7828646151871,5.405483059850836],[101.78234640679652,5.405483059850836],[101.78234640679652,5.40508942445147]]],[[[101.78545565713989,5.40902578965719],[101.78493744874933,5.40902578965719],[101.78485787626663,5.409419427548464],[101.78545565713989,5.410053289523327],[101.78597386553045,5.409813065689033],[101.78545565713989,5.40902578965719]]],[[[101.78649207392101,5.409813065689033],[101.78574230747905,5.410206704078914],[101.78608117483,5.410993981606682],[101.78701028231157,5.410600342718122],[101.78649207392101,5.409813065689033]]],[[[101.79374699138886,5.433038157899761],[101.79374699138886,5.433431811031905],[101.7932287829983,5.433431811031905],[101.7932287829983,5.434219118047491],[101.79426519977942,5.43461277193097],[101.79426519977942,5.434219118047491],[101.79478340816998,5.434219118047491],[101.79478340816998,5.433431811031905],[101.79374699138886,5.433038157899761]]],[[[101.79530161656055,5.43461277193097],[101.79478340816998,5.43526722858066],[101.7958198249511,5.435793735084373],[101.79633803334167,5.43500642606493],[101.79530161656055,5.43461277193097]]],[[[101.80825682632455,5.435793735084373],[101.80722040954343,5.4361873899698905],[101.807738617934,5.436974700492614],[101.80877503471511,5.436581045105965],[101.80825682632455,5.435793735084373]]],[[[101.79737445012279,5.4373683561298565],[101.79633803334167,5.436974700492614],[101.79633803334167,5.4373683561298565],[101.7958198249511,5.4373683561298565],[101.7958198249511,5.438155668156197],[101.79633803334167,5.438155668156197],[101.79633803334167,5.438549324545331],[101.79737445012279,5.438549324545331],[101.79737445012279,5.438155668156197],[101.79789265851335,5.438155668156197],[101.79737445012279,5.4373683561298565]]],[[[101.79633803334167,5.438549324545331],[101.79613474210866,5.438549324545331],[101.79633803334167,5.438610639020821],[101.79633803334167,5.438549324545331]]],[[[101.79841086690391,5.438942981185135],[101.79789265851335,5.439730295216817],[101.79889245040735,5.440123952608735],[101.79944728368503,5.4393366380756225],[101.79841086690391,5.438942981185135]]],[[[101.80307474241894,5.44169858468401],[101.80307474241894,5.441304926289012],[101.80203832563782,5.440911268144812],[101.80203832563782,5.441304926289012],[101.80048370046616,5.4420922433298236],[101.80051619999998,5.442760994113483],[101.80203832563782,5.4436109364153085],[101.80203832563782,5.443273220772348],[101.80359295080952,5.4428795613739736],[101.80359295080952,5.44169858468401],[101.80307474241894,5.44169858468401]],[[101.8010019088567,5.442485902226471],[101.80152011724726,5.442485902226471],[101.80152011724726,5.4428795613739736],[101.8010019088567,5.4428795613739736],[101.8010019088567,5.442485902226471]],[[101.80152011724726,5.4420922433298236],[101.80203832563782,5.4420922433298236],[101.80203832563782,5.442485902226471],[101.80152011724726,5.442485902226471],[101.80152011724726,5.4420922433298236]],[[101.80203832563782,5.44169858468401],[101.8025565340284,5.44169858468401],[101.8025565340284,5.4420922433298236],[101.80203832563782,5.4420922433298236],[101.80203832563782,5.44169858468401]]],[[[101.90153433662547,5.34812212150146],[101.90101612823491,5.348166984861367],[101.90101612823491,5.348408518188697],[101.90153433662547,5.348408518188697],[101.90153433662547,5.34812212150146]]],[[[101.83364903746202,5.3570677690221755],[101.83261262068092,5.3570677690221755],[101.83209441229036,5.357854979564199],[101.83261262068092,5.357854979564199],[101.83261262068092,5.358248585205496],[101.83364903746202,5.358248585205496],[101.83364903746202,5.357854979564199],[101.8341672458526,5.357854979564199],[101.83364903746202,5.3570677690221755]]],[[[101.81862099413577,5.361397439225066],[101.81758457735465,5.361791047088944],[101.81758457735465,5.362578263557855],[101.81810278574521,5.362578263557855],[101.81810278574521,5.362971872162925],[101.81913920252633,5.362578263557855],[101.81913920252633,5.361791047088944],[101.81862099413577,5.361791047088944],[101.81862099413577,5.361397439225066]]],[[[101.83831291297707,5.364939918895188],[101.83779470458653,5.365727139318327],[101.83883112136763,5.366120749900735],[101.8393493297582,5.36533352898315],[101.83831291297707,5.364939918895188]]],[[[101.910343879265,5.367301583131537],[101.90878925409332,5.365727139318327],[101.9077528373122,5.366120749900735],[101.9077528373122,5.366514360730393],[101.9093074624839,5.367301583131537],[101.9093074624839,5.367695194703061],[101.90878925409332,5.367695194703061],[101.9093074624839,5.368482418588099],[101.91086208765556,5.367695194703061],[101.91086208765556,5.367301583131537],[101.910343879265,5.367301583131537]]],[[[101.91656237995174,5.382258996875337],[101.91552596317061,5.3826526178582546],[101.91604417156117,5.383439860568197],[101.9170805883423,5.383046239089201],[101.91656237995174,5.382258996875337]]],[[[101.91500775478005,5.386982465044418],[101.91397133799893,5.387376089004921],[101.91397133799893,5.387769713213681],[101.91500775478005,5.388160629501731],[101.91500775478005,5.387769713213681],[101.91552596317061,5.387769713213681],[101.91500775478005,5.386982465044418]]],[[[101.81188428505848,5.396823138575677],[101.81084786827736,5.39721676874808],[101.81136607666792,5.398004029839053],[101.81240249344904,5.397610399169198],[101.81188428505848,5.396823138575677]]],[[[101.8232848696508,5.407057603939559],[101.8232848696508,5.407451240584648],[101.82276666126026,5.407451240584648],[101.82276666126026,5.408238514622444],[101.8232848696508,5.408238514622444],[101.8232848696508,5.408632152015189],[101.82432128643194,5.408632152015189],[101.82432128643194,5.408238514622444],[101.82483949482251,5.408238514622444],[101.82483949482251,5.407451240584648],[101.82432128643194,5.407451240584648],[101.82432128643194,5.407057603939559],[101.8232848696508,5.407057603939559]]],[[[101.84090395492987,5.426739741828259],[101.84090395492987,5.426346092950517],[101.84038574653931,5.426346092950517],[101.8393493297582,5.427527040334089],[101.84038574653931,5.427920689962219],[101.84038574653931,5.427527040334089],[101.84142216332044,5.42713339095611],[101.84142216332044,5.426739741828259],[101.84090395492987,5.426739741828259]]],[[[101.83313082907146,5.434219118047491],[101.83209441229036,5.43461277193097],[101.83261262068092,5.4354000804493925],[101.83364903746202,5.43500642606493],[101.83313082907146,5.434219118047491]]],[[[101.82483949482251,5.439730295216817],[101.82380307804138,5.440123952608735],[101.82432128643194,5.440911268144812],[101.82535770321307,5.440517610251393],[101.82483949482251,5.439730295216817]]],[[[101.84867708078829,5.439730295216817],[101.84764066400717,5.440123952608735],[101.84815887239772,5.440911268144812],[101.84919528917885,5.440517610251393],[101.84867708078829,5.439730295216817]]],[[[101.82691232838475,5.440517610251393],[101.82639411999418,5.441304926289012],[101.82743053677531,5.44169858468401],[101.82794874516586,5.440911268144812],[101.82691232838475,5.440517610251393]]],[[[101.81654816057353,5.4420922433298236],[101.81602995218296,5.4428795613739736],[101.81706636896409,5.443273220772348],[101.81758457735465,5.442485902226471],[101.81654816057353,5.4420922433298236]]],[[[101.85178633113166,5.442485902226471],[101.85074991435053,5.4428795613739736],[101.85126812274109,5.443666880421614],[101.85230453952222,5.443273220772348],[101.85178633113166,5.442485902226471]]],[[[101.83105799550923,5.444454200472891],[101.83002157872812,5.444454200472891],[101.83002157872812,5.4440605403217885],[101.82950337033755,5.4440605403217885],[101.82950337033755,5.4428795613739736],[101.82898516194699,5.4428795613739736],[101.82898516194699,5.4420922433298236],[101.82794874516586,5.44169858468401],[101.82794874516586,5.4420922433298236],[101.82743053677531,5.4420922433298236],[101.82743053677531,5.442485902226471],[101.82794874516586,5.442485902226471],[101.82794874516586,5.4440605403217885],[101.82846695355641,5.4440605403217885],[101.82950337033755,5.445241521527954],[101.83053978711865,5.445241521527954],[101.83053978711865,5.445635182431952],[101.83157620389979,5.445241521527954],[101.83105799550923,5.444454200472891]]],[[[101.85230453952222,5.4448478608749395],[101.85126812274109,5.445241521527954],[101.85178633113166,5.4460288435869515],[101.85282274791277,5.445635182431952],[101.85230453952222,5.4448478608749395]]],[[[101.84142216332044,5.447603490717346],[101.84090395492987,5.448390815789039],[101.841940371711,5.448784478701577],[101.84245858010158,5.447997153127637],[101.84142216332044,5.447603490717346]]],[[[101.85178633113166,5.454295785856389],[101.85126812274109,5.455083119471321],[101.85230453952222,5.455476786655952],[101.85282274791277,5.454689452538142],[101.85178633113166,5.454295785856389]]]]},"properties":{"place_id":"6588222b-71f9-5b5b-9f5e-d9db1bc2c1b5","habitat":"forest_edge_opening","habitat_label":"Forest edge or opening","resolution_m":50}},{"type":"Feature","geometry":{"type":"MultiPolygon","coordinates":[[[[101.80048370046616,5.358642191093669],[101.79996549207559,5.358642191093669],[101.79996549207559,5.359429403610729],[101.80048370046616,5.359429403610729],[101.80048370046616,5.358642191093669]]],[[[101.79892907529447,5.361003831608217],[101.79996549207559,5.361003831608217],[101.79996549207559,5.360216617115528],[101.79944728368503,5.360216617115528],[101.79892907529447,5.361003831608217]]],[[[101.80722040954343,5.37163132402421],[101.80670220115287,5.37163132402421],[101.80670220115287,5.372024938317325],[101.80722040954343,5.372024938317325],[101.80722040954343,5.37163132402421]]],[[[101.78390103196821,5.377929182427948],[101.78390103196821,5.378322800683758],[101.78441924035877,5.378322800683758],[101.78441924035877,5.377929182427948],[101.78390103196821,5.377929182427948]]],[[[101.77985375377244,5.397610399169198],[101.78012461260883,5.398004029839053],[101.78027357323428,5.398004029839053],[101.78027357323428,5.397610399169198],[101.77985375377244,5.397610399169198]]],[[[101.78079178162484,5.399578555006209],[101.78035558247,5.399578555006209],[101.78065055740146,5.3999721869200235],[101.78079178162484,5.3999721869200235],[101.78079178162484,5.399578555006209]]],[[[101.78079178162484,5.4035148853447055],[101.78079178162484,5.403121251190597],[101.77981120301783,5.4027276172854855],[101.78031644249921,5.4035148853447055],[101.78079178162484,5.4035148853447055]]],[[[101.7813099900154,5.404302154399985],[101.78144987061765,5.404695789301191],[101.78182819840598,5.404695789301191],[101.78182819840598,5.404302154399985],[101.7813099900154,5.404302154399985]]],[[[101.78234640679652,5.405483059850836],[101.78182819840598,5.405483059850836],[101.78182819840598,5.406270331396908],[101.78234640679652,5.406270331396908],[101.78234640679652,5.405483059850836]]],[[[101.78493744874933,5.409419427548464],[101.78493744874933,5.409796990028449],[101.78545565713989,5.409813065689033],[101.78545565713989,5.409419427548464],[101.78493744874933,5.409419427548464]]],[[[101.78597386553045,5.410206704078914],[101.78606457472416,5.410600342718122],[101.78649207392101,5.410600342718122],[101.78649207392101,5.410206704078914],[101.78597386553045,5.410206704078914]]],[[[101.79426519977942,5.433431811031905],[101.79374699138886,5.433431811031905],[101.79374699138886,5.434219118047491],[101.79426519977942,5.434219118047491],[101.79426519977942,5.433431811031905]]],[[[101.79530161656055,5.43500642606493],[101.79530161656055,5.4354000804493925],[101.7958198249511,5.4354000804493925],[101.7958198249511,5.43500642606493],[101.79530161656055,5.43500642606493]]],[[[101.79737445012279,5.438155668156197],[101.79737445012279,5.4377620120177115],[101.79633803334167,5.4373683561298565],[101.79633803334167,5.438155668156197],[101.79737445012279,5.438155668156197]]],[[[101.79892907529447,5.4393366380756225],[101.79841086690391,5.4393366380756225],[101.79841086690391,5.439730295216817],[101.79892907529447,5.439730295216817],[101.79892907529447,5.4393366380756225]]],[[[101.8025565340284,5.44169858468401],[101.8025565340284,5.441304926289012],[101.80203832563782,5.441304926289012],[101.80203832563782,5.44169858468401],[101.8010019088567,5.4420922433298236],[101.80121536754737,5.443273220772348],[101.80203832563782,5.443273220772348],[101.80203832563782,5.442485902226471],[101.80307474241894,5.4428795613739736],[101.80307474241894,5.44169858468401],[101.8025565340284,5.44169858468401]]],[[[101.83261262068092,5.357461374169769],[101.83261262068092,5.357854979564199],[101.83364903746202,5.357854979564199],[101.83364903746202,5.357461374169769],[101.83261262068092,5.357461374169769]]],[[[101.81084786827736,5.3606102242383775],[101.8103296598868,5.3606102242383775],[101.8103296598868,5.361003831608217],[101.81084786827736,5.361003831608217],[101.81084786827736,5.3606102242383775]]],[[[101.81810278574521,5.361791047088944],[101.81810278574521,5.362578263557855],[101.81862099413577,5.362578263557855],[101.81862099413577,5.361791047088944],[101.81810278574521,5.361791047088944]]],[[[101.80722040954343,5.367695194703061],[101.80722040954343,5.368088806521906],[101.807738617934,5.368088806521906],[101.807738617934,5.367695194703061],[101.80722040954343,5.367695194703061]]],[[[101.81188428505848,5.39721676874808],[101.81136607666792,5.39721676874808],[101.81136607666792,5.397610399169198],[101.81188428505848,5.397610399169198],[101.81188428505848,5.39721676874808]]],[[[101.8232848696508,5.407451240584648],[101.8232848696508,5.408238514622444],[101.82432128643194,5.408238514622444],[101.82432128643194,5.407451240584648],[101.8232848696508,5.407451240584648]]],[[[101.83261262068092,5.43461277193097],[101.83261262068092,5.43500642606493],[101.83313082907146,5.43500642606493],[101.83313082907146,5.43461277193097],[101.83261262068092,5.43461277193097]]],[[[101.80825682632455,5.4361873899698905],[101.807738617934,5.4361873899698905],[101.807738617934,5.436581045105965],[101.80825682632455,5.436581045105965],[101.80825682632455,5.4361873899698905]]],[[[101.82432128643194,5.440123952608735],[101.82432128643194,5.440517610251393],[101.82483949482251,5.440517610251393],[101.82483949482251,5.440123952608735],[101.82432128643194,5.440123952608735]]],[[[101.82691232838475,5.440911268144812],[101.82691232838475,5.441304926289012],[101.82743053677531,5.441304926289012],[101.82743053677531,5.440911268144812],[101.82691232838475,5.440911268144812]]],[[[101.82846695355641,5.4420922433298236],[101.82794874516586,5.4420922433298236],[101.82794874516586,5.442485902226471],[101.82846695355641,5.442485902226471],[101.82846695355641,5.4420922433298236]]],[[[101.81654816057353,5.442485902226471],[101.81654816057353,5.4428795613739736],[101.81706636896409,5.4428795613739736],[101.81706636896409,5.442485902226471],[101.81654816057353,5.442485902226471]]],[[[101.82846695355641,5.4428795613739736],[101.82846695355641,5.4440605403217885],[101.82898516194699,5.4440605403217885],[101.82898516194699,5.4428795613739736],[101.82846695355641,5.4428795613739736]]],[[[101.82898516194699,5.4440605403217885],[101.82898516194699,5.444454200472891],[101.82950337033755,5.444454200472891],[101.82950337033755,5.4440605403217885],[101.82898516194699,5.4440605403217885]]],[[[101.82950337033755,5.444454200472891],[101.82950337033755,5.4448478608749395],[101.83002157872812,5.4448478608749395],[101.83002157872812,5.444454200472891],[101.82950337033755,5.444454200472891]]],[[[101.83053978711865,5.4448478608749395],[101.83053978711865,5.445241521527954],[101.83105799550923,5.445241521527954],[101.83105799550923,5.4448478608749395],[101.83053978711865,5.4448478608749395]]],[[[101.83883112136763,5.36533352898315],[101.83831291297707,5.36533352898315],[101.83831291297707,5.365727139318327],[101.83883112136763,5.365727139318327],[101.83883112136763,5.36533352898315]]],[[[101.90827104570276,5.366514360730393],[101.90878925409332,5.366514360730393],[101.90878925409332,5.366120749900735],[101.90827104570276,5.366120749900735],[101.90827104570276,5.366514360730393]]],[[[101.9093074624839,5.366514360730393],[101.90878925409332,5.366514360730393],[101.90878925409332,5.366907971807322],[101.9093074624839,5.366907971807322],[101.9093074624839,5.366514360730393]]],[[[101.9093074624839,5.366907971807322],[101.9093074624839,5.367301583131537],[101.90982567087445,5.367301583131537],[101.90982567087445,5.366907971807322],[101.9093074624839,5.366907971807322]]],[[[101.90982567087445,5.367301583131537],[101.90982567087445,5.367695194703061],[101.910343879265,5.367695194703061],[101.910343879265,5.367301583131537],[101.90982567087445,5.367301583131537]]],[[[101.90982567087445,5.368088806521906],[101.90982567087445,5.367695194703061],[101.9093074624839,5.367695194703061],[101.9093074624839,5.368088806521906],[101.90982567087445,5.368088806521906]]],[[[101.91656237995174,5.3826526178582546],[101.91604417156117,5.3826526178582546],[101.91604417156117,5.383046239089201],[101.91656237995174,5.383046239089201],[101.91656237995174,5.3826526178582546]]],[[[101.9144895463895,5.387376089004921],[101.9144895463895,5.387769713213681],[101.91500775478005,5.387769713213681],[101.91500775478005,5.387376089004921],[101.9144895463895,5.387376089004921]]],[[[101.84038574653931,5.426739741828259],[101.84038574653931,5.42713339095611],[101.84090395492987,5.42713339095611],[101.84090395492987,5.426739741828259],[101.84038574653931,5.426739741828259]]],[[[101.84038574653931,5.42713339095611],[101.83986753814877,5.42713339095611],[101.83986753814877,5.427527040334089],[101.84038574653931,5.427527040334089],[101.84038574653931,5.42713339095611]]],[[[101.84815887239772,5.440123952608735],[101.84815887239772,5.440517610251393],[101.84867708078829,5.440517610251393],[101.84867708078829,5.440123952608735],[101.84815887239772,5.440123952608735]]],[[[101.85126812274109,5.4428795613739736],[101.85126812274109,5.443273220772348],[101.85178633113166,5.443273220772348],[101.85178633113166,5.4428795613739736],[101.85126812274109,5.4428795613739736]]],[[[101.85230453952222,5.445241521527954],[101.85178633113166,5.445241521527954],[101.85178633113166,5.445635182431952],[101.85230453952222,5.445635182431952],[101.85230453952222,5.445241521527954]]],[[[101.84142216332044,5.447997153127637],[101.84142216332044,5.448390815789039],[101.841940371711,5.448390815789039],[101.841940371711,5.447997153127637],[101.84142216332044,5.447997153127637]]],[[[101.85178633113166,5.454689452538142],[101.85178633113166,5.455083119471321],[101.85230453952222,5.455083119471321],[101.85230453952222,5.454689452538142],[101.85178633113166,5.454689452538142]]]]},"properties":{"place_id":"6588222b-71f9-5b5b-9f5e-d9db1bc2c1b5","habitat":"open_grassland","habitat_label":"Open grassland or shrubland","resolution_m":50}},{"type":"Feature","geometry":{"type":"Polygon","coordinates":[[[101.80152011724726,5.443273220772348],[101.80152011724726,5.442485902226471],[101.80048370046616,5.4420922433298236],[101.80051619999998,5.442760994113483],[101.80152011724726,5.443273220772348]]]},"properties":{"place_id":"6588222b-71f9-5b5b-9f5e-d9db1bc2c1b5","habitat":"disturbed_built_edge","habitat_label":"Disturbed, bare or built edge","resolution_m":50}},{"type":"Feature","geometry":{"type":"Polygon","coordinates":[[[101.86681437445792,5.466499569989059],[101.86672032237989,5.466499569989059],[101.86681437445792,5.466555139789579],[101.86681437445792,5.466499569989059]]]},"properties":{"place_id":"6588222b-71f9-5b5b-9f5e-d9db1bc2c1b5","habitat":"water_edge","habitat_label":"Water edge","resolution_m":50}}]}