{"type":"FeatureCollection","metadata":{"schema_version":1,"place_id":"65cdf8f3-aedb-5d87-b597-4f66ff0c63dd","place_name":"Taginambur River Park","place_type":"park","osm_reference":"way/529482993","protection_context":"no protected status confirmed from included OSM tags","resolution_m":50,"raster_coverage":1.0,"interpretation":"Suggested search habitats, not predicted plant locations or probabilities of presence."},"features":[{"type":"Feature","geometry":{"type":"MultiPolygon","coordinates":[[[[116.4513299,6.227745293333546],[116.45214204846766,6.228359517980132],[116.45174950000002,6.227586593333673],[116.4513299,6.227745293333546]]],[[[116.4523077351777,6.228753714727243],[116.45199295351391,6.228753714727243],[116.4523317,6.228933493332356],[116.4523077351777,6.228753714727243]]]]},"properties":{"place_id":"65cdf8f3-aedb-5d87-b597-4f66ff0c63dd","habitat":"forest_edge_opening","habitat_label":"Forest edge or opening","resolution_m":50}},{"type":"Feature","geometry":{"type":"Polygon","coordinates":[[[116.45139129999998,6.227860093333429],[116.4520747,6.228838893332448],[116.45240560000002,6.228912093332376],[116.45174950000002,6.227586593333673],[116.45139129999998,6.227860093333429]]]},"properties":{"place_id":"65cdf8f3-aedb-5d87-b597-4f66ff0c63dd","habitat":"disturbed_built_edge","habitat_label":"Disturbed, bare or built edge","resolution_m":50}},{"type":"Feature","geometry":{"type":"MultiPolygon","coordinates":[[[[116.45178952678714,6.228359517980132],[116.4516863,6.228434093332866],[116.45178952678714,6.2285417298102805],[116.45178952678714,6.228359517980132]]],[[[116.4523077351777,6.228753714727243],[116.45199295351391,6.228753714727243],[116.4523077351777,6.228924672039096],[116.4523077351777,6.228753714727243]]]]},"properties":{"place_id":"65cdf8f3-aedb-5d87-b597-4f66ff0c63dd","habitat":"permanent_water","habitat_label":"Permanent water","resolution_m":50}},{"type":"Feature","geometry":{"type":"Polygon","coordinates":[[[116.4523077351777,6.228753714727243],[116.45199295351391,6.228753714727243],[116.4523077351777,6.228924672039096],[116.4523077351777,6.228753714727243]]]},"properties":{"place_id":"65cdf8f3-aedb-5d87-b597-4f66ff0c63dd","habitat":"seasonal_water_wetland","habitat_label":"Seasonal water or wetland","resolution_m":50}},{"type":"Feature","geometry":{"type":"Polygon","coordinates":[[[116.4523077351777,6.228753714727243],[116.45174950000002,6.227586593333673],[116.45133580000001,6.227706593333576],[116.45178952678714,6.2285417298102805],[116.4523077351777,6.228753714727243]]]},"properties":{"place_id":"65cdf8f3-aedb-5d87-b597-4f66ff0c63dd","habitat":"water_edge","habitat_label":"Water edge","resolution_m":50}}]}