{"type":"FeatureCollection","metadata":{"schema_version":1,"place_id":"660fc66e-7ab5-5384-821e-6ca108161428","place_name":"Strand Park · OSM way/957912731","place_type":"park","osm_reference":"way/957912731","protection_context":"no protected status confirmed from included OSM tags","resolution_m":50,"raster_coverage":1.0,"interpretation":"Suggested search habitats, not predicted plant locations or probabilities of presence."},"features":[{"type":"Feature","geometry":{"type":"MultiPolygon","coordinates":[[[[101.11333937458275,4.690640003866327],[101.11287015826542,4.690246790522987],[101.11247708479853,4.690640003866327],[101.11333937458275,4.690640003866327]]],[[[101.11230295780162,4.690814192895784],[101.112179,4.69093819488299],[101.11230295780162,4.690935928786673],[101.11230295780162,4.690814192895784]]]]},"properties":{"place_id":"660fc66e-7ab5-5384-821e-6ca108161428","habitat":"open_grassland","habitat_label":"Open grassland or shrubland","resolution_m":50}},{"type":"Feature","geometry":{"type":"Polygon","coordinates":[[[101.11430139999999,4.690899394882996],[101.1143215,4.690619194883287],[101.1131639,4.6906279948833],[101.11302179999998,4.69009509488383],[101.112179,4.69093819488299],[101.11430139999999,4.690899394882996]]]},"properties":{"place_id":"660fc66e-7ab5-5384-821e-6ca108161428","habitat":"disturbed_built_edge","habitat_label":"Disturbed, bare or built edge","resolution_m":50}}]}