{"type":"FeatureCollection","metadata":{"schema_version":1,"place_id":"670061b7-d74f-504d-83ff-63bd3c39bdb7","place_name":"Velo Garden (V Park)","place_type":"park","osm_reference":"way/708742109","protection_context":"no protected status confirmed from included OSM tags","resolution_m":50,"raster_coverage":1.0,"interpretation":"Suggested search habitats, not predicted plant locations or probabilities of presence."},"features":[{"type":"Feature","geometry":{"type":"Polygon","coordinates":[[[101.72309410000001,3.1297926965387655],[101.72258021560039,3.129520158448668],[101.72296789999997,3.129979796538577],[101.72309410000001,3.1297926965387655]]]},"properties":{"place_id":"670061b7-d74f-504d-83ff-63bd3c39bdb7","habitat":"forest_edge_opening","habitat_label":"Forest edge or opening","resolution_m":50}},{"type":"Feature","geometry":{"type":"Polygon","coordinates":[[[101.72190969999998,3.128725196539934],[101.72309410000001,3.1297926965387655],[101.7220788,3.1285938965400777],[101.72190969999998,3.128725196539934]]]},"properties":{"place_id":"670061b7-d74f-504d-83ff-63bd3c39bdb7","habitat":"disturbed_built_edge","habitat_label":"Disturbed, bare or built edge","resolution_m":50}}]}