{"type":"FeatureCollection","metadata":{"schema_version":1,"place_id":"67c1fbf3-e3d4-57c1-95bb-160ecb499e36","place_name":"Waterfront Pendang","place_type":"park","osm_reference":"relation/18374898","protection_context":"no protected status confirmed from included OSM tags","resolution_m":50,"raster_coverage":1.0,"interpretation":"Suggested search habitats, not predicted plant locations or probabilities of presence."},"features":[{"type":"Feature","geometry":{"type":"Polygon","coordinates":[[[100.4714290720087,5.9993793116191],[100.47211759999999,5.998415793558727],[100.4717124,5.9983188935588325],[100.4714290720087,5.9993793116191]]]},"properties":{"place_id":"67c1fbf3-e3d4-57c1-95bb-160ecb499e36","habitat":"forest_edge_opening","habitat_label":"Forest edge or opening","resolution_m":50}},{"type":"Feature","geometry":{"type":"MultiPolygon","coordinates":[[[[100.4714290720087,5.9993793116191],[100.47212567516195,5.998591247456898],[100.4714926,5.998631693558523],[100.4714290720087,5.9993793116191]]],[[[100.47139558958118,5.999773344116053],[100.47136210715364,6.000167376890267],[100.47145901803735,5.999773344116053],[100.47139558958118,5.999773344116053]]],[[[100.47142023737186,6.000561409941757],[100.4713463,6.000912993556256],[100.47161601323826,6.000955443270548],[100.47142023737186,6.000561409941757]]]]},"properties":{"place_id":"67c1fbf3-e3d4-57c1-95bb-160ecb499e36","habitat":"open_grassland","habitat_label":"Open grassland or shrubland","resolution_m":50}},{"type":"Feature","geometry":{"type":"Polygon","coordinates":[[[100.47179738706866,5.999238769135037],[100.47146255443623,5.998985279399387],[100.47136210715364,6.000167376890267],[100.47179738706866,5.999238769135037]]]},"properties":{"place_id":"67c1fbf3-e3d4-57c1-95bb-160ecb499e36","habitat":"disturbed_built_edge","habitat_label":"Disturbed, bare or built edge","resolution_m":50}},{"type":"Feature","geometry":{"type":"MultiPolygon","coordinates":[[[[100.47179738706866,5.9983392174640215],[100.47212567516195,5.998591247456898],[100.47211759999999,5.998415793558727],[100.47179738706866,5.9983392174640215]]],[[[100.47161601323826,6.000955443270548],[100.4715888,6.001019493556149],[100.4716237,6.000964493556208],[100.47161601323826,6.000955443270548]]]]},"properties":{"place_id":"67c1fbf3-e3d4-57c1-95bb-160ecb499e36","habitat":"cropland","habitat_label":"Cropland","resolution_m":50}},{"type":"Feature","geometry":{"type":"MultiPolygon","coordinates":[[[[100.47179738706866,5.998985279399387],[100.47179738706866,5.999238769135037],[100.47200377624846,5.998985279399387],[100.47179738706866,5.998985279399387]]],[[[100.47139558958118,5.999773344116053],[100.47132862472614,6.000561409941757],[100.47142023737186,6.000561409941757],[100.47139558958118,5.999773344116053]]]]},"properties":{"place_id":"67c1fbf3-e3d4-57c1-95bb-160ecb499e36","habitat":"permanent_water","habitat_label":"Permanent water","resolution_m":50}},{"type":"Feature","geometry":{"type":"Polygon","coordinates":[[[100.4714290720087,5.9993793116191],[100.47139558958118,5.999773344116053],[100.47166116379768,5.9993793116191],[100.4714290720087,5.9993793116191]]]},"properties":{"place_id":"67c1fbf3-e3d4-57c1-95bb-160ecb499e36","habitat":"seasonal_water_wetland","habitat_label":"Seasonal water or wetland","resolution_m":50}},{"type":"Feature","geometry":{"type":"MultiPolygon","coordinates":[[[[100.4714290720087,5.9993793116191],[100.47211759999999,5.998415793558727],[100.4717124,5.9983188935588325],[100.4714290720087,5.9993793116191]]],[[[100.47142023737186,6.000561409941757],[100.4713244,6.000878193556298],[100.4715888,6.001019493556149],[100.47142023737186,6.000561409941757]]]]},"properties":{"place_id":"67c1fbf3-e3d4-57c1-95bb-160ecb499e36","habitat":"water_edge","habitat_label":"Water edge","resolution_m":50}}]}