{"type":"FeatureCollection","metadata":{"schema_version":1,"place_id":"6877c799-beb8-5f5d-94dd-f9a17c71bdd4","place_name":"Padang Serbaguna Tampin","place_type":"park","osm_reference":"way/962458408","protection_context":"no protected status confirmed from included OSM tags","resolution_m":50,"raster_coverage":1.0,"interpretation":"Suggested search habitats, not predicted plant locations or probabilities of presence."},"features":[{"type":"Feature","geometry":{"type":"Polygon","coordinates":[[[102.22599860000001,2.47124849725574],[102.22559180000002,2.4702262972568287],[102.22471129999997,2.470820397256196],[102.22599860000001,2.47124849725574]]]},"properties":{"place_id":"6877c799-beb8-5f5d-94dd-f9a17c71bdd4","habitat":"forest_edge_opening","habitat_label":"Forest edge or opening","resolution_m":50}},{"type":"Feature","geometry":{"type":"Polygon","coordinates":[[[102.22541458072588,2.4710902229896505],[102.22593278911643,2.4710902229896505],[102.22593278911643,2.470305650002523],[102.22541458072588,2.4703458724440397],[102.22541458072588,2.4710902229896505]]]},"properties":{"place_id":"6877c799-beb8-5f5d-94dd-f9a17c71bdd4","habitat":"open_grassland","habitat_label":"Open grassland or shrubland","resolution_m":50}},{"type":"Feature","geometry":{"type":"MultiPolygon","coordinates":[[[[102.22593278911643,2.4712482192250906],[102.22593959999999,2.470220997256847],[102.22559180000002,2.4702262972568287],[102.22471129999997,2.470820397256196],[102.22489637233532,2.4710766962564232],[102.22489637233532,2.4706979364396906],[102.22541458072588,2.4706979364396906],[102.22593278911643,2.4712482192250906]]],[[[102.22541458072588,2.4710902229896505],[102.2249290084461,2.4710902229896505],[102.22541458072588,2.471246029954757],[102.22541458072588,2.4710902229896505]]]]},"properties":{"place_id":"6877c799-beb8-5f5d-94dd-f9a17c71bdd4","habitat":"disturbed_built_edge","habitat_label":"Disturbed, bare or built edge","resolution_m":50}}]}