{"type":"FeatureCollection","metadata":{"schema_version":1,"place_id":"68f39c8e-a042-5362-a1e6-c13e74f0a314","place_name":"Taman Gombak Ria Park","place_type":"park","osm_reference":"way/472582532","protection_context":"no protected status confirmed from included OSM tags","resolution_m":50,"raster_coverage":1.0,"interpretation":"Suggested search habitats, not predicted plant locations or probabilities of presence."},"features":[{"type":"Feature","geometry":{"type":"Polygon","coordinates":[[[101.70306052304075,3.22741099740522],[101.7020716,3.227394396433337],[101.7022628,3.227788296432893],[101.70306052304075,3.22741099740522]]]},"properties":{"place_id":"68f39c8e-a042-5362-a1e6-c13e74f0a314","habitat":"forest_edge_opening","habitat_label":"Forest edge or opening","resolution_m":50}},{"type":"Feature","geometry":{"type":"Polygon","coordinates":[[[101.7022628,3.227788296432893],[101.7031544,3.2273665964333462],[101.70296610000001,3.2269599964337807],[101.7020716,3.227394396433337],[101.7022628,3.227788296432893]]]},"properties":{"place_id":"68f39c8e-a042-5362-a1e6-c13e74f0a314","habitat":"disturbed_built_edge","habitat_label":"Disturbed, bare or built edge","resolution_m":50}}]}