{"type":"FeatureCollection","metadata":{"schema_version":1,"place_id":"6aacbd62-73ce-5e4f-8903-a6c37d2de074","place_name":"Bukit Bendera","place_type":"park","osm_reference":"way/865288171","protection_context":"mapped protected boundary","resolution_m":50,"raster_coverage":1.0,"interpretation":"Suggested search habitats, not predicted plant locations or probabilities of presence."},"features":[{"type":"Feature","geometry":{"type":"MultiPolygon","coordinates":[[[[100.27591461543675,5.410206704078914],[100.27591461543675,5.410600342718122],[100.2764328238273,5.410600342718122],[100.2764328238273,5.410206704078914],[100.27591461543675,5.410206704078914]]],[[[100.27902386578012,5.410206704078914],[100.27902386578012,5.410220890877219],[100.27902851609097,5.410206704078914],[100.27902386578012,5.410206704078914]]],[[[100.27902386578012,5.412174899768636],[100.27922264452258,5.412174899768636],[100.27902386578012,5.412097167990235],[100.27902386578012,5.412174899768636]]],[[[100.27435999026507,5.416504952238526],[100.27487819865563,5.416504952238526],[100.27487819865563,5.416111309857134],[100.27435999026507,5.416111309857134],[100.27435999026507,5.416504952238526]]],[[[100.26658686440666,5.406663967543652],[100.26658686440666,5.405483059850836],[100.26710507279721,5.405483059850836],[100.26710507279721,5.40508942445147],[100.26814148957834,5.405642887402717],[100.26816439999999,5.403756894152896],[100.2672966,5.404577794152041],[100.26690599999999,5.404318594152292],[100.2667324,5.404286194152327],[100.26638669517247,5.404302154399985],[100.26658686440666,5.404695789301191],[100.26606865601609,5.404695789301191],[100.26606865601609,5.40508942445147],[100.26530039999999,5.4049125941517255],[100.2646061,5.4059926941506085],[100.26411799999998,5.40578749415081],[100.26364059999999,5.404113394152509],[100.26244729999999,5.404728994151892],[100.26203509999999,5.405927894150674],[100.26238219999999,5.407180794149432],[100.26109119999998,5.406629994149964],[100.26100439999999,5.407774894148804],[100.26020169999998,5.4078504941487315],[100.2593012,5.408736094147852],[100.25766309999997,5.408077294148534],[100.257099,5.408822594147767],[100.25708820000001,5.4116739941448735],[100.2577499,5.412883594143643],[100.2584985,5.412861994143662],[100.2587588,5.41382329414271],[100.2586286,5.41489259414161],[100.2573811,5.415346194141174],[100.25729429999998,5.416501894139988],[100.25761849999999,5.4175009941389805],[100.25825469999998,5.417482994138991],[100.2582769,5.418270194138232],[100.25684559999999,5.418354694138122],[100.2556324,5.41711259413937],[100.2550775,5.418439094138059],[100.25459729999999,5.4181236941383535],[100.25382729999998,5.418361994138129],[100.25297660000001,5.420282094136187],[100.2512729,5.420428894136031],[100.2495653,5.4220656941343695],[100.2505026,5.422897194133528],[100.25110091002504,5.424771499940284],[100.2515588210804,5.424771499940284],[100.2515588210804,5.425558795945292],[100.25207702947095,5.425558795945292],[100.25207702947095,5.426555431880008],[100.25259523786151,5.427036225536103],[100.25626369999999,5.427421294128971],[100.2607007,5.429754194126588],[100.26197,5.4309205941254355],[100.2654089,5.431698194124647],[100.2672966,5.431611794124739],[100.26852239999998,5.431028594125323],[100.26988929999999,5.4295057941268645],[100.2697483,5.429926994126456],[100.27060529999999,5.430121394126234],[100.2720432,5.431985494124367],[100.27226519999999,5.430877394125476],[100.2706487,5.429311294127053],[100.27246039999999,5.429624594126737],[100.2744891,5.4283824941280026],[100.27567160000001,5.428231294128133],[100.27655029999997,5.42701079412936],[100.2766262,5.427421294128971],[100.2782101,5.427053994129332],[100.27807990000001,5.4265463941298195],[100.27879589999999,5.427388894129003],[100.27981569999997,5.426837994129538],[100.27992419999998,5.427324094129056],[100.2803364,5.426870394129521],[100.28053169999998,5.427950494128438],[100.28237589999999,5.428468894127931],[100.2830594,5.429062894127303],[100.2855762,5.425163994131239],[100.2856304,5.420606094135833],[100.28377540000001,5.419893294136551],[100.2833631,5.416923094139586],[100.2826797,5.416717894139779],[100.28200709999999,5.41703109413946],[100.28218059999999,5.417819594138682],[100.2817901,5.418089594138382],[100.2796204,5.4173874941390885],[100.27930963558708,5.41374946080992],[100.27902386578012,5.414143101693936],[100.27798744899899,5.41374946080992],[100.27798744899899,5.412174899768636],[100.27746924060843,5.412174899768636],[100.27746924060843,5.411387620744607],[100.2764328238273,5.411387620744607],[100.2764328238273,5.410993981606682],[100.27539640704619,5.411387620744607],[100.27539640704619,5.410993981606682],[100.27487819865563,5.410993981606682],[100.27487819865563,5.410600342718122],[100.27695103221787,5.409419427548464],[100.27695103221787,5.40902578965719],[100.27487819865563,5.407844877478937],[100.27487819865563,5.406663967543652],[100.27539640704619,5.406663967543652],[100.27539640704619,5.406270331396908],[100.27591461543675,5.406270331396908],[100.27591461543675,5.406244336431956],[100.2742613,5.405722694150879],[100.27280759999998,5.406014294150591],[100.27243869999998,5.406889194149708],[100.2689021,5.40802329414856],[100.26728570000002,5.40927619414728],[100.26693859999999,5.408563294148032],[100.26746434215599,5.407057603939559],[100.26658686440666,5.406663967543652]],[[100.26762328118778,5.425558795945292],[100.26762328118778,5.424377852312817],[100.26814148957834,5.424377852312817],[100.26917790635946,5.423196910930334],[100.27021432314058,5.423196910930334],[100.27021432314058,5.423590557807859],[100.27073253153114,5.423590557807859],[100.27073253153114,5.424377852312817],[100.26969611475002,5.424771499940284],[100.26969611475002,5.425558795945292],[100.27021432314058,5.425558795945292],[100.27021432314058,5.425952444322869],[100.26917790635946,5.426346092950517],[100.26917790635946,5.425952444322869],[100.26814148957834,5.425952444322869],[100.26814148957834,5.425558795945292],[100.26762328118778,5.425558795945292]],[[100.27332357348394,5.425558795945292],[100.27332357348394,5.425165147817769],[100.27384178187451,5.425165147817769],[100.27435999026507,5.425952444322869],[100.27332357348394,5.426346092950517],[100.27332357348394,5.425952444322869],[100.27280536509339,5.425952444322869],[100.27280536509339,5.425558795945292],[100.27332357348394,5.425558795945292]],[[100.27746924060843,5.423984204935347],[100.27746924060843,5.423590557807859],[100.27798744899899,5.423590557807859],[100.27850565738954,5.424377852312817],[100.27746924060843,5.424771499940284],[100.27746924060843,5.424377852312817],[100.27695103221787,5.424377852312817],[100.27695103221787,5.423984204935347],[100.27746924060843,5.423984204935347]],[[100.27332357348394,5.420835034913329],[100.27332357348394,5.420441389785014],[100.27280536509339,5.420441389785014],[100.27332357348394,5.419654100277804],[100.27591461543675,5.420441389785014],[100.27591461543675,5.421228680291475],[100.27539640704619,5.421228680291475],[100.27539640704619,5.421622325919472],[100.27435999026507,5.421622325919472],[100.27435999026507,5.421228680291475],[100.27332357348394,5.420835034913329]],[[100.2686596979689,5.420441389785014],[100.2686596979689,5.420047744906511],[100.26917790635946,5.420047744906511],[100.26969611475002,5.420835034913329],[100.2686596979689,5.421228680291475],[100.2686596979689,5.420835034913329],[100.26814148957834,5.420835034913329],[100.26814148957834,5.420441389785014],[100.2686596979689,5.420441389785014]],[[100.27954207417066,5.419654100277804],[100.27954207417066,5.4192604558988755],[100.28006028256124,5.4192604558988755],[100.28057849095178,5.420047744906511],[100.27954207417066,5.420441389785014],[100.27954207417066,5.420047744906511],[100.27902386578012,5.420047744906511],[100.27902386578012,5.419654100277804],[100.27954207417066,5.419654100277804]],[[100.27695103221787,5.417685880880539],[100.27695103221787,5.4172922377502095],[100.27746924060843,5.4172922377502095],[100.27798744899899,5.418079524260552],[100.27695103221787,5.418473167890267],[100.27695103221787,5.418079524260552],[100.2764328238273,5.418079524260552],[100.2764328238273,5.417685880880539],[100.27695103221787,5.417685880880539]],[[100.2608865721105,5.416111309857134],[100.2608865721105,5.4157176677253505],[100.26140478050105,5.4157176677253505],[100.26244119728217,5.4168985948695445],[100.26192298889161,5.4168985948695445],[100.26192298889161,5.4172922377502095],[100.2608865721105,5.4172922377502095],[100.2608865721105,5.4168985948695445],[100.26036836371993,5.4168985948695445],[100.26036836371993,5.416111309857134],[100.2608865721105,5.416111309857134]],[[100.26658686440666,5.416504952238526],[100.26710507279721,5.4157176677253505],[100.26814148957834,5.416111309857134],[100.26814148957834,5.4168985948695445],[100.26762328118778,5.4168985948695445],[100.26762328118778,5.4172922377502095],[100.26658686440666,5.4172922377502095],[100.26658686440666,5.4168985948695445],[100.26606865601609,5.4168985948695445],[100.26606865601609,5.416504952238526],[100.26658686440666,5.416504952238526]],[[100.27384178187451,5.416504952238526],[100.27384178187451,5.416111309857134],[100.27280536509339,5.416111309857134],[100.27280536509339,5.416504952238526],[100.27176894831227,5.416504952238526],[100.27176894831227,5.4168985948695445],[100.2712507399217,5.4168985948695445],[100.27021432314058,5.415324025843158],[100.26917790635946,5.415324025843158],[100.26917790635946,5.4157176677253505],[100.2686596979689,5.4157176677253505],[100.2686596979689,5.415324025843158],[100.26814148957834,5.415324025843158],[100.26814148957834,5.41453674282747],[100.2686596979689,5.41453674282747],[100.2686596979689,5.41374946080992],[100.26917790635946,5.41374946080992],[100.26917790635946,5.413355820175398],[100.26814148957834,5.413355820175398],[100.26814148957834,5.41374946080992],[100.26762328118778,5.41374946080992],[100.26710507279721,5.412962179790357],[100.26606865601609,5.413355820175398],[100.26555044762554,5.412568539654776],[100.26606865601609,5.412568539654776],[100.26606865601609,5.412174899768636],[100.26658686440666,5.412174899768636],[100.26658686440666,5.412568539654776],[100.26762328118778,5.412568539654776],[100.26762328118778,5.412174899768636],[100.2686596979689,5.412568539654776],[100.2686596979689,5.412174899768636],[100.26969611475002,5.41178126013192],[100.26969611475002,5.412174899768636],[100.27021432314058,5.412174899768636],[100.27021432314058,5.41374946080992],[100.27073253153114,5.41374946080992],[100.27021432314058,5.41453674282747],[100.27073253153114,5.41453674282747],[100.27073253153114,5.414930384210537],[100.27176894831227,5.414930384210537],[100.27176894831227,5.41453674282747],[100.27280536509339,5.414143101693936],[100.27280536509339,5.41453674282747],[100.27332357348394,5.41453674282747],[100.27332357348394,5.415324025843158],[100.27435999026507,5.414930384210537],[100.27435999026507,5.415324025843158],[100.27539640704619,5.415324025843158],[100.27539640704619,5.4157176677253505],[100.27591461543675,5.4157176677253505],[100.27591461543675,5.416111309857134],[100.27539640704619,5.416111309857134],[100.27539640704619,5.416504952238526],[100.27591461543675,5.416504952238526],[100.27539640704619,5.4172922377502095],[100.27487819865563,5.4172922377502095],[100.27487819865563,5.4168985948695445],[100.27384178187451,5.4172922377502095],[100.27384178187451,5.4168985948695445],[100.27332357348394,5.4168985948695445],[100.27332357348394,5.416504952238526],[100.27384178187451,5.416504952238526]],[[100.26399582245385,5.414143101693936],[100.26399582245385,5.41374946080992],[100.26503223923497,5.414143101693936],[100.26503223923497,5.414930384210537],[100.26451403084441,5.414930384210537],[100.26451403084441,5.415324025843158],[100.26347761406329,5.414930384210537],[100.26347761406329,5.414143101693936],[100.26399582245385,5.414143101693936]],[[100.27384178187451,5.413355820175398],[100.27384178187451,5.412962179790357],[100.27435999026507,5.412962179790357],[100.27487819865563,5.41374946080992],[100.27384178187451,5.414143101693936],[100.27384178187451,5.41374946080992],[100.27332357348394,5.41374946080992],[100.27332357348394,5.413355820175398],[100.27384178187451,5.413355820175398]],[[100.27332357348394,5.410600342718122],[100.27332357348394,5.410206704078914],[100.27384178187451,5.410206704078914],[100.27435999026507,5.410993981606682],[100.27332357348394,5.411387620744607],[100.27332357348394,5.410993981606682],[100.27280536509339,5.410993981606682],[100.27280536509339,5.410600342718122],[100.27332357348394,5.410600342718122]],[[100.26244119728217,5.410206704078914],[100.26192298889161,5.409419427548464],[100.26295940567273,5.40902578965719],[100.26295940567273,5.409419427548464],[100.26399582245385,5.409813065689033],[100.26399582245385,5.410600342718122],[100.26347761406329,5.410600342718122],[100.26347761406329,5.410993981606682],[100.26244119728217,5.410993981606682],[100.26244119728217,5.410600342718122],[100.26192298889161,5.410600342718122],[100.26192298889161,5.410206704078914],[100.26244119728217,5.410206704078914]],[[100.2712507399217,5.409813065689033],[100.2712507399217,5.409419427548464],[100.27176894831227,5.409419427548464],[100.27228715670282,5.410206704078914],[100.2712507399217,5.410600342718122],[100.2712507399217,5.410206704078914],[100.27073253153114,5.410206704078914],[100.27073253153114,5.409813065689033],[100.2712507399217,5.409813065689033]],[[100.27435999026507,5.409419427548464],[100.27435999026507,5.40902578965719],[100.27487819865563,5.40902578965719],[100.27539640704619,5.409813065689033],[100.27435999026507,5.410206704078914],[100.27435999026507,5.409813065689033],[100.27384178187451,5.409813065689033],[100.27384178187451,5.409419427548464],[100.27435999026507,5.409419427548464]],[[100.27280536509339,5.407057603939559],[100.27280536509339,5.406663967543652],[100.27332357348394,5.406663967543652],[100.27384178187451,5.407451240584648],[100.27280536509339,5.407844877478937],[100.27280536509339,5.407451240584648],[100.27228715670282,5.407451240584648],[100.27228715670282,5.407057603939559],[100.27280536509339,5.407057603939559]]]]},"properties":{"place_id":"6aacbd62-73ce-5e4f-8903-a6c37d2de074","habitat":"forest_interior","habitat_label":"Forest interior","resolution_m":50}},{"type":"Feature","geometry":{"type":"MultiPolygon","coordinates":[[[[100.26638669517247,5.404302154399985],[100.26555044762554,5.40485814829691],[100.26555044762554,5.40508942445147],[100.26658686440666,5.404695789301191],[100.26638669517247,5.404302154399985]]],[[[100.26814148957834,5.405642887402717],[100.26762328118778,5.40508942445147],[100.26658686440666,5.405483059850836],[100.26658686440666,5.406663967543652],[100.26710507279721,5.406663967543652],[100.26710507279721,5.407057603939559],[100.26746434215599,5.407057603939559],[100.26814148957834,5.405642887402717]]],[[[100.26347761406329,5.409813065689033],[100.26347761406329,5.409419427548464],[100.26244119728217,5.40902578965719],[100.26244119728217,5.409419427548464],[100.26192298889161,5.409419427548464],[100.26192298889161,5.409813065689033],[100.26244119728217,5.409813065689033],[100.26192298889161,5.410600342718122],[100.26244119728217,5.410600342718122],[100.26244119728217,5.410993981606682],[100.26347761406329,5.410993981606682],[100.26347761406329,5.410600342718122],[100.26399582245385,5.410600342718122],[100.26399582245385,5.409813065689033],[100.26347761406329,5.409813065689033]]],[[[100.27176894831227,5.409419427548464],[100.27073253153114,5.409813065689033],[100.2712507399217,5.410600342718122],[100.27228715670282,5.410206704078914],[100.27176894831227,5.409419427548464]]],[[[100.26451403084441,5.41374946080992],[100.26347761406329,5.414143101693936],[100.26347761406329,5.414930384210537],[100.26399582245385,5.414930384210537],[100.26399582245385,5.415324025843158],[100.26503223923497,5.414930384210537],[100.26503223923497,5.414143101693936],[100.26451403084441,5.414143101693936],[100.26451403084441,5.41374946080992]]],[[[100.27539640704619,5.4172922377502095],[100.27539640704619,5.4168985948695445],[100.27591461543675,5.4168985948695445],[100.27591461543675,5.416504952238526],[100.27539640704619,5.416504952238526],[100.27539640704619,5.416111309857134],[100.27591461543675,5.416111309857134],[100.27539640704619,5.415324025843158],[100.27435999026507,5.415324025843158],[100.27435999026507,5.414930384210537],[100.27332357348394,5.415324025843158],[100.27332357348394,5.41453674282747],[100.27280536509339,5.41453674282747],[100.27280536509339,5.414143101693936],[100.27228715670282,5.414143101693936],[100.27176894831227,5.414930384210537],[100.27073253153114,5.414930384210537],[100.27073253153114,5.41453674282747],[100.27021432314058,5.41453674282747],[100.27073253153114,5.41374946080992],[100.27021432314058,5.41374946080992],[100.27021432314058,5.412174899768636],[100.26969611475002,5.412174899768636],[100.26969611475002,5.41178126013192],[100.26917790635946,5.41178126013192],[100.2686596979689,5.412568539654776],[100.26814148957834,5.412568539654776],[100.26814148957834,5.412174899768636],[100.26762328118778,5.412174899768636],[100.26762328118778,5.412568539654776],[100.26658686440666,5.412568539654776],[100.26658686440666,5.412174899768636],[100.26555044762554,5.412568539654776],[100.26606865601609,5.413355820175398],[100.26710507279721,5.412962179790357],[100.26762328118778,5.41374946080992],[100.26814148957834,5.41374946080992],[100.26814148957834,5.413355820175398],[100.26917790635946,5.413355820175398],[100.26917790635946,5.41374946080992],[100.2686596979689,5.41374946080992],[100.2686596979689,5.41453674282747],[100.26814148957834,5.41453674282747],[100.26814148957834,5.415324025843158],[100.2686596979689,5.415324025843158],[100.2686596979689,5.4157176677253505],[100.26917790635946,5.4157176677253505],[100.26917790635946,5.415324025843158],[100.27021432314058,5.415324025843158],[100.2712507399217,5.4168985948695445],[100.27176894831227,5.4168985948695445],[100.27176894831227,5.416504952238526],[100.27280536509339,5.416504952238526],[100.27280536509339,5.416111309857134],[100.27384178187451,5.416111309857134],[100.27332357348394,5.4168985948695445],[100.27384178187451,5.4168985948695445],[100.27384178187451,5.4172922377502095],[100.27435999026507,5.4172922377502095],[100.27435999026507,5.4168985948695445],[100.27539640704619,5.4172922377502095]],[[100.27435999026507,5.416111309857134],[100.27487819865563,5.416111309857134],[100.27487819865563,5.416504952238526],[100.27435999026507,5.416504952238526],[100.27435999026507,5.416111309857134]]],[[[100.26192298889161,5.416111309857134],[100.2608865721105,5.4157176677253505],[100.2608865721105,5.416111309857134],[100.26036836371993,5.416111309857134],[100.26036836371993,5.4168985948695445],[100.2608865721105,5.4168985948695445],[100.2608865721105,5.4172922377502095],[100.26192298889161,5.4172922377502095],[100.26192298889161,5.4168985948695445],[100.26244119728217,5.4168985948695445],[100.26192298889161,5.416111309857134]]],[[[100.26762328118778,5.4157176677253505],[100.26606865601609,5.416504952238526],[100.26658686440666,5.4172922377502095],[100.26762328118778,5.4172922377502095],[100.26762328118778,5.4168985948695445],[100.26814148957834,5.4168985948695445],[100.26814148957834,5.416111309857134],[100.26762328118778,5.416111309857134],[100.26762328118778,5.4157176677253505]]],[[[100.26917790635946,5.420441389785014],[100.26917790635946,5.420047744906511],[100.2686596979689,5.420047744906511],[100.26814148957834,5.420835034913329],[100.26917790635946,5.421228680291475],[100.26917790635946,5.420835034913329],[100.26969611475002,5.420835034913329],[100.26969611475002,5.420441389785014],[100.26917790635946,5.420441389785014]]],[[[100.26969611475002,5.424771499940284],[100.27073253153114,5.424377852312817],[100.27073253153114,5.423590557807859],[100.27021432314058,5.423590557807859],[100.27021432314058,5.423196910930334],[100.26917790635946,5.423196910930334],[100.26917790635946,5.423590557807859],[100.26762328118778,5.424377852312817],[100.26762328118778,5.425558795945292],[100.26969611475002,5.426346092950517],[100.26969611475002,5.425952444322869],[100.27021432314058,5.425952444322869],[100.27021432314058,5.425558795945292],[100.26969611475002,5.425558795945292],[100.26969611475002,5.424771499940284]]],[[[100.25207702947095,5.425558795945292],[100.2515588210804,5.425558795945292],[100.2515588210804,5.424771499940284],[100.25110091002504,5.424771499940284],[100.25207702947095,5.426555431880008],[100.25207702947095,5.425558795945292]]],[[[100.25259523786151,5.426739741828259],[100.2522607083517,5.426739741828259],[100.25259523786151,5.427036225536103],[100.25259523786151,5.426739741828259]]],[[[100.27332357348394,5.406663967543652],[100.27228715670282,5.407057603939559],[100.27280536509339,5.407844877478937],[100.27384178187451,5.407451240584648],[100.27332357348394,5.406663967543652]]],[[[100.27798744899899,5.407451240584648],[100.2779606,5.40742919414918],[100.27798642290912,5.407451240584648],[100.27798744899899,5.407451240584648]]],[[[100.27746924060843,5.407451240584648],[100.27747981278753,5.407451240584648],[100.27746924060843,5.407439127168115],[100.27746924060843,5.407451240584648]]],[[[100.27487819865563,5.409419427548464],[100.27487819865563,5.40902578965719],[100.27435999026507,5.40902578965719],[100.27384178187451,5.409813065689033],[100.27487819865563,5.410206704078914],[100.27487819865563,5.409813065689033],[100.27539640704619,5.409813065689033],[100.27539640704619,5.409419427548464],[100.27487819865563,5.409419427548464]]],[[[100.27539640704619,5.411387620744607],[100.27591461543675,5.411387620744607],[100.27591461543675,5.410993981606682],[100.2764328238273,5.410993981606682],[100.2764328238273,5.411387620744607],[100.27746924060843,5.411387620744607],[100.27746924060843,5.412174899768636],[100.27798744899899,5.412174899768636],[100.27798744899899,5.41374946080992],[100.27902386578012,5.414143101693936],[100.27911049999999,5.409481394147072],[100.27850565738954,5.40908387247435],[100.27850565738954,5.409419427548464],[100.27798744899899,5.409419427548464],[100.27746924060843,5.408632152015189],[100.27695103221787,5.408632152015189],[100.276572,5.407580494149005],[100.2756173,5.407688494148907],[100.27606209999999,5.406197894150413],[100.27487819865563,5.406663967543652],[100.27487819865563,5.407844877478937],[100.27539640704619,5.407844877478937],[100.27695103221787,5.409419427548464],[100.27487819865563,5.410600342718122],[100.27539640704619,5.411387620744607]],[[100.2764328238273,5.410206704078914],[100.2764328238273,5.410600342718122],[100.27591461543675,5.410600342718122],[100.27591461543675,5.410206704078914],[100.2764328238273,5.410206704078914]]],[[[100.27384178187451,5.410206704078914],[100.27280536509339,5.410600342718122],[100.27332357348394,5.411387620744607],[100.27435999026507,5.410993981606682],[100.27384178187451,5.410206704078914]]],[[[100.27435999026507,5.413355820175398],[100.27435999026507,5.412962179790357],[100.27384178187451,5.412962179790357],[100.27332357348394,5.41374946080992],[100.27435999026507,5.414143101693936],[100.27435999026507,5.41374946080992],[100.27487819865563,5.41374946080992],[100.27487819865563,5.413355820175398],[100.27435999026507,5.413355820175398]]],[[[100.27746924060843,5.4172922377502095],[100.2764328238273,5.417685880880539],[100.27695103221787,5.418473167890267],[100.27798744899899,5.418079524260552],[100.27746924060843,5.4172922377502095]]],[[[100.28006028256124,5.4192604558988755],[100.27902386578012,5.419654100277804],[100.27954207417066,5.420441389785014],[100.28057849095178,5.420047744906511],[100.28006028256124,5.4192604558988755]]],[[[100.27539640704619,5.420441389785014],[100.27539640704619,5.420047744906511],[100.27384178187451,5.420047744906511],[100.27384178187451,5.419654100277804],[100.27280536509339,5.420047744906511],[100.27435999026507,5.421622325919472],[100.27539640704619,5.421622325919472],[100.27539640704619,5.421228680291475],[100.27591461543675,5.421228680291475],[100.27591461543675,5.420441389785014],[100.27539640704619,5.420441389785014]]],[[[100.27798744899899,5.423590557807859],[100.27695103221787,5.423984204935347],[100.27746924060843,5.424771499940284],[100.27850565738954,5.424377852312817],[100.27798744899899,5.423590557807859]]],[[[100.27384178187451,5.425165147817769],[100.27280536509339,5.425558795945292],[100.27332357348394,5.426346092950517],[100.27435999026507,5.425952444322869],[100.27384178187451,5.425165147817769]]]]},"properties":{"place_id":"6aacbd62-73ce-5e4f-8903-a6c37d2de074","habitat":"forest_edge_opening","habitat_label":"Forest edge or opening","resolution_m":50}},{"type":"Feature","geometry":{"type":"MultiPolygon","coordinates":[[[[100.26754487140254,5.406663967543652],[100.26762328118778,5.405483059850836],[100.26710507279721,5.405483059850836],[100.26710507279721,5.406663967543652],[100.26754487140254,5.406663967543652]]],[[[100.26295940567273,5.409419427548464],[100.26244119728217,5.409419427548464],[100.26244119728217,5.409813065689033],[100.26295940567273,5.409813065689033],[100.26295940567273,5.409419427548464]]],[[[100.27176894831227,5.409813065689033],[100.2712507399217,5.409813065689033],[100.2712507399217,5.410206704078914],[100.27176894831227,5.410206704078914],[100.27176894831227,5.409813065689033]]],[[[100.26244119728217,5.410206704078914],[100.26244119728217,5.410600342718122],[100.26347761406329,5.410600342718122],[100.26347761406329,5.409813065689033],[100.26244119728217,5.410206704078914]]],[[[100.26969611475002,5.412174899768636],[100.26917790635946,5.412174899768636],[100.26917790635946,5.413355820175398],[100.26969611475002,5.413355820175398],[100.26969611475002,5.412174899768636]]],[[[100.26814148957834,5.412568539654776],[100.26762328118778,5.412568539654776],[100.26762328118778,5.413355820175398],[100.26814148957834,5.413355820175398],[100.26814148957834,5.412568539654776]]],[[[100.26451403084441,5.414930384210537],[100.26451403084441,5.414143101693936],[100.26399582245385,5.414143101693936],[100.26399582245385,5.414930384210537],[100.26451403084441,5.414930384210537]]],[[[100.27021432314058,5.41374946080992],[100.26917790635946,5.41374946080992],[100.2686596979689,5.415324025843158],[100.26969611475002,5.414930384210537],[100.26969611475002,5.414143101693936],[100.27021432314058,5.414143101693936],[100.27021432314058,5.41374946080992]]],[[[100.27073253153114,5.414930384210537],[100.27021432314058,5.414930384210537],[100.27021432314058,5.415324025843158],[100.27073253153114,5.415324025843158],[100.27073253153114,5.414930384210537]]],[[[100.2712507399217,5.415324025843158],[100.27073253153114,5.415324025843158],[100.27073253153114,5.4157176677253505],[100.2712507399217,5.4157176677253505],[100.2712507399217,5.415324025843158]]],[[[100.27176894831227,5.416111309857134],[100.2712507399217,5.416111309857134],[100.2712507399217,5.416504952238526],[100.27176894831227,5.416504952238526],[100.27176894831227,5.416111309857134]]],[[[100.2608865721105,5.4168985948695445],[100.26192298889161,5.4168985948695445],[100.26192298889161,5.416504952238526],[100.2608865721105,5.416111309857134],[100.2608865721105,5.4168985948695445]]],[[[100.26762328118778,5.416111309857134],[100.26710507279721,5.416111309857134],[100.26710507279721,5.4168985948695445],[100.26762328118778,5.4168985948695445],[100.26762328118778,5.416111309857134]]],[[[100.26917790635946,5.420835034913329],[100.26917790635946,5.420441389785014],[100.2686596979689,5.420441389785014],[100.2686596979689,5.420835034913329],[100.26917790635946,5.420835034913329]]],[[[100.27332357348394,5.407057603939559],[100.27280536509339,5.407057603939559],[100.27280536509339,5.407451240584648],[100.27332357348394,5.407451240584648],[100.27332357348394,5.407057603939559]]],[[[100.27487819865563,5.409419427548464],[100.27435999026507,5.409419427548464],[100.27435999026507,5.409813065689033],[100.27487819865563,5.409813065689033],[100.27487819865563,5.409419427548464]]],[[[100.27384178187451,5.410600342718122],[100.27332357348394,5.410600342718122],[100.27332357348394,5.410993981606682],[100.27384178187451,5.410993981606682],[100.27384178187451,5.410600342718122]]],[[[100.27435999026507,5.413355820175398],[100.27384178187451,5.413355820175398],[100.27384178187451,5.41374946080992],[100.27435999026507,5.41374946080992],[100.27435999026507,5.413355820175398]]],[[[100.27176894831227,5.416111309857134],[100.27280536509339,5.416111309857134],[100.27280536509339,5.41453674282747],[100.27176894831227,5.414930384210537],[100.27176894831227,5.416111309857134]]],[[[100.27539640704619,5.4157176677253505],[100.27487819865563,5.4157176677253505],[100.27487819865563,5.416111309857134],[100.27539640704619,5.416111309857134],[100.27539640704619,5.4157176677253505]]],[[[100.27435999026507,5.4168985948695445],[100.27435999026507,5.416504952238526],[100.27384178187451,5.416504952238526],[100.27384178187451,5.4168985948695445],[100.27435999026507,5.4168985948695445]]],[[[100.27539640704619,5.416504952238526],[100.27487819865563,5.416504952238526],[100.27487819865563,5.4168985948695445],[100.27539640704619,5.4168985948695445],[100.27539640704619,5.416504952238526]]],[[[100.27746924060843,5.417685880880539],[100.27695103221787,5.417685880880539],[100.27695103221787,5.418079524260552],[100.27746924060843,5.418079524260552],[100.27746924060843,5.417685880880539]]],[[[100.28006028256124,5.419654100277804],[100.27954207417066,5.419654100277804],[100.27954207417066,5.420047744906511],[100.28006028256124,5.420047744906511],[100.28006028256124,5.419654100277804]]],[[[100.27384178187451,5.420047744906511],[100.27332357348394,5.420047744906511],[100.27332357348394,5.420441389785014],[100.27384178187451,5.420441389785014],[100.27384178187451,5.420047744906511]]],[[[100.27435999026507,5.421228680291475],[100.27539640704619,5.421228680291475],[100.27539640704619,5.420441389785014],[100.27384178187451,5.420441389785014],[100.27435999026507,5.421228680291475]]],[[[100.27798744899899,5.423984204935347],[100.27746924060843,5.423984204935347],[100.27746924060843,5.424377852312817],[100.27798744899899,5.424377852312817],[100.27798744899899,5.423984204935347]]]]},"properties":{"place_id":"6aacbd62-73ce-5e4f-8903-a6c37d2de074","habitat":"open_grassland","habitat_label":"Open grassland or shrubland","resolution_m":50}},{"type":"Feature","geometry":{"type":"MultiPolygon","coordinates":[[[[100.26658686440666,5.404302154399985],[100.26555044762554,5.40485814829691],[100.26555044762554,5.40508942445147],[100.26606865601609,5.40508942445147],[100.26658686440666,5.404302154399985]]],[[[100.27487819865563,5.410993981606682],[100.27539640704619,5.410993981606682],[100.27539640704619,5.411387620744607],[100.27591461543675,5.411387620744607],[100.27591461543675,5.410993981606682],[100.2764328238273,5.410993981606682],[100.2764328238273,5.411387620744607],[100.27746924060843,5.411387620744607],[100.27746924060843,5.412174899768636],[100.27798744899899,5.412174899768636],[100.27798744899899,5.41374946080992],[100.27902386578012,5.414143101693936],[100.27911049999999,5.409481394147072],[100.2784054,5.408941394147625],[100.27796879999998,5.409397794147178],[100.278089,5.408612494147961],[100.27756999999998,5.408736094147852],[100.27773279999998,5.407947694148631],[100.2788502,5.4074183941491745],[100.27875249999998,5.4071159941495015],[100.2769244,5.407901294148665],[100.276572,5.407580494149005],[100.2756499,5.407710094148861],[100.27606209999999,5.406197894150413],[100.27487819865563,5.406663967543652],[100.27487819865563,5.407844877478937],[100.27539640704619,5.407844877478937],[100.27695103221787,5.409419427548464],[100.2764328238273,5.409419427548464],[100.27487819865563,5.410993981606682]],[[100.2764328238273,5.410206704078914],[100.2764328238273,5.410600342718122],[100.27591461543675,5.410600342718122],[100.27591461543675,5.410206704078914],[100.2764328238273,5.410206704078914]]],[[[100.26710507279721,5.412568539654776],[100.26606865601609,5.412174899768636],[100.26555044762554,5.412962179790357],[100.26658686440666,5.413355820175398],[100.26710507279721,5.412568539654776]]],[[[100.27487819865563,5.415324025843158],[100.27384178187451,5.414930384210537],[100.27384178187451,5.415324025843158],[100.27332357348394,5.415324025843158],[100.27332357348394,5.416111309857134],[100.27435999026507,5.416504952238526],[100.27435999026507,5.416111309857134],[100.27487819865563,5.416111309857134],[100.27487819865563,5.415324025843158]]],[[[100.26762328118778,5.416504952238526],[100.26658686440666,5.416111309857134],[100.26606865601609,5.4168985948695445],[100.26710507279721,5.4172922377502095],[100.26762328118778,5.416504952238526]]],[[[100.27021432314058,5.425558795945292],[100.26969611475002,5.425558795945292],[100.26969611475002,5.424771499940284],[100.27073253153114,5.424377852312817],[100.27073253153114,5.423590557807859],[100.27021432314058,5.423590557807859],[100.27021432314058,5.423196910930334],[100.26917790635946,5.423196910930334],[100.26917790635946,5.423590557807859],[100.26762328118778,5.424377852312817],[100.26762328118778,5.425558795945292],[100.26814148957834,5.425558795945292],[100.26814148957834,5.425952444322869],[100.26917790635946,5.425952444322869],[100.26917790635946,5.426346092950517],[100.26969611475002,5.426346092950517],[100.27021432314058,5.425558795945292]]],[[[100.2515588210804,5.424771499940284],[100.251015,5.425010394131403],[100.25207702947095,5.426346092950517],[100.25207702947095,5.425558795945292],[100.2515588210804,5.425558795945292],[100.2515588210804,5.424771499940284]]],[[[100.27435999026507,5.425558795945292],[100.27332357348394,5.425165147817769],[100.27280536509339,5.425952444322869],[100.27384178187451,5.426346092950517],[100.27435999026507,5.425558795945292]]]]},"properties":{"place_id":"6aacbd62-73ce-5e4f-8903-a6c37d2de074","habitat":"disturbed_built_edge","habitat_label":"Disturbed, bare or built edge","resolution_m":50}}]}