{"type":"FeatureCollection","metadata":{"schema_version":1,"place_id":"6ab19b60-3054-516b-8d0e-0e68c9aa3264","place_name":"Komuniti Taman Perdana","place_type":"park","osm_reference":"way/913110971","protection_context":"no protected status confirmed from included OSM tags","resolution_m":50,"raster_coverage":1.0,"interpretation":"Suggested search habitats, not predicted plant locations or probabilities of presence."},"features":[{"type":"Feature","geometry":{"type":"Polygon","coordinates":[[[103.38682755158239,3.544084845703963],[103.3867794,3.5440670960927685],[103.3867155013995,3.544084845703963],[103.38682755158239,3.544084845703963]]]},"properties":{"place_id":"6ab19b60-3054-516b-8d0e-0e68c9aa3264","habitat":"forest_edge_opening","habitat_label":"Forest edge or opening","resolution_m":50}},{"type":"Feature","geometry":{"type":"Polygon","coordinates":[[[103.38671958397227,3.5444775082632436],[103.38671958397227,3.544083711655961],[103.38655303101,3.5444775082632436],[103.38671958397227,3.5444775082632436]]]},"properties":{"place_id":"6ab19b60-3054-516b-8d0e-0e68c9aa3264","habitat":"open_grassland","habitat_label":"Open grassland or shrubland","resolution_m":50}},{"type":"Feature","geometry":{"type":"Polygon","coordinates":[[[103.3871984,3.54513109609167],[103.38752189999998,3.544340796092492],[103.3867794,3.5440670960927685],[103.3864127,3.54486049609192],[103.3871984,3.54513109609167]]]},"properties":{"place_id":"6ab19b60-3054-516b-8d0e-0e68c9aa3264","habitat":"disturbed_built_edge","habitat_label":"Disturbed, bare or built edge","resolution_m":50}}]}