{"type":"FeatureCollection","metadata":{"schema_version":1,"place_id":"6b17d4e3-bac8-55df-91ee-0897e1d7834a","place_name":"Pulau Penyur","place_type":"wood","osm_reference":"way/412279586","protection_context":"no protected status confirmed from included OSM tags","resolution_m":50,"raster_coverage":1.0,"interpretation":"Suggested search habitats, not predicted plant locations or probabilities of presence."},"features":[{"type":"Feature","geometry":{"type":"Polygon","coordinates":[[[103.00946387564413,3.477334553657202],[103.01205491759693,3.477334553657202],[103.01205491759693,3.4769419185740147],[103.0136095427686,3.4769419185740147],[103.0136095427686,3.4765492836499465],[103.01464595954974,3.4765492836499465],[103.01516416794028,3.4757640142790907],[103.01671879311198,3.4757640142790907],[103.01671879311198,3.4753713798322674],[103.01879162667421,3.4749787455444907],[103.01930983506477,3.474193477445999],[103.0125731259875,3.474193477445999],[103.0125731259875,3.47458611141574],[103.00946387564413,3.47458611141574],[103.00946387564413,3.4753713798322674],[103.00894566725356,3.4753713798322674],[103.00790925047244,3.4765492836499465],[103.00687283369132,3.4765492836499465],[103.00687283369132,3.477334553657202],[103.00790925047244,3.477334553657202],[103.00790925047244,3.4769419185740147],[103.00842745886301,3.4769419185740147],[103.00894566725356,3.4776953420278334],[103.00946387564413,3.4777126515527],[103.00946387564413,3.477334553657202]]]},"properties":{"place_id":"6b17d4e3-bac8-55df-91ee-0897e1d7834a","habitat":"forest_interior","habitat_label":"Forest interior","resolution_m":50}},{"type":"Feature","geometry":{"type":"Polygon","coordinates":[[[103.00778030000001,3.4759345961658523],[103.0058397,3.4768930961648],[103.00659079999998,3.4774967961641488],[103.00894566725356,3.4776953420278334],[103.00842745886301,3.4769419185740147],[103.00790925047244,3.4769419185740147],[103.00790925047244,3.477334553657202],[103.00687283369132,3.477334553657202],[103.00687283369132,3.4765492836499465],[103.00790925047244,3.4765492836499465],[103.00790925047244,3.476156648884978],[103.00946387564413,3.4753713798322674],[103.00946387564413,3.47458611141574],[103.0125731259875,3.47458611141574],[103.0125731259875,3.474193477445999],[103.01930983506477,3.474193477445999],[103.01879162667421,3.4749787455444907],[103.0177552098931,3.4749787455444907],[103.0177552098931,3.4753713798322674],[103.01671879311198,3.4753713798322674],[103.01671879311198,3.4757640142790907],[103.01516416794028,3.4757640142790907],[103.01516416794028,3.476156648884978],[103.01464595954974,3.476156648884978],[103.01464595954974,3.4765492836499465],[103.0136095427686,3.4765492836499465],[103.0136095427686,3.4769419185740147],[103.01205491759693,3.4769419185740147],[103.01205491759693,3.477334553657202],[103.00946387564413,3.477334553657202],[103.00946387564413,3.4777126515527],[103.01178749999997,3.4776506961639764],[103.0217975,3.474250596167624],[103.0169266,3.4738007961681494],[103.00971949999999,3.474186296167723],[103.00778030000001,3.4759345961658523]]]},"properties":{"place_id":"6b17d4e3-bac8-55df-91ee-0897e1d7834a","habitat":"forest_edge_opening","habitat_label":"Forest edge or opening","resolution_m":50}},{"type":"Feature","geometry":{"type":"Polygon","coordinates":[[[103.02138266862701,3.474193477445999],[103.02138266862701,3.4745413586982736],[103.02180019999999,3.4743067961675864],[103.02138266862701,3.474193477445999]]]},"properties":{"place_id":"6b17d4e3-bac8-55df-91ee-0897e1d7834a","habitat":"cropland","habitat_label":"Cropland","resolution_m":50}},{"type":"Feature","geometry":{"type":"MultiPolygon","coordinates":[[[[103.0125731259875,3.474193477445999],[103.0125731259875,3.473991678130729],[103.00969499624604,3.474193477445999],[103.0125731259875,3.474193477445999]]],[[[103.00946387564413,3.47458611141574],[103.00946387564413,3.474264008058421],[103.00908192507237,3.47458611141574],[103.00946387564413,3.47458611141574]]],[[[103.00894566725356,3.4753713798322674],[103.00894566725356,3.4748021019655155],[103.00849344267911,3.4753713798322674],[103.00894566725356,3.4753713798322674]]],[[[103.00842745886301,3.4757640142790907],[103.00842745886301,3.475435247832654],[103.00802085915149,3.4757640142790907],[103.00842745886301,3.4757640142790907]]],[[[103.00790925047244,3.476156648884978],[103.00790925047244,3.475843156635699],[103.00739537787507,3.476156648884978],[103.00790925047244,3.476156648884978]]],[[[103.00635462530076,3.4765492836499465],[103.00687283369132,3.4765492836499465],[103.00687283369132,3.476384625947273],[103.00615759999998,3.476565096165181],[103.0058759,3.4767644961649435],[103.00635462530076,3.4772995503413173],[103.00635462530076,3.4765492836499465]]],[[[103.00687283369132,3.477334553657202],[103.00638026318107,3.477334553657202],[103.00687283369132,3.477556641867541],[103.00687283369132,3.477334553657202]]],[[[103.00842745886301,3.4776288027126867],[103.00790925047244,3.477334553657202],[103.00790925047244,3.4775981401270486],[103.00842745886301,3.4776288027126867]]],[[[103.01205491759693,3.477334553657202],[103.01205491759693,3.477599305423341],[103.01320435404426,3.477334553657202],[103.01205491759693,3.477334553657202]]],[[[103.01693504211174,3.4738008436352494],[103.0169266,3.4738007961681494],[103.01692420394333,3.4738008436352494],[103.01693504211174,3.4738008436352494]]],[[[103.02167555540782,3.474193477445999],[103.02099289999998,3.474087296167818],[103.01930983506477,3.4739380722126074],[103.01930983506477,3.474193477445999],[103.02167555540782,3.474193477445999]]],[[[103.0203462518459,3.47458611141574],[103.0203462518459,3.474836073253683],[103.02124094176341,3.47458611141574],[103.0203462518459,3.47458611141574]]],[[[103.01879162667421,3.4749787455444907],[103.01879162667421,3.475266006355051],[103.01983149284362,3.4749787455444907],[103.01879162667421,3.4749787455444907]]],[[[103.0177552098931,3.4753713798322674],[103.0177552098931,3.4755854414584424],[103.01839340410899,3.4753713798322674],[103.0177552098931,3.4753713798322674]]],[[[103.01671879311198,3.4757640142790907],[103.01671879311198,3.475975868175385],[103.01726694870483,3.4757640142790907],[103.01671879311198,3.4757640142790907]]],[[[103.01516416794028,3.476156648884978],[103.01516416794028,3.476319272993566],[103.01580110175962,3.476156648884978],[103.01516416794028,3.476156648884978]]],[[[103.01464595954974,3.4765492836499465],[103.01464595954974,3.4766168336062355],[103.01476672236399,3.4765492836499465],[103.01464595954974,3.4765492836499465]]],[[[103.0136095427686,3.4769419185740147],[103.0136095427686,3.4771837853579655],[103.01409460422431,3.4769419185740147],[103.0136095427686,3.4769419185740147]]]]},"properties":{"place_id":"6b17d4e3-bac8-55df-91ee-0897e1d7834a","habitat":"permanent_water","habitat_label":"Permanent water","resolution_m":50}},{"type":"Feature","geometry":{"type":"MultiPolygon","coordinates":[[[[103.01153670920637,3.474057017691937],[103.0125731259875,3.474193477445999],[103.0125731259875,3.473991678130729],[103.01153670920637,3.474057017691937]]],[[[103.01982804345533,3.473986073774592],[103.02086446023647,3.474193477445999],[103.02086446023647,3.4740770035116926],[103.01982804345533,3.473986073774592]]],[[[103.0177552098931,3.4753713798322674],[103.0182382,3.475407196166378],[103.01839340410899,3.4753713798322674],[103.0177552098931,3.4753713798322674]]],[[[103.00635462530076,3.4765113178904095],[103.00687283369132,3.4765492836499465],[103.00687283369132,3.476384625947273],[103.00635462530076,3.4765113178904095]]],[[[103.01568237633086,3.476180666333848],[103.01580110175962,3.476156648884978],[103.01568237633086,3.476156648884978],[103.01568237633086,3.476180666333848]]],[[[103.00635462530076,3.4769419185740147],[103.00635462530076,3.4765492836499465],[103.0062155316745,3.4765492836499465],[103.0058397,3.4768930961648],[103.00635462530076,3.4769419185740147]]],[[[103.0136095427686,3.4769419185740147],[103.01395479999998,3.477034996164658],[103.01409460422431,3.4769419185740147],[103.0136095427686,3.4769419185740147]]],[[[103.00842745886301,3.4776288027126867],[103.00790925047244,3.477334553657202],[103.00790925047244,3.4775981401270486],[103.00842745886301,3.4776288027126867]]],[[[103.01309133437805,3.477334553657202],[103.01205491759693,3.477334553657202],[103.01205491759693,3.477599305423341],[103.0128282,3.4774632961641876],[103.01309133437805,3.477334553657202]]]]},"properties":{"place_id":"6b17d4e3-bac8-55df-91ee-0897e1d7834a","habitat":"seasonal_water_wetland","habitat_label":"Seasonal water or wetland","resolution_m":50}},{"type":"Feature","geometry":{"type":"Polygon","coordinates":[[[103.00635462530076,3.4772995503413173],[103.0072667,3.477602496164026],[103.00842745886301,3.477334553657202],[103.00889339999999,3.4776935961639426],[103.01205491759693,3.477599305423341],[103.01205491759693,3.477334553657202],[103.0136095427686,3.4771837853579655],[103.01516416794028,3.476156648884978],[103.01649209999998,3.476060396165677],[103.01879162667421,3.475266006355051],[103.01879162667421,3.4749787455444907],[103.01983149284362,3.4749787455444907],[103.0217975,3.474250596167624],[103.01693504211174,3.4738008436352494],[103.00969499624604,3.474193477445999],[103.00790925047244,3.476156648884978],[103.00635462530076,3.4765492836499465],[103.00635462530076,3.4772995503413173]],[[103.00894566725356,3.4769419185740147],[103.00842745886301,3.4769419185740147],[103.00842745886301,3.476156648884978],[103.00894566725356,3.476156648884978],[103.00998208403469,3.4749787455444907],[103.0125731259875,3.4749787455444907],[103.0125731259875,3.47458611141574],[103.0177552098931,3.47458611141574],[103.0177552098931,3.4749787455444907],[103.01671879311198,3.4749787455444907],[103.01671879311198,3.4753713798322674],[103.01516416794028,3.4753713798322674],[103.01516416794028,3.4757640142790907],[103.01464595954974,3.4757640142790907],[103.01464595954974,3.476156648884978],[103.0136095427686,3.476156648884978],[103.0136095427686,3.4765492836499465],[103.01205491759693,3.4765492836499465],[103.01205491759693,3.4769419185740147],[103.00946387564413,3.4769419185740147],[103.00946387564413,3.477334553657202],[103.00894566725356,3.477334553657202],[103.00894566725356,3.4769419185740147]]]},"properties":{"place_id":"6b17d4e3-bac8-55df-91ee-0897e1d7834a","habitat":"water_edge","habitat_label":"Water edge","resolution_m":50}}]}