{"type":"FeatureCollection","metadata":{"schema_version":1,"place_id":"6b83e851-0f5c-58ec-a72f-bc719e3fa973","place_name":"Taman Muzium Kota Lukut","place_type":"park","osm_reference":"way/620959754","protection_context":"no protected status confirmed from included OSM tags","resolution_m":50,"raster_coverage":1.0,"interpretation":"Suggested search habitats, not predicted plant locations or probabilities of presence."},"features":[{"type":"Feature","geometry":{"type":"MultiPolygon","coordinates":[[[[101.82380307804138,2.5679885012336525],[101.82389100929709,2.5679885012336525],[101.82380307804138,2.567964188767705],[101.82380307804138,2.5679885012336525]]],[[[101.8222484528697,2.56888693068845],[101.82185024324657,2.5687731315081397],[101.8218529,2.5689080971488556],[101.8222484528697,2.56888693068845]]],[[[101.82276666126026,2.569165446821316],[101.8227229,2.5692816971484187],[101.82276666126026,2.569289302714966],[101.82276666126026,2.569165446821316]]],[[[101.8232848696508,2.569165446821316],[101.8237265,2.569345197148384],[101.82397781126375,2.569165446821316],[101.8232848696508,2.569165446821316]]],[[[101.82432128643194,2.569165446821316],[101.8241770842948,2.569165446821316],[101.82432128643194,2.569241800940614],[101.82432128643194,2.569165446821316]]],[[[101.82483949482251,2.569165446821316],[101.8249094,2.5692246971484782],[101.82485945600865,2.569165446821316],[101.82483949482251,2.569165446821316]]],[[[101.82465052698377,2.569557762251805],[101.82478059999998,2.5695997971480855],[101.82479503373487,2.569557762251805],[101.82465052698377,2.569557762251805]]]]},"properties":{"place_id":"6b83e851-0f5c-58ec-a72f-bc719e3fa973","habitat":"forest_interior","habitat_label":"Forest interior","resolution_m":50}},{"type":"Feature","geometry":{"type":"Polygon","coordinates":[[[101.82276666126026,2.569165446821316],[101.82412609999997,2.569074597148685],[101.82483949482251,2.5694282796821337],[101.8241778,2.568067797149749],[101.82183179999998,2.5678361971500276],[101.82185024324657,2.5687731315081397],[101.82261310000001,2.5687861971489827],[101.82276666126026,2.569165446821316]],[[101.82276666126026,2.568380816312258],[101.8232848696508,2.568380816312258],[101.8232848696508,2.5687731315081397],[101.82276666126026,2.5687731315081397],[101.82276666126026,2.568380816312258]]]},"properties":{"place_id":"6b83e851-0f5c-58ec-a72f-bc719e3fa973","habitat":"forest_edge_opening","habitat_label":"Forest edge or opening","resolution_m":50}},{"type":"Feature","geometry":{"type":"Polygon","coordinates":[[[101.8222484528697,2.5687731315081397],[101.8232848696508,2.569165446821316],[101.82380307804138,2.568380816312258],[101.8222484528697,2.5678583695809865],[101.8222484528697,2.5687731315081397]]]},"properties":{"place_id":"6b83e851-0f5c-58ec-a72f-bc719e3fa973","habitat":"open_grassland","habitat_label":"Open grassland or shrubland","resolution_m":50}},{"type":"Feature","geometry":{"type":"MultiPolygon","coordinates":[[[[101.8222484528697,2.568380816312258],[101.8222484528697,2.5679885012336525],[101.82276666126026,2.5678859463500787],[101.82183179999998,2.5678361971500276],[101.82184252065176,2.568380816312258],[101.8222484528697,2.568380816312258]]],[[[101.8232848696508,2.568380816312258],[101.8232848696508,2.5687731315081397],[101.82479503373487,2.569557762251805],[101.8241778,2.568067797149749],[101.82276666126026,2.5679885012336525],[101.82276666126026,2.568380816312258],[101.8232848696508,2.568380816312258]]]]},"properties":{"place_id":"6b83e851-0f5c-58ec-a72f-bc719e3fa973","habitat":"disturbed_built_edge","habitat_label":"Disturbed, bare or built edge","resolution_m":50}}]}