{"type":"FeatureCollection","metadata":{"schema_version":1,"place_id":"6ba14833-0a2f-5726-913b-e8f8d827ef60","place_name":"Taman Poket Bukit Jambul","place_type":"park","osm_reference":"way/992103998","protection_context":"no protected status confirmed from included OSM tags","resolution_m":50,"raster_coverage":1.0,"interpretation":"Suggested search habitats, not predicted plant locations or probabilities of presence."},"features":[{"type":"Feature","geometry":{"type":"Polygon","coordinates":[[[100.27313270000002,5.347852694209448],[100.27354229999999,5.347728794209583],[100.2731154,5.347520294209766],[100.27313270000002,5.347852694209448]]]},"properties":{"place_id":"6ba14833-0a2f-5726-913b-e8f8d827ef60","habitat":"forest_edge_opening","habitat_label":"Forest edge or opening","resolution_m":50}},{"type":"Feature","geometry":{"type":"Polygon","coordinates":[[[100.27313270000002,5.347852694209448],[100.27354229999999,5.347728794209583],[100.2731154,5.347520294209766],[100.27313270000002,5.347852694209448]]]},"properties":{"place_id":"6ba14833-0a2f-5726-913b-e8f8d827ef60","habitat":"disturbed_built_edge","habitat_label":"Disturbed, bare or built edge","resolution_m":50}}]}