{"type":"FeatureCollection","metadata":{"schema_version":1,"place_id":"6cbc4c02-a823-59c5-81ab-a3f9ffc62539","place_name":"Bukit Lanjan East","place_type":"wood","osm_reference":"relation/8305598","protection_context":"no protected status confirmed from included OSM tags","resolution_m":50,"raster_coverage":1.0,"interpretation":"Suggested search habitats, not predicted plant locations or probabilities of presence."},"features":[{"type":"Feature","geometry":{"type":"MultiPolygon","coordinates":[[[[101.61133763791152,3.166415913650086],[101.61081942952096,3.166415913650086],[101.61081942952096,3.1668084285348206],[101.61133763791152,3.1668084285348206],[101.61133763791152,3.166415913650086]]],[[[101.61703793020769,3.182116622165227],[101.61703793020769,3.180604189804298],[101.615483305036,3.1797615010742897],[101.615483305036,3.178583942491977],[101.61600151342657,3.178583942491977],[101.61600151342657,3.1781914232552575],[101.61703793020769,3.1781914232552575],[101.61703793020769,3.1777989041638657],[101.61651972181713,3.1777989041638657],[101.61651972181713,3.1766213477614813],[101.61600151342657,3.1766213477614813],[101.61600151342657,3.1758363108862038],[101.615483305036,3.1758363108862038],[101.61444688825488,3.17465875666239],[101.61341047147376,3.17465875666239],[101.61341047147376,3.174266238878141],[101.6128922630832,3.174266238878141],[101.6128922630832,3.1734812037450677],[101.61337758099752,3.1734812037450677],[101.6128922630832,3.1726961691924394],[101.61237405469264,3.1726961691924394],[101.61309205428876,3.1715186184515174],[101.6128922630832,3.1707335853493697],[101.61341047147376,3.1703410690157816],[101.61444688825488,3.1703410690157816],[101.61444688825488,3.169993989639568],[101.6128922630832,3.1691635208847466],[101.61288412231316,3.1687710051309175],[101.61237405469264,3.1687710051309175],[101.61237405469264,3.1683784895219818],[101.61185584630208,3.1683784895219818],[101.61172631714511,3.167593458738722],[101.6117026,3.1681273964973293],[101.61122089999999,3.1680307964974284],[101.6106709,3.1671009964984234],[101.60976999999998,3.1675687964979407],[101.60870599999998,3.1674172964980993],[101.6084215,3.1677959964977003],[101.60870029999998,3.1685686964968416],[101.60845749999999,3.1690496964963173],[101.6087648,3.1694207964959316],[101.60914029999999,3.1703297964949666],[101.6107316,3.172083396493052],[101.6104357,3.172649596492462],[101.61069929999998,3.173357796491684],[101.61071069999998,3.174115296490864],[101.6109326,3.174660696490284],[101.61081942952096,3.173873721239039],[101.61133763791152,3.1734812037450677],[101.61237405469264,3.173873721239039],[101.61237405469264,3.174266238878141],[101.61185584630208,3.174266238878141],[101.61237405469264,3.175443792666403],[101.61133763791152,3.1758363108862038],[101.61044500000001,3.1743422964906087],[101.61026299999999,3.172632296492457],[101.6105569,3.1720149964931172],[101.60947970000001,3.17111169649411],[101.60828670000001,3.1689660964964093],[101.60826959999999,3.167746596497748],[101.60863949999997,3.1673242964982213],[101.6099747,3.167356496498144],[101.61081942952096,3.1668084285348206],[101.60926480434927,3.1668084285348206],[101.60926480434927,3.1672009435643607],[101.60874659595872,3.1672009435643607],[101.60874659595872,3.1668084285348206],[101.60774801520705,3.166415913650086],[101.60771017917759,3.1672009435643607],[101.60719197078703,3.1672009435643607],[101.60667376239648,3.167985974057922],[101.60719197078703,3.167985974057922],[101.60771017917759,3.1683784895219818],[101.60771017917759,3.1691635208847466],[101.60822838756815,3.1691635208847466],[101.60822838756815,3.169948552827161],[101.60771017917759,3.169948552827161],[101.6077309920281,3.1703410690157816],[101.60822838756815,3.1703410690157816],[101.60822838756815,3.174266238878141],[101.60771017917759,3.174266238878141],[101.60771017917759,3.1750512745918043],[101.60623149999999,3.1757926964890286],[101.60652989999998,3.176141796488672],[101.60685619999997,3.17596939648888],[101.6071791162557,3.177013866416996],[101.60822838756815,3.1774063852177847],[101.60785676800741,3.1777989041638657],[101.6080746,3.178869496485714],[101.6076501,3.1788886964856915],[101.60723039418268,3.1801540208925045],[101.60798489999999,3.1799742964845317],[101.60783979483514,3.1805465408561395],[101.60874659595872,3.1805465408561395],[101.60874659595872,3.180927277060468],[101.6099654,3.1807672964836886],[101.61078389999999,3.181175496483225],[101.61185584630208,3.1809390609652093],[101.61237405469264,3.1812979207218874],[101.61237405469264,3.1809390609652093],[101.6128922630832,3.1809390609652093],[101.6128922630832,3.1813315812197365],[101.61496509664543,3.1813315812197365],[101.61496509664543,3.181724101619736],[101.6159103,3.181549296482822],[101.61572949999999,3.18122029648318],[101.6161971,3.1810723964833696],[101.61637989999998,3.1814640964829435],[101.61496509664543,3.182117229691184],[101.61496509664543,3.1825091428562278],[101.61703793020769,3.182116622165227]],[[101.61074039999998,3.1767652964880146],[101.6109095,3.1766003964881713],[101.6108742,3.1767900964879576],[101.61074039999998,3.1767652964880146]],[[101.612008,3.177196896487522],[101.61241930000001,3.177471996487226],[101.6119926,3.177837496486842],[101.61170649999998,3.1776460964870332],[101.612008,3.177196896487522]]],[[[101.6115413,3.168011696497476],[101.61133763791152,3.1672009435643607],[101.61098207725193,3.1672009435643607],[101.6115413,3.168011696497476]]],[[[101.61392867986433,3.1825091428562278],[101.61392867986433,3.182901663692755],[101.61444688825488,3.182901663692755],[101.61444688825488,3.1825091428562278],[101.61392867986433,3.1825091428562278]]]]},"properties":{"place_id":"6cbc4c02-a823-59c5-81ab-a3f9ffc62539","habitat":"forest_interior","habitat_label":"Forest interior","resolution_m":50}},{"type":"Feature","geometry":{"type":"MultiPolygon","coordinates":[[[[101.60822838756815,3.166415913650086],[101.60874659595872,3.1672009435643607],[101.60926480434927,3.1672009435643607],[101.60926480434927,3.1668084285348206],[101.61081942952096,3.1668084285348206],[101.61133763791152,3.1672881904583394],[101.61170899999999,3.1665119964990587],[101.61144729999998,3.166024396499619],[101.60944079999999,3.166740196498841],[101.6085616,3.166691196498901],[101.6085991,3.166147096499473],[101.60774801520705,3.166415913650086],[101.60822838756815,3.166415913650086]],[[101.61081942952096,3.166415913650086],[101.61133763791152,3.166415913650086],[101.61133763791152,3.1668084285348206],[101.61081942952096,3.1668084285348206],[101.61081942952096,3.166415913650086]]],[[[101.61133763791152,3.167593458738722],[101.61136819056274,3.167593458738722],[101.61133763791152,3.167381287546878],[101.61133763791152,3.167593458738722]]],[[[101.61150792516803,3.167593458738722],[101.61158129999998,3.1673679964981414],[101.6115282,3.1671672964983593],[101.61150792516803,3.167593458738722]]],[[[101.60719197078703,3.167593458738722],[101.60719197078703,3.1672009435643607],[101.60771017917759,3.1672009435643607],[101.60771017917759,3.1664557106028326],[101.60674244126521,3.167593458738722],[101.60719197078703,3.167593458738722]]],[[[101.60667376239648,3.1676830756431693],[101.60617269999999,3.1683368964971117],[101.60719197078703,3.1683132590914167],[101.60667376239648,3.1676830756431693]]],[[[101.60729164208118,3.1683784895219818],[101.60771017917759,3.170248097775381],[101.60771017917759,3.169948552827161],[101.60822838756815,3.169948552827161],[101.60822838756815,3.1691635208847466],[101.60771017917759,3.1691635208847466],[101.60771017917759,3.1683784895219818],[101.60729164208118,3.1683784895219818]]],[[[101.60719197078703,3.175443792666403],[101.60719197078703,3.1750512745918043],[101.60771017917759,3.1750512745918043],[101.60771017917759,3.174266238878141],[101.60822838756815,3.174266238878141],[101.60822838756815,3.172793776658431],[101.607582,3.1745818964903725],[101.60675027306819,3.175443792666403],[101.60719197078703,3.175443792666403]]],[[[101.60822838756815,3.1703410690157816],[101.6077309920281,3.1703410690157816],[101.60822838756815,3.1725629429817377],[101.60822838756815,3.1703410690157816]]],[[[101.61185584630208,3.1734812037450677],[101.61133763791152,3.1734812037450677],[101.61185584630208,3.174427836091848],[101.61237405469264,3.174266238878141],[101.61185584630208,3.1734812037450677]]],[[[101.61107473722939,3.173873721239039],[101.61081942952096,3.174266238878141],[101.61096971941078,3.174266238878141],[101.61107473722939,3.173873721239039]]],[[[101.6108478934005,3.1750512745918043],[101.61081942952096,3.175443792666403],[101.61093799069971,3.175443792666403],[101.6108478934005,3.1750512745918043]]],[[[101.61133763791152,3.1758363108862038],[101.61185584630208,3.175560593133677],[101.61133763791152,3.1756207402423713],[101.61133763791152,3.1758363108862038]]],[[[101.60822838756815,3.1777989041638657],[101.60771017917759,3.177013866416996],[101.6071791162557,3.177013866416996],[101.60785676800741,3.1777989041638657],[101.60822838756815,3.1777989041638657]]],[[[101.60760510000001,3.18025959648422],[101.60723039418268,3.1801540208925045],[101.6072076,3.1802082964842953],[101.60760510000001,3.18025959648422]]],[[[101.60874659595872,3.1805465408561395],[101.6077418,3.1808157964836274],[101.60874659595872,3.180927277060468],[101.60874659595872,3.1805465408561395]]],[[[101.60926480434927,3.1809390609652093],[101.60885283953402,3.1809390609652093],[101.60926480434927,3.180984753650698],[101.60926480434927,3.1809390609652093]]],[[[101.61030122113038,3.1809390609652093],[101.61019958672989,3.1809390609652093],[101.61030122113038,3.1810136048223603],[101.61030122113038,3.1809390609652093]]],[[[101.61185584630208,3.1809390609652093],[101.61122208558798,3.1809390609652093],[101.61185584630208,3.1812093149357104],[101.61185584630208,3.1809390609652093]]],[[[101.61081942952096,3.1809390609652093],[101.61081942952096,3.181140145917926],[101.6110215324514,3.1809390609652093],[101.61081942952096,3.1809390609652093]]],[[[101.61185584630208,3.1683784895219818],[101.61237405469264,3.1683784895219818],[101.61237405469264,3.1687710051309175],[101.61288412231316,3.1687710051309175],[101.61185584630208,3.1677389296809437],[101.61185584630208,3.1683784895219818]]],[[[101.6128922630832,3.1691635208847466],[101.61335101887117,3.1691635208847466],[101.6128922630832,3.1687759704232623],[101.6128922630832,3.1691635208847466]]],[[[101.61382538205129,3.169556036783489],[101.6134924,3.1693213964960507],[101.61341047147376,3.1692299096287866],[101.61341047147376,3.169556036783489],[101.61382538205129,3.169556036783489]]],[[[101.61392867986433,3.169948552827161],[101.61438240812836,3.169948552827161],[101.61392867986433,3.1696288269892996],[101.61392867986433,3.169948552827161]]],[[[101.61444688825488,3.1703410690157816],[101.61341047147376,3.1703410690157816],[101.61341047147376,3.1706201064802535],[101.61443759999999,3.170432296494848],[101.61464599999998,3.1701342964951698],[101.61444688825488,3.169993989639568],[101.61444688825488,3.1703410690157816]]],[[[101.6128922630832,3.1707335853493697],[101.6128922630832,3.1715186184515174],[101.61309205428876,3.1715186184515174],[101.61333219999999,3.1710094964942193],[101.6128922630832,3.1707335853493697]]],[[[101.61237405469264,3.1723036521337478],[101.61315788451492,3.1730886863962073],[101.61279524121115,3.1723036521337478],[101.61237405469264,3.1723036521337478]]],[[[101.6128922630832,3.1734812037450677],[101.6128922630832,3.174266238878141],[101.61496465227889,3.1750512745918043],[101.61337758099752,3.1734812037450677],[101.6128922630832,3.1734812037450677]]],[[[101.61237405469264,3.175443792666403],[101.61211846616484,3.1750512745918043],[101.61198297965976,3.175443792666403],[101.61237405469264,3.175443792666403]]],[[[101.61496509664543,3.175443792666403],[101.61533077303875,3.175443792666403],[101.61496509664543,3.175051750997118],[101.61496509664543,3.175443792666403]]],[[[101.615483305036,3.1755579870239847],[101.61600151342657,3.1758363108862038],[101.61651972181713,3.1777989041638657],[101.61703793020769,3.1777989041638657],[101.61703793020769,3.1781914232552575],[101.61600151342657,3.1781914232552575],[101.61600151342657,3.178583942491977],[101.615483305036,3.178583942491977],[101.615483305036,3.1797615010742897],[101.61597958821197,3.1797615010742897],[101.6160872,3.1787651964858368],[101.6173811,3.1783052964863328],[101.6174608,3.177838796486854],[101.6167322,3.177765896486896],[101.61628819999999,3.1758308964890203],[101.615483305036,3.1755579870239847]]],[[[101.61600151342657,3.1801540208925045],[101.6162084,3.1799745964845165],[101.61600151342657,3.1798325744648945],[101.61600151342657,3.1801540208925045]]],[[[101.61651972181713,3.1805465408561395],[101.61663817729921,3.1805465408561395],[101.61651972181713,3.1804433185294294],[101.61651972181713,3.1805465408561395]]],[[[101.615483305036,3.182116622165227],[101.615483305036,3.1819663464305514],[101.61496705350756,3.182116622165227],[101.615483305036,3.182116622165227]]],[[[101.61533402258789,3.181724101619736],[101.61496509664543,3.1813315812197365],[101.6128922630832,3.1813315812197365],[101.6128922630832,3.1809390609652093],[101.61237405469264,3.1809390609652093],[101.6129554,3.1815987964827785],[101.61413229999998,3.1815558964828474],[101.6142102,3.1820649964822776],[101.61533402258789,3.181724101619736]]],[[[101.61703793020769,3.182116622165227],[101.61600151342657,3.182116622165227],[101.61600151342657,3.1825091428562278],[101.61496509664543,3.1825091428562278],[101.61496509664543,3.182117229691184],[101.61140769999997,3.182783496481518],[101.6105157,3.1822627964820325],[101.61127160000001,3.182927196481339],[101.61246249999999,3.1830556964812216],[101.61253759999997,3.183505696480721],[101.61746209999998,3.182540496481745],[101.6178889,3.182349896481967],[101.6173654,3.1805639964838845],[101.61703793020769,3.180604189804298],[101.61703793020769,3.182116622165227]],[[101.61444688825488,3.1825091428562278],[101.61444688825488,3.182901663692755],[101.61392867986433,3.182901663692755],[101.61392867986433,3.1825091428562278],[101.61444688825488,3.1825091428562278]]]]},"properties":{"place_id":"6cbc4c02-a823-59c5-81ab-a3f9ffc62539","habitat":"forest_edge_opening","habitat_label":"Forest edge or opening","resolution_m":50}},{"type":"Feature","geometry":{"type":"MultiPolygon","coordinates":[[[[101.60771017917759,3.169556036783489],[101.60764312203871,3.169948552827161],[101.60771017917759,3.169948552827161],[101.60771017917759,3.169556036783489]]],[[[101.6128922630832,3.1726961691924394],[101.61297656286304,3.1726961691924394],[101.6128922630832,3.172513680755144],[101.6128922630832,3.1726961691924394]]],[[[101.61341047147376,3.174266238878141],[101.61392867986433,3.174266238878141],[101.61341047147376,3.173525794208389],[101.61341047147376,3.174266238878141]]],[[[101.61444688825488,3.17465875666239],[101.61456033873924,3.17465875666239],[101.61444688825488,3.174586200346275],[101.61444688825488,3.17465875666239]]],[[[101.60771017917759,3.1774063852177847],[101.6075174420629,3.1774063852177847],[101.60771017917759,3.17762999500895],[101.60771017917759,3.1774063852177847]]]]},"properties":{"place_id":"6cbc4c02-a823-59c5-81ab-a3f9ffc62539","habitat":"open_grassland","habitat_label":"Open grassland or shrubland","resolution_m":50}},{"type":"Feature","geometry":{"type":"MultiPolygon","coordinates":[[[[101.60822838756815,3.166415913650086],[101.60874659595872,3.1672009435643607],[101.60926480434927,3.1672009435643607],[101.60926480434927,3.1668084285348206],[101.61081942952096,3.1668084285348206],[101.61133763791152,3.1672881904583394],[101.61170899999999,3.1665119964990587],[101.61144729999998,3.166024396499619],[101.60944079999999,3.166740196498841],[101.6085616,3.166691196498901],[101.6085991,3.166147096499473],[101.60774801520705,3.166415913650086],[101.60822838756815,3.166415913650086]],[[101.61081942952096,3.166415913650086],[101.61133763791152,3.166415913650086],[101.61133763791152,3.1668084285348206],[101.61081942952096,3.1668084285348206],[101.61081942952096,3.166415913650086]]],[[[101.61133763791152,3.167593458738722],[101.61136819056274,3.167593458738722],[101.61133763791152,3.167381287546878],[101.61133763791152,3.167593458738722]]],[[[101.61150792516803,3.167593458738722],[101.61158129999998,3.1673679964981414],[101.6115282,3.1671672964983593],[101.61150792516803,3.167593458738722]]],[[[101.60719197078703,3.167593458738722],[101.60719197078703,3.1672009435643607],[101.60771017917759,3.1672009435643607],[101.60771017917759,3.1664557106028326],[101.60674244126521,3.167593458738722],[101.60719197078703,3.167593458738722]]],[[[101.60719197078703,3.167985974057922],[101.60667376239648,3.167985974057922],[101.60667376239648,3.1676830756431693],[101.60617269999999,3.1683368964971117],[101.60719197078703,3.1683132590914167],[101.60719197078703,3.167985974057922]]],[[[101.60729164208118,3.1683784895219818],[101.60771017917759,3.170248097775381],[101.60771017917759,3.169556036783489],[101.60822838756815,3.169556036783489],[101.60822838756815,3.1691635208847466],[101.60771017917759,3.1691635208847466],[101.60771017917759,3.1683784895219818],[101.60729164208118,3.1683784895219818]]],[[[101.60719197078703,3.175443792666403],[101.60719197078703,3.1750512745918043],[101.60771017917759,3.1750512745918043],[101.60771017917759,3.174266238878141],[101.60822838756815,3.174266238878141],[101.60822838756815,3.172793776658431],[101.607582,3.1745818964903725],[101.60675027306819,3.175443792666403],[101.60719197078703,3.175443792666403]]],[[[101.60822838756815,3.1703410690157816],[101.6077309920281,3.1703410690157816],[101.60822838756815,3.1725629429817377],[101.60822838756815,3.1703410690157816]]],[[[101.6108478934005,3.1750512745918043],[101.61081942952096,3.175443792666403],[101.61093799069971,3.175443792666403],[101.6108478934005,3.1750512745918043]]],[[[101.61185584630208,3.175560593133677],[101.61133763791152,3.1756207402423713],[101.61133763791152,3.1758363108862038],[101.61185584630208,3.1758363108862038],[101.61185584630208,3.175560593133677]]],[[[101.60760510000001,3.18025959648422],[101.60723039418268,3.1801540208925045],[101.6072076,3.1802082964842953],[101.60760510000001,3.18025959648422]]],[[[101.60874659595872,3.1805465408561395],[101.60783979483514,3.1805465408561395],[101.6077418,3.1808157964836274],[101.60874659595872,3.180927277060468],[101.60874659595872,3.1805465408561395]]],[[[101.60926480434927,3.1809390609652093],[101.60885283953402,3.1809390609652093],[101.60926480434927,3.180984753650698],[101.60926480434927,3.1809390609652093]]],[[[101.61030122113038,3.1809390609652093],[101.61019958672989,3.1809390609652093],[101.61030122113038,3.1810136048223603],[101.61030122113038,3.1809390609652093]]],[[[101.61185584630208,3.1809390609652093],[101.61122208558798,3.1809390609652093],[101.61185584630208,3.1812093149357104],[101.61185584630208,3.1809390609652093]]],[[[101.61081942952096,3.1809390609652093],[101.61081942952096,3.181140145917926],[101.6110215324514,3.1809390609652093],[101.61081942952096,3.1809390609652093]]],[[[101.61237405469264,3.1683784895219818],[101.61237405469264,3.1687710051309175],[101.61288412231316,3.1687710051309175],[101.61185584630208,3.1677389296809437],[101.61185584630208,3.1683784895219818],[101.61237405469264,3.1683784895219818]]],[[[101.61335101887117,3.1691635208847466],[101.61313839999998,3.1689260964964965],[101.6128922630832,3.1687759704232623],[101.6128922630832,3.1691635208847466],[101.61335101887117,3.1691635208847466]]],[[[101.61341047147376,3.169556036783489],[101.61382538205129,3.169556036783489],[101.61341047147376,3.1692299096287866],[101.61341047147376,3.169556036783489]]],[[[101.61392867986433,3.169948552827161],[101.61438240812836,3.169948552827161],[101.61392867986433,3.1696288269892996],[101.61392867986433,3.169948552827161]]],[[[101.61444688825488,3.1703410690157816],[101.61341047147376,3.1703410690157816],[101.61341047147376,3.1706201064802535],[101.61443759999999,3.170432296494848],[101.61464599999998,3.1701342964951698],[101.61444688825488,3.169993989639568],[101.61444688825488,3.1703410690157816]]],[[[101.6128922630832,3.1715186184515174],[101.61333219999999,3.1710094964942193],[101.6128922630832,3.1707335853493697],[101.6128922630832,3.1715186184515174]]],[[[101.61185584630208,3.1734812037450677],[101.61133763791152,3.1734812037450677],[101.61185584630208,3.174427836091848],[101.61237405469264,3.174266238878141],[101.61185584630208,3.1734812037450677]]],[[[101.61107473722939,3.173873721239039],[101.61081942952096,3.174266238878141],[101.61096971941078,3.174266238878141],[101.61107473722939,3.173873721239039]]],[[[101.61341047147376,3.174266238878141],[101.61392867986433,3.174266238878141],[101.61392867986433,3.17465875666239],[101.61456033873924,3.17465875666239],[101.61366710669944,3.173873721239039],[101.61341047147376,3.174266238878141]]],[[[101.61237405469264,3.175443792666403],[101.61237405469264,3.1750512745918043],[101.61211846616484,3.1750512745918043],[101.61198297965976,3.175443792666403],[101.61237405469264,3.175443792666403]]],[[[101.61600151342657,3.1766213477614813],[101.61651972181713,3.1766213477614813],[101.61651972181713,3.1777989041638657],[101.61703793020769,3.1777989041638657],[101.61651972181713,3.17847821566287],[101.6173811,3.1783052964863328],[101.6174608,3.177838796486854],[101.6167322,3.177765896486896],[101.6167307,3.176790696487961],[101.61600151342657,3.1757570809998463],[101.61600151342657,3.1766213477614813]]],[[[101.61703793020769,3.182116622165227],[101.61600151342657,3.182116622165227],[101.61600151342657,3.1825091428562278],[101.61496509664543,3.1825091428562278],[101.61496509664543,3.182117229691184],[101.61140769999997,3.182783496481518],[101.6105157,3.1822627964820325],[101.61127160000001,3.182927196481339],[101.61246249999999,3.1830556964812216],[101.61253759999997,3.183505696480721],[101.61746209999998,3.182540496481745],[101.6178889,3.182349896481967],[101.6173654,3.1805639964838845],[101.61703793020769,3.180604189804298],[101.61703793020769,3.182116622165227]],[[101.61444688825488,3.1825091428562278],[101.61444688825488,3.182901663692755],[101.61392867986433,3.182901663692755],[101.61392867986433,3.1825091428562278],[101.61444688825488,3.1825091428562278]]],[[[101.615483305036,3.182116622165227],[101.615483305036,3.1819663464305514],[101.61496705350756,3.182116622165227],[101.615483305036,3.182116622165227]]],[[[101.61533402258789,3.181724101619736],[101.61496509664543,3.1813315812197365],[101.6128922630832,3.1813315812197365],[101.6128922630832,3.1809390609652093],[101.61237405469264,3.1809390609652093],[101.6129554,3.1815987964827785],[101.61413229999998,3.1815558964828474],[101.6142102,3.1820649964822776],[101.61533402258789,3.181724101619736]]]]},"properties":{"place_id":"6cbc4c02-a823-59c5-81ab-a3f9ffc62539","habitat":"disturbed_built_edge","habitat_label":"Disturbed, bare or built edge","resolution_m":50}},{"type":"Feature","geometry":{"type":"Polygon","coordinates":[[[101.61600151342657,3.178583942491977],[101.61600151342657,3.178990711173101],[101.61631360334172,3.178583942491977],[101.61600151342657,3.178583942491977]]]},"properties":{"place_id":"6cbc4c02-a823-59c5-81ab-a3f9ffc62539","habitat":"permanent_water","habitat_label":"Permanent water","resolution_m":50}},{"type":"Feature","geometry":{"type":"MultiPolygon","coordinates":[[[[101.6085805728093,3.166415913650086],[101.6080207,3.1661290964995046],[101.60771017917759,3.1668084285348206],[101.60822838756815,3.1668084285348206],[101.6085805728093,3.166415913650086]]],[[[101.6120758176825,3.167985974057922],[101.61185584630208,3.1677389296809437],[101.61185584630208,3.167985974057922],[101.6120758176825,3.167985974057922]]],[[[101.61237405469264,3.1683784895219818],[101.61242531821989,3.1683784895219818],[101.61237405469264,3.1683209167053263],[101.61237405469264,3.1683784895219818]]],[[[101.61297656286304,3.1726961691924394],[101.61237405469264,3.1734812037450677],[101.61392867986433,3.174266238878141],[101.61297656286304,3.1726961691924394]]],[[[101.61444688825488,3.17465875666239],[101.61392867986433,3.17465875666239],[101.61392867986433,3.1750512745918043],[101.615483305036,3.1758363108862038],[101.61444688825488,3.17465875666239]]],[[[101.61600151342657,3.178583942491977],[101.6173811,3.1783052964863328],[101.6174608,3.177838796486854],[101.61600151342657,3.1777989041638657],[101.61600151342657,3.1781914232552575],[101.61496509664543,3.178583942491977],[101.61496509664543,3.1797615010742897],[101.615483305036,3.1797615010742897],[101.615483305036,3.1801540208925045],[101.61755613859823,3.1813315812197365],[101.61750569999998,3.180658696483768],[101.61634439999999,3.1804200964840423],[101.61602769999999,3.1798823964846314],[101.61600151342657,3.178583942491977]]]]},"properties":{"place_id":"6cbc4c02-a823-59c5-81ab-a3f9ffc62539","habitat":"water_edge","habitat_label":"Water edge","resolution_m":50}}]}