{"type":"FeatureCollection","metadata":{"schema_version":1,"place_id":"6cf3a9a0-b34a-5aef-994d-458908eb5dbc","place_name":"USJ4 Park","place_type":"park","osm_reference":"way/222425102","protection_context":"no protected status confirmed from included OSM tags","resolution_m":50,"raster_coverage":1.0,"interpretation":"Suggested search habitats, not predicted plant locations or probabilities of presence."},"features":[{"type":"Feature","geometry":{"type":"Polygon","coordinates":[[[101.5760994673534,3.0486679038998217],[101.5760994673534,3.0482754317788916],[101.57558125896284,3.0482754317788916],[101.57558125896284,3.0486679038998217],[101.5760994673534,3.0486679038998217]]]},"properties":{"place_id":"6cf3a9a0-b34a-5aef-994d-458908eb5dbc","habitat":"forest_interior","habitat_label":"Forest interior","resolution_m":50}},{"type":"Feature","geometry":{"type":"Polygon","coordinates":[[[101.57402959999999,3.047967396627362],[101.57416379999998,3.0488646966263877],[101.57632559999998,3.048878096626368],[101.576331,3.0479566966273497],[101.57402959999999,3.047967396627362]],[[101.57558125896284,3.0482754317788916],[101.5760994673534,3.0482754317788916],[101.5760994673534,3.0486679038998217],[101.57558125896284,3.0486679038998217],[101.57558125896284,3.0482754317788916]]]},"properties":{"place_id":"6cf3a9a0-b34a-5aef-994d-458908eb5dbc","habitat":"forest_edge_opening","habitat_label":"Forest edge or opening","resolution_m":50}},{"type":"Feature","geometry":{"type":"Polygon","coordinates":[[[101.57402959999999,3.047967396627362],[101.57416379999998,3.0488646966263877],[101.57632559999998,3.048878096626368],[101.576331,3.0479566966273497],[101.57402959999999,3.047967396627362]],[[101.57558125896284,3.0482754317788916],[101.5760994673534,3.0482754317788916],[101.5760994673534,3.0486679038998217],[101.57558125896284,3.0486679038998217],[101.57558125896284,3.0482754317788916]]]},"properties":{"place_id":"6cf3a9a0-b34a-5aef-994d-458908eb5dbc","habitat":"disturbed_built_edge","habitat_label":"Disturbed, bare or built edge","resolution_m":50}}]}