{"type":"FeatureCollection","metadata":{"schema_version":1,"place_id":"6d463b82-a116-5578-b509-f4dd906df2ce","place_name":"Taman Pertabalan","place_type":"park","osm_reference":"way/205764387","protection_context":"no protected status confirmed from included OSM tags","resolution_m":50,"raster_coverage":1.0,"interpretation":"Suggested search habitats, not predicted plant locations or probabilities of presence."},"features":[{"type":"Feature","geometry":{"type":"MultiPolygon","coordinates":[[[[101.37969848733091,4.470866824088194],[101.37969848733091,4.470816387138564],[101.37963712090584,4.470866824088194],[101.37969848733091,4.470866824088194]]],[[[101.38021669572147,4.470679048417725],[101.38068150076104,4.470866824088194],[101.3806336,4.470521595112321],[101.38021669572147,4.470679048417725]]],[[[101.37951142749836,4.471259920031763],[101.38046029999998,4.471518795111273],[101.38073490411202,4.471475336216544],[101.38021669572147,4.470866824088194],[101.37969848733091,4.470866824088194],[101.37951142749836,4.471259920031763]]]]},"properties":{"place_id":"6d463b82-a116-5578-b509-f4dd906df2ce","habitat":"forest_edge_opening","habitat_label":"Forest edge or opening","resolution_m":50}},{"type":"Feature","geometry":{"type":"Polygon","coordinates":[[[101.37969848733091,4.470866824088194],[101.37969848733091,4.471259920031763],[101.38073490411202,4.471475336216544],[101.38068150076104,4.470866824088194],[101.37969848733091,4.470866824088194]]]},"properties":{"place_id":"6d463b82-a116-5578-b509-f4dd906df2ce","habitat":"open_grassland","habitat_label":"Open grassland or shrubland","resolution_m":50}},{"type":"Feature","geometry":{"type":"Polygon","coordinates":[[[101.37937830000001,4.471115895111708],[101.38046029999998,4.471518795111273],[101.3810268,4.471213095111593],[101.3806336,4.470521595112321],[101.37937830000001,4.471115895111708]]]},"properties":{"place_id":"6d463b82-a116-5578-b509-f4dd906df2ce","habitat":"disturbed_built_edge","habitat_label":"Disturbed, bare or built edge","resolution_m":50}}]}