{"type":"FeatureCollection","metadata":{"schema_version":1,"place_id":"6d716307-1b80-5296-8b84-d7b206462b62","place_name":"Rizab Kawasan Lapang dan Rekreasi","place_type":"park","osm_reference":"way/723230215","protection_context":"no protected status confirmed from included OSM tags","resolution_m":50,"raster_coverage":1.0,"interpretation":"Suggested search habitats, not predicted plant locations or probabilities of presence."},"features":[{"type":"Feature","geometry":{"type":"Polygon","coordinates":[[[101.71403488080274,3.13697770866215],[101.71446110763307,3.137252569014463],[101.71497931602364,3.1362731408584836],[101.7145989,3.136216596531811],[101.71403488080274,3.13697770866215]]]},"properties":{"place_id":"6d716307-1b80-5296-8b84-d7b206462b62","habitat":"forest_edge_opening","habitat_label":"Forest edge or opening","resolution_m":50}},{"type":"Feature","geometry":{"type":"Polygon","coordinates":[[[101.71443649999999,3.1372887965306466],[101.71511289999998,3.136292996531732],[101.7145989,3.136216596531811],[101.7140237,3.13699279653099],[101.71443649999999,3.1372887965306466]]]},"properties":{"place_id":"6d716307-1b80-5296-8b84-d7b206462b62","habitat":"disturbed_built_edge","habitat_label":"Disturbed, bare or built edge","resolution_m":50}}]}