{"type":"FeatureCollection","metadata":{"schema_version":1,"place_id":"6d8aea54-dd8c-5394-969f-7b947dbb1642","place_name":"Taman Desa Recreational Ground","place_type":"park","osm_reference":"way/323488612","protection_context":"no protected status confirmed from included OSM tags","resolution_m":50,"raster_coverage":1.0,"interpretation":"Suggested search habitats, not predicted plant locations or probabilities of presence."},"features":[{"type":"Feature","geometry":{"type":"Polygon","coordinates":[[[101.6830465247658,3.1008679449096186],[101.68336860419944,3.1016529269639723],[101.6847339,3.101284896569618],[101.6842358,3.100372296570603],[101.6830465247658,3.1008679449096186]]]},"properties":{"place_id":"6d8aea54-dd8c-5394-969f-7b947dbb1642","habitat":"forest_edge_opening","habitat_label":"Forest edge or opening","resolution_m":50}},{"type":"Feature","geometry":{"type":"Polygon","coordinates":[[[101.68388681259,3.1012604358659046],[101.68440502098056,3.1012604358659046],[101.68433881705408,3.1004754540950974],[101.68388681259,3.1005177243471396],[101.68388681259,3.1012604358659046]]]},"properties":{"place_id":"6d8aea54-dd8c-5394-969f-7b947dbb1642","habitat":"open_grassland","habitat_label":"Open grassland or shrubland","resolution_m":50}},{"type":"Feature","geometry":{"type":"Polygon","coordinates":[[[101.6828089,3.100966996569971],[101.68337609999999,3.1019955965688646],[101.68475059999999,3.1012293965696838],[101.6842358,3.100372296570603],[101.6828089,3.100966996569971]]]},"properties":{"place_id":"6d8aea54-dd8c-5394-969f-7b947dbb1642","habitat":"disturbed_built_edge","habitat_label":"Disturbed, bare or built edge","resolution_m":50}}]}