{"type":"FeatureCollection","metadata":{"schema_version":1,"place_id":"6dd45ff2-8268-51e3-9e3d-d8411224c77c","place_name":"Taman Rekreasi Gunung Keriang","place_type":"park","osm_reference":"way/1313493546","protection_context":"no protected status confirmed from included OSM tags","resolution_m":50,"raster_coverage":1.0,"interpretation":"Suggested search habitats, not predicted plant locations or probabilities of presence."},"features":[{"type":"Feature","geometry":{"type":"Polygon","coordinates":[[[100.33308219181276,6.186182127140217],[100.33343574678898,6.186576293161753],[100.33395395517954,6.186576293161753],[100.33395395517954,6.186970459469447],[100.33343574678898,6.186970459469447],[100.33343574678898,6.187364626063319],[100.33395395517954,6.187364626063319],[100.33395395517954,6.187758792943387],[100.33350773192625,6.187758792943387],[100.33389150000001,6.189180693371228],[100.3344721635701,6.1892427916711075],[100.33499037196066,6.188547127562184],[100.33602678874179,6.188941295300952],[100.33550858035123,6.187364626063319],[100.3344721635701,6.186970459469447],[100.3344721635701,6.186036523882041],[100.33395395517954,6.185393795955544],[100.33343574678898,6.185393795955544],[100.3331646,6.184731493375598],[100.3328454,6.185304793375025],[100.33308219181276,6.186182127140217]]]},"properties":{"place_id":"6dd45ff2-8268-51e3-9e3d-d8411224c77c","habitat":"forest_interior","habitat_label":"Forest interior","resolution_m":50}},{"type":"Feature","geometry":{"type":"MultiPolygon","coordinates":[[[[100.33343574678898,6.185393795955544],[100.33395395517954,6.185393795955544],[100.33395395517954,6.18578796140482],[100.33423988402109,6.18578796140482],[100.33415880000001,6.185701193374636],[100.33397729999999,6.1854167933749125],[100.333811,6.18521279337512],[100.33343574678898,6.184890716008348],[100.33343574678898,6.185393795955544]]],[[[100.33343574678898,6.187364626063319],[100.33395395517954,6.186576293161753],[100.33308219181276,6.186182127140217],[100.33350773192625,6.187758792943387],[100.33395395517954,6.187758792943387],[100.33395395517954,6.187364626063319],[100.33343574678898,6.187364626063319]]],[[[100.3344721635701,6.186970459469447],[100.33550858035123,6.187364626063319],[100.33550858035123,6.188152960109669],[100.33583113934245,6.188152960109669],[100.3355384,6.187390093372981],[100.3344721635701,6.186036523882041],[100.3344721635701,6.186970459469447]]],[[[100.33602678874179,6.188699225997777],[100.33550858035123,6.188941295300952],[100.33550858035123,6.188547127562184],[100.33499037196066,6.188547127562184],[100.3353989,6.189617993370829],[100.3361808,6.189676693370731],[100.33602678874179,6.188699225997777]]],[[[100.33457527891466,6.188941295300952],[100.3344721635701,6.1892427916711075],[100.33480599999999,6.189278493371143],[100.33457527891466,6.188941295300952]]]]},"properties":{"place_id":"6dd45ff2-8268-51e3-9e3d-d8411224c77c","habitat":"forest_edge_opening","habitat_label":"Forest edge or opening","resolution_m":50}},{"type":"Feature","geometry":{"type":"MultiPolygon","coordinates":[[[[100.33343574678898,6.186970459469447],[100.33318857684112,6.186576293161753],[100.33329496186951,6.186970459469447],[100.33343574678898,6.186970459469447]]],[[[100.33343574678898,6.187364626063319],[100.33340134689787,6.187364626063319],[100.33343574678898,6.187492080975216],[100.33343574678898,6.187364626063319]]]]},"properties":{"place_id":"6dd45ff2-8268-51e3-9e3d-d8411224c77c","habitat":"open_grassland","habitat_label":"Open grassland or shrubland","resolution_m":50}},{"type":"Feature","geometry":{"type":"MultiPolygon","coordinates":[[[[100.33343574678898,6.185393795955544],[100.33395395517954,6.185393795955544],[100.33395395517954,6.18578796140482],[100.33423988402109,6.18578796140482],[100.33415880000001,6.185701193374636],[100.33397729999999,6.1854167933749125],[100.333811,6.18521279337512],[100.33343574678898,6.184890716008348],[100.33343574678898,6.185393795955544]]],[[[100.3344721635701,6.186970459469447],[100.33550858035123,6.187364626063319],[100.33550858035123,6.188152960109669],[100.33583113934245,6.188152960109669],[100.3355384,6.187390093372981],[100.3344721635701,6.186036523882041],[100.3344721635701,6.186970459469447]]],[[[100.33602678874179,6.188699225997777],[100.33550858035123,6.188941295300952],[100.33550858035123,6.188547127562184],[100.33499037196066,6.188547127562184],[100.3353989,6.189617993370829],[100.3361808,6.189676693370731],[100.33602678874179,6.188699225997777]]],[[[100.33457527891466,6.188941295300952],[100.3344721635701,6.1892427916711075],[100.33480599999999,6.189278493371143],[100.33457527891466,6.188941295300952]]]]},"properties":{"place_id":"6dd45ff2-8268-51e3-9e3d-d8411224c77c","habitat":"disturbed_built_edge","habitat_label":"Disturbed, bare or built edge","resolution_m":50}}]}