{"type":"FeatureCollection","metadata":{"schema_version":1,"place_id":"6e0729a5-fa44-5916-8447-e32fa5a33c21","place_name":"Adda Height Park","place_type":"park","osm_reference":"way/760478125","protection_context":"no protected status confirmed from included OSM tags","resolution_m":50,"raster_coverage":1.0,"interpretation":"Suggested search habitats, not predicted plant locations or probabilities of presence."},"features":[{"type":"Feature","geometry":{"type":"MultiPolygon","coordinates":[[[[103.74376516506857,1.5549783285498386],[103.743246956678,1.5549783285498386],[103.74306024607019,1.5541941845059215],[103.743246956678,1.5561545451473775],[103.74428337345911,1.5557624728772852],[103.74376516506857,1.5549783285498386]]],[[[103.74450403894468,1.5549783285498386],[103.74428337345911,1.5553704006781117],[103.74450294429069,1.5553704006781117],[103.74450403894468,1.5549783285498386]]]]},"properties":{"place_id":"6e0729a5-fa44-5916-8447-e32fa5a33c21","habitat":"forest_interior","habitat_label":"Forest interior","resolution_m":50}},{"type":"Feature","geometry":{"type":"MultiPolygon","coordinates":[[[[103.74531979024023,1.5502734685342652],[103.74531979024023,1.5501991063300185],[103.74490471031957,1.5502734685342652],[103.74531979024023,1.5502734685342652]]],[[[103.74635620702136,1.550013430685598],[103.74669129999998,1.5502734685342652],[103.74669129999998,1.5499533982716418],[103.74635620702136,1.550013430685598]]],[[[103.74332246558882,1.5514496825829382],[103.74428337345911,1.5506655398131315],[103.74376516506857,1.5505532430210627],[103.74332246558882,1.5514496825829382]]],[[[103.74428337345911,1.5534100407453901],[103.74428337345911,1.5538021125902417],[103.74376516506857,1.5538021125902417],[103.74376516506857,1.5530179689713501],[103.743246956678,1.5530179689713501],[103.74310873009438,1.5526258972681024],[103.743246956678,1.5549783285498386],[103.74376516506857,1.5549783285498386],[103.74376516506857,1.5553704006781117],[103.74450403894468,1.5549783285498386],[103.74428337345911,1.5534100407453901]]],[[[103.74376516506857,1.5561545451473775],[103.743011762046,1.5557624728772852],[103.74304889999998,1.5564553982644282],[103.74437659999997,1.5564660982643876],[103.74450294429069,1.5553704006781117],[103.74376516506857,1.5561545451473775]]]]},"properties":{"place_id":"6e0729a5-fa44-5916-8447-e32fa5a33c21","habitat":"forest_edge_opening","habitat_label":"Forest edge or opening","resolution_m":50}},{"type":"Feature","geometry":{"type":"Polygon","coordinates":[[[103.74313199999997,1.5518731982695089],[103.743246956678,1.5541941845059215],[103.74376516506857,1.5541941845059215],[103.74376516506857,1.5538021125902417],[103.74450732290659,1.5538021125902417],[103.74422639999999,1.5508059982707145],[103.7456587,1.5508327982706533],[103.74577939999999,1.5503019982712243],[103.74669129999998,1.5503340982712044],[103.74669129999998,1.5499533982716418],[103.74377309999998,1.5504761982710722],[103.74376516506857,1.5514496825829382],[103.74313199999997,1.5518731982695089]]]},"properties":{"place_id":"6e0729a5-fa44-5916-8447-e32fa5a33c21","habitat":"open_grassland","habitat_label":"Open grassland or shrubland","resolution_m":50}},{"type":"Feature","geometry":{"type":"MultiPolygon","coordinates":[[[[103.74480158184967,1.5506655398131315],[103.7456587,1.5508327982706533],[103.74577939999999,1.5503019982712243],[103.74669129999998,1.5503340982712044],[103.74669129999998,1.5499533982716418],[103.74480158184967,1.5502919441581715],[103.74480158184967,1.5506655398131315]]],[[[103.74480158184967,1.5508167605924903],[103.74428337345911,1.5506655398131315],[103.74428337345911,1.550807064310435],[103.74480158184967,1.5508167605924903]]],[[[103.74376516506857,1.551057611162683],[103.74428337345911,1.550384781990287],[103.7436229,1.5506665982708505],[103.74314385573629,1.5518417540739147],[103.74420472127461,1.5522338256356296],[103.74422257975644,1.551057611162683],[103.74376516506857,1.551057611162683]]],[[[103.74428337345911,1.5541941845059215],[103.74450513359865,1.5545862564924475],[103.74450622825262,1.5541941845059215],[103.74428337345911,1.5541941845059215]]],[[[103.74428337345911,1.5557624728772852],[103.74376516506857,1.5557624728772852],[103.74376516506857,1.5561545451473775],[103.743011762046,1.5557624728772852],[103.74304889999998,1.5564553982644282],[103.74437659999997,1.5564660982643876],[103.74428337345911,1.5557624728772852]]]]},"properties":{"place_id":"6e0729a5-fa44-5916-8447-e32fa5a33c21","habitat":"disturbed_built_edge","habitat_label":"Disturbed, bare or built edge","resolution_m":50}},{"type":"Feature","geometry":{"type":"Polygon","coordinates":[[[103.74428337345911,1.5549783285498386],[103.74428337345911,1.5538021125902417],[103.74376516506857,1.5538021125902417],[103.74376516506857,1.5549783285498386],[103.74428337345911,1.5549783285498386]]]},"properties":{"place_id":"6e0729a5-fa44-5916-8447-e32fa5a33c21","habitat":"permanent_water","habitat_label":"Permanent water","resolution_m":50}},{"type":"Feature","geometry":{"type":"Polygon","coordinates":[[[103.74428337345911,1.5549783285498386],[103.74428337345911,1.5541941845059215],[103.74376516506857,1.5541941845059215],[103.74376516506857,1.5549783285498386],[103.74428337345911,1.5549783285498386]]]},"properties":{"place_id":"6e0729a5-fa44-5916-8447-e32fa5a33c21","habitat":"seasonal_water_wetland","habitat_label":"Seasonal water or wetland","resolution_m":50}},{"type":"Feature","geometry":{"type":"Polygon","coordinates":[[[103.743246956678,1.5534100407453901],[103.743246956678,1.5553704006781117],[103.74428337345911,1.5557624728772852],[103.74452511687632,1.5534100407453901],[103.74418206127149,1.5530179689713501],[103.743246956678,1.5534100407453901]],[[103.74376516506857,1.5538021125902417],[103.74428337345911,1.5538021125902417],[103.74428337345911,1.5549783285498386],[103.74376516506857,1.5549783285498386],[103.74376516506857,1.5538021125902417]]]},"properties":{"place_id":"6e0729a5-fa44-5916-8447-e32fa5a33c21","habitat":"water_edge","habitat_label":"Water edge","resolution_m":50}}]}