{"type":"FeatureCollection","metadata":{"schema_version":1,"place_id":"6e4e6839-2359-5808-bbba-1a359af70075","place_name":"Kutien Memorial Park","place_type":"park","osm_reference":"way/551854627","protection_context":"no protected status confirmed from included OSM tags","resolution_m":50,"raster_coverage":1.0,"interpretation":"Suggested search habitats, not predicted plant locations or probabilities of presence."},"features":[{"type":"Feature","geometry":{"type":"MultiPolygon","coordinates":[[[[111.84854439343698,2.272999485480564],[111.84854439343698,2.272977918395784],[111.8485139273682,2.272999485480564],[111.84854439343698,2.272999485480564]]],[[[111.84854439343698,2.272999485480564],[111.84854439343698,2.2733917174628653],[111.84906260182753,2.2733917174628653],[111.84874971193747,2.272999485480564],[111.84854439343698,2.272999485480564]]],[[[111.84854439343698,2.2741761817387247],[111.84854439343698,2.2749606464297147],[111.84869266317027,2.2749606464297147],[111.84906260182753,2.2741761817387247],[111.84854439343698,2.2741761817387247]]]]},"properties":{"place_id":"6e4e6839-2359-5808-bbba-1a359af70075","habitat":"forest_interior","habitat_label":"Forest interior","resolution_m":50}},{"type":"Feature","geometry":{"type":"MultiPolygon","coordinates":[[[[111.84854439343698,2.272999485480564],[111.84874971193747,2.272999485480564],[111.84864259999999,2.2729083974733078],[111.84854439343698,2.272999485480564]]],[[[111.84854439343698,2.2749606464297147],[111.84854439343698,2.2741761817387247],[111.84906260182753,2.2741761817387247],[111.84906260182753,2.2744994179181144],[111.84925679999999,2.2742572974718405],[111.8492422,2.273418297472735],[111.84854439343698,2.2733917174628653],[111.8485139273682,2.272999485480564],[111.84746489999999,2.2737420974723728],[111.84854439343698,2.2749606464297147]]]]},"properties":{"place_id":"6e4e6839-2359-5808-bbba-1a359af70075","habitat":"forest_edge_opening","habitat_label":"Forest edge or opening","resolution_m":50}},{"type":"Feature","geometry":{"type":"MultiPolygon","coordinates":[[[[111.84854439343698,2.272999485480564],[111.84874971193747,2.272999485480564],[111.84864259999999,2.2729083974733078],[111.84854439343698,2.272999485480564]]],[[[111.84802618504641,2.2733917174628653],[111.84802618504641,2.2733447607894117],[111.84795985318509,2.2733917174628653],[111.84802618504641,2.2733917174628653]]],[[[111.84906260182753,2.273616228608022],[111.8492422,2.273418297472735],[111.84906260182753,2.273265567120726],[111.84906260182753,2.273616228608022]]],[[[111.84906260182753,2.273783949548913],[111.84854439343698,2.273783949548913],[111.84906260182753,2.2744994179181144],[111.84925679999999,2.2742572974718405],[111.84906260182753,2.273783949548913]]],[[[111.84750797665585,2.273783949548913],[111.84844269999998,2.2751252974708747],[111.84856789999999,2.2751161974708896],[111.84854439343698,2.2741761817387247],[111.84750797665585,2.273783949548913]]]]},"properties":{"place_id":"6e4e6839-2359-5808-bbba-1a359af70075","habitat":"disturbed_built_edge","habitat_label":"Disturbed, bare or built edge","resolution_m":50}},{"type":"Feature","geometry":{"type":"Polygon","coordinates":[[[111.84854439343698,2.2741761817387247],[111.84854439343698,2.2733917174628653],[111.84802618504641,2.2733917174628653],[111.84802618504641,2.2741761817387247],[111.84854439343698,2.2741761817387247]]]},"properties":{"place_id":"6e4e6839-2359-5808-bbba-1a359af70075","habitat":"seasonal_water_wetland","habitat_label":"Seasonal water or wetland","resolution_m":50}},{"type":"Feature","geometry":{"type":"Polygon","coordinates":[[[111.84746489999999,2.2737420974723728],[111.84854439343698,2.2749606464297147],[111.84854439343698,2.2745684140323204],[111.84906260182753,2.2744994179181144],[111.8492422,2.273418297472735],[111.84874971193747,2.272999485480564],[111.84854439343698,2.272977918395784],[111.84746489999999,2.2737420974723728]],[[111.84802618504641,2.2733917174628653],[111.84854439343698,2.2733917174628653],[111.84854439343698,2.2741761817387247],[111.84802618504641,2.2741761817387247],[111.84802618504641,2.2733917174628653]]]},"properties":{"place_id":"6e4e6839-2359-5808-bbba-1a359af70075","habitat":"water_edge","habitat_label":"Water edge","resolution_m":50}}]}