{"type":"FeatureCollection","metadata":{"schema_version":1,"place_id":"6f87b5df-8a71-5a58-9aae-9c662483fc7f","place_name":"Playground & Soccer Field Taman Bukit Ampangan","place_type":"park","osm_reference":"way/577205604","protection_context":"no protected status confirmed from included OSM tags","resolution_m":50,"raster_coverage":1.0,"interpretation":"Suggested search habitats, not predicted plant locations or probabilities of presence."},"features":[{"type":"Feature","geometry":{"type":"Polygon","coordinates":[[[101.99688468048865,2.72492408206672],[101.99698093044836,2.72492408206672],[101.99688468048865,2.7244989097513557],[101.99688468048865,2.72492408206672]]]},"properties":{"place_id":"6f87b5df-8a71-5a58-9aae-9c662483fc7f","habitat":"forest_edge_opening","habitat_label":"Forest edge or opening","resolution_m":50}},{"type":"Feature","geometry":{"type":"Polygon","coordinates":[[[101.9968032850552,2.724139355586183],[101.99650418530378,2.7245317187642266],[101.99688468048865,2.7245317187642266],[101.9968032850552,2.724139355586183]]]},"properties":{"place_id":"6f87b5df-8a71-5a58-9aae-9c662483fc7f","habitat":"open_grassland","habitat_label":"Open grassland or shrubland","resolution_m":50}},{"type":"Feature","geometry":{"type":"Polygon","coordinates":[[[101.99651569999997,2.724953896978456],[101.9969918,2.724972096978456],[101.99670499999999,2.723902696979608],[101.99648769999999,2.7239272969795834],[101.99651569999997,2.724953896978456]]]},"properties":{"place_id":"6f87b5df-8a71-5a58-9aae-9c662483fc7f","habitat":"disturbed_built_edge","habitat_label":"Disturbed, bare or built edge","resolution_m":50}}]}