{"type":"FeatureCollection","metadata":{"schema_version":1,"place_id":"70f032b5-9d3e-5bfc-8239-a023363181c1","place_name":"Serindit Park","place_type":"park","osm_reference":"way/494077621","protection_context":"no protected status confirmed from included OSM tags","resolution_m":50,"raster_coverage":1.0,"interpretation":"Suggested search habitats, not predicted plant locations or probabilities of presence."},"features":[{"type":"Feature","geometry":{"type":"Polygon","coordinates":[[[103.9116646836102,1.513419081372811],[103.91298359999999,1.513524498312059],[103.91297439999998,1.5129106983127285],[103.911502615189,1.5130270167274087],[103.9116646836102,1.513419081372811]]]},"properties":{"place_id":"70f032b5-9d3e-5bfc-8239-a023363181c1","habitat":"forest_edge_opening","habitat_label":"Forest edge or opening","resolution_m":50}},{"type":"Feature","geometry":{"type":"Polygon","coordinates":[[[103.91153999999999,1.513509598312042],[103.91298359999999,1.513524498312059],[103.91297439999998,1.5129106983127285],[103.9115033,1.5129759983126476],[103.91153999999999,1.513509598312042]]]},"properties":{"place_id":"70f032b5-9d3e-5bfc-8239-a023363181c1","habitat":"disturbed_built_edge","habitat_label":"Disturbed, bare or built edge","resolution_m":50}}]}