{"type":"FeatureCollection","metadata":{"schema_version":1,"place_id":"711a6f52-ccb2-5c52-b870-da875fa77f0b","place_name":"Pulau Benta","place_type":"wood","osm_reference":"way/412022277","protection_context":"no protected status confirmed from included OSM tags","resolution_m":50,"raster_coverage":1.0,"interpretation":"Suggested search habitats, not predicted plant locations or probabilities of presence."},"features":[{"type":"Feature","geometry":{"type":"MultiPolygon","coordinates":[[[[103.36858229030265,3.5297193427788827],[103.37036830000001,3.5286869961092657],[103.3677531,3.528628496109314],[103.3702795,3.5285435961094205],[103.37117333225545,3.527791355679484],[103.37065512386489,3.527200508876347],[103.36961870708376,3.527200508876347],[103.36961870708376,3.5268078534376546],[103.36664579999999,3.5270799961110058],[103.3649781,3.5284103961095474],[103.36518899999999,3.5287807961091717],[103.36754587352152,3.5291637884917897],[103.36754587352152,3.529480062967221],[103.36858229030265,3.5297193427788827]]],[[[103.36961870708376,3.5295564448994017],[103.36961870708376,3.529612604897786],[103.36964023182163,3.5295564448994017],[103.36961870708376,3.5295564448994017]]]]},"properties":{"place_id":"711a6f52-ccb2-5c52-b870-da875fa77f0b","habitat":"forest_edge_opening","habitat_label":"Forest edge or opening","resolution_m":50}},{"type":"Feature","geometry":{"type":"MultiPolygon","coordinates":[[[[103.36702766513096,3.527593164476481],[103.36702766513096,3.527985820238073],[103.36754587352152,3.527985820238073],[103.36754587352152,3.527593164476481],[103.36702766513096,3.527593164476481]]],[[[103.36599124834986,3.527593164476481],[103.36599124834986,3.5283784761611434],[103.36650945674039,3.5283784761611434],[103.36650945674039,3.527593164476481],[103.36599124834986,3.527593164476481]]],[[[103.36547303995928,3.5283784761611434],[103.36547303995928,3.5287711322457094],[103.36599124834986,3.5287711322457094],[103.36599124834986,3.5283784761611434],[103.36547303995928,3.5283784761611434]]],[[[103.3680640819121,3.5295564448994017],[103.3677531,3.528628496109314],[103.3680640819121,3.5283784761611434],[103.36961870708376,3.5283784761611434],[103.37013691547433,3.527593164476481],[103.37093410770136,3.527985820238073],[103.37117333225545,3.5268078534376546],[103.36858229030265,3.526869786548308],[103.36858229030265,3.527200508876347],[103.3680640819121,3.527200508876347],[103.36858229030265,3.527985820238073],[103.36754587352152,3.527985820238073],[103.36754587352152,3.5287711322457094],[103.36650945674039,3.5287711322457094],[103.36650945674039,3.5291637884917897],[103.3691004986932,3.530126339969931],[103.36950254615962,3.529949101468564],[103.36961870708376,3.5291637884917897],[103.36858229030265,3.5291637884917897],[103.36858229030265,3.5295564448994017],[103.3680640819121,3.5295564448994017]],[[103.3691004986932,3.527593164476481],[103.3691004986932,3.527200508876347],[103.36961870708376,3.527200508876347],[103.36961870708376,3.527593164476481],[103.3691004986932,3.527593164476481]]],[[[103.36961870708376,3.5287711322457094],[103.36998185437217,3.5291637884917897],[103.37013691547433,3.5287711322457094],[103.36961870708376,3.5287711322457094]]]]},"properties":{"place_id":"711a6f52-ccb2-5c52-b870-da875fa77f0b","habitat":"open_grassland","habitat_label":"Open grassland or shrubland","resolution_m":50}},{"type":"Feature","geometry":{"type":"Polygon","coordinates":[[[103.36754587352152,3.5291637884917897],[103.36702766513096,3.5291637884917897],[103.36702766513096,3.5287711322457094],[103.36650945674039,3.5287711322457094],[103.36647335808198,3.5291637884917897],[103.36754587352152,3.529480062967221],[103.36754587352152,3.5291637884917897]]]},"properties":{"place_id":"711a6f52-ccb2-5c52-b870-da875fa77f0b","habitat":"disturbed_built_edge","habitat_label":"Disturbed, bare or built edge","resolution_m":50}},{"type":"Feature","geometry":{"type":"Polygon","coordinates":[[[103.37152604622153,3.527200508876347],[103.37117333225545,3.527593164476481],[103.371691540646,3.5274783428894736],[103.37152604622153,3.527200508876347]]]},"properties":{"place_id":"711a6f52-ccb2-5c52-b870-da875fa77f0b","habitat":"cropland","habitat_label":"Cropland","resolution_m":50}},{"type":"Feature","geometry":{"type":"MultiPolygon","coordinates":[[[[103.36702766513096,3.527200508876347],[103.36702766513096,3.5269705246073038],[103.36637640611653,3.527200508876347],[103.36702766513096,3.527200508876347]]],[[[103.36547303995928,3.5283784761611434],[103.36547303995928,3.527985820238073],[103.36599124834986,3.527985820238073],[103.36599124834986,3.5274224594500345],[103.3649915675944,3.5283784761611434],[103.36547303995928,3.5283784761611434]]],[[[103.36599124834986,3.5287711322457094],[103.36517206607449,3.5287711322457094],[103.36599124834986,3.5290167474568186],[103.36599124834986,3.5287711322457094]]],[[[103.36650945674039,3.5291637884917897],[103.36647335808198,3.5291637884917897],[103.36650945674039,3.5291769103845017],[103.36650945674039,3.5291637884917897]]],[[[103.36961870708376,3.5291637884917897],[103.36961870708376,3.529612604897786],[103.36998185437217,3.5291637884917897],[103.36961870708376,3.5291637884917897]]],[[[103.3691004986932,3.529949101468564],[103.3693924,3.5301676961076813],[103.36950254615962,3.529949101468564],[103.3691004986932,3.529949101468564]]],[[[103.37117333225545,3.5268078534376546],[103.37152604622153,3.527200508876347],[103.37130549999999,3.526771996111319],[103.36895272567928,3.5268078534376546],[103.37117333225545,3.5268078534376546]]],[[[103.371691540646,3.5274783428894736],[103.37174309999999,3.5274346961106184],[103.371691540646,3.5273331137027233],[103.371691540646,3.5274783428894736]]],[[[103.37117333225545,3.527593164476481],[103.3712532,3.527734396110307],[103.37150555672218,3.527593164476481],[103.37117333225545,3.527593164476481]]],[[[103.37065512386489,3.527985820238073],[103.37065512386489,3.5282274877195694],[103.37093410770136,3.527985820238073],[103.37065512386489,3.527985820238073]]],[[[103.37013691547433,3.5283784761611434],[103.3702795,3.5285435961094205],[103.37048556785268,3.5283784761611434],[103.37013691547433,3.5283784761611434]]],[[[103.37013691547433,3.529021989193228],[103.3703734,3.52882129610913],[103.37036830000001,3.5286869961092657],[103.37013691547433,3.528671513088098],[103.37013691547433,3.529021989193228]]]]},"properties":{"place_id":"711a6f52-ccb2-5c52-b870-da875fa77f0b","habitat":"permanent_water","habitat_label":"Permanent water","resolution_m":50}},{"type":"Feature","geometry":{"type":"MultiPolygon","coordinates":[[[[103.3691004986932,3.526792835192264],[103.36961870708376,3.5268078534376546],[103.36961870708376,3.5267509964265193],[103.3691004986932,3.526792835192264]]],[[[103.37117333225545,3.5268078534376546],[103.37137937456515,3.5268078534376546],[103.37117333225545,3.5267604483218813],[103.37117333225545,3.5268078534376546]]],[[[103.36650945674039,3.527200508876347],[103.36650945674039,3.5271409459508956],[103.36637640611653,3.527200508876347],[103.36650945674039,3.527200508876347]]],[[[103.36547303995928,3.527985820238073],[103.36599124834986,3.527985820238073],[103.36599124834986,3.527593164476481],[103.36577800688681,3.527593164476481],[103.36547303995928,3.527985820238073]]],[[[103.36547303995928,3.5287711322457094],[103.36517206607449,3.5287711322457094],[103.36547303995928,3.528866058544278],[103.36547303995928,3.5287711322457094]]],[[[103.37013691547433,3.5287711322457094],[103.37034450000002,3.528859496109101],[103.3703868,3.5287711322457094],[103.37013691547433,3.5287711322457094]]],[[[103.3691004986932,3.529949101468564],[103.3693924,3.5301676961076813],[103.36950254615962,3.529949101468564],[103.3691004986932,3.529949101468564]]]]},"properties":{"place_id":"711a6f52-ccb2-5c52-b870-da875fa77f0b","habitat":"seasonal_water_wetland","habitat_label":"Seasonal water or wetland","resolution_m":50}},{"type":"Feature","geometry":{"type":"MultiPolygon","coordinates":[[[[103.3649674,3.528502696109454],[103.36754587352152,3.529480062967221],[103.36702766513096,3.5287711322457094],[103.36650945674039,3.5287711322457094],[103.36650945674039,3.527985820238073],[103.36702766513096,3.527985820238073],[103.36702766513096,3.527593164476481],[103.37013691547433,3.527593164476481],[103.37013691547433,3.527985820238073],[103.3691004986932,3.5283784761611434],[103.37013691547433,3.5285378982653337],[103.371691540646,3.5273331137027233],[103.37117333225545,3.5268078534376546],[103.3673516,3.5268816961111913],[103.36637640611653,3.527200508876347],[103.36599124834986,3.527985820238073],[103.3649674,3.528502696109454]]],[[[103.37013691547433,3.528671513088098],[103.3691004986932,3.528607832561748],[103.3691004986932,3.5291637884917897],[103.3679293988119,3.5295564448994017],[103.3691004986932,3.530126339969931],[103.37013691547433,3.528671513088098]]]]},"properties":{"place_id":"711a6f52-ccb2-5c52-b870-da875fa77f0b","habitat":"water_edge","habitat_label":"Water edge","resolution_m":50}}]}