{"type":"FeatureCollection","metadata":{"schema_version":1,"place_id":"7174db91-9ea9-5144-a7c2-1a657176a8cd","place_name":"Starling Sky Park","place_type":"park","osm_reference":"way/692972177","protection_context":"no protected status confirmed from included OSM tags","resolution_m":50,"raster_coverage":1.0,"interpretation":"Suggested search habitats, not predicted plant locations or probabilities of presence."},"features":[{"type":"Feature","geometry":{"type":"Polygon","coordinates":[[[101.62297609999999,3.1357575965323163],[101.6229573,3.1351817965329625],[101.62334,3.1343495965338546],[101.6227977,3.1350250965330977],[101.62297609999999,3.1357575965323163]]]},"properties":{"place_id":"7174db91-9ea9-5144-a7c2-1a657176a8cd","habitat":"disturbed_built_edge","habitat_label":"Disturbed, bare or built edge","resolution_m":50}}]}