{"type":"FeatureCollection","metadata":{"schema_version":1,"place_id":"7224f6e6-707d-5976-bd90-6edf9f03201d","place_name":"Hutan Simpanan Kekal Sungai Lalang Tambahan","place_type":"park","osm_reference":"relation/18767517","protection_context":"mapped protected boundary","resolution_m":50,"raster_coverage":1.0,"interpretation":"Suggested search habitats, not predicted plant locations or probabilities of presence."},"features":[{"type":"Feature","geometry":{"type":"MultiPolygon","coordinates":[[[[101.8958340443293,3.0306143302816686],[101.8958340443293,3.0305492784593118],[101.89577476503263,3.0306143302816686],[101.8958340443293,3.0306143302816686]]],[[[101.89635225271986,3.030221864551764],[101.89687046111042,3.0310067961501006],[101.89635225271986,3.0310067961501006],[101.89635225271986,3.031399262157081],[101.89541712561491,3.0310067961501006],[101.89459379999997,3.0319102966447584],[101.8958340443293,3.0333615942708123],[101.89566129999999,3.03463159664178],[101.89461513346073,3.035323929850923],[101.89479762754819,3.035593012351747],[101.89862789999998,3.032885296643686],[101.9110519,3.0348618966415764],[101.911658,3.0283050966486798],[101.91028479999999,3.0264890966506366],[101.90851449999998,3.0299335966468908],[101.90341430000001,3.0291541966477404],[101.90235079999998,3.0326762966439222],[101.89970079999999,3.032638796643974],[101.89981609999998,3.032170096644456],[101.89767569999998,3.0319798966446823],[101.8966538,3.0296496966471995],[101.89635225271986,3.030221864551764]]],[[[101.89441582691246,3.03571639738311],[101.8943892,3.035822096640512],[101.89457764804408,3.03571639738311],[101.89441582691246,3.03571639738311]]]]},"properties":{"place_id":"7224f6e6-707d-5976-bd90-6edf9f03201d","habitat":"forest_interior","habitat_label":"Forest interior","resolution_m":50}},{"type":"Feature","geometry":{"type":"MultiPolygon","coordinates":[[[[101.89635225271986,3.0310067961501006],[101.89687046111042,3.0310067961501006],[101.89687046111042,3.0306143302816686],[101.89613240445033,3.030221864551764],[101.89541712561491,3.0310067961501006],[101.8958340443293,3.0310067961501006],[101.8958340443293,3.031399262157081],[101.89635225271986,3.031399262157081],[101.89635225271986,3.0310067961501006]]],[[[101.8958340443293,3.0333615942708123],[101.89559262750569,3.033754061109452],[101.8958340443293,3.033754061109452],[101.8958340443293,3.0333615942708123]]],[[[101.89479762754819,3.035593012351747],[101.89449459999999,3.0354036966409845],[101.89441582691246,3.03571639738311],[101.89479762754819,3.035593012351747]]]]},"properties":{"place_id":"7224f6e6-707d-5976-bd90-6edf9f03201d","habitat":"forest_edge_opening","habitat_label":"Forest edge or opening","resolution_m":50}},{"type":"Feature","geometry":{"type":"Polygon","coordinates":[[[101.89635225271986,3.0310067961501006],[101.89635225271986,3.0306143302816686],[101.8958340443293,3.0306143302816686],[101.8958340443293,3.0310067961501006],[101.89635225271986,3.0310067961501006]]]},"properties":{"place_id":"7224f6e6-707d-5976-bd90-6edf9f03201d","habitat":"open_grassland","habitat_label":"Open grassland or shrubland","resolution_m":50}}]}