{"type":"FeatureCollection","metadata":{"schema_version":1,"place_id":"726b5c6d-4e7a-50e5-af92-efaab08d4aca","place_name":"Sireh Park","place_type":"forest","osm_reference":"way/517048915","protection_context":"no protected status confirmed from included OSM tags","resolution_m":50,"raster_coverage":1.0,"interpretation":"Suggested search habitats, not predicted plant locations or probabilities of presence."},"features":[{"type":"Feature","geometry":{"type":"MultiPolygon","coordinates":[[[[103.63786533031876,1.461667137756246],[103.63856886178475,1.4624512493493595],[103.63908707017531,1.4624512493493595],[103.63856886178475,1.4632353612091014],[103.64012348695641,1.4640194733356147],[103.64014284402683,1.464803585729043],[103.64055485993863,1.464803585729043],[103.64115990373755,1.4640194733356147],[103.64219632051868,1.4636274172390027],[103.64478736247148,1.4644115294989555],[103.6444825,1.463514798367538],[103.6454207,1.4629196983682151],[103.64428430000001,1.462220698368974],[103.6445881,1.4618773983693387],[103.6458237792526,1.4625607584030542],[103.64634198764315,1.4624512493493595],[103.64634198764315,1.462059193519483],[103.64737840442426,1.462059193519483],[103.64737840442426,1.4614592619029914],[103.6462867280516,1.460490970866191],[103.64478736247148,1.460490970866191],[103.64478736247148,1.4608830264296173],[103.64426915408092,1.4609144583318177],[103.64478736247148,1.461667137756246],[103.64426915408092,1.461667137756246],[103.64426915408092,1.462059193519483],[103.64323273729978,1.462059193519483],[103.64323273729978,1.461667137756246],[103.64271452890922,1.461667137756246],[103.64271452890922,1.4628433052458931],[103.64219632051868,1.4628433052458931],[103.64219632051868,1.4632353612091014],[103.64064169534699,1.4624512493493595],[103.64064169534699,1.4612750820596299],[103.64012348695641,1.4612750820596299],[103.64010329999998,1.4608936983704328],[103.63786533031876,1.461667137756246]]],[[[103.63753244500361,1.462059193519483],[103.63701423661307,1.462059193519483],[103.63701423661307,1.4628433052458931],[103.63795060810132,1.4624512493493595],[103.63753244500361,1.4617317135997987],[103.63753244500361,1.462059193519483]]],[[[103.63753244500361,1.4632353612091014],[103.63805065339417,1.4632353612091014],[103.63805065339417,1.4628433052458931],[103.63753244500361,1.4628433052458931],[103.63753244500361,1.4632353612091014]]],[[[103.63079573592633,1.4636274172390027],[103.63067101931686,1.4636274172390027],[103.63079573592633,1.4637479430334002],[103.63079573592633,1.4636274172390027]]],[[[103.63235036109802,1.4720653761962528],[103.63442319466026,1.4716888364607252],[103.63425333120118,1.469508265702839],[103.6339049862697,1.469508265702839],[103.63442319466026,1.4683285343605386],[103.6339049862697,1.467940037974766],[103.6339049862697,1.467155924512247],[103.6349414030508,1.4666676166167636],[103.63597781983194,1.4651140322210372],[103.63597781983194,1.4640395208608765],[103.6355379,1.4651149983657445],[103.635318,1.4644017983665725],[103.63589636690344,1.4632353612091014],[103.63545961144138,1.4632353612091014],[103.63545961144138,1.4612750820596299],[103.6348269,1.460953098370406],[103.63412709999999,1.4609776983703526],[103.63352889999999,1.4619161983692939],[103.63392890966516,1.4608830264296173],[103.63338677787914,1.4608830264296173],[103.63338677787914,1.4612750820596299],[103.63235036109802,1.4608830264296173],[103.63235036109802,1.461667137756246],[103.63183215270746,1.461667137756246],[103.63131394431689,1.4624512493493595],[103.63027752753577,1.4624512493493595],[103.63027752753577,1.4632353612091014],[103.63183215270746,1.4640194733356147],[103.6309223,1.4653833983654754],[103.63286856948856,1.4663718113172157],[103.63257665830321,1.467155924512247],[103.63308169999998,1.4684341983620857],[103.632657,1.4687290983617518],[103.63183215270746,1.467155924512247],[103.63027752753577,1.4675479812100616],[103.63083362915788,1.469508265702839],[103.63131394431689,1.469508265702839],[103.63131394431689,1.4706844372021142],[103.63027752753577,1.471076494502581],[103.63027752753577,1.4717726222105463],[103.63079573592633,1.4718606093046858],[103.63079573592633,1.4722526668063591],[103.63179515780448,1.4722526668063591],[103.63183215270746,1.4718606093046858],[103.63235036109802,1.4720653761962528]]],[[[103.6364960282225,1.4640194733356147],[103.6364960282225,1.4636274172390027],[103.63624265711154,1.4636274172390027],[103.63598453883243,1.4640194733356147],[103.6364960282225,1.4640194733356147]]],[[[103.63183215270746,1.4726447243751373],[103.63079573592633,1.4726447243751373],[103.63027752753577,1.4734288397140787],[103.63131394431689,1.4734288397140787],[103.63183215270746,1.4726447243751373]]],[[[103.63131394431689,1.4738208974842777],[103.63183215270746,1.4738208974842777],[103.63183215270746,1.4734288397140787],[103.63131394431689,1.4734288397140787],[103.63131394431689,1.4738208974842777]]],[[[103.63183215270746,1.4749970711980043],[103.63027752753577,1.4753891292370156],[103.62848510027298,1.4730367820110377],[103.62841236455013,1.4746050132262227],[103.63040566942294,1.4761732455168002],[103.63131394431689,1.4761732455168002],[103.63131394431689,1.4753891292370156],[103.63182442092685,1.4753891292370156],[103.63183215270746,1.4749970711980043]]],[[[103.62924111075465,1.4734288397140787],[103.62975931914522,1.4734288397140787],[103.62974629999998,1.4726489983574056],[103.62878897307895,1.4726447243751373],[103.62924111075465,1.4734288397140787]]]]},"properties":{"place_id":"726b5c6d-4e7a-50e5-af92-efaab08d4aca","habitat":"forest_interior","habitat_label":"Forest interior","resolution_m":50}},{"type":"Feature","geometry":{"type":"MultiPolygon","coordinates":[[[[103.63183215270746,1.462059193519483],[103.63183215270746,1.461667137756246],[103.63235036109802,1.461667137756246],[103.63235036109802,1.4608830264296173],[103.63338677787914,1.4612750820596299],[103.63338677787914,1.4608830264296173],[103.6341796,1.460622998370731],[103.63545961144138,1.4606176410329412],[103.63394380000001,1.460509098370871],[103.63289749999998,1.4608698983704826],[103.6322234,1.4606822983706795],[103.63151460000002,1.4612484983700547],[103.631402,1.4620260983692102],[103.6300483,1.4618562983693837],[103.62982949999999,1.4625848983685894],[103.63017699999999,1.4631499983679424],[103.63067101931686,1.4636274172390027],[103.63027752753577,1.4624512493493595],[103.63131394431689,1.4624512493493595],[103.63131394431689,1.462059193519483],[103.63183215270746,1.462059193519483]]],[[[103.6349414030508,1.460984275732769],[103.63545961144138,1.4612750820596299],[103.63545961144138,1.4632353612091014],[103.63589636690344,1.4632353612091014],[103.6360878,1.4622834983689306],[103.63564519999998,1.4612779983700466],[103.6349414030508,1.460984275732769]]],[[[103.63679860000002,1.461066198370278],[103.6364960282225,1.4640194733356147],[103.63598453883243,1.4640194733356147],[103.63597781983194,1.4651140322210372],[103.6369296,1.4637590983672815],[103.63701423661307,1.462059193519483],[103.63753244500361,1.462059193519483],[103.63679860000002,1.461066198370278]]],[[[103.63908707017531,1.4632353612091014],[103.63856886178475,1.4632353612091014],[103.63795060810132,1.4624512493493595],[103.63718276362636,1.4628433052458931],[103.63762,1.4635081983675384],[103.6384402,1.4637429983673014],[103.638679,1.4632850983677907],[103.63908707017531,1.4635878478040316],[103.63908707017531,1.4632353612091014]],[[103.63805065339417,1.4628433052458931],[103.63805065339417,1.4632353612091014],[103.63753244500361,1.4632353612091014],[103.63753244500361,1.4628433052458931],[103.63805065339417,1.4628433052458931]]],[[[103.63908707017531,1.4628433052458931],[103.63908707017531,1.4624512493493595],[103.63827412617722,1.462059193519483],[103.63861799021886,1.4628433052458931],[103.63908707017531,1.4628433052458931]]],[[[103.63786533031876,1.461667137756246],[103.63856886178475,1.4614324145850184],[103.637791,1.4615702983697103],[103.63786533031876,1.461667137756246]]],[[[103.63597781983194,1.460633286335304],[103.6362916,1.4607175983706584],[103.63683699999997,1.4603369983710561],[103.63597781983194,1.460633286335304]]],[[[103.63131394431689,1.4640194733356147],[103.63131394431689,1.4636274172390027],[103.63079573592633,1.4636274172390027],[103.63148239590973,1.4644115294989555],[103.63183215270746,1.4644115294989555],[103.63183215270746,1.4640194733356147],[103.63131394431689,1.4640194733356147]]],[[[103.63131394431689,1.464803585729043],[103.63131394431689,1.4645923749872687],[103.63107054197891,1.464803585729043],[103.63131394431689,1.464803585729043]]],[[[103.63183215270746,1.467155924512247],[103.63205555582718,1.4675479812100616],[103.6320388,1.4674011983632127],[103.6317458,1.4670396983636302],[103.63105419999998,1.4666403983640866],[103.63099405668015,1.467155924512247],[103.63183215270746,1.467155924512247]]],[[[103.63257665830321,1.467155924512247],[103.63286856948856,1.4663718113172157],[103.63236390559099,1.4663718113172157],[103.63257665830321,1.467155924512247]]],[[[103.63235036109802,1.465979754819963],[103.63183215270746,1.465979754819963],[103.63183215270746,1.4655876983895284],[103.631063350293,1.4655876983895284],[103.63235036109802,1.4663218922650474],[103.63235036109802,1.465979754819963]]],[[[103.63408465550422,1.467155924512247],[103.6339049862697,1.467940037974766],[103.6340211,1.467940037974766],[103.63408465550422,1.467155924512247]]],[[[103.63027752753577,1.4675479812100616],[103.63079573592633,1.4675479812100616],[103.63079573592633,1.4673485754008073],[103.63031199999999,1.467436698363199],[103.6299843,1.4678248983627487],[103.63027752753577,1.4682312099451644],[103.63027752753577,1.4675479812100616]]],[[[103.63442319466026,1.4683285343605386],[103.63470799999999,1.4688889983615732],[103.63472119999999,1.4683079983622132],[103.63442319466026,1.4683285343605386]]],[[[103.6339049862697,1.4691162086703968],[103.6339049862697,1.469508265702839],[103.63425333120118,1.469508265702839],[103.63430646839221,1.4691162086703968],[103.6339049862697,1.4691162086703968]]],[[[103.63131394431689,1.4706844372021142],[103.63131394431689,1.469508265702839],[103.63083362915788,1.469508265702839],[103.63076929999998,1.4700173983603362],[103.63129869999999,1.4702161983601112],[103.63089282967631,1.4706844372021142],[103.63131394431689,1.4706844372021142]]],[[[103.63079573592633,1.4683320948063778],[103.6303503342616,1.4683320948063778],[103.63079573592633,1.4693582765441893],[103.63079573592633,1.4683320948063778]]],[[[103.63027752753577,1.471076494502581],[103.63079573592633,1.471076494502581],[103.63079573592633,1.4708654844775897],[103.62985019999999,1.471002298359217],[103.62966729999998,1.4713389983588763],[103.63027752753577,1.4717726222105463],[103.63027752753577,1.471076494502581]]],[[[103.63442319466026,1.4716888364607252],[103.63443059999999,1.4716750983584723],[103.63442319466026,1.4713417458494362],[103.63442319466026,1.4716888364607252]]],[[[103.63286856948856,1.4721858876611664],[103.63382259999997,1.4722713983578255],[103.63433060281656,1.4718606093046858],[103.63286856948856,1.4718606093046858],[103.63286856948856,1.4721858876611664]]],[[[103.62973285744803,1.4726447243751373],[103.6291723,1.472466498357593],[103.6287438,1.47253329835753],[103.62878897307895,1.4726447243751373],[103.62973285744803,1.4726447243751373]]],[[[103.62861952868684,1.4730367820110377],[103.62851529999999,1.4728828983571405],[103.62848510027298,1.4730367820110377],[103.62861952868684,1.4730367820110377]]],[[[103.63235036109802,1.4720653761962528],[103.63183215270746,1.4718606093046858],[103.63183215270746,1.4722323801525585],[103.63235036109802,1.4720653761962528]]],[[[103.63079573592633,1.4722526668063591],[103.63079573592633,1.4718606093046858],[103.63034992059379,1.4718606093046858],[103.63088429999999,1.4725100983575334],[103.63023049999998,1.473055498356978],[103.62975931914522,1.4726599283079833],[103.62975931914522,1.4734288397140787],[103.62924111075465,1.4734700782415728],[103.63116150000002,1.4736031983563265],[103.63112605767051,1.4749970711980043],[103.63183215270746,1.4749970711980043],[103.63183215270746,1.475351708795434],[103.6319578,1.4747435983550823],[103.63186289999999,1.472678598357361],[103.63179515780448,1.4722526668063591],[103.63079573592633,1.4722526668063591]],[[103.63183215270746,1.4738208974842777],[103.63131394431689,1.4738208974842777],[103.63131394431689,1.4734288397140787],[103.63183215270746,1.4734288397140787],[103.63183215270746,1.4738208974842777]],[[103.63027752753577,1.4734288397140787],[103.63079573592633,1.4726447243751373],[103.63183215270746,1.4726447243751373],[103.63131394431689,1.4734288397140787],[103.63027752753577,1.4734288397140787]]],[[[103.62924111075465,1.4742129553216532],[103.62941617577015,1.4742129553216532],[103.62924111075465,1.4739544884993252],[103.62924111075465,1.4742129553216532]]],[[[103.62975931914522,1.474719573918948],[103.63027752753577,1.4749970711980043],[103.63027752753577,1.4753891292370156],[103.63079573592633,1.4753891292370156],[103.63079573592633,1.4750262356605996],[103.62975931914522,1.474719573918948]]],[[[103.62872290236409,1.4742129553216532],[103.6284081588053,1.4734288397140787],[103.62834754707303,1.4742129553216532],[103.62872290236409,1.4742129553216532]]],[[[103.62978586222481,1.475781187343275],[103.62841236455013,1.4746050132262227],[103.6292992,1.4760909983535884],[103.62978586222481,1.475781187343275]]],[[[103.63027752753577,1.475781187343275],[103.62997631580343,1.475781187343275],[103.63027752753577,1.4759407147263455],[103.63027752753577,1.475781187343275]]],[[[103.63131394431689,1.4761732455168002],[103.63040566942294,1.4761732455168002],[103.63111439999997,1.4766554983529627],[103.63182442092685,1.4753891292370156],[103.63131394431689,1.4753891292370156],[103.63131394431689,1.4761732455168002]]],[[[103.64478736247148,1.4608830264296173],[103.64478736247148,1.460490970866191],[103.6462867280516,1.460490970866191],[103.64595899999999,1.460073398371364],[103.64493229999997,1.4602409983711706],[103.64433724490506,1.4608830264296173],[103.64478736247148,1.4608830264296173]]],[[[103.64634198764315,1.4608830264296173],[103.64682945280924,1.4608830264296173],[103.64634198764315,1.4605613795108758],[103.64634198764315,1.4608830264296173]]],[[[103.63960527856587,1.4611029880440927],[103.63919576719417,1.4612750820596299],[103.63960527856587,1.4612750820596299],[103.63960527856587,1.4611029880440927]]],[[[103.64686019603373,1.4612750820596299],[103.64722018775272,1.4612750820596299],[103.64686019603373,1.460903225804272],[103.64686019603373,1.4612750820596299]]],[[[103.64064169534699,1.4624512493493595],[103.64097731184441,1.4624512493493595],[103.6406399,1.4611307983701785],[103.64012348695641,1.4609026181004499],[103.64012348695641,1.4612750820596299],[103.64064169534699,1.4612750820596299],[103.64064169534699,1.4624512493493595]]],[[[103.64323273729978,1.462059193519483],[103.64426915408092,1.462059193519483],[103.64478736247148,1.4612750820596299],[103.64426915408092,1.4612750820596299],[103.64426915408092,1.4609144583318177],[103.64254129999999,1.4611627983701423],[103.6416781121281,1.4632353612091014],[103.64271452890922,1.4628433052458931],[103.64271452890922,1.461667137756246],[103.64323273729978,1.461667137756246],[103.64323273729978,1.462059193519483]]],[[[103.64115990373755,1.4628433052458931],[103.6414208589526,1.4628433052458931],[103.64115990373755,1.4626126442124212],[103.64115990373755,1.4628433052458931]]],[[[103.64737840442426,1.462059193519483],[103.64634198764315,1.462059193519483],[103.64634198764315,1.4624512493493595],[103.6458237792526,1.4625607584030542],[103.6468732,1.4628412983683037],[103.64764129999999,1.4617652983694895],[103.64737840442426,1.4614592619029914],[103.64737840442426,1.462059193519483]]],[[[103.63960527856587,1.4636274172390027],[103.6391113505926,1.4636274172390027],[103.63960527856587,1.4639947766448946],[103.63960527856587,1.4636274172390027]]],[[[103.64219632051868,1.463826066578087],[103.64300309999999,1.4643730983665868],[103.64363549999997,1.4640411983669785],[103.64426915408092,1.4642986168301144],[103.64426915408092,1.4640194733356147],[103.64271452890922,1.4640194733356147],[103.64271452890922,1.4636274172390027],[103.64219632051868,1.463826066578087]]],[[[103.64115990373755,1.4640194733356147],[103.64115990373755,1.4641156881791817],[103.64151627547456,1.4640194733356147],[103.64115990373755,1.4640194733356147]]],[[[103.64012348695641,1.4640194733356147],[103.63967056444078,1.4640194733356147],[103.64012348695641,1.4647577036354253],[103.64012348695641,1.4640194733356147]]],[[[103.64478736247148,1.4644115294989555],[103.6443434295474,1.4644115294989555],[103.6445868,1.4647814983661247],[103.64503309999999,1.4643838983665782],[103.64478736247148,1.4640444659378715],[103.64478736247148,1.4644115294989555]]],[[[103.64109181987062,1.4644115294989555],[103.64064169534699,1.4647046560636074],[103.64107849999998,1.4646601983662815],[103.64109181987062,1.4644115294989555]]],[[[103.64014284402683,1.464803585729043],[103.6402838,1.4651123983657783],[103.64055485993863,1.464803585729043],[103.64014284402683,1.464803585729043]]],[[[103.6349414030508,1.4663718113172157],[103.6349414030508,1.4666676166167636],[103.63512385452077,1.4663718113172157],[103.6349414030508,1.4663718113172157]]],[[[103.63442319466026,1.4667638678813044],[103.63442319466026,1.4669113753593994],[103.63461055252797,1.4667638678813044],[103.63442319466026,1.4667638678813044]]]]},"properties":{"place_id":"726b5c6d-4e7a-50e5-af92-efaab08d4aca","habitat":"forest_edge_opening","habitat_label":"Forest edge or opening","resolution_m":50}},{"type":"Feature","geometry":{"type":"MultiPolygon","coordinates":[[[[103.63597781983194,1.4607384754397803],[103.63593809999999,1.4606517983707215],[103.6349414030508,1.4605806482596648],[103.6353156,1.4607285983706524],[103.63597781983194,1.4607384754397803]]],[[[103.63027752753577,1.4632353612091014],[103.63026533102045,1.4632353612091014],[103.63027752753577,1.4632471478862754],[103.63027752753577,1.4632353612091014]]],[[[103.63079573592633,1.469808171397723],[103.63076929999998,1.4700173983603362],[103.63079573592633,1.4700273255645953],[103.63079573592633,1.469808171397723]]],[[[103.62975931914522,1.4711696006153236],[103.62966729999998,1.4713389983588763],[103.62975931914522,1.4713845777327448],[103.62975931914522,1.4711696006153236]]],[[[103.63079573592633,1.4726447243751373],[103.63079573592633,1.4725839785055208],[103.63072291661477,1.4726447243751373],[103.63079573592633,1.4726447243751373]]],[[[103.63079573592633,1.4722526668063591],[103.63067249333893,1.4722526668063591],[103.63079573592633,1.4724024568532819],[103.63079573592633,1.4722526668063591]]],[[[103.6304551739032,1.4749970711980043],[103.63027752753577,1.4749818582252245],[103.63027752753577,1.4749970711980043],[103.6304551739032,1.4749970711980043]]],[[[103.62905108712509,1.475781187343275],[103.62924111075465,1.4753891292370156],[103.62877753019177,1.4753891292370156],[103.62905108712509,1.475781187343275]]],[[[103.63079573592633,1.4765653037576087],[103.63111439999997,1.4766554983529627],[103.63119970272594,1.4765653037576087],[103.63079573592633,1.4765653037576087]]],[[[103.6458237792526,1.4600989153693311],[103.6458237792526,1.4600954720019517],[103.64580268554505,1.4600989153693311],[103.6458237792526,1.4600989153693311]]],[[[103.64065977170766,1.4612750820596299],[103.64064169534699,1.461143833952447],[103.64064169534699,1.4612750820596299],[103.64065977170766,1.4612750820596299]]],[[[103.64426915408092,1.461667137756246],[103.64426915408092,1.4612750820596299],[103.64323273729978,1.4612750820596299],[103.64323273729978,1.461667137756246],[103.64426915408092,1.461667137756246]]],[[[103.64686019603373,1.4624512493493595],[103.64634198764315,1.4624512493493595],[103.64634198764315,1.4627451536125142],[103.64686019603373,1.4628396212568553],[103.64686019603373,1.4624512493493595]]],[[[103.63805065339417,1.4636274172390027],[103.63803645366663,1.4636274172390027],[103.63805065339417,1.463631482218313],[103.63805065339417,1.4636274172390027]]],[[[103.6364960282225,1.4640194733356147],[103.6364960282225,1.464365660985554],[103.63677265147068,1.4640194733356147],[103.6364960282225,1.4640194733356147]]],[[[103.64271452890922,1.4640194733356147],[103.64250408234263,1.4640194733356147],[103.64271452890922,1.4641686046724134],[103.64271452890922,1.4640194733356147]]],[[[103.64478736247148,1.4644115294989555],[103.64478736247148,1.4646155785013497],[103.6450052739381,1.4644115294989555],[103.64478736247148,1.4644115294989555]]]]},"properties":{"place_id":"726b5c6d-4e7a-50e5-af92-efaab08d4aca","habitat":"open_grassland","habitat_label":"Open grassland or shrubland","resolution_m":50}},{"type":"Feature","geometry":{"type":"MultiPolygon","coordinates":[[[[103.63183215270746,1.461667137756246],[103.63235036109802,1.461667137756246],[103.63235036109802,1.4608830264296173],[103.63338677787914,1.4612750820596299],[103.63338677787914,1.4608830264296173],[103.6341796,1.460622998370731],[103.63597781983194,1.4607384754397803],[103.63597781983194,1.460633286335304],[103.63394380000001,1.460509098370871],[103.63289749999998,1.4608698983704826],[103.6322234,1.4606822983706795],[103.63151460000002,1.4612484983700547],[103.631402,1.4620260983692102],[103.6300483,1.4618562983693837],[103.62982949999999,1.4625848983685894],[103.63026533102045,1.4632353612091014],[103.63027752753577,1.4624512493493595],[103.63131394431689,1.4624512493493595],[103.63183215270746,1.461667137756246]]],[[[103.63131394431689,1.4636274172390027],[103.63079573592633,1.4637479430334002],[103.63183215270746,1.4644115294989555],[103.63183215270746,1.4640194733356147],[103.63131394431689,1.4640194733356147],[103.63131394431689,1.4636274172390027]]],[[[103.63131394431689,1.464803585729043],[103.63131394431689,1.4645923749872687],[103.63107054197891,1.464803585729043],[103.63131394431689,1.464803585729043]]],[[[103.63183215270746,1.4655876983895284],[103.63131394431689,1.4655876983895284],[103.63131394431689,1.4658827743917313],[103.63235036109802,1.4663218922650474],[103.63183215270746,1.4655876983895284]]],[[[103.63131394431689,1.4667638678813044],[103.63140717237845,1.4667638678813044],[103.63131394431689,1.4667137200885416],[103.63131394431689,1.4667638678813044]]],[[[103.63079573592633,1.4691162086703968],[103.63055692415054,1.4687241517049154],[103.6307045730349,1.4691162086703968],[103.63079573592633,1.4691162086703968]]],[[[103.6339049862697,1.4691162086703968],[103.6339049862697,1.469508265702839],[103.63425333120118,1.469508265702839],[103.63430646839221,1.4691162086703968],[103.6339049862697,1.4691162086703968]]],[[[103.63027752753577,1.471076494502581],[103.62985019999999,1.471002298359217],[103.62980989564771,1.471076494502581],[103.63027752753577,1.471076494502581]]],[[[103.62975931914522,1.4711696006153236],[103.62966729999998,1.4713389983588763],[103.62975931914522,1.4713845777327448],[103.62975931914522,1.4711696006153236]]],[[[103.63442319466026,1.4716888364607252],[103.63443059999999,1.4716750983584723],[103.63442319466026,1.4713417458494362],[103.63442319466026,1.4716888364607252]]],[[[103.63027752753577,1.4714685518700987],[103.62992885258689,1.4714685518700987],[103.63027752753577,1.4717726222105463],[103.63027752753577,1.4714685518700987]]],[[[103.63286856948856,1.4721858876611664],[103.63382259999997,1.4722713983578255],[103.63433060281656,1.4718606093046858],[103.63286856948856,1.4718606093046858],[103.63286856948856,1.4721858876611664]]],[[[103.62924111075465,1.4726447243751373],[103.62973285744803,1.4726447243751373],[103.62924111075465,1.4724883763406447],[103.62924111075465,1.4726447243751373]]],[[[103.62924111075465,1.4734700782415728],[103.63116150000002,1.4736031983563265],[103.63112605767051,1.4749970711980043],[103.63183215270746,1.4749970711980043],[103.63183215270746,1.475351708795434],[103.6319578,1.4747435983550823],[103.63186289999999,1.472678598357361],[103.63179515780448,1.4722526668063591],[103.63131394431689,1.4722526668063591],[103.63131394431689,1.4726447243751373],[103.63183215270746,1.4726447243751373],[103.63131394431689,1.4734288397140787],[103.63027752753577,1.4734288397140787],[103.63027752753577,1.4730367820110377],[103.62975931914522,1.4730367820110377],[103.62975931914522,1.4734288397140787],[103.62924111075465,1.4734700782415728]],[[103.63183215270746,1.4734288397140787],[103.63183215270746,1.4738208974842777],[103.63131394431689,1.4738208974842777],[103.63131394431689,1.4734288397140787],[103.63183215270746,1.4734288397140787]]],[[[103.62924111075465,1.4742129553216532],[103.62941617577015,1.4742129553216532],[103.62924111075465,1.4739544884993252],[103.62924111075465,1.4742129553216532]]],[[[103.63027752753577,1.4749970711980043],[103.6304551739032,1.4749970711980043],[103.63027752753577,1.4749818582252245],[103.63027752753577,1.4749970711980043]]],[[[103.63235036109802,1.4720653761962528],[103.63183215270746,1.4718606093046858],[103.63183215270746,1.4722323801525585],[103.63235036109802,1.4720653761962528]]],[[[103.62872290236409,1.4742129553216532],[103.6284081588053,1.4734288397140787],[103.62834754707303,1.4742129553216532],[103.62872290236409,1.4742129553216532]]],[[[103.62872290236409,1.4746050132262227],[103.6284488,1.4748253983549828],[103.6292992,1.4760909983535884],[103.62975931914522,1.475781187343275],[103.62924111075465,1.475781187343275],[103.62924111075465,1.4749970711980043],[103.62872290236409,1.4749970711980043],[103.62872290236409,1.4746050132262227]]],[[[103.63131394431689,1.4753891292370156],[103.63131394431689,1.476444510741007],[103.63182442092685,1.4753891292370156],[103.63131394431689,1.4753891292370156]]],[[[103.63079573592633,1.4765653037576087],[103.63079573592633,1.4761732455168002],[103.63040566942294,1.4761732455168002],[103.6306064,1.4765374983531065],[103.63111439999997,1.4766554983529627],[103.63119970272594,1.4765653037576087],[103.63079573592633,1.4765653037576087]]],[[[103.6458237792526,1.460490970866191],[103.6462867280516,1.460490970866191],[103.64595899999999,1.460073398371364],[103.6458237792526,1.4600954720019517],[103.6458237792526,1.460490970866191]]],[[[103.63671888293749,1.460490970866191],[103.63683699999997,1.4603369983710561],[103.63633985467631,1.460490970866191],[103.63671888293749,1.460490970866191]]],[[[103.64478736247148,1.4608830264296173],[103.64478736247148,1.460490970866191],[103.64530557086202,1.460490970866191],[103.64530557086202,1.460180065091876],[103.64493229999997,1.4602409983711706],[103.64433724490506,1.4608830264296173],[103.64478736247148,1.4608830264296173]]],[[[103.64634198764315,1.4608830264296173],[103.64682945280924,1.4608830264296173],[103.64634198764315,1.4605613795108758],[103.64634198764315,1.4608830264296173]]],[[[103.63960527856587,1.4611029880440927],[103.63919576719417,1.4612750820596299],[103.63960527856587,1.4612750820596299],[103.63960527856587,1.4611029880440927]]],[[[103.64686019603373,1.4612750820596299],[103.64722018775272,1.4612750820596299],[103.64686019603373,1.460903225804272],[103.64686019603373,1.4612750820596299]]],[[[103.63856886178475,1.461667137756246],[103.63805065339417,1.4615242722065631],[103.63805065339417,1.461667137756246],[103.63856886178475,1.461667137756246]]],[[[103.64064169534699,1.4624512493493595],[103.64097731184441,1.4624512493493595],[103.6406399,1.4611307983701785],[103.64012348695641,1.4609026181004499],[103.64012348695641,1.4612750820596299],[103.64064169534699,1.4612750820596299],[103.64064169534699,1.4624512493493595]]],[[[103.64375094569036,1.4612750820596299],[103.64426915408092,1.4612750820596299],[103.64426915408092,1.4609144583318177],[103.64254129999999,1.4611627983701423],[103.6416781121281,1.4632353612091014],[103.64271452890922,1.4628433052458931],[103.64271452890922,1.461667137756246],[103.64375094569036,1.461667137756246],[103.64375094569036,1.4612750820596299]]],[[[103.64115990373755,1.4628433052458931],[103.6414208589526,1.4628433052458931],[103.64115990373755,1.4626126442124212],[103.64115990373755,1.4628433052458931]]],[[[103.64737840442426,1.462059193519483],[103.64686019603373,1.462059193519483],[103.64686019603373,1.4628396212568553],[103.64764129999999,1.4617652983694895],[103.64737840442426,1.4614592619029914],[103.64737840442426,1.462059193519483]]],[[[103.63856886178475,1.4632353612091014],[103.63753244500361,1.4632353612091014],[103.63718276362636,1.4628433052458931],[103.63762,1.4635081983675384],[103.6384402,1.4637429983673014],[103.63856886178475,1.4632353612091014]]],[[[103.63701423661307,1.4628433052458931],[103.63701423661307,1.462886201853295],[103.6371211680358,1.4628433052458931],[103.63701423661307,1.4628433052458931]]],[[[103.6364960282225,1.4632353612091014],[103.6364960282225,1.4640194733356147],[103.63677265147068,1.4640194733356147],[103.63683196975602,1.4632353612091014],[103.6364960282225,1.4632353612091014]]],[[[103.64012348695641,1.4644115294989555],[103.64000232860616,1.4644115294989555],[103.64012348695641,1.4647577036354253],[103.64012348695641,1.4644115294989555]]],[[[103.64109181987062,1.4644115294989555],[103.64064169534699,1.4647046560636074],[103.64107849999998,1.4646601983662815],[103.64109181987062,1.4644115294989555]]],[[[103.64478736247148,1.4644115294989555],[103.64478736247148,1.4646155785013497],[103.6450052739381,1.4644115294989555],[103.64478736247148,1.4644115294989555]]],[[[103.64014284402683,1.464803585729043],[103.6402838,1.4651123983657783],[103.64055485993863,1.464803585729043],[103.64014284402683,1.464803585729043]]],[[[103.63442319466026,1.4683320948063778],[103.63442319466026,1.4689675038266385],[103.6348269,1.4685720983619188],[103.63442319466026,1.4683320948063778]]]]},"properties":{"place_id":"726b5c6d-4e7a-50e5-af92-efaab08d4aca","habitat":"disturbed_built_edge","habitat_label":"Disturbed, bare or built edge","resolution_m":50}},{"type":"Feature","geometry":{"type":"MultiPolygon","coordinates":[[[[103.6361709,1.4605432983708493],[103.6362916,1.4607175983706584],[103.63671888293749,1.460490970866191],[103.6361709,1.4605432983708493]]],[[[103.63545961144138,1.4612750820596299],[103.6356418218133,1.4612750820596299],[103.63545961144138,1.46112292086196],[103.63545961144138,1.4612750820596299]]],[[[103.63701423661307,1.461667137756246],[103.63746326317977,1.461667137756246],[103.63701423661307,1.4612335065497808],[103.63701423661307,1.461667137756246]]],[[[103.63597781983194,1.4626572117469103],[103.6360878,1.4622834983689306],[103.63597781983194,1.4620336450545008],[103.63597781983194,1.4626572117469103]]],[[[103.63597781983194,1.4630406939485103],[103.63598579999999,1.463020898368106],[103.63597781983194,1.4629906588505965],[103.63597781983194,1.4630406939485103]]],[[[103.6364960282225,1.4632353612091014],[103.6364960282225,1.462588991006189],[103.63634789999999,1.4628250983683253],[103.6364960282225,1.4632353612091014]]],[[[103.6364960282225,1.4616948116497879],[103.63647399999999,1.4619053983693384],[103.6364960282225,1.4620123205650557],[103.6364960282225,1.4616948116497879]]],[[[103.63805065339417,1.4628433052458931],[103.63822343919554,1.4628433052458931],[103.63805065339417,1.4626475033931108],[103.63805065339417,1.4628433052458931]]],[[[103.63856886178475,1.4624512493493595],[103.63840096417148,1.4624512493493595],[103.63856886178475,1.462627895158145],[103.63856886178475,1.4624512493493595]]],[[[103.63131394431689,1.4667638678813044],[103.6313624,1.4667273983639892],[103.63131394431689,1.4667137200885416],[103.63131394431689,1.4667638678813044]]],[[[103.63183215270746,1.467155924512247],[103.631840002665,1.467155924512247],[103.63183215270746,1.4671462393259986],[103.63183215270746,1.467155924512247]]]]},"properties":{"place_id":"726b5c6d-4e7a-50e5-af92-efaab08d4aca","habitat":"permanent_water","habitat_label":"Permanent water","resolution_m":50}},{"type":"Feature","geometry":{"type":"MultiPolygon","coordinates":[[[[103.6364960282225,1.460490970866191],[103.6364960282225,1.4606167631575229],[103.63671888293749,1.460490970866191],[103.6364960282225,1.460490970866191]]],[[[103.63545961144138,1.4612750820596299],[103.6356418218133,1.4612750820596299],[103.63545961144138,1.46112292086196],[103.63545961144138,1.4612750820596299]]],[[[103.63597781983194,1.462059193519483],[103.63598906572882,1.462059193519483],[103.63597781983194,1.4620336450545008],[103.63597781983194,1.462059193519483]]],[[[103.6364960282225,1.4616948116497879],[103.63647399999999,1.4619053983693384],[103.6364960282225,1.4620123205650557],[103.6364960282225,1.4616948116497879]]],[[[103.63805065339417,1.4628433052458931],[103.63822343919554,1.4628433052458931],[103.63805065339417,1.4626475033931108],[103.63805065339417,1.4628433052458931]]],[[[103.63856886178475,1.4624512493493595],[103.63840096417148,1.4624512493493595],[103.63856886178475,1.462627895158145],[103.63856886178475,1.4624512493493595]]],[[[103.63597781983194,1.4630406939485103],[103.63598579999999,1.463020898368106],[103.63597781983194,1.4629906588505965],[103.63597781983194,1.4630406939485103]]],[[[103.63624265711154,1.4636274172390027],[103.6364960282225,1.4628433052458931],[103.63634955610587,1.4628433052458931],[103.63624265711154,1.4636274172390027]]]]},"properties":{"place_id":"726b5c6d-4e7a-50e5-af92-efaab08d4aca","habitat":"seasonal_water_wetland","habitat_label":"Seasonal water or wetland","resolution_m":50}},{"type":"Feature","geometry":{"type":"MultiPolygon","coordinates":[[[[103.63671888293749,1.460490970866191],[103.63683699999997,1.4603369983710561],[103.63633985467631,1.460490970866191],[103.63671888293749,1.460490970866191]]],[[[103.63442319466026,1.4612750820596299],[103.6349414030508,1.4612750820596299],[103.6349414030508,1.4636274172390027],[103.63582489999997,1.4637394983673],[103.63564519999998,1.4612779983700466],[103.63442319466026,1.4609480127403978],[103.63442319466026,1.4612750820596299]]],[[[103.63545961144138,1.4638447765334135],[103.63562516353815,1.4640194733356147],[103.6356372,1.463873498367151],[103.63545961144138,1.4638447765334135]]],[[[103.63597781983194,1.4644115294989555],[103.63677265147068,1.4640194733356147],[103.6369609,1.4629075983682174],[103.63844246193408,1.4636274172390027],[103.63908707017531,1.4628433052458931],[103.63960527856587,1.4628433052458931],[103.63960527856587,1.4624512493493595],[103.63856886178475,1.462059193519483],[103.63856886178475,1.4614324145850184],[103.637791,1.4615702983697103],[103.6388504,1.4626668983684916],[103.63854199999999,1.4629672983681543],[103.63664569999999,1.461063498370259],[103.6364960282225,1.4636274172390027],[103.63597781983194,1.4644115294989555]]],[[[103.63597781983194,1.4607384754397803],[103.63593809999999,1.4606517983707215],[103.6349414030508,1.4605806482596648],[103.6353156,1.4607285983706524],[103.63597781983194,1.4607384754397803]]],[[[103.63183215270746,1.4655876983895284],[103.63131394431689,1.4655876983895284],[103.63131394431689,1.4658827743917313],[103.63235036109802,1.4663218922650474],[103.63183215270746,1.4655876983895284]]],[[[103.63105419999998,1.4666403983640866],[103.63131394431689,1.4675479812100616],[103.63219980290155,1.467940037974766],[103.63105419999998,1.4666403983640866]]],[[[103.63268303465931,1.4675479812100616],[103.63338677787914,1.4667638678813044],[103.63236390559099,1.4663718113172157],[103.63268303465931,1.4675479812100616]]]]},"properties":{"place_id":"726b5c6d-4e7a-50e5-af92-efaab08d4aca","habitat":"water_edge","habitat_label":"Water edge","resolution_m":50}}]}