{"type":"FeatureCollection","metadata":{"schema_version":1,"place_id":"72ed6fa1-2029-5e46-b629-a46b3ad8fe96","place_name":"Danga Bay Park","place_type":"park","osm_reference":"way/494804047","protection_context":"no protected status confirmed from included OSM tags","resolution_m":50,"raster_coverage":1.0,"interpretation":"Suggested search habitats, not predicted plant locations or probabilities of presence."},"features":[{"type":"Feature","geometry":{"type":"Polygon","coordinates":[[[103.72303682944613,1.4773494204411481],[103.72355503783669,1.4773494204411481],[103.72355503783669,1.478133537394037],[103.72242119999997,1.4784656983509645],[103.7233804,1.4788550983505129],[103.7239775,1.4764038983532606],[103.72350379999999,1.4763032983533686],[103.72355503783669,1.4769573620657186],[103.72303682944613,1.4773494204411481]]]},"properties":{"place_id":"72ed6fa1-2029-5e46-b629-a46b3ad8fe96","habitat":"forest_edge_opening","habitat_label":"Forest edge or opening","resolution_m":50}},{"type":"Feature","geometry":{"type":"Polygon","coordinates":[[[103.72251862105556,1.4785319909391212],[103.72303682944613,1.4787415488499351],[103.72355503783669,1.478133537394037],[103.72275176530506,1.478133537394037],[103.72251862105556,1.4785319909391212]]]},"properties":{"place_id":"72ed6fa1-2029-5e46-b629-a46b3ad8fe96","habitat":"open_grassland","habitat_label":"Open grassland or shrubland","resolution_m":50}},{"type":"Feature","geometry":{"type":"Polygon","coordinates":[[[103.72242119999997,1.4784656983509645],[103.7235619,1.4787877983506166],[103.7239775,1.4764038983532606],[103.72350379999999,1.4763032983533686],[103.72242119999997,1.4784656983509645]]]},"properties":{"place_id":"72ed6fa1-2029-5e46-b629-a46b3ad8fe96","habitat":"disturbed_built_edge","habitat_label":"Disturbed, bare or built edge","resolution_m":50}}]}