{"type":"FeatureCollection","metadata":{"schema_version":1,"place_id":"73c93c9f-ad83-560e-8f92-772108ef553c","place_name":"Pulau Wan Ali","place_type":"wood","osm_reference":"way/724296725","protection_context":"no protected status confirmed from included OSM tags","resolution_m":50,"raster_coverage":1.0,"interpretation":"Suggested search habitats, not predicted plant locations or probabilities of presence."},"features":[{"type":"Feature","geometry":{"type":"MultiPolygon","coordinates":[[[[103.12028180738194,5.332664731181255],[103.1200375,5.332322494225195],[103.1196177,5.332261094225256],[103.11984226283354,5.332748219370722],[103.12028180738194,5.332664731181255]]],[[[103.12191509639578,5.335419865498728],[103.12191509639578,5.335026274144685],[103.12139688800522,5.335026274144685],[103.12139688800522,5.334239092173934],[103.12087867961466,5.334239092173934],[103.12084789121218,5.333451911186175],[103.12006393903347,5.33305832106087],[103.1211740924875,5.335419865498728],[103.12191509639578,5.335419865498728]]]]},"properties":{"place_id":"73c93c9f-ad83-560e-8f92-772108ef553c","habitat":"forest_interior","habitat_label":"Forest interior","resolution_m":50}},{"type":"Feature","geometry":{"type":"MultiPolygon","coordinates":[[[[103.12087867961466,5.334239092173934],[103.12139688800522,5.334239092173934],[103.12139688800522,5.335026274144685],[103.12191509639578,5.335026274144685],[103.12126459999999,5.335716794221766],[103.12243330478634,5.336322571092141],[103.12213899999998,5.335078494222384],[103.12087867961466,5.333507907911994],[103.12087867961466,5.334239092173934]]],[[[103.11984226283354,5.332664731181255],[103.1203604712241,5.333451911186175],[103.121109,5.3334147942240895],[103.11984226283354,5.332664731181255]]]]},"properties":{"place_id":"73c93c9f-ad83-560e-8f92-772108ef553c","habitat":"forest_edge_opening","habitat_label":"Forest edge or opening","resolution_m":50}},{"type":"Feature","geometry":{"type":"Polygon","coordinates":[[[103.12243330478634,5.335813457098575],[103.12251541655763,5.335813457098575],[103.12243330478634,5.335621926750357],[103.12243330478634,5.335813457098575]]]},"properties":{"place_id":"73c93c9f-ad83-560e-8f92-772108ef553c","habitat":"disturbed_built_edge","habitat_label":"Disturbed, bare or built edge","resolution_m":50}},{"type":"Feature","geometry":{"type":"MultiPolygon","coordinates":[[[[103.1203604712241,5.33305832106087],[103.12066083132264,5.33305832106087],[103.1203604712241,5.332855364811007],[103.1203604712241,5.33305832106087]]],[[[103.12087867961466,5.333412453314836],[103.1211184,5.333393394224103],[103.12087867961466,5.333182782504408],[103.12087867961466,5.333412453314836]]],[[[103.12139688800522,5.334239092173934],[103.1215283839444,5.334239092173934],[103.12139688800522,5.334048944043925],[103.12139688800522,5.334239092173934]]],[[[103.12191509639578,5.335026274144685],[103.12210382622315,5.335026274144685],[103.12191509639578,5.334746080075859],[103.12191509639578,5.335026274144685]]],[[[103.12191509639578,5.335813457098575],[103.12136135964977,5.335813457098575],[103.12191509639578,5.336077318301672],[103.12191509639578,5.335813457098575]]],[[[103.12243330478634,5.335621926750357],[103.12209654306594,5.33620704894424],[103.1225976,5.336224194221228],[103.12243330478634,5.335621926750357]]]]},"properties":{"place_id":"73c93c9f-ad83-560e-8f92-772108ef553c","habitat":"permanent_water","habitat_label":"Permanent water","resolution_m":50}},{"type":"Feature","geometry":{"type":"MultiPolygon","coordinates":[[[[103.12139688800522,5.334239092173934],[103.1215283839444,5.334239092173934],[103.12139688800522,5.334048944043925],[103.12139688800522,5.334239092173934]]],[[[103.12191509639578,5.335813457098575],[103.1214014,5.335850294221608],[103.12191509639578,5.336077318301672],[103.12191509639578,5.335813457098575]]],[[[103.12243330478634,5.33620704894424],[103.12243330478634,5.336322571092141],[103.12260657106664,5.33620704894424],[103.12243330478634,5.33620704894424]]]]},"properties":{"place_id":"73c93c9f-ad83-560e-8f92-772108ef553c","habitat":"seasonal_water_wetland","habitat_label":"Seasonal water or wetland","resolution_m":50}},{"type":"Feature","geometry":{"type":"Polygon","coordinates":[[[103.12122699999999,5.335660694221835],[103.12243330478634,5.33620704894424],[103.12213899999998,5.335078494222384],[103.11984226283354,5.332271141547316],[103.12122699999999,5.335660694221835]]]},"properties":{"place_id":"73c93c9f-ad83-560e-8f92-772108ef553c","habitat":"water_edge","habitat_label":"Water edge","resolution_m":50}}]}