{"type":"FeatureCollection","metadata":{"schema_version":1,"place_id":"73f32c65-f559-5cb6-b394-cb2204193568","place_name":"Taman Komuniti Awam Port Dickson","place_type":"park","osm_reference":"way/554949346","protection_context":"no protected status confirmed from included OSM tags","resolution_m":50,"raster_coverage":1.0,"interpretation":"Suggested search habitats, not predicted plant locations or probabilities of presence."},"features":[{"type":"Feature","geometry":{"type":"MultiPolygon","coordinates":[[[[101.7932287829983,2.5248345544560875],[101.79271057460774,2.5248345544560875],[101.79271057460774,2.525226856744208],[101.7932287829983,2.525226856744208],[101.7932287829983,2.5248345544560875]]],[[[101.79374699138886,2.526796067049829],[101.79374699138886,2.5271883699146085],[101.79409063611045,2.5271883699146085],[101.7941471,2.526800697194903],[101.79374699138886,2.526796067049829]]]]},"properties":{"place_id":"73f32c65-f559-5cb6-b394-cb2204193568","habitat":"forest_interior","habitat_label":"Forest interior","resolution_m":50}},{"type":"Feature","geometry":{"type":"Polygon","coordinates":[[[101.79271057460774,2.5279729759903438],[101.79271057460774,2.5283436529637093],[101.7934200494997,2.528365279201335],[101.79409063611045,2.5271883699146085],[101.79374699138886,2.526796067049829],[101.79414241675738,2.526796067049829],[101.793504,2.526363597195374],[101.7932287829983,2.5238518273644046],[101.7927538,2.5243402971976017],[101.79269129999999,2.5246492971972465],[101.7926755,2.525523097196305],[101.79331360000002,2.525926897195851],[101.7926695,2.526172597195587],[101.79222151260372,2.5279729759903438],[101.79271057460774,2.5279729759903438]],[[101.79271057460774,2.5248345544560875],[101.7932287829983,2.5248345544560875],[101.7932287829983,2.525226856744208],[101.79271057460774,2.525226856744208],[101.79271057460774,2.5248345544560875]]]},"properties":{"place_id":"73f32c65-f559-5cb6-b394-cb2204193568","habitat":"forest_edge_opening","habitat_label":"Forest edge or opening","resolution_m":50}},{"type":"Feature","geometry":{"type":"MultiPolygon","coordinates":[[[[101.79351028660739,2.524049950225662],[101.7932287829983,2.524442252283244],[101.79335136868788,2.524442252283244],[101.79351028660739,2.524049950225662]]],[[[101.79271057460774,2.525226856744208],[101.7926755,2.525523097196305],[101.79271057460774,2.5255259806677146],[101.79271057460774,2.525226856744208]]],[[[101.79271057460774,2.527580672894774],[101.79222151260372,2.5279729759903438],[101.79271057460774,2.5279729759903438],[101.79271057460774,2.527580672894774]]]]},"properties":{"place_id":"73f32c65-f559-5cb6-b394-cb2204193568","habitat":"open_grassland","habitat_label":"Open grassland or shrubland","resolution_m":50}},{"type":"Feature","geometry":{"type":"MultiPolygon","coordinates":[[[[101.79271057460774,2.525226856744208],[101.7926755,2.525523097196305],[101.79271057460774,2.5255259806677146],[101.79271057460774,2.525226856744208]]],[[[101.7940129,2.527550097194082],[101.79374699138886,2.526796067049829],[101.79414241675738,2.526796067049829],[101.793504,2.526363597195374],[101.79359909999998,2.523873497198118],[101.7932795,2.5238422971981413],[101.7926879501883,2.5248345544560875],[101.7932287829983,2.5248345544560875],[101.79331360000002,2.525926897195851],[101.7926695,2.526172597195587],[101.7923051,2.528296997193276],[101.79341469999999,2.5283807971931758],[101.7940129,2.527550097194082]]]]},"properties":{"place_id":"73f32c65-f559-5cb6-b394-cb2204193568","habitat":"disturbed_built_edge","habitat_label":"Disturbed, bare or built edge","resolution_m":50}}]}