{"type":"FeatureCollection","metadata":{"schema_version":1,"place_id":"7425145e-54cc-56b2-85e3-5e33a9f264cc","place_name":"TMIYC Iskandar Puteri","place_type":"park","osm_reference":"way/1502392280","protection_context":"no protected status confirmed from included OSM tags","resolution_m":50,"raster_coverage":1.0,"interpretation":"Suggested search habitats, not predicted plant locations or probabilities of presence."},"features":[{"type":"Feature","geometry":{"type":"Polygon","coordinates":[[[103.61732231777177,1.4259903399304423],[103.6174101,1.4264522984087198],[103.61804579999999,1.4268786984082242],[103.61795439999999,1.4255515984096918],[103.61732231777177,1.4259903399304423]]]},"properties":{"place_id":"7425145e-54cc-56b2-85e3-5e33a9f264cc","habitat":"forest_edge_opening","habitat_label":"Forest edge or opening","resolution_m":50}},{"type":"Feature","geometry":{"type":"MultiPolygon","coordinates":[[[[103.61784052616231,1.425598290221434],[103.6172629,1.4258431984093713],[103.6173141097855,1.4259903399304423],[103.61784052616231,1.4259903399304423],[103.61784052616231,1.425598290221434]]],[[[103.61784052616231,1.4266314738938797],[103.61743518982124,1.4263823897044428],[103.6174101,1.4264522984087198],[103.61784052616231,1.4266314738938797]]]]},"properties":{"place_id":"7425145e-54cc-56b2-85e3-5e33a9f264cc","habitat":"open_grassland","habitat_label":"Open grassland or shrubland","resolution_m":50}},{"type":"Feature","geometry":{"type":"MultiPolygon","coordinates":[[[[103.61784052616231,1.425598290221434],[103.61784052616231,1.4255919923957225],[103.61782277209429,1.425598290221434],[103.61784052616231,1.425598290221434]]],[[[103.61743518982124,1.4263823897044428],[103.61804579999999,1.4268786984082242],[103.61797152564591,1.425598290221434],[103.61784052616231,1.425598290221434],[103.61784052616231,1.4259903399304423],[103.6172629,1.4258431984093713],[103.61743518982124,1.4263823897044428]]]]},"properties":{"place_id":"7425145e-54cc-56b2-85e3-5e33a9f264cc","habitat":"disturbed_built_edge","habitat_label":"Disturbed, bare or built edge","resolution_m":50}}]}