{"type":"FeatureCollection","metadata":{"schema_version":1,"place_id":"74558d96-e933-568e-a8de-7e84affa7d0d","place_name":"Putra Prima Playground","place_type":"park","osm_reference":"way/555874957","protection_context":"no protected status confirmed from included OSM tags","resolution_m":50,"raster_coverage":1.0,"interpretation":"Suggested search habitats, not predicted plant locations or probabilities of presence."},"features":[{"type":"Feature","geometry":{"type":"Polygon","coordinates":[[[101.59198069999998,2.9740660967075025],[101.59198199999999,2.973725396707876],[101.59132679999999,2.973725396707876],[101.5913203,2.974063796707497],[101.59198069999998,2.9740660967075025]]]},"properties":{"place_id":"74558d96-e933-568e-a8de-7e84affa7d0d","habitat":"forest_edge_opening","habitat_label":"Forest edge or opening","resolution_m":50}},{"type":"Feature","geometry":{"type":"Polygon","coordinates":[[[101.59198069999998,2.9740660967075025],[101.59198199999999,2.973725396707876],[101.59132679999999,2.973725396707876],[101.5913203,2.974063796707497],[101.59198069999998,2.9740660967075025]]]},"properties":{"place_id":"74558d96-e933-568e-a8de-7e84affa7d0d","habitat":"disturbed_built_edge","habitat_label":"Disturbed, bare or built edge","resolution_m":50}}]}