{"type":"FeatureCollection","metadata":{"schema_version":1,"place_id":"746fffb0-9022-520e-a65a-7ca85dd7e156","place_name":"Aman Parc Lakeside","place_type":"park","osm_reference":"relation/20617359","protection_context":"no protected status confirmed from included OSM tags","resolution_m":50,"raster_coverage":1.0,"interpretation":"Suggested search habitats, not predicted plant locations or probabilities of presence."},"features":[{"type":"Feature","geometry":{"type":"MultiPolygon","coordinates":[[[[100.46039680247634,5.635081681167402],[100.46005740611488,5.635409302649435],[100.46039680247634,5.636282338898433],[100.46039680247634,5.635803086952743],[100.46092506085984,5.635803086952743],[100.46045579999999,5.635671693919475],[100.46039680247634,5.635081681167402]]],[[[100.46039680247634,5.63659065633935],[100.46039680247634,5.636503966443964],[100.46038988552007,5.63659065633935],[100.46039680247634,5.63659065633935]]]]},"properties":{"place_id":"746fffb0-9022-520e-a65a-7ca85dd7e156","habitat":"open_grassland","habitat_label":"Open grassland or shrubland","resolution_m":50}},{"type":"Feature","geometry":{"type":"MultiPolygon","coordinates":[[[[100.46031007554716,5.635803086952743],[100.4605928,5.63513529392001],[100.4599342,5.635186293919941],[100.46031007554716,5.635803086952743]]],[[[100.46091501086688,5.63659065633935],[100.46039680247634,5.636503966443964],[100.46035549999998,5.636805393918334],[100.4608836,5.636930793918188],[100.46091501086688,5.63659065633935]]],[[[100.46039680247634,5.636196871516041],[100.46038793633781,5.636196871516041],[100.46039680247634,5.636282338898433],[100.46039680247634,5.636196871516041]]]]},"properties":{"place_id":"746fffb0-9022-520e-a65a-7ca85dd7e156","habitat":"disturbed_built_edge","habitat_label":"Disturbed, bare or built edge","resolution_m":50}},{"type":"Feature","geometry":{"type":"Polygon","coordinates":[[[100.46039680247634,5.6368152013980275],[100.4608836,5.636930793918188],[100.4611633,5.635869793919264],[100.46039680247634,5.635803086952743],[100.46039680247634,5.6368152013980275]]]},"properties":{"place_id":"746fffb0-9022-520e-a65a-7ca85dd7e156","habitat":"cropland","habitat_label":"Cropland","resolution_m":50}},{"type":"Feature","geometry":{"type":"Polygon","coordinates":[[[100.46091501086688,5.635803086952743],[100.46107707600358,5.636196871516041],[100.4611633,5.635869793919264],[100.46045579999999,5.635671693919475],[100.4605928,5.63513529392001],[100.4599342,5.635186293919941],[100.46031007554716,5.635803086952743],[100.46091501086688,5.635803086952743]]]},"properties":{"place_id":"746fffb0-9022-520e-a65a-7ca85dd7e156","habitat":"water_edge","habitat_label":"Water edge","resolution_m":50}}]}