{"type":"FeatureCollection","metadata":{"schema_version":1,"place_id":"748a1d96-c043-5d92-9cc9-7adbdc6a7874","place_name":"Taman Wetland","place_type":"park","osm_reference":"way/1179979551","protection_context":"no protected status confirmed from included OSM tags","resolution_m":50,"raster_coverage":1.0,"interpretation":"Suggested search habitats, not predicted plant locations or probabilities of presence."},"features":[{"type":"Feature","geometry":{"type":"MultiPolygon","coordinates":[[[[103.73702845599125,1.5512600804668817],[103.73746779999998,1.5512795982701493],[103.7377085,1.5512806982701661],[103.73702845599125,1.5512600804668817]]],[[[103.73547383081959,1.5522338256356296],[103.73547383081959,1.5518417540739147],[103.73651024760072,1.551289702921467],[103.735572,1.5515725982698403],[103.73397869999998,1.552841198268427],[103.73407640256953,1.5534100407453901],[103.73500849999999,1.5535290982676817],[103.73606090728954,1.5522338256356296],[103.73547383081959,1.5522338256356296]]],[[[103.73443741403845,1.5538021125902417],[103.73443741403845,1.554114025606712],[103.73471982991687,1.5538021125902417],[103.73443741403845,1.5538021125902417]]],[[[103.73436954997551,1.5541941845059215],[103.7342284,1.5542949982668057],[103.73426339999997,1.5543300982667685],[103.73436954997551,1.5541941845059215]]]]},"properties":{"place_id":"748a1d96-c043-5d92-9cc9-7adbdc6a7874","habitat":"forest_edge_opening","habitat_label":"Forest edge or opening","resolution_m":50}},{"type":"Feature","geometry":{"type":"MultiPolygon","coordinates":[[[[103.73651024760072,1.5514496825829382],[103.73725994451755,1.5514496825829382],[103.73754666438182,1.5511721511594438],[103.73599203921015,1.5514182598634343],[103.73599203921015,1.5518417540739147],[103.73643629977813,1.5518417540739147],[103.73651024760072,1.5514496825829382]]],[[[103.7352836143867,1.5518417540739147],[103.73495562242901,1.5522338256356296],[103.73599203921015,1.5522338256356296],[103.73599203921015,1.5518417540739147],[103.7352836143867,1.5518417540739147]]],[[[103.73495562242901,1.5522338256356296],[103.73400906157488,1.5530179689713501],[103.73443741403845,1.5530179689713501],[103.73471982991687,1.5538021125902417],[103.73495562242901,1.5522338256356296]]]]},"properties":{"place_id":"748a1d96-c043-5d92-9cc9-7adbdc6a7874","habitat":"open_grassland","habitat_label":"Open grassland or shrubland","resolution_m":50}},{"type":"Feature","geometry":{"type":"Polygon","coordinates":[[[103.7352836143867,1.5518417540739147],[103.73397869999998,1.552841198268427],[103.73426339999997,1.5543300982667685],[103.7366155,1.5516323982697946],[103.7377085,1.5512806982701661],[103.73599203921015,1.5514496825829382],[103.73599203921015,1.5518417540739147],[103.7352836143867,1.5518417540739147]],[[103.73495562242901,1.5526258972681024],[103.73495562242901,1.5530179689713501],[103.73443741403845,1.5530179689713501],[103.73443741403845,1.5526258972681024],[103.73495562242901,1.5526258972681024]]]},"properties":{"place_id":"748a1d96-c043-5d92-9cc9-7adbdc6a7874","habitat":"disturbed_built_edge","habitat_label":"Disturbed, bare or built edge","resolution_m":50}},{"type":"Feature","geometry":{"type":"MultiPolygon","coordinates":[[[[103.73599203921015,1.5514496825829382],[103.735572,1.5515725982698403],[103.73547383081959,1.5518417540739147],[103.73599203921015,1.5518417540739147],[103.73599203921015,1.5514496825829382]]],[[[103.73599203921015,1.5523546583438788],[103.73547383081959,1.5522338256356296],[103.73547383081959,1.5526258972681024],[103.73586551735077,1.5526258972681024],[103.73599203921015,1.5523546583438788]]]]},"properties":{"place_id":"748a1d96-c043-5d92-9cc9-7adbdc6a7874","habitat":"cropland","habitat_label":"Cropland","resolution_m":50}}]}