{"type":"FeatureCollection","metadata":{"schema_version":1,"place_id":"75940b9d-886c-5dbc-b1e9-ae81fd82d8a3","place_name":"Taman Poket Lebuh Orchard","place_type":"park","osm_reference":"way/48277759","protection_context":"no protected status confirmed from included OSM tags","resolution_m":50,"raster_coverage":1.0,"interpretation":"Suggested search habitats, not predicted plant locations or probabilities of presence."},"features":[{"type":"Feature","geometry":{"type":"Polygon","coordinates":[[[100.3021224,5.4559978941001335],[100.30235539999997,5.456297794099811],[100.3024305,5.456106094099999],[100.3021224,5.4559978941001335]]]},"properties":{"place_id":"75940b9d-886c-5dbc-b1e9-ae81fd82d8a3","habitat":"disturbed_built_edge","habitat_label":"Disturbed, bare or built edge","resolution_m":50}}]}