{"type":"FeatureCollection","metadata":{"schema_version":1,"place_id":"759d22ca-f039-5dfc-a44f-3825b76e7ae3","place_name":"USJ 6 Park","place_type":"park","osm_reference":"way/222720110","protection_context":"no protected status confirmed from included OSM tags","resolution_m":50,"raster_coverage":1.0,"interpretation":"Suggested search habitats, not predicted plant locations or probabilities of presence."},"features":[{"type":"Feature","geometry":{"type":"Polygon","coordinates":[[[101.5908657,3.0504155966246835],[101.5917026,3.050752996624343],[101.5914923,3.0499220966252345],[101.5908657,3.0504155966246835]]]},"properties":{"place_id":"759d22ca-f039-5dfc-a44f-3825b76e7ae3","habitat":"forest_edge_opening","habitat_label":"Forest edge or opening","resolution_m":50}},{"type":"Feature","geometry":{"type":"Polygon","coordinates":[[[101.5908657,3.0504155966246835],[101.5917026,3.050752996624343],[101.5914923,3.0499220966252345],[101.5908657,3.0504155966246835]]]},"properties":{"place_id":"759d22ca-f039-5dfc-a44f-3825b76e7ae3","habitat":"disturbed_built_edge","habitat_label":"Disturbed, bare or built edge","resolution_m":50}}]}