{"type":"FeatureCollection","metadata":{"schema_version":1,"place_id":"75dab104-7b9b-5d89-ad65-0ea52a3f0c72","place_name":"Green Park","place_type":"park","osm_reference":"way/137298126","protection_context":"no protected status confirmed from included OSM tags","resolution_m":50,"raster_coverage":1.0,"interpretation":"Suggested search habitats, not predicted plant locations or probabilities of presence."},"features":[{"type":"Feature","geometry":{"type":"Polygon","coordinates":[[[101.58179975964957,3.0418978595154287],[101.58179975964957,3.042720154447468],[101.58260810000002,3.042709296633063],[101.58261129999998,3.041891796633966],[101.58179975964957,3.0418978595154287]]]},"properties":{"place_id":"75dab104-7b9b-5d89-ad65-0ea52a3f0c72","habitat":"forest_edge_opening","habitat_label":"Forest edge or opening","resolution_m":50}},{"type":"Feature","geometry":{"type":"Polygon","coordinates":[[[101.58178319999999,3.042064496633755],[101.58178919999997,3.042720296633055],[101.58260810000002,3.042709296633063],[101.58261129999998,3.041891796633966],[101.58178319999999,3.042064496633755]]]},"properties":{"place_id":"75dab104-7b9b-5d89-ad65-0ea52a3f0c72","habitat":"disturbed_built_edge","habitat_label":"Disturbed, bare or built edge","resolution_m":50}}]}