{"type":"FeatureCollection","metadata":{"schema_version":1,"place_id":"75e5f264-0773-526c-a927-dbf6b908acc0","place_name":"Gelanggang bola sepak kampung mang","place_type":"park","osm_reference":"way/1295781478","protection_context":"no protected status confirmed from included OSM tags","resolution_m":50,"raster_coverage":1.0,"interpretation":"Suggested search habitats, not predicted plant locations or probabilities of presence."},"features":[{"type":"Feature","geometry":{"type":"Polygon","coordinates":[[[110.5328132898035,1.363544133479776],[110.5325437,1.3637973984782812],[110.5328132898035,1.3639513868279896],[110.5328132898035,1.363544133479776]]]},"properties":{"place_id":"75e5f264-0773-526c-a927-dbf6b908acc0","habitat":"forest_edge_opening","habitat_label":"Forest edge or opening","resolution_m":50}},{"type":"Feature","geometry":{"type":"Polygon","coordinates":[[[110.53333149819407,1.3638558813334198],[110.5325437,1.3637973984782812],[110.53324045182663,1.3640472802436752],[110.53333149819407,1.3638558813334198]]]},"properties":{"place_id":"75e5f264-0773-526c-a927-dbf6b908acc0","habitat":"open_grassland","habitat_label":"Open grassland or shrubland","resolution_m":50}},{"type":"Feature","geometry":{"type":"Polygon","coordinates":[[[110.53315540000001,1.3641467984779019],[110.5333794,1.3638846984781934],[110.53276219999998,1.3635133984786127],[110.5325437,1.3637973984782812],[110.53315540000001,1.3641467984779019]]]},"properties":{"place_id":"75e5f264-0773-526c-a927-dbf6b908acc0","habitat":"disturbed_built_edge","habitat_label":"Disturbed, bare or built edge","resolution_m":50}}]}