{"type":"FeatureCollection","metadata":{"schema_version":1,"place_id":"768114ba-86f9-5374-a174-59d20f4f29a3","place_name":"Taman Kejiranan Pekaka","place_type":"park","osm_reference":"way/161721623","protection_context":"no protected status confirmed from included OSM tags","resolution_m":50,"raster_coverage":1.0,"interpretation":"Suggested search habitats, not predicted plant locations or probabilities of presence."},"features":[{"type":"Feature","geometry":{"type":"Polygon","coordinates":[[[100.29301549232524,5.351163721416759],[100.29391769999998,5.350887894206393],[100.2936112,5.349941694207363],[100.2928412,5.3501336942071385],[100.29301549232524,5.351163721416759]]]},"properties":{"place_id":"768114ba-86f9-5374-a174-59d20f4f29a3","habitat":"forest_edge_opening","habitat_label":"Forest edge or opening","resolution_m":50}},{"type":"Feature","geometry":{"type":"Polygon","coordinates":[[[100.29353370071581,5.3507701202161195],[100.29353370071581,5.350376519262007],[100.29301549232524,5.350376519262007],[100.29301549232524,5.3507701202161195],[100.29353370071581,5.3507701202161195]]]},"properties":{"place_id":"768114ba-86f9-5374-a174-59d20f4f29a3","habitat":"open_grassland","habitat_label":"Open grassland or shrubland","resolution_m":50}},{"type":"Feature","geometry":{"type":"Polygon","coordinates":[[[100.2929212,5.351200094206062],[100.29391769999998,5.350887894206393],[100.2936112,5.349941694207363],[100.2928412,5.3501336942071385],[100.2929212,5.351200094206062]]]},"properties":{"place_id":"768114ba-86f9-5374-a174-59d20f4f29a3","habitat":"disturbed_built_edge","habitat_label":"Disturbed, bare or built edge","resolution_m":50}}]}