{"type":"FeatureCollection","metadata":{"schema_version":1,"place_id":"772961a7-b3d9-5c25-8e2b-74386f5bffb0","place_name":"KAED Courtyard Park · OSM way/761934424","place_type":"park","osm_reference":"way/761934424","protection_context":"no protected status confirmed from included OSM tags","resolution_m":50,"raster_coverage":1.0,"interpretation":"Suggested search habitats, not predicted plant locations or probabilities of presence."},"features":[{"type":"Feature","geometry":{"type":"Polygon","coordinates":[[[101.7306551,3.25177039640704],[101.73090189999999,3.251909696406871],[101.7308348,3.2516994964071153],[101.7306551,3.25177039640704]]]},"properties":{"place_id":"772961a7-b3d9-5c25-8e2b-74386f5bffb0","habitat":"disturbed_built_edge","habitat_label":"Disturbed, bare or built edge","resolution_m":50}}]}