{"type":"FeatureCollection","metadata":{"schema_version":1,"place_id":"780d66b6-f0bf-5b29-a062-0e54cc1d7258","place_name":"Hutan Simpanan Kekal Serting","place_type":"forest","osm_reference":"relation/16412964","protection_context":"mapped protected boundary","resolution_m":50,"raster_coverage":1.0,"interpretation":"Suggested search habitats, not predicted plant locations or probabilities of presence."},"features":[{"type":"Feature","geometry":{"type":"MultiPolygon","coordinates":[[[[102.30159121413828,2.8422463721806515],[102.3014397806819,2.8414615696675143],[102.30055479735717,2.84106916860569],[102.30107300574772,2.840501239266986],[102.30055479735717,2.8402843668714417],[102.30003658896662,2.837929964782594],[102.29951838057605,2.837929964782594],[102.29951838057605,2.8367527654888427],[102.29900017218549,2.8367527654888427],[102.29900017218549,2.835575567361558],[102.29848196379491,2.835575567361558],[102.29796375540435,2.832828776264746],[102.29744554701381,2.832828776264746],[102.29744554701381,2.8312591842000705],[102.29692733862325,2.8312591842000705],[102.29724347543687,2.8304743889439328],[102.29492419999998,2.824401696870115],[102.2911262,2.8244552968700622],[102.28893759999997,2.827702196866534],[102.2869742,2.8276378968666207],[102.28490779999998,2.829364096864709],[102.285168,2.8298938968641485],[102.2880004,2.830815796863173],[102.2882371,2.8326524968611273],[102.2875143,2.8332324968605325],[102.2874519,2.8346101968589994],[102.2879192,2.835510296858025],[102.2886395,2.835313396858265],[102.2888604,2.835584596857935],[102.2878221,2.836672896856782],[102.2876417,2.8386365968546494],[102.28823579999998,2.838936596854324],[102.2894146,2.8421114968508743],[102.2942483,2.8468724968456596],[102.29760649999999,2.8484690968439557],[102.3035771,2.8477886968446753],[102.3043656,2.8466688968459124],[102.30320159999998,2.8452061968474824],[102.30396869999998,2.843941796848884],[102.3032284,2.8424094968505464],[102.30265039219881,2.843031175213229],[102.30366404770052,2.8434235769243528],[102.30366404770052,2.8438159787653903],[102.30262763091942,2.8442083807363603],[102.30159121413828,2.8422463721806515]]],[[[102.30262763091942,2.8434235769243528],[102.30262763091942,2.8430556561955473],[102.30228555538474,2.8434235769243528],[102.30262763091942,2.8434235769243528]]],[[[102.26612809999999,2.928040296757462],[102.26668070211825,2.9262232718888663],[102.26635304358017,2.9258308423659596],[102.26680004973832,2.9258308423659596],[102.2670829,2.9249007967608707],[102.2632437932368,2.920636946984424],[102.26272558484625,2.920729270728771],[102.26272558484625,2.920336843076093],[102.26168916806512,2.919944415556868],[102.26168916806512,2.919551988171076],[102.26220737645568,2.919551988171076],[102.26168916806512,2.9189103289486567],[102.26117095967456,2.9191595609187],[102.26117095967456,2.9187671337997227],[102.260652751284,2.9187671337997227],[102.26117095967456,2.91798227996189],[102.26189044328349,2.9183747068141264],[102.26256069999997,2.917871796768505],[102.26244809999999,2.916784296769671],[102.2609138,2.9170520967693894],[102.25670809999998,2.9147108967719384],[102.25497009999997,2.9121285967747292],[102.2576094,2.9104463967765546],[102.25947619999998,2.912064296774812],[102.25961633450288,2.9113110438607794],[102.26069256042277,2.910918619405972],[102.26409490000002,2.90771399677954],[102.26293089999999,2.90416739678337],[102.26446509999998,2.9034708967841443],[102.26583483518961,2.9068731174882836],[102.2733861,2.9003340967875473],[102.2757035,2.886551696802557],[102.27375089999998,2.8872802968017557],[102.27142303690604,2.8889430617066787],[102.27101691909522,2.8897278959058097],[102.27049871070464,2.8896032793024515],[102.2676837,2.8917351967968807],[102.2664767,2.891250296797429],[102.26632649999999,2.8905162967981934],[102.26921259999999,2.8835995968057517],[102.2697598,2.883288896806096],[102.27193770000001,2.8744433968157064],[102.27413449999999,2.8731789968170744],[102.2744805,2.872300296818006],[102.2774899,2.871068096819354],[102.27331639999997,2.8711162968193],[102.27110619999998,2.8741567968160013],[102.2687834,2.874204996815966],[102.26855009999998,2.8757024968143385],[102.26373280000001,2.8757452968142845],[102.2634995,2.8738057968164066],[102.2594333,2.873792396816404],[102.2583309,2.879723396809962],[102.2538865,2.8825173968068927],[102.2509924,2.882887096806517],[102.2498963423919,2.8846264830461523],[102.2502885834728,2.8846264830461523],[102.2502885834728,2.885018898628611],[102.24925216669168,2.8854113143428965],[102.24925216669168,2.885018898628611],[102.2476865,2.8849778968042177],[102.24754029999998,2.8867311968023355],[102.2460759,2.887387496801622],[102.2432005,2.8877624968012263],[102.23430099999999,2.8876285968013624],[102.231608,2.881285096808253],[102.2334051,2.8787830968109747],[102.2341937,2.8745612968155605],[102.2262061,2.8711001968193335],[102.22324489999997,2.8758149968141966],[102.2213244,2.876629296813325],[102.21980089999998,2.8784830968112964],[102.2137606,2.8792545968104495],[102.21280569999999,2.8793188968103993],[102.2089755,2.873200396817046],[102.20598759999999,2.8718931968184647],[102.20365939999999,2.8723431968179645],[102.20033879999998,2.8701143968204015],[102.1927053,2.8701572968203513],[102.19168069999999,2.870548396819941],[102.1855867,2.8704036968200732],[102.1856296,2.8710519968193777],[102.18251819999999,2.8701572968203513],[102.1811825,2.87229499681801],[102.17862899999999,2.8738700968163293],[102.1768481,2.8741460968160015],[102.1767917,2.8745210968156165],[102.17491419999999,2.8746040968155104],[102.1749222,2.8766185968133224],[102.1733987,2.876698996813221],[102.171843,2.8758765968141367],[102.1697509,2.8708322968196294],[102.17259939999998,2.8682713968224025],[102.1716446,2.864649496826317],[102.1697402,2.8627528968284097],[102.16582061581141,2.860337420068089],[102.16582061581141,2.8606893810848484],[102.16530240742084,2.8606893810848484],[102.16478419903028,2.860030147393316],[102.1628094,2.8595114968319164],[102.16219315707748,2.859528902566291],[102.16271136546804,2.860296973640431],[102.16115674029635,2.8610817886599738],[102.1606385319058,2.860296973640431],[102.16115674029635,2.860296973640431],[102.16167494868692,2.859543539322982],[102.16034169999999,2.8595811968318685],[102.15804748995299,2.85839771602242],[102.15804748995299,2.858727345169484],[102.15752928156245,2.858727345169484],[102.15752928156245,2.858334938378337],[102.15701107317187,2.858334938378337],[102.15721686108327,2.8579425317177907],[102.1541405,2.8567950968348734],[102.15357719999999,2.855246696836587],[102.14913549999999,2.852626796839428],[102.14894229999999,2.852176696839913],[102.14445229999997,2.850301496841931],[102.143197,2.8483940968440122],[102.1416628,2.8482655968441777],[102.13957069999998,2.849004896843367],[102.13923269999997,2.850215796842041],[102.14018759999999,2.8563075968354044],[102.13805260000001,2.856998696834667],[102.13232869999999,2.847161796845381],[102.1284771,2.845575896847066],[102.1266746,2.8456616968469706],[102.12259769999999,2.8478261968446263],[102.11955069999999,2.8514051968407212],[102.1186924,2.8514265968407133],[102.1181881,2.8505050968417365],[102.11736199999997,2.850483696841755],[102.1162891,2.855305696836498],[102.1169328,2.857727396833883],[102.1163857,2.8580702968334912],[102.114594,2.857973796833587],[102.1136606,2.858648896832867],[102.1113968,2.8618527968293974],[102.1090794,2.8631707968279403],[102.10501539999998,2.8680341968226553],[102.1059515,2.8687982968218217],[102.10546969999999,2.8709334968194833],[102.10625209999999,2.8730310968172317],[102.1047937,2.876957496812955],[102.10703809999998,2.878769196810971],[102.1094285,2.8790202968107335],[102.11473829999998,2.884348096804933],[102.11941359999999,2.8865914968024913],[102.1254172,2.890866296797839],[102.1298489,2.895763496792521],[102.13204530000002,2.8960912967921724],[102.1335207,2.8958632967924016],[102.1387169,2.898356496789699],[102.14145019999998,2.899190896788808],[102.1421941,2.898529196789514],[102.14326110000002,2.8954258967928883],[102.14489919999998,2.895196196793146],[102.14748229999998,2.893777296794702],[102.14845069999998,2.8938468967946],[102.15013139999999,2.8949739967933503],[102.15289949999999,2.895336196792973],[102.15393119999997,2.895877596792393],[102.15622050000002,2.8988843967891054],[102.15772149999998,2.8996019967883404],[102.15946419999999,2.8985982967894226],[102.1613213,2.89863419678939],[102.1627871,2.8993253967886443],[102.16478139999998,2.8993894967885594],[102.16580039999998,2.9014306967863708],[102.16911099999999,2.903116296784517],[102.1699824,2.9030411967846055],[102.1740096,2.900510996787359],[102.1772336,2.899258896788713],[102.17883419999998,2.897800496790297],[102.1819343,2.896678796791516],[102.18391840000001,2.896678696791517],[102.1878869,2.893908196794525],[102.1894132,2.893754196794696],[102.19170199999999,2.8966779967915115],[102.1939912,2.897908996790174],[102.19764979999997,2.9043868967831634],[102.19795809999998,2.906526796780831],[102.2026044,2.9110790967758664],[102.2072677,2.909295996777805],[102.20818339999998,2.9097575967773186],[102.2115872,2.910300396776727],[102.21482519999998,2.9082972967788785],[102.217254,2.907613896779649],[102.22087980000002,2.907531796779738],[102.22588850000001,2.9034457967841814],[102.2307722,2.9057536967816735],[102.2319931,2.9071385967801504],[102.2342825,2.9068304967804797],[102.23851919999998,2.90312529678451],[102.24298209999999,2.905136496782347],[102.2435273,2.906669696780659],[102.24042929999999,2.910677296776308],[102.2384022,2.9169870967694522],[102.23762959999998,2.9181776967681508],[102.23743959999999,2.920117596766068],[102.2402328,2.924681596761092],[102.24267499999999,2.923296296762628],[102.24404859999999,2.92329609676262],[102.24511689999999,2.923911496761918],[102.2481695,2.9234493967624524],[102.2490851,2.924372696761419],[102.2492879,2.9277370967577627],[102.24984779999998,2.9291433967562717],[102.25379799999999,2.9335180967515093],[102.2579527,2.9316430967535365],[102.26284500000001,2.9316778967534907],[102.26612809999999,2.928040296757462]],[[102.21867787164858,2.9022853150220276],[102.21919608003914,2.9015004723547517],[102.22023249682027,2.9018928936220876],[102.21971428842971,2.902677736554589],[102.21867787164858,2.9022853150220276]],[[102.226450997507,2.8909051481948795],[102.22696920589756,2.890120313203431],[102.22800562267868,2.890512730633115],[102.22748741428812,2.8912975658887414],[102.226450997507,2.8909051481948795]],[[102.17618478362262,2.8807023344680998],[102.17670299201318,2.879917506332612],[102.1777394087943,2.8803099203345512],[102.17722120040374,2.881094748733277],[102.17618478362262,2.8807023344680998]],[[102.26894408553297,2.875600960992435],[102.26946229392352,2.8748161362757743],[102.27049871070464,2.8752085485684162],[102.2699805023141,2.8759933735478462],[102.26894408553297,2.875600960992435]],[[102.15908390673411,2.868537557445921],[102.15960211512468,2.86775273745295],[102.1606385319058,2.86775273745295],[102.1606385319058,2.86814514738391],[102.16115674029635,2.86814514738391],[102.1606385319058,2.8689299676389997],[102.15960211512468,2.8689299676389997],[102.15960211512468,2.868537557445921],[102.15908390673411,2.868537557445921]]]]},"properties":{"place_id":"780d66b6-f0bf-5b29-a062-0e54cc1d7258","habitat":"forest_interior","habitat_label":"Forest interior","resolution_m":50}},{"type":"Feature","geometry":{"type":"MultiPolygon","coordinates":[[[[102.15752928156245,2.858334938378337],[102.15752928156245,2.858727345169484],[102.15804748995299,2.858727345169484],[102.15804748995299,2.85839771602242],[102.15701107317187,2.8579425317177907],[102.15701107317187,2.858334938378337],[102.15752928156245,2.858334938378337]]],[[[102.15856569834355,2.858727345169484],[102.15868648533748,2.858727345169484],[102.15856569834355,2.8586650365530772],[102.15856569834355,2.858727345169484]]],[[[102.16271136546804,2.859904566326705],[102.16167494868692,2.859543539322982],[102.1606385319058,2.8606893810848484],[102.16167494868692,2.8610817886599738],[102.16271136546804,2.859904566326705]]],[[[102.16478419903028,2.860030147393316],[102.16530240742084,2.8606893810848484],[102.16582061581141,2.8606893810848484],[102.16582061581141,2.860337420068089],[102.16478419903028,2.860030147393316]]],[[[102.1606385319058,2.86775273745295],[102.15960211512468,2.86775273745295],[102.15908390673411,2.868537557445921],[102.15960211512468,2.868537557445921],[102.15960211512468,2.8689299676389997],[102.1606385319058,2.8689299676389997],[102.1606385319058,2.868537557445921],[102.16115674029635,2.868537557445921],[102.1606385319058,2.86775273745295]]],[[[102.17722120040374,2.879917506332612],[102.17618478362262,2.8803099203345512],[102.17670299201318,2.881094748733277],[102.1777394087943,2.8807023344680998],[102.17722120040374,2.879917506332612]]],[[[102.2502885834728,2.8846264830461523],[102.24971290000002,2.8849175968043155],[102.2487339583011,2.885018898628611],[102.24977037508222,2.8854113143428965],[102.24977037508222,2.885018898628611],[102.2502885834728,2.885018898628611],[102.2502885834728,2.8846264830461523]]],[[[102.22748741428812,2.890120313203431],[102.226450997507,2.890512730633115],[102.22696920589756,2.8912975658887414],[102.22800562267868,2.8909051481948795],[102.22748741428812,2.890120313203431]]],[[[102.21971428842971,2.9015004723547517],[102.21867787164858,2.9018928936220876],[102.21919608003914,2.902677736554589],[102.22023249682027,2.9022853150220276],[102.21971428842971,2.9015004723547517]]],[[[102.26635304358017,2.906655193872325],[102.26583483518961,2.9066019591783716],[102.2659081,2.907055096780256],[102.26635304358017,2.906655193872325]]],[[[102.26013454289344,2.910918619405972],[102.26013454289344,2.9113110438607794],[102.25961633450288,2.9113110438607794],[102.25961633450288,2.911932305470385],[102.26069256042277,2.910918619405972],[102.26013454289344,2.910918619405972]]],[[[102.26168916806512,2.91798227996189],[102.260652751284,2.9183747068141264],[102.26117095967456,2.9191595609187],[102.26168916806512,2.9191595609187],[102.26168916806512,2.91798227996189]]],[[[102.26220737645568,2.919551988171076],[102.26168916806512,2.919551988171076],[102.26168916806512,2.919944415556868],[102.2632437932368,2.920729270728771],[102.26220737645568,2.919551988171076]]],[[[102.29724347543687,2.8304743889439328],[102.29692733862325,2.8312591842000705],[102.29744554701381,2.8312591842000705],[102.29744554701381,2.832828776264746],[102.29796375540435,2.832828776264746],[102.29796375540435,2.834005971672172],[102.29848196379491,2.834005971672172],[102.29848196379491,2.835575567361558],[102.29900017218549,2.835575567361558],[102.29951838057605,2.837929964782594],[102.30003658896662,2.837929964782594],[102.30003658896662,2.838714764960039],[102.30039070437066,2.838714764960039],[102.29724347543687,2.8304743889439328]]],[[[102.28759958759316,2.834790769257831],[102.28751671473756,2.834790769257831],[102.28759958759316,2.834951800722814],[102.28759958759316,2.834790769257831]]],[[[102.30069044045958,2.839499565656273],[102.30055479735717,2.8402843668714417],[102.30099017654851,2.8402843668714417],[102.30069044045958,2.839499565656273]]],[[[102.30107300574772,2.840501239266986],[102.30055479735717,2.84106916860569],[102.3014397806819,2.8414615696675143],[102.30107300574772,2.840501239266986]]],[[[102.30159121413828,2.8422463721806515],[102.30173951677082,2.8422463721806515],[102.30159121413828,2.8418580695955433],[102.30159121413828,2.8422463721806515]]],[[[102.30314583930996,2.843031175213229],[102.30210942252886,2.8434235769243528],[102.30262763091942,2.8442083807363603],[102.30366404770052,2.8438159787653903],[102.30314583930996,2.843031175213229]]],[[[102.2699805023141,2.8752085485684162],[102.2699805023141,2.8748161362757743],[102.26946229392352,2.8748161362757743],[102.26894408553297,2.875600960992435],[102.2699805023141,2.8759933735478462],[102.2699805023141,2.875600960992435],[102.27049871070464,2.875600960992435],[102.27049871070464,2.8752085485684162],[102.2699805023141,2.8752085485684162]]],[[[102.27049871070464,2.8896032793024515],[102.27101691909522,2.8897278959058097],[102.27153512748576,2.8889430617066787],[102.27049871070464,2.8896032793024515]]],[[[102.26894408553297,2.8907514441019853],[102.26874715953214,2.8909051481948795],[102.26894408553297,2.8909051481948795],[102.26894408553297,2.8907514441019853]]],[[[102.2684258771424,2.891155914607809],[102.26824439329116,2.8912975658887414],[102.2684258771424,2.8912975658887414],[102.2684258771424,2.891155914607809]]],[[[102.26687125197073,2.925438412976759],[102.26687125197073,2.9255967208101477],[102.2669193973584,2.925438412976759],[102.26687125197073,2.925438412976759]]],[[[102.26635304358017,2.9258308423659596],[102.26635304358017,2.9262232718888663],[102.26668070211825,2.9262232718888663],[102.26680004973832,2.9258308423659596],[102.26635304358017,2.9258308423659596]]],[[[102.26656135449817,2.926615701545496],[102.26635304358017,2.9270081313358656],[102.26644200687811,2.9270081313358656],[102.26656135449817,2.926615701545496]]]]},"properties":{"place_id":"780d66b6-f0bf-5b29-a062-0e54cc1d7258","habitat":"forest_edge_opening","habitat_label":"Forest edge or opening","resolution_m":50}},{"type":"Feature","geometry":{"type":"MultiPolygon","coordinates":[[[[102.15752928156245,2.858334938378337],[102.15790089999999,2.858322096833229],[102.15752928156245,2.8581158901364003],[102.15752928156245,2.858334938378337]]],[[[102.16219315707748,2.859904566326705],[102.16167494868692,2.859904566326705],[102.16167494868692,2.860296973640431],[102.16219315707748,2.860296973640431],[102.16219315707748,2.859904566326705]]],[[[102.16530240742084,2.860296973640431],[102.1657495549888,2.860296973640431],[102.16530240742084,2.8601662468865983],[102.16530240742084,2.860296973640431]]],[[[102.16167494868692,2.8606893810848484],[102.16167494868692,2.860296973640431],[102.16115674029635,2.860296973640431],[102.16115674029635,2.8606893810848484],[102.16167494868692,2.8606893810848484]]],[[[102.1606385319058,2.86814514738391],[102.15960211512468,2.86814514738391],[102.15960211512468,2.868537557445921],[102.1606385319058,2.868537557445921],[102.1606385319058,2.86814514738391]]],[[[102.17722120040374,2.8803099203345512],[102.17670299201318,2.8803099203345512],[102.17670299201318,2.8807023344680998],[102.17722120040374,2.8807023344680998],[102.17722120040374,2.8803099203345512]]],[[[102.24925216669168,2.885018898628611],[102.24977037508222,2.884826386760427],[102.24925216669168,2.8849313069394777],[102.24925216669168,2.885018898628611]]],[[[102.22748741428812,2.890512730633115],[102.22696920589756,2.890512730633115],[102.22696920589756,2.8909051481948795],[102.22748741428812,2.8909051481948795],[102.22748741428812,2.890512730633115]]],[[[102.21971428842971,2.9018928936220876],[102.21919608003914,2.9018928936220876],[102.21919608003914,2.9022853150220276],[102.21971428842971,2.9022853150220276],[102.21971428842971,2.9018928936220876]]],[[[102.26013454289344,2.9113110438607794],[102.26013454289344,2.911444210235433],[102.26027592503829,2.9113110438607794],[102.26013454289344,2.9113110438607794]]],[[[102.26168916806512,2.9183747068141264],[102.26117095967456,2.9183747068141264],[102.26117095967456,2.9187671337997227],[102.2615602368489,2.9187671337997227],[102.26168916806512,2.9183747068141264]]],[[[102.26226691023334,2.919551988171076],[102.26220737645568,2.919944415556868],[102.26262024692554,2.919944415556868],[102.26226691023334,2.919551988171076]]],[[[102.2975432115258,2.8312591842000705],[102.29744554701381,2.8310034703718907],[102.29744554701381,2.8312591842000705],[102.2975432115258,2.8312591842000705]]],[[[102.29796375540435,2.832828776264746],[102.29814268370367,2.832828776264746],[102.29796375540435,2.832360289854468],[102.29796375540435,2.832828776264746]]],[[[102.29848196379491,2.834005971672172],[102.29859228783705,2.834005971672172],[102.29848196379491,2.8337171108842347],[102.29848196379491,2.834005971672172]]],[[[102.29919176001492,2.835575567361558],[102.29900017218549,2.835073933461932],[102.29900017218549,2.835575567361558],[102.29919176001492,2.835575567361558]]],[[[102.29951838057605,2.8367527654888427],[102.29964136414831,2.8367527654888427],[102.29951838057605,2.8364307575883116],[102.29951838057605,2.8367527654888427]]],[[[102.30003658896662,2.837929964782594],[102.30009096828172,2.837929964782594],[102.30003658896662,2.8377875832641166],[102.30003658896662,2.837929964782594]]],[[[102.30107300574772,2.84106916860569],[102.30114004459297,2.8406767676736724],[102.30107300574772,2.8406767676736724],[102.30107300574772,2.84106916860569]]],[[[102.30314583930996,2.8434235769243528],[102.30262763091942,2.8434235769243528],[102.30262763091942,2.8438159787653903],[102.30314583930996,2.8438159787653903],[102.30314583930996,2.8434235769243528]]],[[[102.2699805023141,2.8752085485684162],[102.26946229392352,2.8752085485684162],[102.26946229392352,2.875600960992435],[102.2699805023141,2.875600960992435],[102.2699805023141,2.8752085485684162]]],[[[102.27101691909522,2.889335478740231],[102.27101691909522,2.8892331358719083],[102.27087363417148,2.889335478740231],[102.27101691909522,2.889335478740231]]],[[[102.26588365631711,2.9069943821709634],[102.2659081,2.907055096780256],[102.2659756528263,2.9069943821709634],[102.26588365631711,2.9069943821709634]]],[[[102.26272558484625,2.920336843076093],[102.26297358361776,2.920336843076093],[102.26272558484625,2.920061407352165],[102.26272558484625,2.920336843076093]]]]},"properties":{"place_id":"780d66b6-f0bf-5b29-a062-0e54cc1d7258","habitat":"open_grassland","habitat_label":"Open grassland or shrubland","resolution_m":50}},{"type":"Feature","geometry":{"type":"Polygon","coordinates":[[[102.26656135449817,2.926615701545496],[102.26635304358017,2.9270081313358656],[102.26644200687811,2.9270081313358656],[102.26656135449817,2.926615701545496]]]},"properties":{"place_id":"780d66b6-f0bf-5b29-a062-0e54cc1d7258","habitat":"disturbed_built_edge","habitat_label":"Disturbed, bare or built edge","resolution_m":50}}]}