{"type":"FeatureCollection","metadata":{"schema_version":1,"place_id":"78a08ce9-addf-5ef5-aa9c-3b4b7bb34c52","place_name":"Taman Poket Lengkok Sungai Emas 4","place_type":"park","osm_reference":"way/995120798","protection_context":"no protected status confirmed from included OSM tags","resolution_m":50,"raster_coverage":1.0,"interpretation":"Suggested search habitats, not predicted plant locations or probabilities of presence."},"features":[{"type":"Feature","geometry":{"type":"Polygon","coordinates":[[[100.2517308,5.470325694085677],[100.2517797,5.470542094085451],[100.25219320000001,5.470529294085437],[100.2517308,5.470325694085677]]]},"properties":{"place_id":"78a08ce9-addf-5ef5-aa9c-3b4b7bb34c52","habitat":"forest_edge_opening","habitat_label":"Forest edge or opening","resolution_m":50}},{"type":"Feature","geometry":{"type":"Polygon","coordinates":[[[100.2517308,5.470325694085677],[100.2517797,5.470542094085451],[100.25219320000001,5.470529294085437],[100.2517308,5.470325694085677]]]},"properties":{"place_id":"78a08ce9-addf-5ef5-aa9c-3b4b7bb34c52","habitat":"disturbed_built_edge","habitat_label":"Disturbed, bare or built edge","resolution_m":50}}]}