{"type":"FeatureCollection","metadata":{"schema_version":1,"place_id":"78a31acb-c455-5ce7-bcae-630d5157382a","place_name":"Tanah Lapang Gelugor","place_type":"park","osm_reference":"way/291199644","protection_context":"no protected status confirmed from included OSM tags","resolution_m":50,"raster_coverage":1.0,"interpretation":"Suggested search habitats, not predicted plant locations or probabilities of presence."},"features":[{"type":"Feature","geometry":{"type":"Polygon","coordinates":[[[100.30721179999999,5.384994794171834],[100.30752532726093,5.384620726493662],[100.30736520411791,5.384620726493662],[100.30721179999999,5.384994794171834]]]},"properties":{"place_id":"78a31acb-c455-5ce7-bcae-630d5157382a","habitat":"forest_edge_opening","habitat_label":"Forest edge or opening","resolution_m":50}},{"type":"Feature","geometry":{"type":"Polygon","coordinates":[[[100.30721179999999,5.384994794171834],[100.30772809999999,5.385056694171805],[100.30747609999999,5.384531194172337],[100.30740639999999,5.384536494172303],[100.30721179999999,5.384994794171834]]]},"properties":{"place_id":"78a31acb-c455-5ce7-bcae-630d5157382a","habitat":"disturbed_built_edge","habitat_label":"Disturbed, bare or built edge","resolution_m":50}}]}