{"type":"FeatureCollection","metadata":{"schema_version":1,"place_id":"78a55a27-15a9-54c6-ab5d-489a140558fb","place_name":"Hutan Simpan Gunung Jerai","place_type":"wood","osm_reference":"relation/7370745","protection_context":"mapped protected boundary","resolution_m":50,"raster_coverage":1.0,"interpretation":"Suggested search habitats, not predicted plant locations or probabilities of presence."},"features":[{"type":"Feature","geometry":{"type":"MultiPolygon","coordinates":[[[[100.38992046136008,5.741346711681528],[100.39043866975065,5.741346711681528],[100.39043866975065,5.740952857033533],[100.38992046136008,5.740952857033533],[100.38992046136008,5.741346711681528]]],[[[100.39147508653177,5.745679130302891],[100.39199329492232,5.745679130302891],[100.39199329492232,5.745285272738983],[100.39147508653177,5.745285272738983],[100.39147508653177,5.745679130302891]]],[[[100.39095687814121,5.746072988131992],[100.39147508653177,5.746072988131992],[100.39147508653177,5.745679130302891],[100.39095687814121,5.745679130302891],[100.39095687814121,5.746072988131992]]],[[[100.39302971170345,5.779157994432894],[100.39302971170345,5.778764114260768],[100.39251150331289,5.778764114260768],[100.39251150331289,5.779157994432894],[100.39302971170345,5.779157994432894]]],[[[100.39251073101882,5.779157994432894],[100.39251150331289,5.779158124667651],[100.39251150331289,5.779157994432894],[100.39251073101882,5.779157994432894]]],[[[100.40080283756187,5.793902021005982],[100.4002846291713,5.7937317485069375],[100.4002846291713,5.793974723652791],[100.40080283756187,5.793902021005982]]],[[[100.41323983893533,5.7378020293869545],[100.41352800000001,5.733952593821179],[100.412703,5.73396729382118],[100.41182509999999,5.731399793823738],[100.4055127,5.731897693823228],[100.3979283,5.730342793824801],[100.3868132,5.730855193824277],[100.384537,5.7323463938227786],[100.3860712,5.7336274938215075],[100.3847515,5.734065193821058],[100.3847515,5.734534893820601],[100.3868112110167,5.734257368542923],[100.38888404457896,5.734651218688954],[100.38836583618841,5.733863518661549],[100.38940225296952,5.733469669044807],[100.38940225296952,5.733863518661549],[100.38992046136008,5.733863518661549],[100.38940225296952,5.734651218688954],[100.39048069999998,5.73478039382036],[100.39161800000001,5.735634393819531],[100.39095687814121,5.736506002750878],[100.39095687814121,5.737972573362078],[100.39147508653177,5.738195881915706],[100.39147508653177,5.740952857033533],[100.39043866975065,5.741346711681528],[100.39043866975065,5.741740566594514],[100.39095687814121,5.741740566594514],[100.39095687814121,5.742528277215525],[100.39043866975065,5.742528277215525],[100.39043866975065,5.742922132923591],[100.39095687814121,5.742922132923591],[100.39095687814121,5.743315988896722],[100.39043866975065,5.743315988896722],[100.39043866975065,5.744103701638247],[100.39095687814121,5.744103701638247],[100.39095687814121,5.744497558406681],[100.39199329492232,5.744103701638247],[100.39199329492232,5.744497558406681],[100.39302971170345,5.744891415440254],[100.39302971170345,5.745285272738983],[100.39251150331289,5.745285272738983],[100.39251150331289,5.745679130302891],[100.39354792009402,5.746072988131992],[100.39302971170345,5.7468607045858535],[100.39406612848457,5.7468607045858535],[100.39406612848457,5.747254563210651],[100.39458433687513,5.747254563210651],[100.39510254526569,5.748830000362725],[100.39406612848457,5.749223860314056],[100.39406612848457,5.748830000362725],[100.39302971170345,5.748436140676736],[100.39302971170345,5.74764842210072],[100.39251150331289,5.74764842210072],[100.39095687814121,5.746072988131992],[100.38992046136008,5.746072988131992],[100.38992046136008,5.745679130302891],[100.38940225296952,5.745679130302891],[100.38940225296952,5.744497558406681],[100.38888404457896,5.744497558406681],[100.38888404457896,5.744103701638247],[100.38940225296952,5.744103701638247],[100.38940225296952,5.743709845134933],[100.38888404457896,5.743709845134933],[100.38888404457896,5.743315988896722],[100.38940225296952,5.743315988896722],[100.38888404457896,5.741346711681528],[100.38940225296952,5.741346711681528],[100.38992046136008,5.740572806912878],[100.38838859999997,5.740278093814883],[100.3882384,5.739445393815731],[100.38940225296952,5.739345965841749],[100.38940225296952,5.738589734709297],[100.38888404457896,5.738589734709297],[100.38836583618841,5.736620473389556],[100.3857747942356,5.736226621919979],[100.38422580000001,5.73439609382075],[100.3832602,5.734374693820786],[100.3830242,5.733392593821765],[100.38137199999998,5.734652293820507],[100.3811037,5.73658449381856],[100.38177969999998,5.738740793816423],[100.3815973,5.740918593814231],[100.38572789999998,5.741692493813488],[100.3880024,5.744249193810898],[100.38673809999999,5.747059893808109],[100.38464599999999,5.7479672938071955],[100.38774489999999,5.7514439938037505],[100.3876698,5.756066193799131],[100.38057799999999,5.752853093802348],[100.37710189999999,5.754475693800722],[100.37563369999998,5.7625169937926985],[100.38145979849699,5.772462067773868],[100.38266554389223,5.772855943680022],[100.38266554389223,5.7732498198526585],[100.38186276225197,5.7736436962917965],[100.3832083,5.7775892937776625],[100.38783929875035,5.778370234355406],[100.38784762779784,5.777976354716787],[100.38836583618841,5.777976354716787],[100.38836583618841,5.778370234355406],[100.39043866975065,5.778808575311194],[100.39043866975065,5.778370234355406],[100.39095687814121,5.778370234355406],[100.39147508653177,5.777582475344895],[100.39251150331289,5.777582475344895],[100.39354792009402,5.779157994432894],[100.39586829999998,5.779724193775584],[100.39551813914643,5.786247883169],[100.39562075365626,5.786641768413179],[100.39613896204682,5.786641768413179],[100.39613896204682,5.787823425748616],[100.39562075365626,5.787823425748616],[100.39541218799896,5.788611198641506],[100.39575629315732,5.790580635550591],[100.39665717043736,5.790974523734304],[100.3959659,5.791780293763556],[100.39717537882792,5.792322339732715],[100.39892469999998,5.792397093762924],[100.4010715,5.7918399937635145],[100.401447,5.793259793762069],[100.40080283756187,5.7937317485069375],[100.40206749999999,5.79372459376161],[100.40317599999999,5.792936093762386],[100.4041969,5.793818893761513],[100.40449089999998,5.794818893760537],[100.4019488,5.795842393759513],[100.3996005,5.796429393758925],[100.39830239999999,5.795760193759596],[100.39665717043736,5.795963589121141],[100.39665717043736,5.796488986385755],[100.39717537882792,5.796488986385755],[100.39700294632912,5.797670663776079],[100.3978363,5.798595493756755],[100.39920519999998,5.79836069375701],[100.39922880000002,5.799393793755971],[100.39757669999999,5.800708693754648],[100.397712,5.8011651937542155],[100.39924821239018,5.801215710402709],[100.39924821239018,5.801609605811228],[100.39976642078074,5.801650173152171],[100.40132104595241,5.801215710402709],[100.40132104595241,5.80082181526202],[100.40235746273353,5.80082181526202],[100.40235746273353,5.801215710402709],[100.40287567112411,5.801215710402709],[100.40287567112411,5.802003501487592],[100.4023679391267,5.802003501487592],[100.4023412,5.803182893752203],[100.40396959999998,5.804509493750865],[100.40547379999997,5.804850793750554],[100.4061372,5.8056787937497205],[100.4059683,5.806770793748629],[100.4080521287191,5.80869976898447],[100.40805775502972,5.808305868751849],[100.40909417181082,5.80869976898447],[100.40857596342028,5.809487570254279],[100.40805775502972,5.809487570254279],[100.40803334852652,5.809093669485273],[100.40805775502972,5.810669274170695],[100.40745241651098,5.811063176012695],[100.40702133824858,5.8142144004089],[100.40660671365559,5.8146083046662325],[100.40702133824858,5.8146083046662325],[100.407058140467,5.815790019049082],[100.40830139999998,5.816431293739016],[100.40978589999999,5.816580693738857],[100.41077499999999,5.817288693738161],[100.41098156163706,5.818153455065317],[100.41116700537306,5.81775954839114],[100.41192576814936,5.818153455065317],[100.4127652,5.818020693737434],[100.4143091,5.815752793739704],[100.4150087,5.816292793739168],[100.4151897,5.818020693737434],[100.4180363,5.818524693736943],[100.4196888,5.820672693734815],[100.42151009999999,5.821872593733595],[100.42142569999999,5.822868593732611],[100.4229093,5.823840593731682],[100.42302609999997,5.824748793730737],[100.4237416,5.824668593730827],[100.42520099999999,5.82576049372974],[100.42483919999998,5.830152393725384],[100.42671325708989,5.832888193722649],[100.4283371,5.832408293723125],[100.4297846,5.833104193722454],[100.43085892421438,5.833001859072168],[100.43137713260494,5.832334274389628],[100.43241354938607,5.832334274389628],[100.43241354938607,5.832728191015627],[100.43366849999998,5.833008193722555],[100.4350918,5.8317362937237975],[100.43655921651055,5.831449112455167],[100.43668399999999,5.830800293724738],[100.4352365,5.829600393725926],[100.4321246,5.827920393727609],[100.4327035,5.826744493728773],[100.4314009,5.826000493729493],[100.43118369999999,5.824848593730647],[100.43340909999999,5.824760893730753],[100.43514229999997,5.825084193730424],[100.4424539,5.828909693726627],[100.4476693,5.832881493722698],[100.4490387,5.831296793724265],[100.4499185,5.831168693724385],[100.45039060000002,5.831819793723742],[100.4514205,5.831926493723626],[100.45158150000002,5.833559493722012],[100.45262367661792,5.833516025075612],[100.45366009339904,5.834633446902539],[100.45509519999999,5.834856293720697],[100.4559481,5.834354693721224],[100.45604710000002,5.833225893722333],[100.45812609999999,5.832817693722747],[100.45884217730465,5.8319403580329325],[100.46094510000002,5.832019893723523],[100.4603764,5.831323493724206],[100.46108449999998,5.831075293724473],[100.4632239,5.822483793733007],[100.4636114,5.816197593739251],[100.4656456,5.806171993749208],[100.46885569999998,5.805991693749434],[100.4698651,5.787756793767562],[100.4713762,5.78427749377102],[100.4721718,5.7803005937750145],[100.4746609,5.7753476937799135],[100.477622,5.774258893781007],[100.47697947097427,5.772462067773868],[100.47749767936483,5.772462067773868],[100.47839449999998,5.771483593783782],[100.47853409614595,5.770492692239696],[100.4780158877554,5.770492692239696],[100.4780158877554,5.77009881793205],[100.478815163924,5.769704943890757],[100.48051880000001,5.766231693789011],[100.4828148,5.764395693790843],[100.48403789999999,5.762730493792469],[100.48433829999999,5.761171993794044],[100.4810338,5.757777393797418],[100.48088359999998,5.754809793800402],[100.47749330000002,5.749835393805347],[100.47687099999997,5.749429693805759],[100.47335201224034,5.750405441760306],[100.47335201224034,5.75001158101283],[100.4728338038498,5.75001158101283],[100.47231559545922,5.748042281256075],[100.4712791786781,5.74764842210072],[100.4712791786781,5.746820789412868],[100.46972455350642,5.745679130302891],[100.46972455350642,5.745285272738983],[100.46920634511585,5.745285272738983],[100.46920634511585,5.743315988896722],[100.46972455350642,5.743315988896722],[100.46972455350642,5.742528277215525],[100.47024276189698,5.742528277215525],[100.47076097028756,5.741740566594514],[100.47024276189698,5.741740566594514],[100.47024276189698,5.74067232233476],[100.4698544,5.740612193814557],[100.4688888,5.738178293816986],[100.4648762,5.736491593818684],[100.4644041,5.73495439382018],[100.45914700000002,5.732093493823057],[100.4520589,5.73073979382438],[100.44997749999999,5.730846593824276],[100.4485613,5.731828693823325],[100.44770299999999,5.731657893823464],[100.4481107,5.730761193824387],[100.44680179999999,5.7296295938255035],[100.44748684692539,5.728743494278641],[100.44420539999999,5.7272169938279225],[100.4425746,5.728818293826313],[100.44329592558783,5.728743494278641],[100.44329592558783,5.729137340721218],[100.44536875915007,5.730318881635495],[100.44536875915007,5.730712729135828],[100.44485055075953,5.730712729135828],[100.44485055075953,5.731106576900648],[100.44536875915007,5.731106576900648],[100.44536875915007,5.731894273223817],[100.44468956139917,5.732681970605154],[100.44510660000002,5.733686193821473],[100.44463459999999,5.736482993818645],[100.44485055075953,5.738195881915706],[100.44536875915007,5.738195881915706],[100.44537538803311,5.739771294679299],[100.44588696754064,5.739771294679299],[100.44588696754064,5.741346711681528],[100.44536875915007,5.741346711681528],[100.44485055075953,5.742134421772507],[100.44329592558783,5.742134421772507],[100.44329592558783,5.741772137131573],[100.44174130041615,5.741740566594514],[100.4393131,5.7409238938142275],[100.4387981,5.739258593815913],[100.43639479999999,5.7380415938171305],[100.43564379999997,5.736418993818745],[100.4336912,5.735287393819876],[100.4341632,5.733814293821311],[100.43349799999999,5.73210619382304],[100.43406669999997,5.73032339382481],[100.43106959999999,5.72923249382593],[100.4277172,5.731540493823596],[100.4258264,5.731567893823591],[100.42387580000002,5.730494293824633],[100.42266479999999,5.7307066938244215],[100.4230068,5.732322093822792],[100.42240259999998,5.732287893822845],[100.42310759999998,5.7358271938193255],[100.42192459999998,5.736078093819074],[100.42320959999999,5.737762393817375],[100.42360400674652,5.739377441091075],[100.42412221513709,5.739377441091075],[100.42308579835598,5.740559002650509],[100.42204938157485,5.740165148532436],[100.4213838,5.738563493816592],[100.4198215,5.738914993816253],[100.41802019999999,5.738587993816549],[100.4178125,5.737769393817386],[100.4169751,5.7370760938180805],[100.41625409999999,5.737104893818051],[100.41624669999999,5.737863893817286],[100.41448560711484,5.739771294679299],[100.41531267249756,5.740165148532436],[100.41531267249756,5.740559002650509],[100.41427625571643,5.740952857033533],[100.41427625571643,5.740559002650509],[100.41375804732587,5.740559002650509],[100.41427625571643,5.7398936227769255],[100.4135946,5.7402326938149155],[100.4126954,5.739717093815456],[100.41246679999999,5.738958793816192],[100.41323983893533,5.7378020293869545]],[[100.39510254526569,5.749223860314056],[100.39562075365626,5.75001158101283],[100.39510254526569,5.75001158101283],[100.39510254526569,5.751193164051535],[100.39406612848457,5.751587025595326],[100.39406612848457,5.751193164051535],[100.39354792009402,5.751193164051535],[100.39354792009402,5.750405441760306],[100.39406612848457,5.750405441760306],[100.39406612848457,5.749617720530752],[100.39510254526569,5.749223860314056]],[[100.44536875915007,5.821698627223574],[100.44640517593119,5.822092536584907],[100.44640517593119,5.822880356114052],[100.44588696754064,5.822880356114052],[100.44588696754064,5.8232742662818975],[100.44485055075953,5.822880356114052],[100.44485055075953,5.822092536584907],[100.44536875915007,5.822092536584907],[100.44536875915007,5.821698627223574]],[[100.44329592558783,5.8205169007522946],[100.44485055075953,5.821304718131039],[100.44433234236895,5.822092536584907],[100.44329592558783,5.822092536584907],[100.44329592558783,5.821698627223574],[100.44277771719727,5.821698627223574],[100.44277771719727,5.820910809307284],[100.44329592558783,5.820910809307284],[100.44329592558783,5.8205169007522946]],[[100.44018667524448,5.8185473620081245],[100.43915025846334,5.818153455065317],[100.43915025846334,5.81775954839114],[100.43966846685392,5.81775954839114],[100.43966846685392,5.8169717358486075],[100.43915025846334,5.8169717358486075],[100.43966846685392,5.816183924380379],[100.44018667524448,5.816183924380379],[100.44070488363504,5.8169717358486075],[100.44174130041615,5.8169717358486075],[100.44174130041615,5.817365641985577],[100.44329592558783,5.818153455065317],[100.44329592558783,5.818941269219582],[100.44277771719727,5.818941269219582],[100.44277771719727,5.81933517669971],[100.44174130041615,5.818941269219582],[100.44174130041615,5.818153455065317],[100.44018667524448,5.818153455065317],[100.44018667524448,5.8185473620081245]],[[100.44070488363504,5.813820496420014],[100.44174130041615,5.813426592699553],[100.44277771719727,5.8146083046662325],[100.44174130041615,5.815002209192026],[100.44070488363504,5.813820496420014]],[[100.42826788226158,5.812638786063837],[100.42878609065212,5.812638786063837],[100.42982250743326,5.811457078122991],[100.43085892421438,5.8118509805016005],[100.43085892421438,5.812638786063837],[100.43034071582383,5.812638786063837],[100.43034071582383,5.813426592699553],[100.42982250743326,5.813426592699553],[100.42982250743326,5.813820496420014],[100.4293042990427,5.813820496420014],[100.42826788226158,5.812638786063837]],[[100.43500459133887,5.811457078122991],[100.43655921651055,5.811457078122991],[100.4370774249011,5.8122448831485425],[100.43655921651055,5.8122448831485425],[100.43655921651055,5.812638786063837],[100.43500459133887,5.812638786063837],[100.43500459133887,5.8122448831485425],[100.43448638294831,5.8122448831485425],[100.43500459133887,5.811457078122991]],[[100.44795980110288,5.810275372596971],[100.44692338432176,5.809881471291505],[100.44692338432176,5.809093669485273],[100.44744159271232,5.809093669485273],[100.44744159271232,5.80869976898447],[100.44847800949343,5.809093669485273],[100.44847800949343,5.809881471291505],[100.448996217884,5.809881471291505],[100.45003263466512,5.811063176012695],[100.448996217884,5.811457078122991],[100.44795980110288,5.810275372596971]],[[100.41013058859195,5.805154676543238],[100.41116700537306,5.805548574631065],[100.41064879698251,5.806336371610839],[100.4096123802014,5.805942472986927],[100.41013058859195,5.805154676543238]],[[100.43500459133887,5.805154676543238],[100.43604100811997,5.805548574631065],[100.43552279972943,5.806336371610839],[100.43448638294831,5.805942472986927],[100.43500459133887,5.805154676543238]],[[100.43500459133887,5.797276771045003],[100.43293175777663,5.796095094457548],[100.43293175777663,5.795701202796925],[100.43344996616719,5.795701202796925],[100.43344996616719,5.795307311403867],[100.43293175777663,5.795307311403867],[100.43344996616719,5.79451952942038],[100.43396817455773,5.79451952942038],[100.43500459133887,5.795701202796925],[100.43604100811997,5.795701202796925],[100.43604100811997,5.796095094457548],[100.43655921651055,5.796095094457548],[100.43655921651055,5.797276771045003],[100.43759563329168,5.797276771045003],[100.43811384168222,5.798064556774815],[100.4370774249011,5.798458450041229],[100.43699242697504,5.798064556774815],[100.43552279972943,5.798064556774815],[100.43500459133887,5.797276771045003]],[[100.4370774249011,5.79451952942038],[100.43759563329168,5.79451952942038],[100.43857000000001,5.795583893759768],[100.4380772,5.795585993759772],[100.4377771,5.796140793759197],[100.435764,5.795012893760331],[100.4359978,5.79469139376064],[100.4370774249011,5.794848143286408],[100.4370774249011,5.79451952942038]],[[100.4370774249011,5.790974523734304],[100.43759563329168,5.790974523734304],[100.43759563329168,5.790580635550591],[100.43863205007278,5.790974523734304],[100.43863205007278,5.791762300903778],[100.43915025846334,5.791762300903778],[100.43915025846334,5.792550079142772],[100.43966846685392,5.792550079142772],[100.43966846685392,5.793337858451433],[100.43915025846334,5.793337858451433],[100.43915025846334,5.7937317485069375],[100.43811384168222,5.7937317485069375],[100.43811384168222,5.793337858451433],[100.43759563329168,5.793337858451433],[100.43759563329168,5.791762300903778],[100.4370774249011,5.791762300903778],[100.4370774249011,5.790974523734304]],[[100.42878609065212,5.790974523734304],[100.42982250743326,5.791368412185361],[100.4293042990427,5.7921561898895755],[100.42826788226158,5.791762300903778],[100.42878609065212,5.790974523734304]],[[100.43655921651055,5.789398972603318],[100.43759563329168,5.789792859985116],[100.4370774249011,5.790580635550591],[100.43604100811997,5.790186747634201],[100.43655921651055,5.789398972603318]],[[100.4370774249011,5.786641768413179],[100.43759563329168,5.787429539702968],[100.4370774249011,5.787429539702968],[100.4370774249011,5.788611198641506],[100.43604100811997,5.789005085488788],[100.43604100811997,5.788611198641506],[100.43552279972943,5.788611198641506],[100.43552279972943,5.787823425748616],[100.43500459133887,5.787823425748616],[100.43424041412463,5.786641768413179],[100.43396817455773,5.787035653924495],[100.43293175777663,5.786641768413179],[100.4329586,5.785833693769472],[100.43396817455773,5.785853998191939],[100.43396817455773,5.786247883169],[100.43500459133887,5.785853998191939],[100.43604100811997,5.787035653924495],[100.4370774249011,5.786641768413179]],[[100.41634908927867,5.779551874871801],[100.4173855060598,5.779945755577511],[100.41686729766924,5.7807335177894075],[100.41583088088812,5.780339636550039],[100.41634908927867,5.779551874871801]],[[100.41842192284093,5.778370234355406],[100.41945833962204,5.778764114260768],[100.41894013123148,5.779551874871801],[100.41790371445036,5.779157994432894],[100.41842192284093,5.778370234355406]],[[100.39199329492232,5.775219204713743],[100.39302971170345,5.775219204713743],[100.39302971170345,5.775613082485671],[100.39354792009402,5.775613082485671],[100.39251150331289,5.776794717401214],[100.39147508653177,5.776400838829388],[100.39147508653177,5.775613082485671],[100.39199329492232,5.775613082485671],[100.39199329492232,5.775219204713743]],[[100.39821179560906,5.774037572997456],[100.39924821239018,5.7744314499696525],[100.39873000399962,5.775219204713743],[100.3976935872185,5.7748253272084105],[100.39821179560906,5.774037572997456]],[[100.38162912711111,5.766947833058002],[100.38266554389223,5.767341705235352],[100.38214733550167,5.7681294503887335],[100.38111091872057,5.767735577678923],[100.38162912711111,5.766947833058002]],[[100.40650312985802,5.763402995438763],[100.40598492146748,5.763402995438763],[100.40598492146748,5.762615256672461],[100.40702133824858,5.762221387688316],[100.40702133824858,5.762615256672461],[100.40753954663914,5.762615256672461],[100.40805775502972,5.763402995438763],[100.40909417181082,5.763402995438763],[100.4096123802014,5.764190735269202],[100.40909417181082,5.764190735269202],[100.40857596342028,5.7649784761639316],[100.40753954663914,5.7649784761639316],[100.40753954663914,5.76458460558352],[100.40650312985802,5.764190735269202],[100.40650312985802,5.763402995438763]],[[100.39665717043736,5.757494980619611],[100.39717537882792,5.757494980619611],[100.39717537882792,5.757101115091738],[100.39821179560906,5.757494980619611],[100.39821179560906,5.758676578797834],[100.39873000399962,5.758676578797834],[100.39873000399962,5.759464312245674],[100.39821179560906,5.759464312245674],[100.39821179560906,5.759858179368358],[100.39665717043736,5.759070445388841],[100.39665717043736,5.757494980619611]],[[100.39406612848457,5.757101115091738],[100.39354792009402,5.757101115091738],[100.39354792009402,5.757494980619611],[100.39251150331289,5.757101115091738],[100.39251150331289,5.756707249829601],[100.39354792009402,5.756313384833181],[100.39354792009402,5.755919520102459],[100.39302971170345,5.755919520102459],[100.39354792009402,5.755131791438042],[100.39458433687513,5.755131791438042],[100.39458433687513,5.75552565563742],[100.39510254526569,5.75552565563742],[100.39510254526569,5.756313384833181],[100.39562075365626,5.756313384833181],[100.39562075365626,5.7578888464132385],[100.39613896204682,5.7578888464132385],[100.39613896204682,5.758676578797834],[100.39562075365626,5.758676578797834],[100.39562075365626,5.759070445388841],[100.39406612848457,5.758282712472642],[100.39406612848457,5.757101115091738]],[[100.39251150331289,5.752768611819618],[100.39302971170345,5.752768611819618],[100.39302971170345,5.7531624744254195],[100.39354792009402,5.7531624744254195],[100.39354792009402,5.753950200433689],[100.39406612848457,5.753950200433689],[100.39354792009402,5.754737927504307],[100.39251150331289,5.754737927504307],[100.39251150331289,5.754344063836193],[100.39199329492232,5.754344063836193],[100.39199329492232,5.7531624744254195],[100.39251150331289,5.7531624744254195],[100.39251150331289,5.752768611819618]],[[100.40287567112411,5.749223860314056],[100.40391208790521,5.749617720530752],[100.40391208790521,5.750405441760306],[100.40339387951467,5.750405441760306],[100.40339387951467,5.750799302773202],[100.40235746273353,5.750405441760306],[100.40235746273353,5.749617720530752],[100.40287567112411,5.749617720530752],[100.40287567112411,5.749223860314056]],[[100.43500459133887,5.742528277215525],[100.43604100811997,5.742922132923591],[100.43604100811997,5.743709845134933],[100.43552279972943,5.743709845134933],[100.43552279972943,5.744103701638247],[100.43448638294831,5.743709845134933],[100.43448638294831,5.742922132923591],[100.43500459133887,5.742922132923591],[100.43500459133887,5.742528277215525]],[[100.40080283756187,5.733469669044807],[100.40183925434297,5.733863518661549],[100.40132104595241,5.734651218688954],[100.4002846291713,5.734257368542923],[100.40080283756187,5.733469669044807]],[[100.4316016,5.805487393749905],[100.43285789999999,5.80630549374911],[100.4335454,5.805756393749636],[100.4334682,5.806815693748589],[100.4320263,5.806283693749119],[100.43155339999998,5.806856993748556],[100.43122859999998,5.80631609374911],[100.4316016,5.805487393749905]],[[100.44190679999998,5.748656793806527],[100.44291929999999,5.748755493806428],[100.4420663,5.749988493805207],[100.44134889999998,5.749489393805677],[100.44190679999998,5.748656793806527]]],[[[100.43500459133887,5.787035653924495],[100.43493532647665,5.787035653924495],[100.43500459133887,5.787174835854346],[100.43500459133887,5.787035653924495]]],[[[100.43500459133887,5.786641768413179],[100.43500459133887,5.787035653924495],[100.43552279972943,5.787035653924495],[100.43552279972943,5.786641768413179],[100.43500459133887,5.786641768413179]]],[[[100.44847800949343,5.810669274170695],[100.448996217884,5.810669274170695],[100.448996217884,5.810275372596971],[100.44847800949343,5.810275372596971],[100.44847800949343,5.810669274170695]]],[[[100.44070488363504,5.817365641985577],[100.44070488363504,5.8169717358486075],[100.44018667524448,5.8169717358486075],[100.44018667524448,5.817365641985577],[100.44070488363504,5.817365641985577]]],[[[100.44225950880671,5.818153455065317],[100.44225950880671,5.81775954839114],[100.44174130041615,5.81775954839114],[100.44174130041615,5.818153455065317],[100.44225950880671,5.818153455065317]]]]},"properties":{"place_id":"78a55a27-15a9-54c6-ab5d-489a140558fb","habitat":"forest_interior","habitat_label":"Forest interior","resolution_m":50}},{"type":"Feature","geometry":{"type":"MultiPolygon","coordinates":[[[[100.38940225296952,5.733863518661549],[100.38940225296952,5.733469669044807],[100.38836583618841,5.733863518661549],[100.38836583618841,5.734257368542923],[100.38888404457896,5.734257368542923],[100.38888404457896,5.734651218688954],[100.38848341017092,5.734651218688954],[100.38992046136008,5.734750875241335],[100.38940225296952,5.734651218688954],[100.38992046136008,5.733863518661549],[100.38940225296952,5.733863518661549]]],[[[100.3857747942356,5.734257368542923],[100.3868112110167,5.734425486053628],[100.3868112110167,5.734257368542923],[100.3857747942356,5.734257368542923]]],[[[100.38525658584504,5.735832770715149],[100.3857747942356,5.735832770715149],[100.3857747942356,5.736226621919979],[100.38728029657908,5.736226621919979],[100.38525658584504,5.7354986086724224],[100.38525658584504,5.735832770715149]]],[[[100.38732941940728,5.736620473389556],[100.38836583618841,5.736620473389556],[100.38868407818698,5.737408177123026],[100.3882277,5.735943993819226],[100.38732941940728,5.736257937194015],[100.38732941940728,5.736620473389556]]],[[[100.39095687814121,5.736506002750878],[100.39043779999999,5.736712593818428],[100.39095687814121,5.737972573362078],[100.39095687814121,5.736506002750878]]],[[[100.38940225296952,5.738589734709297],[100.38940225296952,5.739345965841749],[100.3899872,5.739295993815872],[100.38888404457896,5.737864564198042],[100.38888404457896,5.738589734709297],[100.38940225296952,5.738589734709297]]],[[[100.39147508653177,5.740952857033533],[100.39147508653177,5.738195881915706],[100.39109970003756,5.738195881915706],[100.39099569999999,5.740470193814696],[100.38992046136008,5.740572806912878],[100.38992046136008,5.740952857033533],[100.39043866975065,5.740952857033533],[100.39043866975065,5.741346711681528],[100.39147508653177,5.740952857033533]]],[[[100.38940225296952,5.740559002650509],[100.38984870950651,5.740559002650509],[100.38940225296952,5.740473109362172],[100.38940225296952,5.740559002650509]]],[[[100.39302971170345,5.74764842210072],[100.39302971170345,5.748436140676736],[100.39458433687513,5.749223860314056],[100.39458433687513,5.748830000362725],[100.39510254526569,5.748830000362725],[100.39510254526569,5.748042281256075],[100.39458433687513,5.748042281256075],[100.39458433687513,5.747254563210651],[100.39406612848457,5.747254563210651],[100.39406612848457,5.7468607045858535],[100.39302971170345,5.7468607045858535],[100.39302971170345,5.746466846226307],[100.39354792009402,5.746466846226307],[100.39354792009402,5.746072988131992],[100.39251150331289,5.745679130302891],[100.39302971170345,5.744891415440254],[100.39251150331289,5.744891415440254],[100.39199329492232,5.744103701638247],[100.39147508653177,5.744103701638247],[100.39147508653177,5.744497558406681],[100.39043866975065,5.744103701638247],[100.39043866975065,5.743315988896722],[100.39095687814121,5.743315988896722],[100.39095687814121,5.742922132923591],[100.39043866975065,5.742922132923591],[100.39043866975065,5.742528277215525],[100.39095687814121,5.742528277215525],[100.39095687814121,5.741740566594514],[100.38940225296952,5.740952857033533],[100.38940225296952,5.741346711681528],[100.38888404457896,5.741346711681528],[100.38888404457896,5.742528277215525],[100.38940225296952,5.742528277215525],[100.38940225296952,5.743315988896722],[100.38888404457896,5.743315988896722],[100.38888404457896,5.743709845134933],[100.38940225296952,5.743709845134933],[100.38940225296952,5.744103701638247],[100.38888404457896,5.744103701638247],[100.38888404457896,5.744497558406681],[100.38940225296952,5.744497558406681],[100.38940225296952,5.745679130302891],[100.38992046136008,5.745679130302891],[100.38992046136008,5.746072988131992],[100.39095687814121,5.746072988131992],[100.39095687814121,5.746466846226307],[100.39302971170345,5.74764842210072]],[[100.39095687814121,5.745679130302891],[100.39147508653177,5.745679130302891],[100.39147508653177,5.746072988131992],[100.39095687814121,5.746072988131992],[100.39095687814121,5.745679130302891]],[[100.39147508653177,5.745285272738983],[100.39199329492232,5.745285272738983],[100.39199329492232,5.745679130302891],[100.39147508653177,5.745679130302891],[100.39147508653177,5.745285272738983]]],[[[100.39458433687513,5.751587025595326],[100.39458433687513,5.751193164051535],[100.39510254526569,5.751193164051535],[100.39510254526569,5.75001158101283],[100.39562075365626,5.75001158101283],[100.39510254526569,5.749223860314056],[100.39458433687513,5.749223860314056],[100.39458433687513,5.749617720530752],[100.39406612848457,5.749617720530752],[100.39406612848457,5.750405441760306],[100.39354792009402,5.750405441760306],[100.39354792009402,5.751193164051535],[100.39458433687513,5.751587025595326]]],[[[100.39302971170345,5.7531624744254195],[100.39302971170345,5.752768611819618],[100.39199329492232,5.7531624744254195],[100.39199329492232,5.754344063836193],[100.39251150331289,5.754344063836193],[100.39251150331289,5.754737927504307],[100.39354792009402,5.754737927504307],[100.39354792009402,5.754344063836193],[100.39406612848457,5.754344063836193],[100.39406612848457,5.753950200433689],[100.39354792009402,5.753950200433689],[100.39354792009402,5.7531624744254195],[100.39302971170345,5.7531624744254195]]],[[[100.38629300262616,5.75552565563742],[100.38647675285931,5.75552565563742],[100.38629300262616,5.755442403302459],[100.38629300262616,5.75552565563742]]],[[[100.39510254526569,5.75552565563742],[100.39458433687513,5.75552565563742],[100.39458433687513,5.755131791438042],[100.39354792009402,5.755131791438042],[100.39354792009402,5.75552565563742],[100.39302971170345,5.75552565563742],[100.39354792009402,5.756313384833181],[100.39302971170345,5.756313384833181],[100.39251150331289,5.757101115091738],[100.39302971170345,5.757101115091738],[100.39302971170345,5.757494980619611],[100.39406612848457,5.757101115091738],[100.39406612848457,5.758282712472642],[100.39562075365626,5.759070445388841],[100.39562075365626,5.758676578797834],[100.39613896204682,5.758676578797834],[100.39613896204682,5.7578888464132385],[100.39562075365626,5.7578888464132385],[100.39562075365626,5.756313384833181],[100.39510254526569,5.756313384833181],[100.39510254526569,5.75552565563742]]],[[[100.3976935872185,5.757494980619611],[100.3976935872185,5.757101115091738],[100.39665717043736,5.757494980619611],[100.39665717043736,5.759070445388841],[100.39821179560906,5.759858179368358],[100.39821179560906,5.759464312245674],[100.39873000399962,5.759464312245674],[100.39873000399962,5.758676578797834],[100.39821179560906,5.758676578797834],[100.39821179560906,5.757494980619611],[100.3976935872185,5.757494980619611]]],[[[100.38162912711111,5.767341705235352],[100.38111091872057,5.767341705235352],[100.38111091872057,5.767735577678923],[100.38214733550167,5.7681294503887335],[100.38266554389223,5.767341705235352],[100.38214733550167,5.767341705235352],[100.38214733550167,5.766947833058002],[100.38162912711111,5.766947833058002],[100.38162912711111,5.767341705235352]]],[[[100.38186276225197,5.7736436962917965],[100.38266554389223,5.772855943680022],[100.38145979849699,5.772462067773868],[100.38186276225197,5.7736436962917965]]],[[[100.38214733550167,5.774037572997456],[100.38213140475527,5.7744314499696525],[100.38214733550167,5.7744314499696525],[100.38214733550167,5.774037572997456]]],[[[100.39821179560906,5.7744314499696525],[100.3976935872185,5.7744314499696525],[100.3976935872185,5.7748253272084105],[100.39873000399962,5.775219204713743],[100.39924821239018,5.7744314499696525],[100.39873000399962,5.7744314499696525],[100.39873000399962,5.774037572997456],[100.39821179560906,5.774037572997456],[100.39821179560906,5.7744314499696525]]],[[[100.39302971170345,5.775219204713743],[100.39199329492232,5.775219204713743],[100.39199329492232,5.775613082485671],[100.39147508653177,5.775613082485671],[100.39147508653177,5.776400838829388],[100.39199329492232,5.776400838829388],[100.39199329492232,5.776794717401214],[100.39354792009402,5.776006960524213],[100.39302971170345,5.775219204713743]]],[[[100.38783929875035,5.778370234355406],[100.38888404457896,5.77854641343173],[100.38836583618841,5.777976354716787],[100.38784762779784,5.777976354716787],[100.38783929875035,5.778370234355406]]],[[[100.39043866975065,5.778370234355406],[100.39043866975065,5.778808575311194],[100.39251073101882,5.779157994432894],[100.39251150331289,5.778764114260768],[100.39302971170345,5.778764114260768],[100.39302971170345,5.777976354716787],[100.39251150331289,5.777976354716787],[100.39251150331289,5.777582475344895],[100.39147508653177,5.777582475344895],[100.39147508653177,5.777976354716787],[100.39043866975065,5.778370234355406]],[[100.39147508653177,5.778764114260768],[100.39147508653177,5.778370234355406],[100.39199329492232,5.778370234355406],[100.39199329492232,5.778764114260768],[100.39147508653177,5.778764114260768]]],[[[100.39354792009402,5.778764114260768],[100.39251150331289,5.779158124667651],[100.39406612848457,5.779420286822877],[100.39354792009402,5.778764114260768]]],[[[100.39551813914643,5.786247883169],[100.39539619999998,5.78851969376681],[100.39541218799896,5.788611198641506],[100.39562075365626,5.787823425748616],[100.39613896204682,5.787823425748616],[100.39613896204682,5.786641768413179],[100.39562075365626,5.786641768413179],[100.39551813914643,5.786247883169]]],[[[100.39596275625235,5.791762300903778],[100.39665717043736,5.790974523734304],[100.39575629315732,5.790580635550591],[100.39596275625235,5.791762300903778]]],[[[100.39717537882792,5.7921561898895755],[100.3967596755681,5.7921561898895755],[100.39717537882792,5.792322339732715],[100.39717537882792,5.7921561898895755]]],[[[100.39717537882792,5.797670663776079],[100.39717537882792,5.796488986385755],[100.39665717043736,5.796488986385755],[100.39638339999999,5.795970093759408],[100.39717537882792,5.797670663776079]]],[[[100.40080283756187,5.733863518661549],[100.4002846291713,5.733863518661549],[100.4002846291713,5.734257368542923],[100.40132104595241,5.734651218688954],[100.40183925434297,5.733863518661549],[100.40132104595241,5.733863518661549],[100.40132104595241,5.733469669044807],[100.40080283756187,5.733469669044807],[100.40080283756187,5.733863518661549]]],[[[100.41323983893533,5.735832770715149],[100.413621240008,5.736226621919979],[100.41364010895651,5.735832770715149],[100.41323983893533,5.735832770715149]]],[[[100.41323983893533,5.7378020293869545],[100.41323983893533,5.7380253739761],[100.41342480847045,5.7378020293869545],[100.41323983893533,5.7378020293869545]]],[[[100.42360400674652,5.740165148532436],[100.42412221513709,5.739377441091075],[100.42338883543823,5.738983587767747],[100.423545,5.740047593815119],[100.4232047099638,5.740165148532436],[100.42360400674652,5.740165148532436]]],[[[100.42204938157485,5.740165148532436],[100.42241694738745,5.740165148532436],[100.42204938157485,5.739595322733182],[100.42204938157485,5.740165148532436]]],[[[100.41448560711484,5.739771294679299],[100.41375804732587,5.740559002650509],[100.414794464107,5.740952857033533],[100.41531267249756,5.740165148532436],[100.41448560711484,5.739771294679299]]],[[[100.42256758996541,5.740385244553278],[100.42308579835598,5.740559002650509],[100.42308579835598,5.740206227085581],[100.42256758996541,5.740385244553278]]],[[[100.40287567112411,5.749617720530752],[100.40235746273353,5.749617720530752],[100.40235746273353,5.750405441760306],[100.40339387951467,5.750799302773202],[100.40339387951467,5.750405441760306],[100.40391208790521,5.750405441760306],[100.40391208790521,5.749617720530752],[100.40339387951467,5.749617720530752],[100.40339387951467,5.749223860314056],[100.40287567112411,5.749223860314056],[100.40287567112411,5.749617720530752]]],[[[100.40909417181082,5.7637968652209555],[100.40909417181082,5.763402995438763],[100.40805775502972,5.763402995438763],[100.40702133824858,5.762221387688316],[100.40598492146748,5.762615256672461],[100.40598492146748,5.763402995438763],[100.40650312985802,5.763402995438763],[100.40650312985802,5.764190735269202],[100.40702133824858,5.764190735269202],[100.40753954663914,5.7649784761639316],[100.40857596342028,5.7649784761639316],[100.40857596342028,5.76458460558352],[100.4096123802014,5.764190735269202],[100.4096123802014,5.7637968652209555],[100.40909417181082,5.7637968652209555]],[[100.40805775502972,5.764190735269202],[100.40753954663914,5.764190735269202],[100.40753954663914,5.7637968652209555],[100.40805775502972,5.7637968652209555],[100.40805775502972,5.764190735269202]]],[[[100.41842192284093,5.778764114260768],[100.41790371445036,5.778764114260768],[100.41790371445036,5.779157994432894],[100.41894013123148,5.779551874871801],[100.41945833962204,5.778764114260768],[100.41894013123148,5.778764114260768],[100.41894013123148,5.778370234355406],[100.41842192284093,5.778370234355406],[100.41842192284093,5.778764114260768]]],[[[100.41634908927867,5.779945755577511],[100.41583088088812,5.779945755577511],[100.41583088088812,5.780339636550039],[100.41686729766924,5.7807335177894075],[100.4173855060598,5.779945755577511],[100.41686729766924,5.779945755577511],[100.41686729766924,5.779551874871801],[100.41634908927867,5.779551874871801],[100.41634908927867,5.779945755577511]]],[[[100.40235746273353,5.793337858451433],[100.40235746273353,5.793387897168822],[100.40244811840408,5.793337858451433],[100.40235746273353,5.793337858451433]]],[[[100.40017649999999,5.793989893761362],[100.40080283756187,5.7937317485069375],[100.40080283756187,5.793467474766126],[100.4000897,5.793697393761665],[100.40017649999999,5.793989893761362]]],[[[100.40132104595241,5.7937317485069375],[100.40080283756187,5.793902021005982],[100.40132104595241,5.793829318368285],[100.40132104595241,5.7937317485069375]]],[[[100.40183925434297,5.7937317485069375],[100.40183925434297,5.793756615739704],[100.40201650253888,5.7937317485069375],[100.40183925434297,5.7937317485069375]]],[[[100.40080283756187,5.801376173979303],[100.4015623,5.801175393754221],[100.4023679391267,5.802003501487592],[100.40287567112411,5.802003501487592],[100.40287567112411,5.801215710402709],[100.40235746273353,5.801215710402709],[100.40235746273353,5.80082181526202],[100.40132104595241,5.80082181526202],[100.40080283756187,5.801376173979303]]],[[[100.39976642078074,5.801609605811228],[100.39924821239018,5.801609605811228],[100.39924821239018,5.801215710402709],[100.39821179560906,5.801215710402709],[100.398978,5.801618793753758],[100.39976642078074,5.801609605811228]]],[[[100.41013058859195,5.805154676543238],[100.4096123802014,5.805942472986927],[100.41064879698251,5.806336371610839],[100.41116700537306,5.805548574631065],[100.41013058859195,5.805154676543238]]],[[[100.40805775502972,5.808305868751849],[100.40805775502972,5.809487570254279],[100.40857596342028,5.809487570254279],[100.40909417181082,5.80869976898447],[100.40857596342028,5.80869976898447],[100.40857596342028,5.808305868751849],[100.40805775502972,5.808305868751849]]],[[[100.40805775502972,5.810669274170695],[100.40805775502972,5.809881471291505],[100.4079897104829,5.809881471291505],[100.40768922786155,5.810669274170695],[100.40805775502972,5.810669274170695]]],[[[100.40753954663914,5.811063176012695],[100.40753954663914,5.810851084362515],[100.40745241651098,5.811063176012695],[100.40753954663914,5.811063176012695]]],[[[100.40702133824858,5.8142144004089],[100.40702133824858,5.813426592699553],[100.40686246854301,5.813426592699553],[100.40669196528474,5.8142144004089],[100.40702133824858,5.8142144004089]]],[[[100.40702133824858,5.8146083046662325],[100.40659859999998,5.814645793740779],[100.40702133824858,5.815748632469055],[100.40702133824858,5.8146083046662325]]],[[[100.407058140467,5.815790019049082],[100.4073585,5.816127793739337],[100.40753954663914,5.816037242941097],[100.40753954663914,5.815790019049082],[100.407058140467,5.815790019049082]]],[[[100.411354,5.818488693736972],[100.41168521376363,5.81775954839114],[100.41116700537306,5.81775954839114],[100.411354,5.818488693736972]]],[[[100.44381413397839,5.729417762869093],[100.44329592558783,5.729137340721218],[100.44329592558783,5.728743494278641],[100.44277771719727,5.728743494278641],[100.44277771719727,5.728916526244245],[100.44381413397839,5.729417762869093]]],[[[100.44174130041615,5.741589261057258],[100.44225950880671,5.741740566594514],[100.44225950880671,5.741650219742348],[100.44174130041615,5.741589261057258]]],[[[100.44277771719727,5.741740566594514],[100.44302754523554,5.741740566594514],[100.44277771719727,5.7417111784337855],[100.44277771719727,5.741740566594514]]],[[[100.43500459133887,5.742922132923591],[100.43448638294831,5.742922132923591],[100.43448638294831,5.743709845134933],[100.43552279972943,5.744103701638247],[100.43552279972943,5.743709845134933],[100.43604100811997,5.743709845134933],[100.43604100811997,5.742922132923591],[100.43552279972943,5.742922132923591],[100.43552279972943,5.742528277215525],[100.43500459133887,5.742528277215525],[100.43500459133887,5.742922132923591]]],[[[100.43396817455773,5.785853998191939],[100.43344996616719,5.785853998191939],[100.433862,5.7860912937692035],[100.43344996616719,5.787035653924495],[100.43396817455773,5.787035653924495],[100.43427999999999,5.786529793768789],[100.43500459133887,5.787035653924495],[100.43552279972943,5.786247883169],[100.43500459133887,5.786247883169],[100.43500459133887,5.785853998191939],[100.43396817455773,5.786247883169],[100.43396817455773,5.785853998191939]]],[[[100.43300653103769,5.786247883169],[100.43293175777663,5.786641768413179],[100.43343348898541,5.786641768413179],[100.43300653103769,5.786247883169]]],[[[100.4370774249011,5.786641768413179],[100.43655921651055,5.786641768413179],[100.43655921651055,5.787035653924495],[100.43604100811997,5.787035653924495],[100.43604100811997,5.786641768413179],[100.43500459133887,5.787035653924495],[100.43500459133887,5.787823425748616],[100.43552279972943,5.787823425748616],[100.43552279972943,5.788611198641506],[100.43604100811997,5.788611198641506],[100.43604100811997,5.789005085488788],[100.4370774249011,5.788611198641506],[100.4370774249011,5.787429539702968],[100.43759563329168,5.787429539702968],[100.4370774249011,5.786641768413179]]],[[[100.43655921651055,5.789792859985116],[100.43604100811997,5.789792859985116],[100.43604100811997,5.790186747634201],[100.4370774249011,5.790580635550591],[100.43759563329168,5.789792859985116],[100.4370774249011,5.789792859985116],[100.4370774249011,5.789398972603318],[100.43655921651055,5.789398972603318],[100.43655921651055,5.789792859985116]]],[[[100.42878609065212,5.790974523734304],[100.42826788226158,5.791762300903778],[100.4293042990427,5.7921561898895755],[100.42982250743326,5.791368412185361],[100.42878609065212,5.790974523734304]]],[[[100.43863205007278,5.790974523734304],[100.43811384168222,5.790974523734304],[100.43811384168222,5.790580635550591],[100.4370774249011,5.790974523734304],[100.4370774249011,5.791762300903778],[100.43759563329168,5.791762300903778],[100.43759563329168,5.793337858451433],[100.43811384168222,5.793337858451433],[100.43811384168222,5.7937317485069375],[100.43915025846334,5.7937317485069375],[100.43915025846334,5.793337858451433],[100.43966846685392,5.793337858451433],[100.43966846685392,5.792550079142772],[100.43915025846334,5.792550079142772],[100.43863205007278,5.790974523734304]]],[[[100.4370774249011,5.794848143286408],[100.43759563329168,5.7948514021685105],[100.43759563329168,5.79451952942038],[100.4370774249011,5.79451952942038],[100.4370774249011,5.794848143286408]]],[[[100.43811384168222,5.794913420278361],[100.4378976,5.795036093760296],[100.43811384168222,5.795304784183845],[100.43811384168222,5.794913420278361]]],[[[100.43759563329168,5.797276771045003],[100.43734362437984,5.797276771045003],[100.43759563329168,5.797467610242674],[100.43759563329168,5.797276771045003]]],[[[100.43655921651055,5.797276771045003],[100.43655921651055,5.796095094457548],[100.43604100811997,5.796095094457548],[100.43604100811997,5.795701202796925],[100.43500459133887,5.795701202796925],[100.43500459133887,5.795307311403867],[100.43344996616719,5.79451952942038],[100.43344996616719,5.794913420278361],[100.43293175777663,5.794913420278361],[100.43293175777663,5.795307311403867],[100.43344996616719,5.795307311403867],[100.43293175777663,5.796095094457548],[100.43384400409053,5.796488986385755],[100.4334648,5.795958893759392],[100.4342415,5.795494493759866],[100.436067,5.796390093758967],[100.43648219999999,5.7975592937578275],[100.4361822,5.798005393757362],[100.43448638294831,5.796932187987513],[100.43552279972943,5.798064556774815],[100.43699242697504,5.798064556774815],[100.43706822145671,5.797276771045003],[100.43655921651055,5.797276771045003]]],[[[100.43396817455773,5.796882878581568],[100.4344027807222,5.796882878581568],[100.43396817455773,5.7966153984802835],[100.43396817455773,5.796882878581568]]],[[[100.43766126711495,5.797670663776079],[100.43775509483744,5.798064556774815],[100.43811384168222,5.798064556774815],[100.43811384168222,5.797670663776079],[100.43766126711495,5.797670663776079]]],[[[100.4370774249011,5.798296789169425],[100.43759563329168,5.798458450041229],[100.43759563329168,5.798390783124275],[100.4370774249011,5.798296789169425]]],[[[100.43500459133887,5.805349689529997],[100.4355346,5.8058682937495245],[100.43514576861006,5.806336371610839],[100.43552279972943,5.806336371610839],[100.43604100811997,5.805548574631065],[100.43552279972943,5.805548574631065],[100.43552279972943,5.805154676543238],[100.43500459133887,5.805349689529997]]],[[[100.4348187418194,5.805548574631065],[100.43448638294831,5.805942472986927],[100.43496442851703,5.805942472986927],[100.4348187418194,5.805548574631065]]],[[[100.43500459133887,5.806336371610839],[100.43511011521467,5.806336371610839],[100.43500459133887,5.8060510626976685],[100.43500459133887,5.806336371610839]]],[[[100.43500459133887,5.811457078122991],[100.43500459133887,5.8118509805016005],[100.43448638294831,5.8118509805016005],[100.43500459133887,5.812638786063837],[100.43655921651055,5.812638786063837],[100.43655921651055,5.8122448831485425],[100.4370774249011,5.8122448831485425],[100.43655921651055,5.811457078122991],[100.43500459133887,5.811457078122991]]],[[[100.43034071582383,5.811457078122991],[100.42826788226158,5.812638786063837],[100.4293042990427,5.813820496420014],[100.42982250743326,5.813820496420014],[100.42982250743326,5.813426592699553],[100.43034071582383,5.813426592699553],[100.43034071582383,5.812638786063837],[100.43085892421438,5.812638786063837],[100.43085892421438,5.8118509805016005],[100.43034071582383,5.8118509805016005],[100.43034071582383,5.811457078122991]]],[[[100.44174130041615,5.813426592699553],[100.44122309202558,5.813426592699553],[100.44070488363504,5.8142144004089],[100.44225950880671,5.815002209192026],[100.44277771719727,5.8142144004089],[100.44225950880671,5.8142144004089],[100.44174130041615,5.813426592699553]]],[[[100.43915025846334,5.8169717358486075],[100.43966846685392,5.8169717358486075],[100.43966846685392,5.81775954839114],[100.43915025846334,5.81775954839114],[100.43966846685392,5.8185473620081245],[100.44225950880671,5.81775954839114],[100.44225950880671,5.817365641985577],[100.44174130041615,5.817365641985577],[100.44174130041615,5.8169717358486075],[100.44070488363504,5.8169717358486075],[100.44018667524448,5.816183924380379],[100.43966846685392,5.816183924380379],[100.43915025846334,5.8169717358486075]],[[100.44070488363504,5.817365641985577],[100.44018667524448,5.817365641985577],[100.44018667524448,5.8169717358486075],[100.44070488363504,5.8169717358486075],[100.44070488363504,5.817365641985577]]],[[[100.44225950880671,5.818153455065317],[100.44174130041615,5.818153455065317],[100.44174130041615,5.818941269219582],[100.44277771719727,5.81933517669971],[100.44277771719727,5.818941269219582],[100.44329592558783,5.818941269219582],[100.44329592558783,5.818153455065317],[100.44277771719727,5.818153455065317],[100.44277771719727,5.81775954839114],[100.44225950880671,5.81775954839114],[100.44225950880671,5.818153455065317]]],[[[100.43655921651055,5.831152526127384],[100.43656339999998,5.831448293724084],[100.43661844561929,5.831152526127384],[100.43655921651055,5.831152526127384]]],[[[100.42619504869933,5.832334274389628],[100.42616215198586,5.832334274389628],[100.42619504869933,5.832369972672079],[100.42619504869933,5.832334274389628]]],[[[100.43085892421438,5.833001859072168],[100.43293175777663,5.832953495292966],[100.43293175777663,5.832728191015627],[100.43241354938607,5.832728191015627],[100.43241354938607,5.832334274389628],[100.43137713260494,5.832334274389628],[100.43085892421438,5.833001859072168]]],[[[100.42671325708989,5.832888193722649],[100.42652515427773,5.832728191015627],[100.42667259999999,5.832888193722649],[100.42671325708989,5.832888193722649]]],[[[100.44692338432176,5.728349648100453],[100.44692338432176,5.728743494278641],[100.44766009999998,5.728519393826604],[100.44640517593119,5.728046295074029],[100.44640517593119,5.728349648100453],[100.44692338432176,5.728349648100453]]],[[[100.44485055075953,5.729925034399626],[100.44433234236895,5.729925034399626],[100.44433234236895,5.729531187428207],[100.44404866403673,5.729531187428207],[100.44386209999999,5.730718493824418],[100.44536875915007,5.731894273223817],[100.44536875915007,5.731106576900648],[100.44485055075953,5.731106576900648],[100.44536875915007,5.730318881635495],[100.44485055075953,5.730318881635495],[100.44485055075953,5.729925034399626]]],[[[100.44485055075953,5.732681970605154],[100.44463459999999,5.73210619382304],[100.44468956139917,5.732681970605154],[100.44485055075953,5.732681970605154]]],[[[100.44536875915007,5.738195881915706],[100.44485055075953,5.738195881915706],[100.44473664079399,5.737408177123026],[100.44482770000002,5.738233793816925],[100.44536875915007,5.739752685679315],[100.44536875915007,5.738195881915706]]],[[[100.44502833898522,5.741740566594514],[100.44536875915007,5.741346711681528],[100.44588696754064,5.741346711681528],[100.44588696754064,5.739771294679299],[100.44537538803311,5.739771294679299],[100.44502833898522,5.741740566594514]]],[[[100.44485055075953,5.741955013263021],[100.44329592558783,5.741772137131573],[100.44329592558783,5.742134421772507],[100.44485055075953,5.741955013263021]]],[[[100.4712791786781,5.741740566594514],[100.47081999999999,5.740761693814401],[100.47024276189698,5.74067232233476],[100.47024276189698,5.741740566594514],[100.47076097028756,5.741740566594514],[100.47076097028756,5.742134421772507],[100.47024276189698,5.742134421772507],[100.47024276189698,5.742528277215525],[100.46972455350642,5.742528277215525],[100.46972455350642,5.743315988896722],[100.46920634511585,5.743315988896722],[100.46920634511585,5.745285272738983],[100.46972455350642,5.745285272738983],[100.46972455350642,5.745679130302891],[100.4699187,5.744113593811057],[100.46951099999997,5.743665293811509],[100.4712791786781,5.741740566594514]]],[[[100.4712791786781,5.74764842210072],[100.47231559545922,5.748042281256075],[100.47231559545922,5.748830000362725],[100.47280013360866,5.748830000362725],[100.4730301,5.748041993807142],[100.4712791786781,5.746820789412868],[100.4712791786781,5.74764842210072]]],[[[100.4728338038498,5.75001158101283],[100.47335201224034,5.75001158101283],[100.47335201224034,5.750405441760306],[100.47387022063091,5.750405441760306],[100.47390468490829,5.75001158101283],[100.4728338038498,5.749298469634674],[100.4728338038498,5.75001158101283]]],[[[100.48371618005156,5.763009125922602],[100.48371618005156,5.763168501718136],[100.48383324268325,5.763009125922602],[100.48371618005156,5.763009125922602]]],[[[100.48319797166101,5.763874020930954],[100.48354394283898,5.763402995438763],[100.48319797166101,5.763402995438763],[100.48319797166101,5.763874020930954]]],[[[100.4780158877554,5.77009881793205],[100.47853570117408,5.770886566813713],[100.478815163924,5.769704943890757],[100.4780158877554,5.77009881793205]]],[[[100.47749767936483,5.7732498198526585],[100.47762768402517,5.7736436962917965],[100.47764224068754,5.77206819213418],[100.47749767936483,5.772462067773868],[100.47697947097427,5.772462067773868],[100.47697947097427,5.7732498198526585],[100.47749767936483,5.7732498198526585]]],[[[100.44692338432176,5.809093669485273],[100.44692338432176,5.809881471291505],[100.44847800949343,5.810669274170695],[100.44847800949343,5.810275372596971],[100.448996217884,5.810275372596971],[100.448996217884,5.809881471291505],[100.44847800949343,5.809881471291505],[100.44847800949343,5.809093669485273],[100.44795980110288,5.809093669485273],[100.44795980110288,5.80869976898447],[100.44692338432176,5.809093669485273]]],[[[100.44951442627456,5.810669274170695],[100.44951442627456,5.810275372596971],[100.448996217884,5.810275372596971],[100.44847800949343,5.811063176012695],[100.44951442627456,5.811457078122991],[100.44951442627456,5.811063176012695],[100.45003263466512,5.811063176012695],[100.45003263466512,5.810669274170695],[100.44951442627456,5.810669274170695]]],[[[100.44381413397839,5.820910809307284],[100.44381413397839,5.8205169007522946],[100.44277771719727,5.820910809307284],[100.44277771719727,5.821698627223574],[100.44329592558783,5.821698627223574],[100.44329592558783,5.822092536584907],[100.44433234236895,5.822092536584907],[100.44433234236895,5.821698627223574],[100.44485055075953,5.821698627223574],[100.44485055075953,5.821304718131039],[100.44381413397839,5.820910809307284]]],[[[100.44536875915007,5.822092536584907],[100.44485055075953,5.822092536584907],[100.44485055075953,5.822880356114052],[100.44588696754064,5.8232742662818975],[100.44588696754064,5.822880356114052],[100.44640517593119,5.822880356114052],[100.44640517593119,5.822092536584907],[100.44588696754064,5.822092536584907],[100.44588696754064,5.821698627223574],[100.44536875915007,5.821698627223574],[100.44536875915007,5.822092536584907]]],[[[100.45884217730465,5.832220372528707],[100.45936038569522,5.8321464746503215],[100.45936038569522,5.8319403580329325],[100.45884217730465,5.8319403580329325],[100.45884217730465,5.832220372528707]]],[[[100.4583239689141,5.832637253931779],[100.45865621413468,5.832334274389628],[100.4583239689141,5.832334274389628],[100.4583239689141,5.832637253931779]]],[[[100.4515872598368,5.833561203530906],[100.45262367661792,5.833868864176377],[100.45262367661792,5.833516025075612],[100.4515872598368,5.833561203530906]]],[[[100.45314188500849,5.833909942509639],[100.45276205720599,5.833909942509639],[100.45314188500849,5.8342786141255445],[100.45314188500849,5.833909942509639]]],[[[100.45366009339904,5.834303860213042],[100.4532337,5.834407993721165],[100.45366009339904,5.834633446902539],[100.45366009339904,5.834303860213042]]]]},"properties":{"place_id":"78a55a27-15a9-54c6-ab5d-489a140558fb","habitat":"forest_edge_opening","habitat_label":"Forest edge or opening","resolution_m":50}},{"type":"Feature","geometry":{"type":"MultiPolygon","coordinates":[[[[100.38888404457896,5.733863518661549],[100.38888404457896,5.734257368542923],[100.38940225296952,5.734257368542923],[100.38940225296952,5.733863518661549],[100.38888404457896,5.733863518661549]]],[[[100.38940225296952,5.734651218688954],[100.38888404457896,5.734696267175627],[100.38940225296952,5.734723571207845],[100.38940225296952,5.734651218688954]]],[[[100.38836583618841,5.736620473389556],[100.38839990403594,5.736620473389556],[100.38836583618841,5.736486642533605],[100.38836583618841,5.736620473389556]]],[[[100.38940225296952,5.738589734709297],[100.38960244566329,5.738589734709297],[100.38940225296952,5.738222259232281],[100.38940225296952,5.738589734709297]]],[[[100.39043866975065,5.740952857033533],[100.39095687814121,5.740952857033533],[100.39095687814121,5.7404807863678124],[100.39043866975065,5.740622179664971],[100.39043866975065,5.740952857033533]]],[[[100.39095687814121,5.739755239378362],[100.3909206,5.739818993815327],[100.39095687814121,5.740133565303271],[100.39095687814121,5.739755239378362]]],[[[100.39043866975065,5.742528277215525],[100.39043866975065,5.741740566594514],[100.38940225296952,5.741346711681528],[100.38940225296952,5.742528277215525],[100.39043866975065,5.742528277215525]]],[[[100.38992046136008,5.742922132923591],[100.38992046136008,5.743315988896722],[100.39043866975065,5.743315988896722],[100.39043866975065,5.742922132923591],[100.38992046136008,5.742922132923591]]],[[[100.38940225296952,5.743315988896722],[100.38940225296952,5.743709845134933],[100.38992046136008,5.743709845134933],[100.38992046136008,5.743315988896722],[100.38940225296952,5.743315988896722]]],[[[100.38940225296952,5.744497558406681],[100.39043866975065,5.744497558406681],[100.39043866975065,5.744103701638247],[100.38940225296952,5.744103701638247],[100.38940225296952,5.744497558406681]]],[[[100.39147508653177,5.744891415440254],[100.39199329492232,5.744891415440254],[100.39199329492232,5.744497558406681],[100.39147508653177,5.744497558406681],[100.39147508653177,5.744891415440254]]],[[[100.39199329492232,5.744891415440254],[100.39199329492232,5.745285272738983],[100.39251150331289,5.745285272738983],[100.39251150331289,5.744891415440254],[100.39199329492232,5.744891415440254]]],[[[100.38992046136008,5.744891415440254],[100.38992046136008,5.745679130302891],[100.39095687814121,5.745679130302891],[100.39095687814121,5.744891415440254],[100.38992046136008,5.744891415440254]]],[[[100.39147508653177,5.746072988131992],[100.39147508653177,5.746466846226307],[100.39302971170345,5.746466846226307],[100.39302971170345,5.746072988131992],[100.39147508653177,5.746072988131992]]],[[[100.39251150331289,5.747254563210651],[100.39302971170345,5.747254563210651],[100.39302971170345,5.7468607045858535],[100.39251150331289,5.7468607045858535],[100.39251150331289,5.747254563210651]]],[[[100.39406612848457,5.748830000362725],[100.39458433687513,5.748830000362725],[100.39458433687513,5.748042281256075],[100.39406612848457,5.748042281256075],[100.39406612848457,5.747254563210651],[100.39354792009402,5.747254563210651],[100.39354792009402,5.748436140676736],[100.39406612848457,5.748436140676736],[100.39406612848457,5.748830000362725]]],[[[100.39458433687513,5.749617720530752],[100.39458433687513,5.75001158101283],[100.39510254526569,5.75001158101283],[100.39510254526569,5.749617720530752],[100.39458433687513,5.749617720530752]]],[[[100.39406612848457,5.751193164051535],[100.39458433687513,5.751193164051535],[100.39458433687513,5.750405441760306],[100.39406612848457,5.750405441760306],[100.39406612848457,5.751193164051535]]],[[[100.39354792009402,5.753950200433689],[100.39302971170345,5.753950200433689],[100.39302971170345,5.7531624744254195],[100.39251150331289,5.7531624744254195],[100.39251150331289,5.754344063836193],[100.39354792009402,5.754344063836193],[100.39354792009402,5.753950200433689]]],[[[100.39302971170345,5.756707249829601],[100.39302971170345,5.757101115091738],[100.39354792009402,5.757101115091738],[100.39354792009402,5.756707249829601],[100.39302971170345,5.756707249829601]]],[[[100.39354792009402,5.755919520102459],[100.39406612848457,5.755919520102459],[100.39406612848457,5.756707249829601],[100.39458433687513,5.756707249829601],[100.39458433687513,5.758282712472642],[100.39562075365626,5.758676578797834],[100.39458433687513,5.75552565563742],[100.39354792009402,5.75552565563742],[100.39354792009402,5.755919520102459]]],[[[100.38162912711111,5.767735577678923],[100.38214733550167,5.767735577678923],[100.38214733550167,5.767341705235352],[100.38162912711111,5.767341705235352],[100.38162912711111,5.767735577678923]]],[[[100.38159411974866,5.772855943680022],[100.3817284410003,5.7732498198526585],[100.38214733550167,5.7732498198526585],[100.38214733550167,5.772855943680022],[100.38159411974866,5.772855943680022]]],[[[100.39251150331289,5.776400838829388],[100.39251150331289,5.776006960524213],[100.39302971170345,5.776006960524213],[100.39302971170345,5.775613082485671],[100.39199329492232,5.775613082485671],[100.39199329492232,5.776400838829388],[100.39251150331289,5.776400838829388]]],[[[100.38836583618841,5.778370234355406],[100.38784762779784,5.778371638911072],[100.38836583618841,5.7784590261648345],[100.38836583618841,5.778370234355406]]],[[[100.39095687814121,5.778895962630612],[100.39199329492232,5.779070737308841],[100.39199329492232,5.778764114260768],[100.39251150331289,5.778764114260768],[100.39251150331289,5.777976354716787],[100.39147508653177,5.777976354716787],[100.39095687814121,5.778895962630612]]],[[[100.39302971170345,5.779157994432894],[100.39354792009402,5.77933289942467],[100.39354792009402,5.779157994432894],[100.39302971170345,5.779157994432894]]],[[[100.39562075365626,5.786641768413179],[100.39547585559674,5.787035653924495],[100.39562075365626,5.787035653924495],[100.39562075365626,5.786641768413179]]],[[[100.39562075365626,5.787429539702968],[100.39543357204708,5.787823425748616],[100.39562075365626,5.787823425748616],[100.39562075365626,5.787429539702968]]],[[[100.39613896204682,5.790974523734304],[100.39589393522067,5.791368412185361],[100.39613896204682,5.791368412185361],[100.39613896204682,5.790974523734304]]],[[[100.40080283756187,5.734257368542923],[100.40132104595241,5.734257368542923],[100.40132104595241,5.733863518661549],[100.40080283756187,5.733863518661549],[100.40080283756187,5.734257368542923]]],[[[100.42350444750075,5.739771294679299],[100.42360400674652,5.739377441091075],[100.42344664146948,5.739377441091075],[100.42350444750075,5.739771294679299]]],[[[100.41427625571643,5.740165148532436],[100.41427625571643,5.740559002650509],[100.414794464107,5.740559002650509],[100.414794464107,5.740165148532436],[100.41427625571643,5.740165148532436]]],[[[100.43500459133887,5.742922132923591],[100.43500459133887,5.743709845134933],[100.43552279972943,5.743709845134933],[100.43552279972943,5.742922132923591],[100.43500459133887,5.742922132923591]]],[[[100.40287567112411,5.749617720530752],[100.40287567112411,5.750405441760306],[100.40339387951467,5.750405441760306],[100.40339387951467,5.749617720530752],[100.40287567112411,5.749617720530752]]],[[[100.3976935872185,5.759464312245674],[100.39821179560906,5.759464312245674],[100.39821179560906,5.758676578797834],[100.3976935872185,5.758676578797834],[100.3976935872185,5.757494980619611],[100.39717537882792,5.757494980619611],[100.39717537882792,5.759070445388841],[100.3976935872185,5.759070445388841],[100.3976935872185,5.759464312245674]]],[[[100.40650312985802,5.763402995438763],[100.40702133824858,5.763402995438763],[100.40702133824858,5.762615256672461],[100.40650312985802,5.762615256672461],[100.40650312985802,5.763402995438763]]],[[[100.40702133824858,5.763402995438763],[100.40702133824858,5.764190735269202],[100.40753954663914,5.764190735269202],[100.40753954663914,5.76458460558352],[100.40857596342028,5.76458460558352],[100.40857596342028,5.764190735269202],[100.40909417181082,5.764190735269202],[100.40909417181082,5.7637968652209555],[100.40702133824858,5.763402995438763]]],[[[100.39821179560906,5.7748253272084105],[100.39873000399962,5.7748253272084105],[100.39873000399962,5.7744314499696525],[100.39821179560906,5.7744314499696525],[100.39821179560906,5.7748253272084105]]],[[[100.41842192284093,5.779157994432894],[100.41894013123148,5.779157994432894],[100.41894013123148,5.778764114260768],[100.41842192284093,5.778764114260768],[100.41842192284093,5.779157994432894]]],[[[100.41634908927867,5.779945755577511],[100.41634908927867,5.780339636550039],[100.41686729766924,5.780339636550039],[100.41686729766924,5.779945755577511],[100.41634908927867,5.779945755577511]]],[[[100.43448638294831,5.786601977348437],[100.43500459133887,5.786641768413179],[100.43500459133887,5.786247883169],[100.43448638294831,5.786247883169],[100.43448638294831,5.786601977348437]]],[[[100.43655921651055,5.787429539702968],[100.4370774249011,5.787429539702968],[100.4370774249011,5.787035653924495],[100.43655921651055,5.787035653924495],[100.43655921651055,5.787429539702968]]],[[[100.43604100811997,5.787823425748616],[100.43604100811997,5.788611198641506],[100.43655921651055,5.788611198641506],[100.43655921651055,5.787429539702968],[100.43552279972943,5.787035653924495],[100.43552279972943,5.787823425748616],[100.43604100811997,5.787823425748616]]],[[[100.43655921651055,5.789792859985116],[100.43655921651055,5.790186747634201],[100.4370774249011,5.790186747634201],[100.4370774249011,5.789792859985116],[100.43655921651055,5.789792859985116]]],[[[100.43759563329168,5.790974523734304],[100.43759563329168,5.791762300903778],[100.43811384168222,5.791762300903778],[100.43811384168222,5.790974523734304],[100.43759563329168,5.790974523734304]]],[[[100.42878609065212,5.791762300903778],[100.4293042990427,5.791762300903778],[100.4293042990427,5.791368412185361],[100.42878609065212,5.791368412185361],[100.42878609065212,5.791762300903778]]],[[[100.43344996616719,5.795307311403867],[100.43396817455773,5.795307311403867],[100.43396817455773,5.794913420278361],[100.43344996616719,5.794913420278361],[100.43344996616719,5.795307311403867]]],[[[100.39642097459118,5.796488986385755],[100.39665717043736,5.796855775309556],[100.39665717043736,5.796488986385755],[100.39642097459118,5.796488986385755]]],[[[100.43500459133887,5.797276771045003],[100.43536228755715,5.797276771045003],[100.43500459133887,5.7971769567641696],[100.43500459133887,5.797276771045003]]],[[[100.40235746273353,5.801215710402709],[100.40163589304727,5.801215710402709],[100.40235746273353,5.801611009733425],[100.40235746273353,5.801215710402709]]],[[[100.40132104595241,5.801215710402709],[100.40132104595241,5.801239174441471],[100.40140979999963,5.801215710402709],[100.40132104595241,5.801215710402709]]],[[[100.39924821239018,5.801609605811228],[100.39895235641359,5.801609605811228],[100.39924821239018,5.801634268631404],[100.39924821239018,5.801609605811228]]],[[[100.41013058859195,5.805942472986927],[100.41064879698251,5.805942472986927],[100.41064879698251,5.805548574631065],[100.41013058859195,5.805548574631065],[100.41013058859195,5.805942472986927]]],[[[100.40805775502972,5.80869976898447],[100.40805775502972,5.809093669485273],[100.40857596342028,5.809093669485273],[100.40857596342028,5.80869976898447],[100.40805775502972,5.80869976898447]]],[[[100.43500459133887,5.8118509805016005],[100.43500459133887,5.8122448831485425],[100.43655921651055,5.8122448831485425],[100.43655921651055,5.8118509805016005],[100.43500459133887,5.8118509805016005]]],[[[100.42982250743326,5.8118509805016005],[100.42982250743326,5.812638786063837],[100.43034071582383,5.812638786063837],[100.43034071582383,5.8118509805016005],[100.42982250743326,5.8118509805016005]]],[[[100.42982250743326,5.812638786063837],[100.42878609065212,5.812638786063837],[100.42878609065212,5.8130326892475015],[100.42982250743326,5.813426592699553],[100.42982250743326,5.812638786063837]]],[[[100.41116700537306,5.818153455065317],[100.411354,5.818488693736972],[100.41168521376363,5.818153455065317],[100.41116700537306,5.818153455065317]]],[[[100.43241354938607,5.832728191015627],[100.43137713260494,5.832952497187989],[100.43241354938607,5.832915021615237],[100.43241354938607,5.832728191015627]]],[[[100.44692338432176,5.728349648100453],[100.44720983894751,5.728349648100453],[100.44692338432176,5.72824165644387],[100.44692338432176,5.728349648100453]]],[[[100.44329592558783,5.729137340721218],[100.44323429972297,5.729137340721218],[100.44329592558783,5.729167144503136],[100.44329592558783,5.729137340721218]]],[[[100.44485055075953,5.730712729135828],[100.44485055075953,5.730318881635495],[100.44403930359017,5.729925034399626],[100.44386338742919,5.730712729135828],[100.44485055075953,5.730712729135828]]],[[[100.44485055075953,5.731106576900648],[100.44447031685506,5.731106576900648],[100.44485055075953,5.731255547309664],[100.44485055075953,5.731106576900648]]],[[[100.44485055075953,5.738195881915706],[100.44482351861011,5.738195881915706],[100.44485055075953,5.738297941682389],[100.44485055075953,5.738195881915706]]],[[[100.44536875915007,5.741346711681528],[100.44536875915007,5.740192130743686],[100.44511492702316,5.741346711681528],[100.44536875915007,5.741346711681528]]],[[[100.4712791786781,5.741740566594514],[100.4712791786781,5.742037584397827],[100.47148519999998,5.741914593813241],[100.47076097028756,5.740752554478174],[100.47076097028756,5.741740566594514],[100.4712791786781,5.741740566594514]]],[[[100.47076097028756,5.742134421772507],[100.47076097028756,5.742346944496342],[100.47111696658473,5.742134421772507],[100.47076097028756,5.742134421772507]]],[[[100.47024276189698,5.742528277215525],[100.4704123,5.742555093812635],[100.47045722039341,5.742528277215525],[100.47024276189698,5.742528277215525]]],[[[100.46972455350642,5.743402243468431],[100.46979457801775,5.743315988896722],[100.46972455350642,5.743315988896722],[100.46972455350642,5.743402243468431]]],[[[100.46972455350642,5.745285272738983],[100.46998417440244,5.745285272738983],[100.46972455350642,5.743900113579416],[100.46972455350642,5.745285272738983]]],[[[100.47179738706866,5.74764842210072],[100.47231091206307,5.74764842210072],[100.47179738706866,5.747257072715083],[100.47179738706866,5.74764842210072]]],[[[100.4728338038498,5.748734280062428],[100.4730301,5.748041993807142],[100.4728338038498,5.747934571774961],[100.4728338038498,5.748734280062428]]],[[[100.47335201224034,5.749814111944513],[100.47387022063091,5.75001158101283],[100.47387022063091,5.750000151804981],[100.47335201224034,5.749814111944513]]],[[[100.47872200967402,5.77009881793205],[100.47853409614595,5.770492692239696],[100.47862885542403,5.770492692239696],[100.47872200967402,5.77009881793205]]],[[[100.47749767936483,5.772462067773868],[100.47763132319078,5.7732498198526585],[100.47763860152196,5.772462067773868],[100.47749767936483,5.772462067773868]]],[[[100.43915025846334,5.792550079142772],[100.43863205007278,5.792550079142772],[100.43863205007278,5.791762300903778],[100.43811384168222,5.791762300903778],[100.43811384168222,5.793337858451433],[100.43915025846334,5.793337858451433],[100.43915025846334,5.792550079142772]]],[[[100.44744159271232,5.809881471291505],[100.44795980110288,5.809881471291505],[100.44795980110288,5.809093669485273],[100.44744159271232,5.809093669485273],[100.44744159271232,5.809881471291505]]],[[[100.44847800949343,5.809881471291505],[100.44795980110288,5.809881471291505],[100.44795980110288,5.810275372596971],[100.44847800949343,5.810275372596971],[100.44847800949343,5.809881471291505]]],[[[100.448996217884,5.810669274170695],[100.448996217884,5.811063176012695],[100.44951442627456,5.811063176012695],[100.44951442627456,5.810669274170695],[100.448996217884,5.810669274170695]]],[[[100.44174130041615,5.8142144004089],[100.44174130041615,5.813820496420014],[100.44122309202558,5.813820496420014],[100.44122309202558,5.8142144004089],[100.44174130041615,5.8142144004089]]],[[[100.44174130041615,5.8142144004089],[100.44174130041615,5.8146083046662325],[100.44225950880671,5.8146083046662325],[100.44225950880671,5.8142144004089],[100.44174130041615,5.8142144004089]]],[[[100.43966846685392,5.816577829980215],[100.43966846685392,5.8169717358486075],[100.44018667524448,5.8169717358486075],[100.44018667524448,5.816577829980215],[100.43966846685392,5.816577829980215]]],[[[100.44070488363504,5.81775954839114],[100.44174130041615,5.81775954839114],[100.44174130041615,5.817365641985577],[100.44070488363504,5.817365641985577],[100.44070488363504,5.81775954839114]]],[[[100.43966846685392,5.818153455065317],[100.44018667524448,5.818153455065317],[100.44018667524448,5.81775954839114],[100.43966846685392,5.81775954839114],[100.43966846685392,5.818153455065317]]],[[[100.44225950880671,5.818153455065317],[100.44225950880671,5.818941269219582],[100.44277771719727,5.818941269219582],[100.44277771719727,5.818153455065317],[100.44225950880671,5.818153455065317]]],[[[100.44433234236895,5.821304718131039],[100.44381413397839,5.821304718131039],[100.44381413397839,5.820910809307284],[100.44329592558783,5.820910809307284],[100.44329592558783,5.821698627223574],[100.44433234236895,5.821698627223574],[100.44433234236895,5.821304718131039]]],[[[100.44536875915007,5.822880356114052],[100.44588696754064,5.822880356114052],[100.44588696754064,5.822092536584907],[100.44536875915007,5.822092536584907],[100.44536875915007,5.822880356114052]]]]},"properties":{"place_id":"78a55a27-15a9-54c6-ab5d-489a140558fb","habitat":"open_grassland","habitat_label":"Open grassland or shrubland","resolution_m":50}},{"type":"Feature","geometry":{"type":"MultiPolygon","coordinates":[[[[100.3868112110167,5.734425486053628],[100.3857747942356,5.734257368542923],[100.3857747942356,5.734430245404307],[100.3868112110167,5.734425486053628]]],[[[100.38525658584504,5.735832770715149],[100.3857747942356,5.735832770715149],[100.3857747942356,5.736226621919979],[100.38728029657908,5.736226621919979],[100.38525658584504,5.7354986086724224],[100.38525658584504,5.735832770715149]]],[[[100.38732941940728,5.736620473389556],[100.38784762779784,5.736620473389556],[100.3882277,5.735943993819226],[100.38732941940728,5.736257937194015],[100.38732941940728,5.736620473389556]]],[[[100.39095687814121,5.737408177123026],[100.39095687814121,5.736506002750878],[100.39043779999999,5.736712593818428],[100.39059590587192,5.737408177123026],[100.39095687814121,5.737408177123026]]],[[[100.38940225296952,5.739345965841749],[100.3899872,5.739295993815872],[100.38940225296952,5.738222259232281],[100.38940225296952,5.739345965841749]]],[[[100.39613896204682,5.787429539702968],[100.39549699737158,5.786641768413179],[100.39543357204708,5.787823425748616],[100.39613896204682,5.787429539702968]]],[[[100.39541218799896,5.788611198641506],[100.39562075365626,5.788217312061454],[100.39541243027224,5.788217312061454],[100.39541218799896,5.788611198641506]]],[[[100.39717537882792,5.7921561898895755],[100.3967596755681,5.7921561898895755],[100.39717537882792,5.792322339732715],[100.39717537882792,5.7921561898895755]]],[[[100.40235746273353,5.793337858451433],[100.40235746273353,5.793387897168822],[100.40244811840408,5.793337858451433],[100.40235746273353,5.793337858451433]]],[[[100.40132104595241,5.793829318368285],[100.40080283756187,5.7937317485069375],[100.40080283756187,5.793902021005982],[100.40132104595241,5.793829318368285]]],[[[100.40183925434297,5.7937317485069375],[100.40183925434297,5.793756615739704],[100.40201650253888,5.7937317485069375],[100.40183925434297,5.7937317485069375]]],[[[100.39665717043736,5.796095094457548],[100.39638339999999,5.795970093759408],[100.39638756926485,5.796095094457548],[100.39665717043736,5.796095094457548]]],[[[100.40753954663914,5.811063176012695],[100.40753954663914,5.810851084362515],[100.40745241651098,5.811063176012695],[100.40753954663914,5.811063176012695]]],[[[100.41323983893533,5.735832770715149],[100.41323983893533,5.736226621919979],[100.413621240008,5.736226621919979],[100.41364010895651,5.735832770715149],[100.41323983893533,5.735832770715149]]],[[[100.41323983893533,5.7378020293869545],[100.41323983893533,5.7380253739761],[100.41342480847045,5.7378020293869545],[100.41323983893533,5.7378020293869545]]],[[[100.43396817455773,5.786247883169],[100.43396817455773,5.785853998191939],[100.43344996616719,5.785853998191939],[100.433862,5.7860912937692035],[100.43344996616719,5.787035653924495],[100.43448638294831,5.786601977348437],[100.43448638294831,5.786247883169],[100.43396817455773,5.786247883169]]],[[[100.43300653103769,5.786247883169],[100.43293175777663,5.786641768413179],[100.43343348898541,5.786641768413179],[100.43300653103769,5.786247883169]]],[[[100.4370774249011,5.79451952942038],[100.4370774249011,5.794848143286408],[100.43759563329168,5.7948514021685105],[100.43759563329168,5.79451952942038],[100.4370774249011,5.79451952942038]]],[[[100.43811384168222,5.794913420278361],[100.43769703155398,5.794913420278361],[100.43811384168222,5.795304784183845],[100.43811384168222,5.794913420278361]]],[[[100.43552279972943,5.798064556774815],[100.43699242697504,5.798064556774815],[100.43655921651055,5.796095094457548],[100.43604100811997,5.796095094457548],[100.43604100811997,5.795701202796925],[100.43500459133887,5.795701202796925],[100.43500459133887,5.795307311403867],[100.43396817455773,5.794913420278361],[100.43293175777663,5.796095094457548],[100.43384400409053,5.796488986385755],[100.4334648,5.795958893759392],[100.4342415,5.795494493759866],[100.436067,5.796390093758967],[100.43648219999999,5.7975592937578275],[100.4361822,5.798005393757362],[100.43448638294831,5.796932187987513],[100.43552279972943,5.798064556774815]]],[[[100.43759563329168,5.797276771045003],[100.43734362437984,5.797276771045003],[100.43759563329168,5.797467610242674],[100.43759563329168,5.797276771045003]]],[[[100.43396817455773,5.796882878581568],[100.4344027807222,5.796882878581568],[100.43396817455773,5.7966153984802835],[100.43396817455773,5.796882878581568]]],[[[100.43811384168222,5.797670663776079],[100.43766126711495,5.797670663776079],[100.43775509483744,5.798064556774815],[100.43811384168222,5.798064556774815],[100.43811384168222,5.797670663776079]]],[[[100.43759563329168,5.798458450041229],[100.4371197,5.79841229375696],[100.4370774249011,5.798296789169425],[100.4370774249011,5.798458450041229],[100.43759563329168,5.798458450041229]]],[[[100.43552279972943,5.805154676543238],[100.43500459133887,5.805154676543238],[100.4355346,5.8058682937495245],[100.43514576861006,5.806336371610839],[100.43604100811997,5.805942472986927],[100.43552279972943,5.805154676543238]]],[[[100.4348187418194,5.805548574631065],[100.43448638294831,5.805942472986927],[100.43496442851703,5.805942472986927],[100.4348187418194,5.805548574631065]]],[[[100.43500459133887,5.806336371610839],[100.43511011521467,5.806336371610839],[100.43500459133887,5.8060510626976685],[100.43500459133887,5.806336371610839]]],[[[100.40805775502972,5.810669274170695],[100.40796789146108,5.810275372596971],[100.40768922786155,5.810669274170695],[100.40805775502972,5.810669274170695]]]]},"properties":{"place_id":"78a55a27-15a9-54c6-ab5d-489a140558fb","habitat":"disturbed_built_edge","habitat_label":"Disturbed, bare or built edge","resolution_m":50}},{"type":"Feature","geometry":{"type":"Polygon","coordinates":[[[100.40009989484633,5.7937317485069375],[100.4002846291713,5.793634547645967],[100.4000897,5.793697393761665],[100.40009989484633,5.7937317485069375]]]},"properties":{"place_id":"78a55a27-15a9-54c6-ab5d-489a140558fb","habitat":"cropland","habitat_label":"Cropland","resolution_m":50}},{"type":"Feature","geometry":{"type":"MultiPolygon","coordinates":[[[[100.38940225296952,5.734723571207845],[100.38888404457896,5.734651218688954],[100.38888404457896,5.734696267175627],[100.38940225296952,5.734723571207845]]],[[[100.38784762779784,5.736620473389556],[100.38836583618841,5.736620473389556],[100.38853416724092,5.737014325123898],[100.3882277,5.735943993819226],[100.38784762779784,5.736620473389556]]]]},"properties":{"place_id":"78a55a27-15a9-54c6-ab5d-489a140558fb","habitat":"water_edge","habitat_label":"Water edge","resolution_m":50}}]}