{"type":"FeatureCollection","metadata":{"schema_version":1,"place_id":"79f28982-e72c-5fd4-91d3-eae68f0cc563","place_name":"Taman Warisan","place_type":"park","osm_reference":"way/1413776638","protection_context":"no protected status confirmed from included OSM tags","resolution_m":50,"raster_coverage":1.0,"interpretation":"Suggested search habitats, not predicted plant locations or probabilities of presence."},"features":[{"type":"Feature","geometry":{"type":"Polygon","coordinates":[[[101.46364824660174,3.1181376813522914],[101.46414759999999,3.1179816965515355],[101.46364869999998,3.1157800965539524],[101.46344480000002,3.117451396552138],[101.46364824660174,3.1181376813522914]]]},"properties":{"place_id":"79f28982-e72c-5fd4-91d3-eae68f0cc563","habitat":"forest_edge_opening","habitat_label":"Forest edge or opening","resolution_m":50}},{"type":"Feature","geometry":{"type":"Polygon","coordinates":[[[101.46364824660174,3.1181535774702387],[101.46351900541029,3.1181376813522914],[101.46352529999999,3.11819589655133],[101.46364824660174,3.1181535774702387]]]},"properties":{"place_id":"79f28982-e72c-5fd4-91d3-eae68f0cc563","habitat":"open_grassland","habitat_label":"Open grassland or shrubland","resolution_m":50}},{"type":"Feature","geometry":{"type":"Polygon","coordinates":[[[101.46352529999999,3.11819589655133],[101.46414759999999,3.1179816965515355],[101.46364869999998,3.1157800965539524],[101.46344480000002,3.117451396552138],[101.46352529999999,3.11819589655133]]]},"properties":{"place_id":"79f28982-e72c-5fd4-91d3-eae68f0cc563","habitat":"disturbed_built_edge","habitat_label":"Disturbed, bare or built edge","resolution_m":50}}]}