{"type":"FeatureCollection","metadata":{"schema_version":1,"place_id":"7b024469-4285-580f-ac45-ed0a6d8ab3fe","place_name":"Taman Rimba Templer","place_type":"park","osm_reference":"way/1136678539","protection_context":"no protected status confirmed from included OSM tags","resolution_m":50,"raster_coverage":1.0,"interpretation":"Suggested search habitats, not predicted plant locations or probabilities of presence."},"features":[{"type":"Feature","geometry":{"type":"Polygon","coordinates":[[[101.63983909939235,3.2869248712719665],[101.6386655,3.2870730963689407],[101.6433218,3.287012896369039],[101.6436128,3.2864022963696877],[101.64440269999999,3.2865696963695092],[101.64457399999999,3.2860315963700915],[101.64411619999998,3.2858082963703006],[101.64243014134514,3.2861397513435766],[101.64243014134514,3.286532311232609],[101.64139372456404,3.286532311232609],[101.64139372456404,3.2869248712719665],[101.63983909939235,3.2865969594300477],[101.63983909939235,3.2869248712719665]]]},"properties":{"place_id":"7b024469-4285-580f-ac45-ed0a6d8ab3fe","habitat":"forest_interior","habitat_label":"Forest interior","resolution_m":50}},{"type":"Feature","geometry":{"type":"MultiPolygon","coordinates":[[[[101.64139372456404,3.286532311232609],[101.64243014134514,3.286532311232609],[101.64243014134514,3.2861397513435766],[101.64294834973572,3.2860132569518585],[101.6403573077829,3.286615040136867],[101.6403573077829,3.2869248712719665],[101.64139372456404,3.2869248712719665],[101.64139372456404,3.286532311232609]]],[[[101.63983909939235,3.2865969594300477],[101.63883979999997,3.2866004963694526],[101.638720167013,3.2869248712719665],[101.63983909939235,3.2869248712719665],[101.63983909939235,3.2865969594300477]]]]},"properties":{"place_id":"7b024469-4285-580f-ac45-ed0a6d8ab3fe","habitat":"forest_edge_opening","habitat_label":"Forest edge or opening","resolution_m":50}},{"type":"Feature","geometry":{"type":"MultiPolygon","coordinates":[[[[101.64139372456404,3.286532311232609],[101.64243014134514,3.286532311232609],[101.64243014134514,3.2861397513435766],[101.64294834973572,3.2860132569518585],[101.6403573077829,3.286615040136867],[101.6403573077829,3.2869248712719665],[101.64139372456404,3.2869248712719665],[101.64139372456404,3.286532311232609]]],[[[101.63983909939235,3.2865969594300477],[101.63883979999997,3.2866004963694526],[101.638720167013,3.2869248712719665],[101.63983909939235,3.2869248712719665],[101.63983909939235,3.2865969594300477]]]]},"properties":{"place_id":"7b024469-4285-580f-ac45-ed0a6d8ab3fe","habitat":"disturbed_built_edge","habitat_label":"Disturbed, bare or built edge","resolution_m":50}}]}