{"type":"FeatureCollection","metadata":{"schema_version":1,"place_id":"7b20fa91-ba47-5e75-a841-35ec64de3cab","place_name":"Kajang 2 Recreation Park","place_type":"park","osm_reference":"way/555250279","protection_context":"no protected status confirmed from included OSM tags","resolution_m":50,"raster_coverage":1.0,"interpretation":"Suggested search habitats, not predicted plant locations or probabilities of presence."},"features":[{"type":"Feature","geometry":{"type":"MultiPolygon","coordinates":[[[[101.79892907529447,2.96468201665729],[101.79841086690391,2.964776512982849],[101.79841086690391,2.9650744595063974],[101.79892907529447,2.9650744595063974],[101.79892907529447,2.96468201665729]]],[[[101.79944728368503,2.9650744595063974],[101.80030574646533,2.9650744595063974],[101.79944728368503,2.9646842614358344],[101.79944728368503,2.9650744595063974]]]]},"properties":{"place_id":"7b20fa91-ba47-5e75-a841-35ec64de3cab","habitat":"forest_interior","habitat_label":"Forest interior","resolution_m":50}},{"type":"Feature","geometry":{"type":"Polygon","coordinates":[[[101.79944728368503,2.9650744595063974],[101.79944728368503,2.9646842614358344],[101.79925470000002,2.9646521967177164],[101.7987343221721,2.96468201665729],[101.79892907529447,2.9650744595063974],[101.79827299999997,2.9648396967175104],[101.79851709999998,2.965514696716759],[101.8003544,2.96552549671677],[101.80030574646533,2.9650744595063974],[101.79944728368503,2.9650744595063974]]]},"properties":{"place_id":"7b20fa91-ba47-5e75-a841-35ec64de3cab","habitat":"forest_edge_opening","habitat_label":"Forest edge or opening","resolution_m":50}},{"type":"Feature","geometry":{"type":"Polygon","coordinates":[[[101.79892907529447,2.96468201665729],[101.79943380133608,2.96468201665729],[101.79925470000002,2.9646521967177164],[101.79892907529447,2.96468201665729]]]},"properties":{"place_id":"7b20fa91-ba47-5e75-a841-35ec64de3cab","habitat":"open_grassland","habitat_label":"Open grassland or shrubland","resolution_m":50}},{"type":"Feature","geometry":{"type":"MultiPolygon","coordinates":[[[[101.79943380133608,2.96468201665729],[101.79925470000002,2.9646521967177164],[101.7987343221721,2.96468201665729],[101.79943380133608,2.96468201665729]]],[[[101.79841086690391,2.9650744595063974],[101.79841086690391,2.964776512982849],[101.79827299999997,2.9648396967175104],[101.79851709999998,2.965514696716759],[101.8003544,2.96552549671677],[101.80030574646533,2.9650744595063974],[101.79841086690391,2.9650744595063974]]]]},"properties":{"place_id":"7b20fa91-ba47-5e75-a841-35ec64de3cab","habitat":"disturbed_built_edge","habitat_label":"Disturbed, bare or built edge","resolution_m":50}}]}