{"type":"FeatureCollection","metadata":{"schema_version":1,"place_id":"7b4f6791-2789-5a66-aa74-435cdab24cf0","place_name":"Taman Ara Impian","place_type":"park","osm_reference":"way/813014876","protection_context":"no protected status confirmed from included OSM tags","resolution_m":50,"raster_coverage":1.0,"interpretation":"Suggested search habitats, not predicted plant locations or probabilities of presence."},"features":[{"type":"Feature","geometry":{"type":"Polygon","coordinates":[[[101.581281551259,3.125595152775725],[101.58176629999998,3.124827096544144],[101.5831879,3.1245913965443926],[101.58181299999998,3.124037596544994],[101.5820775,3.1233432965457695],[101.58158929999999,3.1226683965464623],[101.58006039999998,3.1227861965463655],[101.57884270000001,3.1224862965466684],[101.5788213,3.122116696547078],[101.5781265,3.122939396546188],[101.58026960000001,3.1231718965459287],[101.58146589999998,3.1238307965452354],[101.581281551259,3.125595152775725]]]},"properties":{"place_id":"7b4f6791-2789-5a66-aa74-435cdab24cf0","habitat":"forest_edge_opening","habitat_label":"Forest edge or opening","resolution_m":50}},{"type":"Feature","geometry":{"type":"Polygon","coordinates":[[[101.57833509999999,3.1230433965460755],[101.58026960000001,3.1231718965459287],[101.58146589999998,3.1238307965452354],[101.581128,3.1258500965430485],[101.58176629999998,3.124827096544144],[101.5831879,3.1245913965443926],[101.58181299999998,3.124037596544994],[101.5820775,3.1233432965457695],[101.58139079999998,3.122604096546541],[101.58006039999998,3.1227861965463655],[101.57884270000001,3.1224862965466684],[101.5788213,3.122116696547078],[101.57833509999999,3.1230433965460755]]]},"properties":{"place_id":"7b4f6791-2789-5a66-aa74-435cdab24cf0","habitat":"disturbed_built_edge","habitat_label":"Disturbed, bare or built edge","resolution_m":50}}]}