{"type":"FeatureCollection","metadata":{"schema_version":1,"place_id":"7bb38f75-a84b-53a1-9b19-d7c4fd2945a5","place_name":"Taman Rimba Bukit Mertajam","place_type":"wood","osm_reference":"relation/8743100","protection_context":"mapped protected boundary","resolution_m":50,"raster_coverage":1.0,"interpretation":"Suggested search habitats, not predicted plant locations or probabilities of presence."},"features":[{"type":"Feature","geometry":{"type":"MultiPolygon","coordinates":[[[[100.47490663741203,5.35903579722874],[100.47387022063091,5.358642191093669],[100.47387022063091,5.357859466773932],[100.47335201224034,5.357854979564199],[100.4727474,5.355587494201617],[100.47179738706866,5.355493350899862],[100.47179738706866,5.35588695506027],[100.47231559545922,5.35588695506027],[100.47179738706866,5.356674164121409],[100.4728338038498,5.3570677690221755],[100.4728338038498,5.358642191093669],[100.47179738706866,5.35903579722874],[100.4712425,5.3582779941988985],[100.47103430000001,5.359498194197672],[100.4684091,5.358684494198486],[100.46765171994419,5.3591296412093286],[100.46795959999999,5.360126594197018],[100.46818279999998,5.359236594197903],[100.46862049999999,5.359100194198076],[100.4689986,5.359841594197326],[100.4682070699107,5.360216617115528],[100.46920634511585,5.360216617115528],[100.46920634511585,5.360523721605239],[100.47024276189698,5.3606102242383775],[100.47024276189698,5.360962949810479],[100.47153829999999,5.360664494196468],[100.4713175,5.361877894195241],[100.4707448,5.361558494195602],[100.469266,5.361595794195549],[100.47060429999999,5.363344994193775],[100.46972455350642,5.363371981082006],[100.46972455350642,5.364152699460828],[100.46920634511585,5.364152699460828],[100.4696765,5.364629694192452],[100.46920634511585,5.365730806070793],[100.470337,5.366346794190721],[100.47034579999999,5.368526394188503],[100.47142209999998,5.367924994189118],[100.47178919999999,5.368273094188788],[100.47090139999999,5.36911429418795],[100.4716157,5.370124594186894],[100.47050489999998,5.371242894185782],[100.4719955,5.37235789418463],[100.4723847,5.371609994185395],[100.4726415,5.37190499418512],[100.47370449999998,5.371270494185743],[100.48010759999998,5.373573394183397],[100.48054869999999,5.375283894181659],[100.4816433464893,5.3751738615748605],[100.4816433464893,5.375561166871041],[100.4826782,5.375823294181122],[100.4826961196265,5.378322800683758],[100.48319797166101,5.378322800683758],[100.48319797166101,5.379002293078563],[100.4870322,5.379747894177162],[100.48652259999999,5.378730394178202],[100.48794689999998,5.378447394178464],[100.4866487,5.376236294180716],[100.4873782,5.375234894181733],[100.48630722200436,5.374780245300992],[100.48682543039492,5.3739930134962135],[100.48941647234773,5.374386629274783],[100.4905884,5.3731085941838925],[100.49183479999998,5.373087294183899],[100.4928571,5.372604994184393],[100.49470109999999,5.374174094182813],[100.49591430000001,5.374279494182715],[100.4957604,5.37500109418198],[100.4962112,5.374932094182043],[100.49667138981557,5.375567478096405],[100.49667138981557,5.37671223801931],[100.49822601498725,5.377535564419948],[100.49822601498725,5.3767483291472935],[100.49872145553894,5.3767483291472935],[100.49874422337781,5.3763547118826045],[100.50081705694005,5.377141946659735],[100.5002988485495,5.375567478096405],[100.50133526533062,5.3751738615748605],[100.50133526533062,5.374386629274783],[100.50185347372118,5.374386629274783],[100.50185347372118,5.3739930134962135],[100.50288989050232,5.3739930134962135],[100.50358524133576,5.374780245300992],[100.50392630728342,5.373205782681922],[100.504444515674,5.373205782681922],[100.504444515674,5.372812167646165],[100.50496272406455,5.372812167646165],[100.50501680000002,5.372340894184661],[100.50590749999999,5.371829094185177],[100.50703555762679,5.372024938317325],[100.50703555762679,5.372418552857971],[100.50755376601737,5.372418552857971],[100.50755376601737,5.373205782681922],[100.50910839118903,5.3739930134962135],[100.50910839118903,5.3745602503343495],[100.50963879999999,5.374818194182167],[100.5092585,5.375813394181126],[100.5080719744079,5.375567478096405],[100.5080719744079,5.3767483291472935],[100.50859018279847,5.3767483291472935],[100.50859018279847,5.377535564419948],[100.5096265995796,5.377929182427948],[100.50983299999999,5.382774494174092],[100.5096265995796,5.383439860568197],[100.50910839118903,5.383453797600826],[100.50910839118903,5.385014348965039],[100.5096265995796,5.385014348965039],[100.5096265995796,5.385783190809694],[100.51118122475127,5.385801594652233],[100.51118122475127,5.386195217868091],[100.51169943314184,5.386195217868091],[100.51169943314184,5.386982465044418],[100.51273584992298,5.386982465044418],[100.51377226670408,5.3881633376707105],[100.51429047509464,5.3881633376707105],[100.51480868348521,5.387376089004921],[100.51612406104873,5.387376089004921],[100.5165078,5.386526494170323],[100.51541999999999,5.385340194171509],[100.5163933,5.384955094171896],[100.5161005,5.384540794172325],[100.514806,5.384905194171949],[100.5133353,5.383839094173022],[100.5134637,5.382322894174563],[100.5124589,5.3821220941747585],[100.51274160000001,5.380906794175973],[100.51167489999999,5.381274994175618],[100.5108277,5.380822894176075],[100.5122577,5.379237294177672],[100.51169943314184,5.378716419187391],[100.51169943314184,5.377141946659735],[100.51014480797016,5.377141946659735],[100.51014480797016,5.3767483291472935],[100.5096265995796,5.3767483291472935],[100.5096265995796,5.375567478096405],[100.51066301636071,5.3751738615748605],[100.51121319999997,5.374028694182957],[100.511067,5.371081194185923],[100.51041949999998,5.370542694186464],[100.51079975240876,5.369663256270913],[100.51066301636071,5.369269643462582],[100.51014480797016,5.369269643462582],[100.5103858886766,5.368482418588099],[100.50961389999999,5.367686194189388],[100.5096265995796,5.366514360730393],[100.51233499999996,5.365719694191378],[100.515559,5.3673198941897216],[100.5156254,5.3678517941892006],[100.51687459999998,5.367530994189518],[100.5166827,5.366569594190487],[100.51573029999999,5.365807494191272],[100.51558539999999,5.365033394192061],[100.5132540583135,5.364939918895188],[100.5132540583135,5.36533352898315],[100.51273584992298,5.36533352898315],[100.51273584992298,5.364939918895188],[100.5122176415324,5.364808923527122],[100.5098032,5.3646479941924285],[100.5092888,5.363843594193258],[100.5090205,5.364366994192745],[100.5074381,5.36330949419382],[100.5073737,5.362663294194457],[100.5064671,5.362342794194803],[100.5065703,5.360510094196645],[100.50727559999999,5.360805294196343],[100.507057,5.360145594197025],[100.5088252,5.359986594197178],[100.5080719744079,5.357461374169769],[100.50859018279847,5.35588695506027],[100.50910839118903,5.355493350899862],[100.51014480797016,5.355493350899862],[100.5102469,5.355795494201405],[100.5108014,5.355025494202172],[100.50826659999997,5.353848094203381],[100.50815449999999,5.353349994203863],[100.50834619999999,5.352011494205236],[100.5100501,5.350481494206798],[100.5091072,5.349581594207707],[100.51005320000002,5.3484081942088775],[100.5095448,5.347775594209539],[100.50992829999998,5.3456937942116305],[100.50866379999998,5.345492094211856],[100.50863179999999,5.34502289421233],[100.5080396,5.345136094212206],[100.50866319999999,5.345746294211601],[100.50884049999999,5.347675894209649],[100.5081317,5.3480169942092965],[100.5076833,5.348896794208391],[100.50873929999999,5.349536894207747],[100.5074948,5.350957694206291],[100.5063897,5.350578494206718],[100.5055314,5.351043094206237],[100.5038738,5.350840194206433],[100.5040884,5.3489974942083],[100.5031121,5.348703694208618],[100.50229669999999,5.347838494209487],[100.5015671,5.344932894212408],[100.49985427847213,5.344078937508707],[100.49840569999999,5.345685594211627],[100.49718959820615,5.345683706089353],[100.49718959820615,5.34604692503223],[100.49770780659671,5.34604692503223],[100.49770780659671,5.346440523275773],[100.49718959820615,5.346440523275773],[100.49785789999999,5.347332094209972],[100.49770780659671,5.348408518188697],[100.4965009,5.349096294208208],[100.49397639295597,5.352738128684953],[100.49459855625334,5.353131731118505],[100.4947999,5.3546295942025885],[100.49563497303447,5.3550997469862045],[100.49563497303447,5.355821661309019],[100.4966855,5.3562759942009075],[100.4988313,5.3560102942011705],[100.499475,5.356352094200846],[100.4996681,5.357527094199684],[100.50081705694005,5.358642191093669],[100.50081705694005,5.359823010239651],[100.50042185370114,5.359823010239651],[100.4998344,5.361313894195799],[100.49830829999999,5.360696994196443],[100.4964817,5.360849194196296],[100.49651379999999,5.359556694197604],[100.4942239,5.358288494198889],[100.49467139999999,5.3574837941997036],[100.49377529999997,5.355793994201422],[100.49420304834157,5.355493350899862],[100.4938423,5.3550128942022015],[100.49304393108166,5.355161353924411],[100.49304393108166,5.355493350899862],[100.4935621394722,5.355493350899862],[100.4935621394722,5.356280559467446],[100.49304393108166,5.356349896903782],[100.4936274365312,5.357854979564199],[100.49408034786278,5.357854979564199],[100.49376859999998,5.359591394197572],[100.49304393108166,5.358642191093669],[100.4925257226911,5.358642191093669],[100.49300450000001,5.357073894200127],[100.49217710000002,5.357186494199979],[100.4921168,5.357676694199533],[100.491055,5.357673394199497],[100.4910985,5.35702299420018],[100.49251970000002,5.356877894200319],[100.4924979229027,5.356280559467446],[100.49200751430054,5.356280559467446],[100.49200751430054,5.355855775080843],[100.4909612,5.356465094200739],[100.4905775,5.3561118942010815],[100.49120569999998,5.354336394202893],[100.4915283,5.3540114942032275],[100.4922064,5.354276294202964],[100.49200751430054,5.35357481133249],[100.4913643,5.353632994203599],[100.49085820000002,5.352893394204355],[100.4899463,5.352936094204286],[100.48983899999999,5.354111094203141],[100.48630722200436,5.355280192415692],[100.48630722200436,5.35588695506027],[100.4871181,5.355882094201328],[100.48722,5.356733994200458],[100.48663529999999,5.356701894200483],[100.48655209999998,5.357711394199468],[100.48566029999998,5.357623394199557],[100.4857674,5.356643394200565],[100.48371618005156,5.355724819699289],[100.480159836815,5.355493350899862],[100.48008872131764,5.35588695506027],[100.47871919999999,5.356206894200985],[100.47847870000001,5.357014294200173],[100.4777017,5.3568857942002825],[100.47671059999999,5.356013894201206],[100.47578569999999,5.356357794200821],[100.47710159999998,5.358949794198212],[100.47654839999998,5.359410294197724],[100.47597479999999,5.35867439419849],[100.4757227,5.358965194198211],[100.47490663741203,5.358642191093669],[100.47490663741203,5.35903579722874]],[[100.49752029999999,5.375969794181002],[100.49697809999998,5.374056894182913],[100.49849959999999,5.374063594182912],[100.49926243176839,5.375567478096405],[100.49874422337781,5.375567478096405],[100.49874422337781,5.375961094865648],[100.49752029999999,5.375969794181002]],[[100.4951167646439,5.372418552857971],[100.49615318142502,5.372024938317325],[100.49667138981557,5.372812167646165],[100.49563497303447,5.373205782681922],[100.4951167646439,5.372418552857971]],[[100.49926243176839,5.37084409618049],[100.5002988485495,5.370450482629849],[100.50081705694005,5.371237709978604],[100.49978064015895,5.37163132402421],[100.49926243176839,5.37084409618049]],[[100.50081705694005,5.369269643462582],[100.50185347372118,5.368876030901649],[100.50237168211176,5.369663256270913],[100.50133526533062,5.370056869326664],[100.50081705694005,5.369269643462582]],[[100.48267976327044,5.366514360730393],[100.48371618005156,5.366120749900735],[100.48371618005156,5.366514360730393],[100.48423438844212,5.366514360730393],[100.48391543423537,5.366907971807322],[100.48440019999998,5.367584694189464],[100.48319797166101,5.367301583131537],[100.48267976327044,5.366514360730393]],[[100.4780158877554,5.366120749900735],[100.47905230453651,5.365727139318327],[100.47957051292707,5.366514360730393],[100.47853409614595,5.366907971807322],[100.4780158877554,5.366120749900735]],[[100.4824698,5.370120994186926],[100.4817939,5.370457494186569],[100.4813889,5.370182394186855],[100.48137009999999,5.369365294187683],[100.4824698,5.370120994186926]],[[100.49800509999999,5.353382494203863],[100.4994053,5.353179494204073],[100.50104409999999,5.35460019420262],[100.50028229999998,5.356024994201181],[100.49934629999998,5.355574994201629],[100.49762430000001,5.355534894201677],[100.49800509999999,5.353382494203863]]],[[[100.5044148,5.37460449418238],[100.50392630728342,5.3751738615748605],[100.504444515674,5.3751738615748605],[100.504444515674,5.375961094865648],[100.50496272406455,5.375961094865648],[100.50484669999999,5.375015194181959],[100.5044148,5.37460449418238]]],[[[100.50133526533062,5.378322800683758],[100.50185347372118,5.378322800683758],[100.50185347372118,5.377929182427948],[100.50133526533062,5.377929182427948],[100.50133526533062,5.378322800683758]]],[[[100.50133526533062,5.378716419187391],[100.50110044707135,5.378322800683758],[100.50084926329448,5.378716419187391],[100.50133526533062,5.378716419187391]]],[[[100.5132540583135,5.387769713213681],[100.5130358,5.387969494168832],[100.5132540583135,5.388062305828021],[100.5132540583135,5.387769713213681]]],[[[100.51377226670408,5.390630974627065],[100.5138602,5.39119179416558],[100.51389349999998,5.3905720941662105],[100.51377226670408,5.390630974627065]]],[[[100.51273584992298,5.392886850527016],[100.5122176415324,5.392890018503643],[100.5122176415324,5.393280478213266],[100.5132540583135,5.393674106148048],[100.5132540583135,5.395642249550586],[100.51273584992298,5.395642249550586],[100.51273584992298,5.396035878976949],[100.51173194499219,5.396035878976949],[100.5104913,5.397221094159489],[100.5113156871536,5.39721676874808],[100.5119708,5.396686994160039],[100.5126858,5.39775079415897],[100.51318909999999,5.397344194159362],[100.5137673,5.397542294159152],[100.51458010000002,5.397177894159555],[100.5158148,5.398277394158419],[100.5166338,5.3974619941592366],[100.51734359999999,5.397617494159079],[100.5166213,5.396888394159819],[100.5166057,5.395933794160789],[100.519584,5.3970307941596705],[100.5205375,5.396724594159976],[100.52149099999998,5.395473494161273],[100.5208275,5.394287994162437],[100.51739972543801,5.394046359742444],[100.51429047509464,5.3952486203728665],[100.51429047509464,5.394854991443772],[100.51377226670408,5.394854991443772],[100.51374476128765,5.391312342266955],[100.5132540583135,5.391312342266955],[100.5132540583135,5.392493223089277],[100.51273584992298,5.392493223089277],[100.51273584992298,5.392886850527016]]]]},"properties":{"place_id":"7bb38f75-a84b-53a1-9b19-d7c4fd2945a5","habitat":"forest_interior","habitat_label":"Forest interior","resolution_m":50}},{"type":"Feature","geometry":{"type":"MultiPolygon","coordinates":[[[[100.49200751430054,5.35357481133249],[100.4922070952478,5.353918936725543],[100.4922078,5.3535566942036885],[100.49200751430054,5.35357481133249]]],[[[100.48033248998718,5.355493350899862],[100.48025540000002,5.3553796942018295],[100.480159836815,5.355493350899862],[100.48033248998718,5.355493350899862]]],[[[100.48249904515122,5.355493350899862],[100.48097429999999,5.3552059942019925],[100.48100570223279,5.355493350899862],[100.48249904515122,5.355493350899862]]],[[[100.48008872131764,5.35588695506027],[100.48008872131764,5.355577931105978],[100.47910095043099,5.35588695506027],[100.48008872131764,5.35588695506027]]],[[[100.48371618005156,5.35588695506027],[100.4841606241721,5.35588695506027],[100.48371618005156,5.355724819699289],[100.48371618005156,5.35588695506027]]],[[[100.48682543039492,5.35588695506027],[100.48630722200436,5.35588695506027],[100.4861666,5.355319994201884],[100.48610149999998,5.355887394201339],[100.48682543039492,5.35588695506027]]],[[[100.49200751430054,5.356280559467446],[100.4924979229027,5.356280559467446],[100.4922721,5.355701694201482],[100.49200751430054,5.355855775080843],[100.49200751430054,5.356280559467446]]],[[[100.4928096,5.356128594201049],[100.4935621394722,5.356280559467446],[100.4935621394722,5.355493350899862],[100.49304393108166,5.355493350899862],[100.49304393108166,5.355161353924411],[100.4928096,5.356128594201049]]],[[[100.4728338038498,5.356674164121409],[100.47313459283701,5.356674164121409],[100.4728338038498,5.355743815843117],[100.4728338038498,5.356674164121409]]],[[[100.47179738706866,5.356280559467446],[100.47231559545922,5.356280559467446],[100.47179738706866,5.355493350899862],[100.47266376787566,5.355493350899862],[100.47223500000001,5.355010694202181],[100.47083969999998,5.355712894201486],[100.4717932,5.356521794200669],[100.4712229,5.356379594200805],[100.4709208,5.356874694200313],[100.47244609999997,5.357160394200029],[100.47243480000002,5.358470594198703],[100.47201859999998,5.358664194198496],[100.4712791786781,5.35829624610113],[100.47179738706866,5.35903579722874],[100.47231559545922,5.35903579722874],[100.47231559545922,5.358642191093669],[100.4728338038498,5.358642191093669],[100.4728338038498,5.3570677690221755],[100.47231559545922,5.3570677690221755],[100.47179738706866,5.356280559467446]]],[[[100.47594305419315,5.356674164121409],[100.47569700000001,5.35721649419995],[100.47594305419315,5.357316423791964],[100.47594305419315,5.356674164121409]]],[[[100.47335201224034,5.357854979564199],[100.47386476924868,5.357854979564199],[100.47335201224034,5.357070727076248],[100.47335201224034,5.357854979564199]]],[[[100.47387022063091,5.358642191093669],[100.47425329104622,5.358642191093669],[100.47387022063091,5.357859466773932],[100.47387022063091,5.358642191093669]]],[[[100.47438842902146,5.35903579722874],[100.47537652602954,5.358642191093669],[100.4752431,5.358214494198971],[100.47438842902146,5.358714416088783],[100.47438842902146,5.35903579722874]]],[[[100.4928254998631,5.357854979564199],[100.4925257226911,5.358642191093669],[100.4934884225136,5.35903579722874],[100.4928254998631,5.357854979564199]]],[[[100.49408034786278,5.358642191093669],[100.49408034786278,5.357854979564199],[100.4936274365312,5.357854979564199],[100.49365480528208,5.358642191093669],[100.49408034786278,5.358642191093669]]],[[[100.46816992833475,5.35903579722874],[100.46805909999999,5.35878659419838],[100.46776316285793,5.35903579722874],[100.46816992833475,5.35903579722874]]],[[[100.46920634511585,5.360216617115528],[100.4682070699107,5.360216617115528],[100.468077,5.360666994196472],[100.46920634511585,5.360523721605239],[100.46920634511585,5.360216617115528]]],[[[100.46765171994419,5.3591296412093286],[100.4672876,5.3594122941977504],[100.4672705,5.360265494196905],[100.46765171994419,5.3598412054813105],[100.46765171994419,5.3591296412093286]]],[[[100.46955176832982,5.3606102242383775],[100.47002069999999,5.360967694196183],[100.47024276189698,5.360962949810479],[100.47024276189698,5.3606102242383775],[100.46955176832982,5.3606102242383775]]],[[[100.46972455350642,5.3615540242587265],[100.47024276189698,5.361791047088944],[100.47024276189698,5.361519548209261],[100.46972455350642,5.3615540242587265]]],[[[100.46920634511585,5.364152699460828],[100.46972455350642,5.364152699460828],[100.46972455350642,5.363371981082006],[100.46925469999998,5.363386394193707],[100.46920634511585,5.364152699460828]]],[[[100.46920634511585,5.365038004161402],[100.46878669999997,5.365609394191461],[100.46920634511585,5.365730806070793],[100.46920634511585,5.365038004161402]]],[[[100.47853409614595,5.366120749900735],[100.4780158877554,5.366120749900735],[100.4780158877554,5.366514360730393],[100.47905230453651,5.366907971807322],[100.47957051292707,5.366120749900735],[100.47905230453651,5.366120749900735],[100.47905230453651,5.365727139318327],[100.47853409614595,5.365727139318327],[100.47853409614595,5.366120749900735]]],[[[100.48319797166101,5.366120749900735],[100.48316800914861,5.366514360730393],[100.48423438844212,5.366907971807322],[100.48423438844212,5.366514360730393],[100.48319797166101,5.366120749900735]]],[[[100.482702,5.366704294190357],[100.48267976327044,5.366907971807322],[100.48312146059803,5.366907971807322],[100.482702,5.366704294190357]]],[[[100.48319797166101,5.367301583131537],[100.48371618005156,5.367301583131537],[100.48371618005156,5.367251674817386],[100.48319797166101,5.366938445630297],[100.48319797166101,5.367301583131537]]],[[[100.49038326472525,5.3735993979652665],[100.48908106275879,5.374386629274783],[100.4895776,5.374607294182346],[100.49038326472525,5.3735993979652665]]],[[[100.48682543039492,5.374780245300992],[100.48682543039492,5.3751738615748605],[100.48734363878549,5.3751738615748605],[100.48682543039492,5.374159590141597],[100.48630722200436,5.374386629274783],[100.48630722200436,5.374780245300992],[100.48682543039492,5.374780245300992]]],[[[100.48682543039492,5.3739930134962135],[100.48682543039492,5.374035403592892],[100.4869817860047,5.3739930134962135],[100.48682543039492,5.3739930134962135]]],[[[100.4816433464893,5.3751738615748605],[100.48112513809876,5.375429905269894],[100.4816433464893,5.375561166871041],[100.4816433464893,5.3751738615748605]]],[[[100.48166826260761,5.375567478096405],[100.48216155487988,5.375692428499733],[100.48216155487988,5.375567478096405],[100.48166826260761,5.375567478096405]]],[[[100.48267976327044,5.3763547118826045],[100.4825194,5.3769576941799935],[100.48267976327044,5.3781955592024016],[100.48267976327044,5.3763547118826045]]],[[[100.4826961196265,5.378322800683758],[100.4826875,5.378910494178007],[100.48319797166101,5.379002293078563],[100.48319797166101,5.378322800683758],[100.4826961196265,5.378322800683758]]],[[[100.49989056665704,5.344078937508707],[100.4998808,5.344073694213294],[100.49985427847213,5.344078937508707],[100.49989056665704,5.344078937508707]]],[[[100.49926243176839,5.3448661317793515],[100.49926243176839,5.344472534520915],[100.49978064015895,5.344472534520915],[100.49978064015895,5.344093495773896],[100.49916189999999,5.344303794213067],[100.49886622322282,5.3448661317793515],[100.49926243176839,5.3448661317793515]]],[[[100.49874422337781,5.345259729284038],[100.49874422337781,5.345076137644921],[100.4986422471481,5.345259729284038],[100.49874422337781,5.345259729284038]]],[[[100.49718959820615,5.346440523275773],[100.49770780659671,5.346440523275773],[100.49770780659671,5.34604692503223],[100.4967955,5.34568309421163],[100.49718959820615,5.346440523275773]]],[[[100.49770780659671,5.348408518188697],[100.4976557,5.34771939420959],[100.49748525930592,5.348408518188697],[100.49770780659671,5.348408518188697]]],[[[100.49718959820615,5.348802117910455],[100.49718959820615,5.348639117861877],[100.4969440521095,5.348802117910455],[100.49718959820615,5.348802117910455]]],[[[100.49408034786278,5.352738128684953],[100.49396959999997,5.35280789420443],[100.49408034786278,5.352945209026632],[100.49408034786278,5.352738128684953]]],[[[100.49423078258918,5.353131731118505],[100.49454111523674,5.353525333798694],[100.49459855625334,5.353525333798694],[100.49459855625334,5.353131731118505],[100.49423078258918,5.353131731118505]]],[[[100.49486720943415,5.3547061433192775],[100.4951167646439,5.354989955486027],[100.4951167646439,5.3547061433192775],[100.49486720943415,5.3547061433192775]]],[[[100.49408034786278,5.355493350899862],[100.4942313,5.355473494201737],[100.49408034786278,5.355294757518081],[100.49408034786278,5.355493350899862]]],[[[100.49563497303447,5.3550997469862045],[100.49521330395926,5.3550997469862045],[100.49563497303447,5.355821661309019],[100.49563497303447,5.3550997469862045]]],[[[100.49578594794481,5.35588695506027],[100.49615318142502,5.356045776520947],[100.49615318142502,5.35588695506027],[100.49578594794481,5.35588695506027]]],[[[100.5002988485495,5.358248585205496],[100.50021972791964,5.358248585205496],[100.5002988485495,5.3583520695620805],[100.5002988485495,5.358248585205496]]],[[[100.50081705694005,5.35903579722874],[100.50052066556488,5.358642191093669],[100.5007320401745,5.35903579722874],[100.50081705694005,5.35903579722874]]],[[[100.50081705694005,5.359429403610729],[100.50042185370114,5.359823010239651],[100.50081705694005,5.359823010239651],[100.50081705694005,5.359429403610729]]],[[[100.5002988485495,5.360216617115528],[100.5002988485495,5.36013518162345],[100.50026676046447,5.360216617115528],[100.5002988485495,5.360216617115528]]],[[[100.50133526533062,5.368876030901649],[100.50081705694005,5.369663256270913],[100.50185347372118,5.370056869326664],[100.50237168211176,5.369269643462582],[100.50133526533062,5.368876030901649]]],[[[100.49978064015895,5.370450482629849],[100.49926243176839,5.371237709978604],[100.5002988485495,5.37163132402421],[100.50081705694005,5.37084409618049],[100.49978064015895,5.370450482629849]]],[[[100.49563497303447,5.372024938317325],[100.4951167646439,5.372812167646165],[100.49615318142502,5.373205782681922],[100.49667138981557,5.372418552857971],[100.49563497303447,5.372024938317325]]],[[[100.49770780659671,5.3739930134962135],[100.49822601498725,5.374062389437863],[100.49822601498725,5.3739930134962135],[100.49770780659671,5.3739930134962135]]],[[[100.49718959820615,5.375567478096405],[100.49743371754329,5.375567478096405],[100.49718959820615,5.3746998467761715],[100.49718959820615,5.375567478096405]]],[[[100.49869469023524,5.374386629274783],[100.4986318,5.375473894181486],[100.49798108605995,5.375961094865648],[100.49926243176839,5.375567478096405],[100.49869469023524,5.374386629274783]]],[[[100.5002988485495,5.375567478096405],[100.5002988485495,5.3763547118826045],[100.50039430400774,5.3763547118826045],[100.50073336302266,5.375567478096405],[100.5002988485495,5.375567478096405]]],[[[100.49667138981557,5.375567478096405],[100.49657149999999,5.3766782941802855],[100.49667138981557,5.37671223801931],[100.49667138981557,5.375567478096405]]],[[[100.49770780659671,5.377375320531027],[100.49718959820615,5.3767483291472935],[100.49671431315089,5.3767483291472935],[100.49699839999998,5.377383394179543],[100.49770780659671,5.377375320531027]]],[[[100.50081705694005,5.377141946659735],[100.49874422337781,5.3763547118826045],[100.50133526533062,5.378322800683758],[100.50133526533062,5.378716419187391],[100.50084926329448,5.378716419187391],[100.50106039999999,5.379640794177274],[100.50187330000001,5.378470494178462],[100.5019772,5.377957294178964],[100.50081705694005,5.376590954222848],[100.50081705694005,5.377141946659735]],[[100.50133526533062,5.377929182427948],[100.50185347372118,5.377929182427948],[100.50185347372118,5.378322800683758],[100.50133526533062,5.378322800683758],[100.50133526533062,5.377929182427948]]],[[[100.49822601498725,5.3767483291472935],[100.49808320887,5.377535564419948],[100.49874422337781,5.3780640393359525],[100.49872145553894,5.3767483291472935],[100.49822601498725,5.3767483291472935]]],[[[100.51014480797016,5.355493350899862],[100.50910839118903,5.355699851693852],[100.51014480797016,5.355786917773784],[100.51014480797016,5.355493350899862]]],[[[100.50859018279847,5.35588695506027],[100.50859018279847,5.356157115943544],[100.50876539942534,5.35588695506027],[100.50859018279847,5.35588695506027]]],[[[100.50838338908378,5.3570677690221755],[100.5080719744079,5.357461374169769],[100.50837194707005,5.357461374169769],[100.50838338908378,5.3570677690221755]]],[[[100.51273584992298,5.36533352898315],[100.5132540583135,5.36533352898315],[100.5132540583135,5.364939918895188],[100.51377226670408,5.364912543699331],[100.5122176415324,5.364808923527122],[100.51273584992298,5.364939918895188],[100.51273584992298,5.36533352898315]]],[[[100.51014480797016,5.366460989010778],[100.51066301636071,5.36628559678813],[100.51066301636071,5.366120749900735],[100.51014480797016,5.366120749900735],[100.51014480797016,5.366460989010778]]],[[[100.5096265995796,5.366514360730393],[100.5096265995796,5.367301583131537],[100.5097153461302,5.367301583131537],[100.50998711758082,5.366514360730393],[100.5096265995796,5.366514360730393]]],[[[100.51066301636071,5.369269643462582],[100.51079975240876,5.369663256270913],[100.5106332,5.368737494188304],[100.51014480797016,5.368482418588099],[100.51014480797016,5.369269643462582],[100.51066301636071,5.369269643462582]]],[[[100.50393102329252,5.374386629274783],[100.50431179999998,5.373332194183661],[100.50505150000001,5.372900694184067],[100.50498013886438,5.372418552857971],[100.504444515674,5.373205782681922],[100.50392630728342,5.373205782681922],[100.50393102329252,5.374386629274783]]],[[[100.50755376601737,5.372418552857971],[100.50619432717345,5.372024938317325],[100.5063778,5.372543694184456],[100.50674239999998,5.372322594184663],[100.5072224,5.373182494183798],[100.5080719744079,5.37347860206788],[100.50755376601737,5.373205782681922],[100.50755376601737,5.372418552857971]]],[[[100.50548093245511,5.372024938317325],[100.50548093245511,5.372169823167782],[100.50561847160073,5.372024938317325],[100.50548093245511,5.372024938317325]]],[[[100.50801174087421,5.3739930134962135],[100.50869619999999,5.374077094182884],[100.50910839118903,5.3745602503343495],[100.50859018279847,5.3735993979652665],[100.50801174087421,5.3739930134962135]]],[[[100.504444515674,5.374780245300992],[100.50454430137876,5.374780245300992],[100.504444515674,5.37462727270335],[100.504444515674,5.374780245300992]]],[[[100.5096265995796,5.3751738615748605],[100.5096265995796,5.374929091821171],[100.50940989235748,5.3751738615748605],[100.5096265995796,5.3751738615748605]]],[[[100.50496272406455,5.375961094865648],[100.504444515674,5.375961094865648],[100.504444515674,5.3751738615748605],[100.50392630728342,5.3751738615748605],[100.50384802129149,5.374780245300992],[100.50387089999998,5.376182494180752],[100.50519210000002,5.376384294180591],[100.50554309999998,5.375556894181429],[100.50516449999999,5.375138894181813],[100.50496272406455,5.375961094865648]]],[[[100.50340809889286,5.374780245300992],[100.50288989050232,5.3739930134962135],[100.50185347372118,5.3739930134962135],[100.50081705694005,5.375501288423009],[100.5022584,5.374129894182833],[100.50340809889286,5.374780245300992]]],[[[100.51066301636071,5.374780245300992],[100.51066301636071,5.3751738615748605],[100.5096265995796,5.375567478096405],[100.5096265995796,5.3767483291472935],[100.51014480797016,5.3767483291472935],[100.51014480797016,5.377141946659735],[100.51066301636071,5.377106308819553],[100.50970889999999,5.376374894180576],[100.50991119999999,5.375784994181185],[100.5111461,5.375125194181824],[100.51066301636071,5.374780245300992]]],[[[100.51169943314184,5.377141946659735],[100.51169943314184,5.377929182427948],[100.51177127111295,5.377929182427948],[100.51198339999999,5.377096194179832],[100.51125992844327,5.377141946659735],[100.51169943314184,5.377141946659735]]],[[[100.51169943314184,5.378322800683758],[100.51187126183292,5.378716419187391],[100.51173947381403,5.378322800683758],[100.51169943314184,5.378322800683758]]],[[[100.5080719744079,5.3767483291472935],[100.50833969999996,5.37518659418176],[100.50774879999997,5.3754522941815335],[100.50781459999999,5.3767242941802165],[100.5093726,5.378531294178405],[100.5089504,5.380388994176512],[100.50940599999998,5.381292094175607],[100.50915089999997,5.38242689417445],[100.5096265995796,5.382647299658612],[100.5096265995796,5.377929182427948],[100.50910839118903,5.377929182427948],[100.50910839118903,5.377535564419948],[100.50859018279847,5.377535564419948],[100.50859018279847,5.3767483291472935],[100.5080719744079,5.3767483291472935]]],[[[100.5096265995796,5.383439860568197],[100.5096265995796,5.382925730860276],[100.50912015657366,5.383439860568197],[100.5096265995796,5.383439860568197]]],[[[100.50910839118903,5.385014348965039],[100.50910839118903,5.383453797600826],[100.50882089999998,5.384755194172085],[100.5096265995796,5.385783190809694],[100.5096265995796,5.385014348965039],[100.50910839118903,5.385014348965039]]],[[[100.51118122475127,5.385801594652233],[100.51071613034698,5.385801594652233],[100.51179109999998,5.387202294169607],[100.51151289999997,5.387637794169171],[100.5125277,5.387104494169699],[100.51291821779614,5.387769713213681],[100.5132540583135,5.387769713213681],[100.51273584992298,5.386982465044418],[100.51169943314184,5.386982465044418],[100.51169943314184,5.386195217868091],[100.51118122475127,5.386195217868091],[100.51118122475127,5.385801594652233]]],[[[100.5096821027471,5.385801594652233],[100.51014499999998,5.386119894170705],[100.51059626044454,5.385801594652233],[100.5096821027471,5.385801594652233]]],[[[100.51480868348521,5.387769713213681],[100.51429047509464,5.387769713213681],[100.51429047509464,5.3881633376707105],[100.51377226670408,5.3881633376707105],[100.51377226670408,5.387769713213681],[100.5132540583135,5.388062305828021],[100.51444109999997,5.388396094168419],[100.51612406104873,5.387376089004921],[100.51480868348521,5.387376089004921],[100.51480868348521,5.387769713213681]]],[[[100.51273584992298,5.392886850527016],[100.51273584992298,5.392493223089277],[100.5132540583135,5.392493223089277],[100.5132540583135,5.391312342266955],[100.51377226670408,5.391283619441629],[100.51377226670408,5.390630974627065],[100.51251029999997,5.392118594164633],[100.5122233082995,5.392886850527016],[100.51273584992298,5.392886850527016]]],[[[100.51739972543801,5.39406773433138],[100.51695649999999,5.3939510941627855],[100.51488978059297,5.394854991443772],[100.51584510026632,5.394854991443772],[100.51584510026632,5.394461362763283],[100.51688151704745,5.394461362763283],[100.51688151704745,5.39406773433138],[100.51739972543801,5.39406773433138]]],[[[100.51377226670408,5.394854991443772],[100.51480868348521,5.3952486203728665],[100.51377226670408,5.392998574105883],[100.51377226670408,5.394854991443772]]],[[[100.5122176415324,5.393280478213266],[100.5122176415324,5.392890018503643],[100.511901,5.393331994163416],[100.5126685,5.393881994162877],[100.5125491,5.3954474941612744],[100.51173194499219,5.396035878976949],[100.51273584992298,5.396035878976949],[100.51273584992298,5.395642249550586],[100.5132540583135,5.395642249550586],[100.5132540583135,5.393674106148048],[100.5122176415324,5.393280478213266]]],[[[100.51169943314184,5.3964295086519725],[100.51169943314184,5.396079231837332],[100.51126704387032,5.3964295086519725],[100.51169943314184,5.3964295086519725]]],[[[100.51066301636071,5.39721676874808],[100.51066301636071,5.396823138575677],[100.51118122475127,5.396823138575677],[100.51118122475127,5.396473211039077],[100.51011279999999,5.397017294159696],[100.51066301636071,5.39721676874808]]],[[[100.51118122475127,5.39721676874808],[100.51131029999999,5.397221094159489],[100.5113156871536,5.39721676874808],[100.51118122475127,5.39721676874808]]]]},"properties":{"place_id":"7bb38f75-a84b-53a1-9b19-d7c4fd2945a5","habitat":"forest_edge_opening","habitat_label":"Forest edge or opening","resolution_m":50}},{"type":"Feature","geometry":{"type":"MultiPolygon","coordinates":[[[[100.49704584102703,5.346440523275773],[100.49718959820615,5.34604692503223],[100.49678290013618,5.34604692503223],[100.49704584102703,5.346440523275773]]],[[[100.46816992833475,5.3606102242383775],[100.46816992833475,5.36065520498826],[100.4685244887341,5.3606102242383775],[100.46816992833475,5.3606102242383775]]],[[[100.47905230453651,5.366120749900735],[100.47853409614595,5.366120749900735],[100.47853409614595,5.366514360730393],[100.47905230453651,5.366514360730393],[100.47905230453651,5.366120749900735]]],[[[100.50185347372118,5.369269643462582],[100.50133526533062,5.369269643462582],[100.50133526533062,5.369663256270913],[100.50185347372118,5.369663256270913],[100.50185347372118,5.369269643462582]]],[[[100.5002988485495,5.37084409618049],[100.49978064015895,5.37084409618049],[100.49978064015895,5.371237709978604],[100.5002988485495,5.371237709978604],[100.5002988485495,5.37084409618049]]],[[[100.49615318142502,5.372418552857971],[100.49563497303447,5.372418552857971],[100.49563497303447,5.372812167646165],[100.49615318142502,5.372812167646165],[100.49615318142502,5.372418552857971]]],[[[100.48993468073829,5.3739930134962135],[100.48993468073829,5.374099073403043],[100.49021875015532,5.3739930134962135],[100.48993468073829,5.3739930134962135]]],[[[100.48694214195963,5.374386629274783],[100.48682543039492,5.374780245300992],[100.48714448381536,5.374780245300992],[100.48694214195963,5.374386629274783]]],[[[100.48971014264238,5.374386629274783],[100.48941647234773,5.374535687825809],[100.4895776,5.374607294182346],[100.48971014264238,5.374386629274783]]],[[[100.49874422337781,5.375567478096405],[100.4985782866546,5.3751738615748605],[100.49858875139266,5.375567478096405],[100.49874422337781,5.375567478096405]]],[[[100.49718959820615,5.377141946659735],[100.4968755852091,5.377141946659735],[100.49718959820615,5.377437980388458],[100.49718959820615,5.377141946659735]]],[[[100.5002988485495,5.377141946659735],[100.50018171700559,5.377141946659735],[100.5002988485495,5.377233250491111],[100.5002988485495,5.377141946659735]]],[[[100.4998572386102,5.377141946659735],[100.4998836,5.37716819417977],[100.50004186334739,5.377141946659735],[100.4998572386102,5.377141946659735]]],[[[100.49926243176839,5.3767483291472935],[100.4990202151744,5.3767483291472935],[100.49926243176839,5.376993071619465],[100.49926243176839,5.3767483291472935]]],[[[100.49874422337781,5.377929182427948],[100.49838516026252,5.377929182427948],[100.49882639999997,5.378052094178864],[100.49874422337781,5.376853690034379],[100.49874422337781,5.377929182427948]]],[[[100.50081705694005,5.377535564419948],[100.50042469763174,5.377535564419948],[100.50081705694005,5.377863733334664],[100.50081705694005,5.377535564419948]]],[[[100.51066301636071,5.396737102693147],[100.5104940663276,5.396823138575677],[100.51066301636071,5.396823138575677],[100.51066301636071,5.396737102693147]]],[[[100.51014480797016,5.397000994458992],[100.51011279999999,5.397017294159696],[100.51014480797016,5.397034528567455],[100.51014480797016,5.397000994458992]]],[[[100.5132540583135,5.364939918895188],[100.51273584992298,5.364843463582622],[100.51273584992298,5.364939918895188],[100.5132540583135,5.364939918895188]]],[[[100.51066301636071,5.369269643462582],[100.51072893817394,5.369269643462582],[100.51066301636071,5.3689032248412065],[100.51066301636071,5.369269643462582]]],[[[100.51066301636071,5.3751738615748605],[100.51066301636071,5.375354303276654],[100.51104348327608,5.3751738615748605],[100.51066301636071,5.3751738615748605]]],[[[100.51014480797016,5.375567478096405],[100.51014480797016,5.375619727006151],[100.5102186627079,5.375567478096405],[100.51014480797016,5.375567478096405]]],[[[100.51014480797016,5.3767483291472935],[100.51019603888732,5.3767483291472935],[100.51014480797016,5.376709056115619],[100.51014480797016,5.3767483291472935]]],[[[100.51273584992298,5.387376089004921],[100.51271910321864,5.387376089004921],[100.51273584992298,5.3874044987679826],[100.51273584992298,5.387376089004921]]],[[[100.51480868348521,5.388183804354114],[100.5155256898168,5.387769713213681],[100.51480868348521,5.387769713213681],[100.51480868348521,5.388183804354114]]],[[[100.51377226670408,5.3881633376707105],[100.51360858070674,5.3881633376707105],[100.51377226670408,5.388209101143175],[100.51377226670408,5.3881633376707105]]],[[[100.5132540583135,5.391034132697181],[100.51300824443938,5.391312342266955],[100.5132540583135,5.391312342266955],[100.5132540583135,5.391034132697181]]],[[[100.51273584992298,5.391898996416449],[100.51251029999997,5.392118594164633],[100.51254621087347,5.392493223089277],[100.51273584992298,5.392493223089277],[100.51273584992298,5.391898996416449]]],[[[100.51273584992298,5.39406773433138],[100.51237840180406,5.393674106148048],[100.51266067233976,5.39406773433138],[100.51273584992298,5.39406773433138]]],[[[100.51688151704745,5.393976730766281],[100.5166153462434,5.39406773433138],[100.51688151704745,5.39406773433138],[100.51688151704745,5.393976730766281]]],[[[100.51584510026632,5.39433108083212],[100.51546404678204,5.394461362763283],[100.51584510026632,5.394461362763283],[100.51584510026632,5.39433108083212]]],[[[100.51429047509464,5.394854991443772],[100.51477263946906,5.394854991443772],[100.51429047509464,5.394589538468908],[100.51429047509464,5.394854991443772]]],[[[100.51273584992298,5.394854991443772],[100.5125491,5.3954474941612744],[100.5122420400311,5.395642249550586],[100.51273584992298,5.395642249550586],[100.51273584992298,5.394854991443772]]]]},"properties":{"place_id":"7bb38f75-a84b-53a1-9b19-d7c4fd2945a5","habitat":"open_grassland","habitat_label":"Open grassland or shrubland","resolution_m":50}},{"type":"Feature","geometry":{"type":"MultiPolygon","coordinates":[[[[100.48033248998718,5.355493350899862],[100.48025540000002,5.3553796942018295],[100.480159836815,5.355493350899862],[100.48033248998718,5.355493350899862]]],[[[100.48249904515122,5.355493350899862],[100.48097429999999,5.3552059942019925],[100.48100570223279,5.355493350899862],[100.48249904515122,5.355493350899862]]],[[[100.48008872131764,5.35588695506027],[100.48008872131764,5.355577931105978],[100.47910095043099,5.35588695506027],[100.48008872131764,5.35588695506027]]],[[[100.4728338038498,5.356674164121409],[100.4730692,5.3561696942010215],[100.4728338038498,5.355743815843117],[100.4728338038498,5.356674164121409]]],[[[100.4712791786781,5.358642191093669],[100.47179738706866,5.358642191093669],[100.47179738706866,5.35903579722874],[100.4728338038498,5.358642191093669],[100.4728338038498,5.3570677690221755],[100.47179738706866,5.356674164121409],[100.47179738706866,5.356280559467446],[100.47231559545922,5.356280559467446],[100.47179738706866,5.355493350899862],[100.47266376787566,5.355493350899862],[100.47223500000001,5.355010694202181],[100.47083969999998,5.355712894201486],[100.4717932,5.356521794200669],[100.4712229,5.356379594200805],[100.4709208,5.356874694200313],[100.47244609999997,5.357160394200029],[100.47243480000002,5.358470594198703],[100.47201859999998,5.358664194198496],[100.4712791786781,5.35829624610113],[100.4712791786781,5.358642191093669]]],[[[100.47594305419315,5.356674164121409],[100.47569700000001,5.35721649419995],[100.47594305419315,5.357316423791964],[100.47594305419315,5.356674164121409]]],[[[100.47335201224034,5.357854979564199],[100.47386476924868,5.357854979564199],[100.47335201224034,5.357070727076248],[100.47335201224034,5.357854979564199]]],[[[100.47387022063091,5.358642191093669],[100.47425329104622,5.358642191093669],[100.47387022063091,5.357859466773932],[100.47387022063091,5.358642191093669]]],[[[100.47438842902146,5.35903579722874],[100.47537652602954,5.358642191093669],[100.4752431,5.358214494198971],[100.47438842902146,5.358714416088783],[100.47438842902146,5.35903579722874]]],[[[100.46816992833475,5.35903579722874],[100.46805909999999,5.35878659419838],[100.46776316285793,5.35903579722874],[100.46816992833475,5.35903579722874]]],[[[100.46765171994419,5.3591296412093286],[100.4672876,5.3594122941977504],[100.4672705,5.360265494196905],[100.46765171994419,5.3598412054813105],[100.46765171994419,5.3591296412093286]]],[[[100.4685244887341,5.3606102242383775],[100.46816992833475,5.360345222649076],[100.468077,5.360666994196472],[100.4685244887341,5.3606102242383775]]],[[[100.47024276189698,5.3606102242383775],[100.46972455350642,5.3606102242383775],[100.46972455350642,5.360741939587548],[100.47024276189698,5.360962949810479],[100.47024276189698,5.3606102242383775]]],[[[100.47024276189698,5.361791047088944],[100.46972455350642,5.3615540242587265],[100.46972455350642,5.361791047088944],[100.47024276189698,5.361791047088944]]],[[[100.46920634511585,5.364152699460828],[100.46972455350642,5.364152699460828],[100.46972455350642,5.363371981082006],[100.46925469999998,5.363386394193707],[100.46920634511585,5.364152699460828]]],[[[100.46920634511585,5.365038004161402],[100.46878669999997,5.365609394191461],[100.46920634511585,5.365730806070793],[100.46920634511585,5.365038004161402]]],[[[100.48267976327044,5.3763547118826045],[100.4825194,5.3769576941799935],[100.48256506544378,5.377535564419948],[100.48267976327044,5.377535564419948],[100.48267976327044,5.3763547118826045]]],[[[100.48261810554841,5.377929182427948],[100.48267976327044,5.3781955592024016],[100.48267976327044,5.377929182427948],[100.48261810554841,5.377929182427948]]],[[[100.48319797166101,5.378716419187391],[100.48319797166101,5.378322800683758],[100.4826961196265,5.378322800683758],[100.48269034647255,5.378716419187391],[100.48319797166101,5.378716419187391]]],[[[100.49718959820615,5.346440523275773],[100.49704584102703,5.346440523275773],[100.49718959820615,5.346598356206611],[100.49718959820615,5.346440523275773]]],[[[100.49770780659671,5.348014918713357],[100.4976557,5.34771939420959],[100.49758260804728,5.348014918713357],[100.49770780659671,5.348014918713357]]],[[[100.48371618005156,5.35588695506027],[100.4841606241721,5.35588695506027],[100.48371618005156,5.355724819699289],[100.48371618005156,5.35588695506027]]],[[[100.48682543039492,5.35588695506027],[100.48630722200436,5.35588695506027],[100.4861666,5.355319994201884],[100.48610149999998,5.355887394201339],[100.48682543039492,5.35588695506027]]],[[[100.49563497303447,5.355493350899862],[100.49545235689233,5.355493350899862],[100.49563497303447,5.355821661309019],[100.49563497303447,5.355493350899862]]],[[[100.49304393108166,5.355161353924411],[100.4928096,5.356128594201049],[100.49304393108166,5.356349896903782],[100.4935621394722,5.356280559467446],[100.4935621394722,5.355493350899862],[100.49304393108166,5.355493350899862],[100.49304393108166,5.355161353924411]]],[[[100.49200751430054,5.356280559467446],[100.4924979229027,5.356280559467446],[100.4922721,5.355701694201482],[100.49200751430054,5.355855775080843],[100.49200751430054,5.356280559467446]]],[[[100.49615318142502,5.35588695506027],[100.49578594794481,5.35588695506027],[100.49615318142502,5.356045776520947],[100.49615318142502,5.35588695506027]]],[[[100.4928254998631,5.357854979564199],[100.4925257226911,5.358642191093669],[100.4934884225136,5.35903579722874],[100.4928254998631,5.357854979564199]]],[[[100.49408034786278,5.358642191093669],[100.49408034786278,5.357854979564199],[100.4936274365312,5.357854979564199],[100.49365480528208,5.358642191093669],[100.49408034786278,5.358642191093669]]],[[[100.48371618005156,5.366120749900735],[100.48319797166101,5.366120749900735],[100.48316800914861,5.366514360730393],[100.48423438844212,5.366907971807322],[100.48371618005156,5.366120749900735]]],[[[100.482702,5.366704294190357],[100.48267976327044,5.366907971807322],[100.48312146059803,5.366907971807322],[100.482702,5.366704294190357]]],[[[100.48319797166101,5.367301583131537],[100.48371618005156,5.367301583131537],[100.48371618005156,5.367251674817386],[100.48319797166101,5.366938445630297],[100.48319797166101,5.367301583131537]]],[[[100.51197174866066,5.377141946659735],[100.51169943314184,5.377535564419948],[100.5118715098868,5.377535564419948],[100.51197174866066,5.377141946659735]]],[[[100.51173947381403,5.378322800683758],[100.51169943314184,5.378716419187391],[100.51187126183292,5.378716419187391],[100.51173947381403,5.378322800683758]]],[[[100.50133526533062,5.378716419187391],[100.50084926329448,5.378716419187391],[100.50085632655664,5.37911003793887],[100.50133526533062,5.37911003793887],[100.50133526533062,5.378716419187391]]],[[[100.51377226670408,5.3881633376707105],[100.51360858070674,5.3881633376707105],[100.51377226670408,5.388209101143175],[100.51377226670408,5.3881633376707105]]],[[[100.51273584992298,5.39406773433138],[100.51237840180406,5.393674106148048],[100.5125705450051,5.3952486203728665],[100.51273584992298,5.394854991443772],[100.5132540583135,5.394854991443772],[100.5132540583135,5.39406773433138],[100.51273584992298,5.39406773433138]]],[[[100.5122176415324,5.39565772450791],[100.51183219999999,5.395902194160818],[100.51173194499219,5.396035878976949],[100.5122176415324,5.396035878976949],[100.5122176415324,5.39565772450791]]],[[[100.51169943314184,5.3964295086519725],[100.51169943314184,5.396079231837332],[100.51126704387032,5.3964295086519725],[100.51169943314184,5.3964295086519725]]]]},"properties":{"place_id":"7bb38f75-a84b-53a1-9b19-d7c4fd2945a5","habitat":"disturbed_built_edge","habitat_label":"Disturbed, bare or built edge","resolution_m":50}},{"type":"Feature","geometry":{"type":"MultiPolygon","coordinates":[[[[100.50496272406455,5.372812167646165],[100.50496272406455,5.372961442466299],[100.50505150000001,5.372900694184067],[100.50496272406455,5.372812167646165]]],[[[100.504444515674,5.373205782681922],[100.504444515674,5.373218316352608],[100.50446464861383,5.373205782681922],[100.504444515674,5.373205782681922]]],[[[100.50288989050232,5.374386629274783],[100.50258789598439,5.374386629274783],[100.50288989050232,5.374628331925245],[100.50288989050232,5.374386629274783]]],[[[100.50185347372118,5.374386629274783],[100.50185347372118,5.3744376047187785],[100.501910023237,5.374386629274783],[100.50185347372118,5.374386629274783]]],[[[100.50340809889286,5.374780245300992],[100.50324582416717,5.374780245300992],[100.50340809889286,5.374825179123592],[100.50340809889286,5.374780245300992]]],[[[100.50496272406455,5.3751738615748605],[100.50520440415234,5.3751738615748605],[100.50513909999998,5.37513589418183],[100.50496272406455,5.3751738615748605]]],[[[100.50133526533062,5.3751738615748605],[100.50133526533062,5.375237726542013],[100.50137850379092,5.3751738615748605],[100.50133526533062,5.3751738615748605]]],[[[100.50392630728342,5.375904359674354],[100.5038505,5.376120694180852],[100.50392630728342,5.376212628050764],[100.50392630728342,5.375904359674354]]],[[[100.50392630728342,5.375372842420131],[100.5036896,5.375557794181428],[100.50392630728342,5.375896712843552],[100.50392630728342,5.375372842420131]]],[[[100.50392630728342,5.3751738615748605],[100.50370926820042,5.3751738615748605],[100.50392630728342,5.375310916280983],[100.50392630728342,5.3751738615748605]]],[[[100.5047995025232,5.3763547118826045],[100.5050128,5.376481694180469],[100.50521258539393,5.3763547118826045],[100.5047995025232,5.3763547118826045]]],[[[100.50185347372118,5.378495124984633],[100.5019772,5.378007994178935],[100.50185347372118,5.37779769520721],[100.50185347372118,5.378495124984633]]],[[[100.50133526533062,5.37911003793887],[100.50133526533062,5.379145745002836],[100.50138077831163,5.37911003793887],[100.50133526533062,5.37911003793887]]],[[[100.50703555762679,5.372418552857971],[100.50684671204635,5.372418552857971],[100.50703555762679,5.372616917029949],[100.50703555762679,5.372418552857971]]],[[[100.50634470802356,5.372418552857971],[100.50641240000002,5.372549794184428],[100.50656627216257,5.372418552857971],[100.50634470802356,5.372418552857971]]],[[[100.50755376601737,5.373205782681922],[100.50725752862422,5.373205782681922],[100.50755376601737,5.373275243086414],[100.50755376601737,5.373205782681922]]],[[[100.50859018279847,5.3739930134962135],[100.50826695124115,5.3739930134962135],[100.508525,5.374099394182872],[100.50859018279847,5.3739930134962135]]],[[[100.5080719744079,5.373965700399656],[100.50783439999998,5.373858094183146],[100.50784460000001,5.373995994182974],[100.5080719744079,5.373965700399656]]],[[[100.50548093245511,5.375791809120098],[100.50554309999998,5.375556894181429],[100.50548093245511,5.375455334515193],[100.50548093245511,5.375791809120098]]],[[[100.5080719744079,5.3767483291472935],[100.50782788748484,5.3767483291472935],[100.5080719744079,5.377001214196084],[100.5080719744079,5.3767483291472935]]],[[[100.50910839118903,5.377929182427948],[100.50906476632657,5.377929182427948],[100.50910839118903,5.37797174593768],[100.50910839118903,5.377929182427948]]],[[[100.50910839118903,5.381696216446333],[100.5091003,5.381737594175149],[100.50910839118903,5.381810998205156],[100.50910839118903,5.381696216446333]]],[[[100.50910839118903,5.380220843723185],[100.5089504,5.380388994176512],[100.50910839118903,5.381080594110195],[100.50910839118903,5.380220843723185]]],[[[100.50910839118903,5.385014348965039],[100.50897817642335,5.385014348965039],[100.50910839118903,5.385105607848065],[100.50910839118903,5.385014348965039]]],[[[100.51118122475127,5.386195217868091],[100.51111730000001,5.386553794170279],[100.51118122475127,5.386745759939674],[100.51118122475127,5.386195217868091]]],[[[100.51169943314184,5.387514306934301],[100.511487,5.3874968941693195],[100.51151289999997,5.387637794169171],[100.51169943314184,5.387514306934301]]],[[[100.51169943314184,5.386982465044418],[100.51145898023437,5.386982465044418],[100.51169943314184,5.387137304430681],[100.51169943314184,5.386982465044418]]]]},"properties":{"place_id":"7bb38f75-a84b-53a1-9b19-d7c4fd2945a5","habitat":"permanent_water","habitat_label":"Permanent water","resolution_m":50}},{"type":"Feature","geometry":{"type":"MultiPolygon","coordinates":[[[[100.50755376601737,5.373205782681922],[100.5073149,5.37322929418374],[100.50755376601737,5.373275243086414],[100.50755376601737,5.373205782681922]]],[[[100.50859018279847,5.3739930134962135],[100.5084191,5.374077094182884],[100.50859018279847,5.374091549002083],[100.50859018279847,5.3739930134962135]]],[[[100.504444515674,5.374780245300992],[100.50454430137876,5.374780245300992],[100.504444515674,5.37462727270335],[100.504444515674,5.374780245300992]]],[[[100.50392630728342,5.375567478096405],[100.50392630728342,5.375372842420131],[100.5036896,5.375557794181428],[100.50392630728342,5.375567478096405]]],[[[100.50392630728342,5.3751738615748605],[100.50370926820042,5.3751738615748605],[100.50392630728342,5.375310916280983],[100.50392630728342,5.3751738615748605]]],[[[100.50133526533062,5.377929182427948],[100.50185347372118,5.377929182427948],[100.50185347372118,5.37779769520721],[100.50133526533062,5.377616650124555],[100.50133526533062,5.377929182427948]]]]},"properties":{"place_id":"7bb38f75-a84b-53a1-9b19-d7c4fd2945a5","habitat":"seasonal_water_wetland","habitat_label":"Seasonal water or wetland","resolution_m":50}},{"type":"Feature","geometry":{"type":"MultiPolygon","coordinates":[[[[100.49615318142502,5.37491224729225],[100.49573385253231,5.374780245300992],[100.4957604,5.37500109418198],[100.49615318142502,5.37491224729225]]],[[[100.48216155487988,5.375567478096405],[100.48166826260761,5.375567478096405],[100.48216155487988,5.375692428499733],[100.48216155487988,5.375567478096405]]],[[[100.50185347372118,5.377929182427948],[100.50133526533062,5.377929182427948],[100.50111579999998,5.37686679418009],[100.5003881,5.3763467941805985],[100.5006061,5.37571189418124],[100.5022584,5.374129894182833],[100.50357699999999,5.374786594182169],[100.50501680000002,5.372340894184661],[100.50590749999999,5.371829094185177],[100.50634470802356,5.372418552857971],[100.50703555762679,5.372418552857971],[100.5072224,5.373182494183798],[100.5081491,5.373538994183428],[100.5080719744079,5.373965700399656],[100.5096265995796,5.374773956245299],[100.5096265995796,5.3739930134962135],[100.5080719744079,5.373205782681922],[100.5080719744079,5.372418552857971],[100.50755376601737,5.372418552857971],[100.50703555762679,5.37163132402421],[100.50548093245511,5.37163132402421],[100.50548093245511,5.372024938317325],[100.50340809889286,5.373205782681922],[100.50340809889286,5.3739930134962135],[100.50288989050232,5.3739930134962135],[100.50288989050232,5.3735993979652665],[100.50185347372118,5.3735993979652665],[100.50185347372118,5.3739930134962135],[100.50081705694005,5.374386629274783],[100.50081705694005,5.3751738615748605],[100.49978064015895,5.375567478096405],[100.49978064015895,5.3763547118826045],[100.5002988485495,5.3763547118826045],[100.500419,5.377532594179393],[100.50111030000001,5.378281494178646],[100.500878,5.379623394177284],[100.50185347372118,5.377929182427948]]],[[[100.5036804,5.374919894182057],[100.50392630728342,5.376212628050764],[100.50521258539393,5.3763547118826045],[100.50520440415234,5.3751738615748605],[100.5043945,5.374603494182359],[100.5036804,5.374919894182057]]],[[[100.5096265995796,5.375567478096405],[100.5096265995796,5.3751738615748605],[100.51014480797016,5.3751738615748605],[100.51014480797016,5.374780245300992],[100.509628334044,5.374780245300992],[100.50932369999997,5.375360994181602],[100.5096265995796,5.375567478096405]]],[[[100.49822601498725,5.377535564419948],[100.49822601498725,5.377141946659735],[100.49718959820615,5.377141946659735],[100.49718959820615,5.375567478096405],[100.49638883943533,5.3751738615748605],[100.49699839999998,5.377383394179543],[100.4978531,5.377413094179514],[100.49882639999997,5.378052094178864],[100.49874422337781,5.377535564419948],[100.49822601498725,5.377535564419948]]],[[[100.48319797166101,5.378322800683758],[100.48319797166101,5.377535564419948],[100.48267976327044,5.377535564419948],[100.48267976327044,5.3767483291472935],[100.48319797166101,5.3767483291472935],[100.48319797166101,5.3763547118826045],[100.48267976327044,5.3763547118826045],[100.48266089617321,5.375961094865648],[100.4826875,5.378910494178007],[100.48371618005156,5.378716419187391],[100.48371618005156,5.378322800683758],[100.48319797166101,5.378322800683758]]],[[[100.51169943314184,5.386195217868091],[100.51118122475127,5.385407971684556],[100.51014480797016,5.385407971684556],[100.51014480797016,5.385014348965039],[100.5096265995796,5.385014348965039],[100.5096265995796,5.383439860568197],[100.51014480797016,5.383439860568197],[100.51014480797016,5.377929182427948],[100.50910839118903,5.377535564419948],[100.50910839118903,5.3767483291472935],[100.50859018279847,5.3767483291472935],[100.50859018279847,5.375961094865648],[100.50910839118903,5.375797273377171],[100.50819909999997,5.375190694181748],[100.5077264,5.375527394181456],[100.50781459999999,5.3767242941802165],[100.5093726,5.378531294178405],[100.50912859999998,5.382336194174533],[100.50983299999999,5.382774494174092],[100.5088674,5.383692894173187],[100.50882089999998,5.384755194172085],[100.5092198,5.385693294171148],[100.5100276,5.386109794170716],[100.51093259999998,5.385954594170873],[100.51169943314184,5.387514306934301],[100.5125277,5.387104494169699],[100.51273584992298,5.3874044987679826],[100.51273584992298,5.386982465044418],[100.5122176415324,5.386982465044418],[100.5122176415324,5.386195217868091],[100.51169943314184,5.386195217868091]]],[[[100.5132540583135,5.387769713213681],[100.51291821779614,5.387769713213681],[100.5132540583135,5.388062305828021],[100.5132540583135,5.387769713213681]]],[[[100.51377226670408,5.3881633376707105],[100.51360858070674,5.3881633376707105],[100.51377226670408,5.388209101143175],[100.51377226670408,5.3881633376707105]]],[[[100.51377226670408,5.390918715823085],[100.51377226670408,5.390630974627065],[100.51335603567519,5.390918715823085],[100.51377226670408,5.390918715823085]]],[[[100.5132540583135,5.391705968959265],[100.5132540583135,5.391034132697181],[100.51293410943546,5.391705968959265],[100.5132540583135,5.391705968959265]]],[[[100.51273584992298,5.394854991443772],[100.51273584992298,5.394461362763283],[100.5132540583135,5.394461362763283],[100.5132540583135,5.39406773433138],[100.51273584992298,5.39406773433138],[100.51273584992298,5.392493223089277],[100.5132540583135,5.392493223089277],[100.5132540583135,5.392099595900033],[100.51273584992298,5.391898996416449],[100.511901,5.393331994163416],[100.5126685,5.393881994162877],[100.51273584992298,5.394854991443772]]]]},"properties":{"place_id":"7bb38f75-a84b-53a1-9b19-d7c4fd2945a5","habitat":"water_edge","habitat_label":"Water edge","resolution_m":50}}]}