{"type":"FeatureCollection","metadata":{"schema_version":1,"place_id":"7be82a4a-5554-599d-a3a0-88cc38bd5f15","place_name":"Pulau Simpang Cengur","place_type":"wood","osm_reference":"way/724683415","protection_context":"no protected status confirmed from included OSM tags","resolution_m":50,"raster_coverage":1.0,"interpretation":"Suggested search habitats, not predicted plant locations or probabilities of presence."},"features":[{"type":"Feature","geometry":{"type":"Polygon","coordinates":[[[102.63739269999999,5.073031994489315],[102.63770919999999,5.073793394488561],[102.6385501,5.073574394488759],[102.63739269999999,5.073031994489315]]]},"properties":{"place_id":"7be82a4a-5554-599d-a3a0-88cc38bd5f15","habitat":"forest_edge_opening","habitat_label":"Forest edge or opening","resolution_m":50}},{"type":"Feature","geometry":{"type":"MultiPolygon","coordinates":[[[[102.63740347553383,5.073341542949936],[102.63743559999999,5.073058694489288],[102.6373431,5.073034694489321],[102.63740347553383,5.073341542949936]]],[[[102.63842666800271,5.073472932305538],[102.6385501,5.073574394488759],[102.63853799999998,5.073478194488852],[102.63842666800271,5.073472932305538]]],[[[102.63758996205179,5.0737349749484],[102.63807539999999,5.073841494488504],[102.6383755300758,5.0737349749484],[102.63758996205179,5.0737349749484]]]]},"properties":{"place_id":"7be82a4a-5554-599d-a3a0-88cc38bd5f15","habitat":"permanent_water","habitat_label":"Permanent water","resolution_m":50}},{"type":"Feature","geometry":{"type":"Polygon","coordinates":[[[102.63740347553383,5.073341542949936],[102.63758996205179,5.0737349749484],[102.63842666800271,5.073694586558386],[102.63842666800271,5.073472932305538],[102.63740347553383,5.073341542949936]]]},"properties":{"place_id":"7be82a4a-5554-599d-a3a0-88cc38bd5f15","habitat":"water_edge","habitat_label":"Water edge","resolution_m":50}}]}