{"type":"FeatureCollection","metadata":{"schema_version":1,"place_id":"7bf18d48-f0e2-5644-bf24-b48b1fc22cb2","place_name":"Raintree Fountain Park","place_type":"park","osm_reference":"way/626335853","protection_context":"no protected status confirmed from included OSM tags","resolution_m":50,"raster_coverage":1.0,"interpretation":"Suggested search habitats, not predicted plant locations or probabilities of presence."},"features":[{"type":"Feature","geometry":{"type":"Polygon","coordinates":[[[101.73688459999998,3.1534698965131702],[101.7372213,3.153361396513309],[101.7370952,3.1529891965136905],[101.73681330000001,3.1530995965135906],[101.73688459999998,3.1534698965131702]]]},"properties":{"place_id":"7bf18d48-f0e2-5644-bf24-b48b1fc22cb2","habitat":"forest_edge_opening","habitat_label":"Forest edge or opening","resolution_m":50}},{"type":"Feature","geometry":{"type":"Polygon","coordinates":[[[101.73688459999998,3.1534698965131702],[101.7372213,3.153361396513309],[101.7370952,3.1529891965136905],[101.73681330000001,3.1530995965135906],[101.73688459999998,3.1534698965131702]]]},"properties":{"place_id":"7bf18d48-f0e2-5644-bf24-b48b1fc22cb2","habitat":"disturbed_built_edge","habitat_label":"Disturbed, bare or built edge","resolution_m":50}}]}