{"type":"FeatureCollection","metadata":{"schema_version":1,"place_id":"7c21b23f-646d-5332-88a9-cd21bd53104b","place_name":"retention pond","place_type":"park","osm_reference":"way/1508797492","protection_context":"no protected status confirmed from included OSM tags","resolution_m":50,"raster_coverage":1.0,"interpretation":"Suggested search habitats, not predicted plant locations or probabilities of presence."},"features":[{"type":"Feature","geometry":{"type":"Polygon","coordinates":[[[116.1316289427173,6.048635528460441],[116.13171189999998,6.048645293509216],[116.13173734128303,6.048635528460441],[116.1316289427173,6.048635528460441]]]},"properties":{"place_id":"7c21b23f-646d-5332-88a9-cd21bd53104b","habitat":"forest_edge_opening","habitat_label":"Forest edge or opening","resolution_m":50}},{"type":"Feature","geometry":{"type":"MultiPolygon","coordinates":[[[[116.13153674142067,6.048241461440266],[116.1316632065737,6.048241461440266],[116.13153674142067,6.047584689233853],[116.13153674142067,6.048241461440266]]],[[[116.13153674142067,6.048241461440266],[116.13103209007582,6.048241461440266],[116.13153674142067,6.048624675282598],[116.13153674142067,6.048241461440266]]]]},"properties":{"place_id":"7c21b23f-646d-5332-88a9-cd21bd53104b","habitat":"open_grassland","habitat_label":"Open grassland or shrubland","resolution_m":50}},{"type":"Feature","geometry":{"type":"Polygon","coordinates":[[[116.1309663,6.04808149350976],[116.13124049999999,6.048485993509369],[116.1318875,6.0485778935092664],[116.1313761,6.047321693510515],[116.1309663,6.04808149350976]]]},"properties":{"place_id":"7c21b23f-646d-5332-88a9-cd21bd53104b","habitat":"disturbed_built_edge","habitat_label":"Disturbed, bare or built edge","resolution_m":50}},{"type":"Feature","geometry":{"type":"MultiPolygon","coordinates":[[[[116.13148585052078,6.047453328238599],[116.13103209007582,6.048241461440266],[116.13153674142067,6.048241461440266],[116.13148585052078,6.047453328238599]]],[[[116.13153674142067,6.048624675282598],[116.13192140000001,6.048528893509337],[116.13153674142067,6.048241461440266],[116.13153674142067,6.048624675282598]]]]},"properties":{"place_id":"7c21b23f-646d-5332-88a9-cd21bd53104b","habitat":"permanent_water","habitat_label":"Permanent water","resolution_m":50}},{"type":"Feature","geometry":{"type":"MultiPolygon","coordinates":[[[[116.13148585052078,6.047453328238599],[116.1313761,6.047321693510515],[116.13120955143518,6.047453328238599],[116.13148585052078,6.047453328238599]]],[[[116.13153674142067,6.047847394699659],[116.13101853303012,6.047847394699659],[116.13103209007582,6.048241461440266],[116.13153674142067,6.048241461440266],[116.13153674142067,6.047847394699659]]]]},"properties":{"place_id":"7c21b23f-646d-5332-88a9-cd21bd53104b","habitat":"seasonal_water_wetland","habitat_label":"Seasonal water or wetland","resolution_m":50}},{"type":"Feature","geometry":{"type":"MultiPolygon","coordinates":[[[[116.13101853303012,6.047637474761489],[116.13093849999998,6.047876293509971],[116.13101853303012,6.048208497611502],[116.13101853303012,6.047637474761489]]],[[[116.13153674142067,6.048241461440266],[116.1316632065737,6.048241461440266],[116.13153674142067,6.047584689233853],[116.13153674142067,6.048241461440266]]],[[[116.13153674142067,6.048241461440266],[116.13103209007582,6.048241461440266],[116.13153674142067,6.048624675282598],[116.13153674142067,6.048241461440266]]],[[[116.1316289427173,6.048635528460441],[116.13171189999998,6.048645293509216],[116.13173734128303,6.048635528460441],[116.1316289427173,6.048635528460441]]]]},"properties":{"place_id":"7c21b23f-646d-5332-88a9-cd21bd53104b","habitat":"water_edge","habitat_label":"Water edge","resolution_m":50}}]}