{"type":"FeatureCollection","metadata":{"schema_version":1,"place_id":"7c86b341-c406-5141-9122-969f784c1426","place_name":"Taman Boulevard Setia Raja","place_type":"park","osm_reference":"way/739484115","protection_context":"no protected status confirmed from included OSM tags","resolution_m":50,"raster_coverage":1.0,"interpretation":"Suggested search habitats, not predicted plant locations or probabilities of presence."},"features":[{"type":"Feature","geometry":{"type":"MultiPolygon","coordinates":[[[[112.09390657677187,2.895221750096734],[112.09262054539104,2.8940444934460428],[112.09365696217215,2.8955081885908474],[112.09390657677187,2.895221750096734]]],[[[112.09373722658522,2.895614169244868],[112.0941751705627,2.8961924280402562],[112.0946012,2.896697096791509],[112.09469337895328,2.8961754678034732],[112.09373722658522,2.895614169244868]]]]},"properties":{"place_id":"7c86b341-c406-5141-9122-969f784c1426","habitat":"forest_edge_opening","habitat_label":"Forest edge or opening","resolution_m":50}},{"type":"Feature","geometry":{"type":"MultiPolygon","coordinates":[[[[112.0931387537816,2.8944369121973397],[112.0921412,2.892875196795666],[112.0919540352983,2.8932596563401574],[112.09284563094175,2.8944369121973397],[112.0931387537816,2.8944369121973397]]],[[[112.0931387537816,2.8944369121973397],[112.09314282948958,2.894829331080898],[112.09361134937015,2.894829331080898],[112.09331612196843,2.8944369121973397],[112.0931387537816,2.8944369121973397]]],[[[112.09390657677187,2.895221750096734],[112.09373722658522,2.895614169244868],[112.0941751705627,2.895614169244868],[112.09390657677187,2.895221750096734]]],[[[112.09449921399087,2.896006588525316],[112.09433825032805,2.8963990079380966],[112.09469337895328,2.8963990079380966],[112.09449921399087,2.896006588525316]]]]},"properties":{"place_id":"7c86b341-c406-5141-9122-969f784c1426","habitat":"open_grassland","habitat_label":"Open grassland or shrubland","resolution_m":50}},{"type":"Feature","geometry":{"type":"Polygon","coordinates":[[[112.0918494,2.89312149679538],[112.0946012,2.896697096791509],[112.094787,2.8962568967919777],[112.0921412,2.892875196795666],[112.0918494,2.89312149679538]]]},"properties":{"place_id":"7c86b341-c406-5141-9122-969f784c1426","habitat":"disturbed_built_edge","habitat_label":"Disturbed, bare or built edge","resolution_m":50}}]}