{"type":"FeatureCollection","metadata":{"schema_version":1,"place_id":"7cd13819-2750-58ac-90e3-991195cf872c","place_name":"Taman Eko-Rimba Telaga Tujuh","place_type":"park","osm_reference":"way/1315349421","protection_context":"mapped protected boundary","resolution_m":50,"raster_coverage":1.0,"interpretation":"Suggested search habitats, not predicted plant locations or probabilities of presence."},"features":[{"type":"Feature","geometry":{"type":"MultiPolygon","coordinates":[[[[99.67427467399585,6.377780896558291],[99.67427467399585,6.378120458433649],[99.6743578,6.378064093187157],[99.67427467399585,6.377780896558291]]],[[[99.67375646560528,6.377780896558291],[99.67328489999998,6.378945093186305],[99.67377709999997,6.3800712931852015],[99.6741191,6.379883393185389],[99.67355979999999,6.378761193186475],[99.67419393685283,6.378175203870942],[99.67375646560528,6.378175203870942],[99.67375646560528,6.377780896558291]]]]},"properties":{"place_id":"7cd13819-2750-58ac-90e3-991195cf872c","habitat":"forest_interior","habitat_label":"Forest interior","resolution_m":50}},{"type":"Feature","geometry":{"type":"Polygon","coordinates":[[[99.6734686,6.377219093187983],[99.67375646560528,6.378175203870942],[99.67427467399585,6.378120458433649],[99.6742532,6.3769458931882435],[99.6734686,6.377219093187983]]]},"properties":{"place_id":"7cd13819-2750-58ac-90e3-991195cf872c","habitat":"forest_edge_opening","habitat_label":"Forest edge or opening","resolution_m":50}},{"type":"Feature","geometry":{"type":"Polygon","coordinates":[[[99.6734686,6.377219093187983],[99.67375646560528,6.378175203870942],[99.67427467399585,6.378120458433649],[99.6742532,6.3769458931882435],[99.6734686,6.377219093187983]]]},"properties":{"place_id":"7cd13819-2750-58ac-90e3-991195cf872c","habitat":"disturbed_built_edge","habitat_label":"Disturbed, bare or built edge","resolution_m":50}}]}