{"type":"FeatureCollection","metadata":{"schema_version":1,"place_id":"7d61bbc9-2b5b-548d-a322-8c4c9bf2530f","place_name":"Pulau Jelatang","place_type":"wood","osm_reference":"relation/12484982","protection_context":"no protected status confirmed from included OSM tags","resolution_m":50,"raster_coverage":1.0,"interpretation":"Suggested search habitats, not predicted plant locations or probabilities of presence."},"features":[{"type":"Feature","geometry":{"type":"MultiPolygon","coordinates":[[[[102.71304867624343,4.97813782037419],[102.71408509302456,4.97813782037419],[102.71408509302456,4.977744444565515],[102.71512150980568,4.977351068985818],[102.71512150980568,4.976564318513291],[102.71356688463399,4.976170943620423],[102.71356688463399,4.975777568956464],[102.71304867624343,4.975777568956464],[102.7128178,4.9764059945883865],[102.71201225946233,4.976170943620423],[102.71201225946233,4.9769576936350814],[102.71253046785287,4.9769576936350814],[102.71201225946233,4.978924572678562],[102.71253046785287,4.978924572678562],[102.71304867624343,4.97813782037419]]],[[[102.71253046785287,4.980104702852933],[102.71304867624343,4.980104702852933],[102.71304867624343,4.979317949174291],[102.71253046785287,4.979317949174291],[102.71253046785287,4.980104702852933]]],[[[102.70009346647943,4.984825244173613],[102.70061167486998,4.98477305763792],[102.700483464,4.983645105748966],[102.70009346647943,4.983645105748966],[102.70009346647943,4.984825244173613]]],[[[102.71201225946233,4.986792146134525],[102.71253046785287,4.986792146134525],[102.71253046785287,4.986398765283606],[102.71201225946233,4.986398765283606],[102.71201225946233,4.986792146134525]]],[[[102.6990570496983,4.98718552721485],[102.69957525808887,4.98718552721485],[102.69957525808887,4.986398765283606],[102.6990570496983,4.986398765283606],[102.6990570496983,4.98718552721485]]],[[[102.69802063291716,4.987972290063787],[102.69853884130774,4.987972290063787],[102.69853884130774,4.988759053830566],[102.69802063291716,4.988927800708375],[102.69802063291716,4.9907259672640425],[102.69750242452663,4.9907259672640425],[102.69750242452663,4.993873040697229],[102.69853884130774,4.993873040697229],[102.69853884130774,4.994266425910004],[102.6990570496983,4.994266425910004],[102.6990570496983,4.993873040697229],[102.69957525808887,4.99378408231038],[102.6998614,4.991876594572488],[102.70061167486998,4.991906118079056],[102.70065023303222,4.992299502143328],[102.70216630004167,4.991906118079056],[102.70268450843223,4.99269288643726],[102.70320271682277,4.992299502143328],[102.7042391336039,4.992299502143328],[102.70475734199448,4.99269288643726],[102.70475734199448,4.993873040697229],[102.70522132368681,4.993873040697229],[102.70527555038502,4.993479655714194],[102.70579375877558,4.993479655714194],[102.70578131493662,4.993086270960879],[102.70527555038502,4.993086270960879],[102.70527555038502,4.991906118079056],[102.70631196716614,4.991512734244431],[102.70622159999999,4.99071429457367],[102.70734838394728,4.99033258411824],[102.70838480072838,4.989152436058193],[102.70890300911896,4.989152436058193],[102.70890300911896,4.989545818515334],[102.70942121750952,4.989545818515334],[102.70942121750952,4.989152436058193],[102.7103019,4.989294794575132],[102.71045763429062,4.99033258411824],[102.7109758426812,4.99033258411824],[102.7109758426812,4.98993920120201],[102.71149405107175,4.98993920120201],[102.71149405107175,4.989152436058193],[102.71201225946233,4.989152436058193],[102.71201225946233,4.98718552721485],[102.71149405107175,4.98718552721485],[102.7109758426812,4.987972290063787],[102.71045763429062,4.987972290063787],[102.71044613243357,4.987578908524596],[102.70904859999999,4.987920994576536],[102.70993942590007,4.986792146134525],[102.71045763429062,4.986792146134525],[102.71045763429062,4.986398765283606],[102.70942121750952,4.986005384662074],[102.70936480000002,4.985441694579106],[102.7109758426812,4.985149359283899],[102.71045763429062,4.984038484994565],[102.7095871,4.9839432945806115],[102.7099392998557,4.983645105748966],[102.70942121750952,4.983645105748966],[102.70942121750952,4.983251726732623],[102.711248,4.982627994581995],[102.71229082365167,4.98285834794552],[102.71286,4.982363494582264],[102.71358290000002,4.982852394581744],[102.71356688463399,4.984038484994565],[102.71393308561034,4.984038484994565],[102.71460330141512,4.983251726732623],[102.71512150980568,4.983251726732623],[102.71512150980568,4.98285834794552],[102.71563971819623,4.98285834794552],[102.71563971819623,4.982071591058956],[102.71667613497736,4.981678212959457],[102.71667613497736,4.980891457447938],[102.71718431956165,4.980891457447938],[102.71719434336792,4.980498080035881],[102.71563971819623,4.980498080035881],[102.71512150980568,4.9812848350891255],[102.71424003537247,4.9812848350891255],[102.7136399,4.981745494582905],[102.7128862,4.981607894583014],[102.71253046785287,4.980891457447938],[102.71149405107175,4.981678212959457],[102.71045763429062,4.981678212959457],[102.71045763429062,4.9812848350891255],[102.708992,4.981571894583054],[102.70838480072838,4.9812848350891255],[102.70838480072838,4.981678212959457],[102.70890300911896,4.981678212959457],[102.70890300911896,4.983251726732623],[102.70838480072838,4.983251726732623],[102.70822379999998,4.98366879458091],[102.70683017555672,4.983251726732623],[102.70683017555672,4.982464969387636],[102.70631196716614,4.982464969387636],[102.70631196716614,4.982071591058956],[102.70475734199448,4.982071591058956],[102.70475734199448,4.983251726732623],[102.7042391336039,4.983251726732623],[102.7042391336039,4.983645105748966],[102.70475734199448,4.983645105748966],[102.70475734199448,4.984038484994565],[102.70527555038502,4.984038484994565],[102.70601439999999,4.984833794579728],[102.70527555038502,4.984967564360401],[102.70527555038502,4.986398765283606],[102.70641540000001,4.986765694577733],[102.70631196716614,4.987529990229164],[102.7072854,4.9875722945768945],[102.70651459999999,4.987988094576471],[102.70654069999999,4.989147794575299],[102.70631196716614,4.9883488135233165],[102.7042391336039,4.988365671832437],[102.7042391336039,4.988759053830566],[102.70372092521335,4.988759053830566],[102.70320271682277,4.987997574936411],[102.70216630004167,4.987972290063787],[102.70216630004167,4.987578908524596],[102.70164809165111,4.987578908524596],[102.70164809165111,4.989152436058193],[102.70372092521335,4.98993920120201],[102.70376669999999,4.990436394573968],[102.70320271682277,4.9907259672640425],[102.70268450843223,4.9907259672640425],[102.70198169999999,4.989976794574419],[102.70061167486998,4.98993920120201],[102.70009346647943,4.989152436058193],[102.69957525808887,4.989152436058193],[102.6990570496983,4.98718552721485],[102.69853884130774,4.98718552721485],[102.69802063291716,4.987972290063787]]],[[[102.70475734199448,4.99503623563477],[102.70527555038502,4.995053197024835],[102.70527453307024,4.994266425910004],[102.70475734199448,4.994266425910004],[102.70475734199448,4.99503623563477]]],[[[102.70527555038502,4.996626742012164],[102.70579375877558,4.996518210799249],[102.70550270997113,4.995446582926934],[102.70527555038502,4.995446582926934],[102.70527555038502,4.996626742012164]]]]},"properties":{"place_id":"7d61bbc9-2b5b-548d-a322-8c4c9bf2530f","habitat":"forest_interior","habitat_label":"Forest interior","resolution_m":50}},{"type":"Feature","geometry":{"type":"MultiPolygon","coordinates":[[[[102.7042391336039,4.983251726732623],[102.70475734199448,4.983251726732623],[102.70475734199448,4.982071591058956],[102.70540959887187,4.982071591058956],[102.7050484,4.9811078945835225],[102.70594230000002,4.980049394584644],[102.70556109999997,4.979091494585617],[102.7048831,4.98093519458375],[102.70408449999998,4.981117694583527],[102.7046478,4.981744194582878],[102.7038545,4.983362794581231],[102.70423070000001,4.9840334945805305],[102.7045801,4.984082894580494],[102.70481661426798,4.984038484994565],[102.7042391336039,4.983251726732623]]],[[[102.7059312435179,4.982071591058956],[102.70631196716614,4.982464969387636],[102.70683017555672,4.982529365187851],[102.7063342,4.981939894582682],[102.7059312435179,4.982071591058956]]],[[[102.70683017555672,4.983251726732623],[102.70733785453936,4.983251726732623],[102.70718279999998,4.982766594581865],[102.70683017555672,4.982751623884815],[102.70683017555672,4.983251726732623]]],[[[102.70527555038502,4.984967564360401],[102.70277359999999,4.984798394579751],[102.70266559999999,4.985152394579398],[102.7044627,4.985033494579508],[102.705256,4.985856494578683],[102.7051038,4.986636794577884],[102.70579375877558,4.986637251601043],[102.70527555038502,4.986398765283606],[102.70527555038502,4.984967564360401]]],[[[102.70527555038502,4.984038484994565],[102.70509326776737,4.984038484994565],[102.70527555038502,4.98414987110241],[102.70527555038502,4.984038484994565]]],[[[102.70061167486998,4.98477305763792],[102.70098459999998,4.98405089458053],[102.70061167486998,4.9838231620483215],[102.70061167486998,4.98477305763792]]],[[[102.70579375877558,4.984431864469442],[102.70564154177812,4.984431864469442],[102.70579375877558,4.984600419814344],[102.70579375877558,4.984431864469442]]],[[[102.70216630004167,4.989152436058193],[102.70164809165111,4.989152436058193],[102.70164809165111,4.987578908524596],[102.70216630004167,4.987578908524596],[102.70216630004167,4.987972290063787],[102.70315089960124,4.987972290063787],[102.70286473088755,4.986792146134525],[102.7027327,4.98774499457672],[102.7016913,4.987187194577309],[102.70119849999999,4.9875278945769494],[102.7013125,4.989208594575221],[102.7018301,4.9894303945749865],[102.70216630004167,4.989152436058193]]],[[[102.70009346647943,4.984825244173613],[102.7004126,4.982676794581918],[102.699343,4.983204494581385],[102.69983459999999,4.983955294580617],[102.6991801,4.984409594580181],[102.6992954,4.985184494579365],[102.69845459999999,4.98549039457904],[102.69883679999998,4.986771694577754],[102.6976117,4.987805094576658],[102.69808224994476,4.988759053830566],[102.69853884130774,4.988759053830566],[102.69853884130774,4.987972290063787],[102.69802063291716,4.987972290063787],[102.69802063291716,4.987578908524596],[102.6990570496983,4.98718552721485],[102.69957525808887,4.989152436058193],[102.70042375456768,4.989545818515334],[102.69949989999999,4.987825194576647],[102.70007059999999,4.986720294577776],[102.6997316,4.985716594578817],[102.7004287,4.985476394579059],[102.70043480104003,4.984825244173613],[102.70009346647943,4.984825244173613]],[[102.6990570496983,4.986398765283606],[102.69957525808887,4.986398765283606],[102.69957525808887,4.98718552721485],[102.6990570496983,4.98718552721485],[102.6990570496983,4.986398765283606]]],[[[102.70061167486998,4.98993920120201],[102.70100425262085,4.98993920120201],[102.70061167486998,4.989745641522967],[102.70061167486998,4.98993920120201]]],[[[102.70162871556357,4.98993920120201],[102.70161549999999,4.989938094574485],[102.70159660871892,4.98993920120201],[102.70162871556357,4.98993920120201]]],[[[102.70631196716614,4.986935983883403],[102.70588829999998,4.987308394577175],[102.7063047,4.987531894576939],[102.70631196716614,4.987529990229164],[102.70631196716614,4.986935983883403]]],[[[102.70320271682277,4.988365671832437],[102.7042391336039,4.988759053830566],[102.7042391336039,4.988365671832437],[102.70631196716614,4.9883488135233165],[102.70422599999999,4.987810494576677],[102.70401279999999,4.988249994576203],[102.70320271682277,4.987997574936411],[102.70320271682277,4.988365671832437]]],[[[102.70320271682277,4.98993920120201],[102.70320271682277,4.989545818515334],[102.70268450843223,4.989545818515334],[102.70313639999999,4.990187894574224],[102.70372092521335,4.99032227501818],[102.70372092521335,4.98993920120201],[102.70320271682277,4.98993920120201]]],[[[102.70216630004167,4.99033258411824],[102.70247882495784,4.99033258411824],[102.70216630004167,4.9900584357801785],[102.70216630004167,4.99033258411824]]],[[[102.70268450843223,4.99053192796361],[102.70320271682277,4.9907259672640425],[102.70320271682277,4.990573018843103],[102.70268450843223,4.99053192796361]]],[[[102.70216630004167,4.991906118079056],[102.70164809165111,4.991906118079056],[102.70164809165111,4.992162786446642],[102.7018207,4.991984194572403],[102.70216630004167,4.991906118079056]]],[[[102.69957525808887,4.99378408231038],[102.70004709999999,4.993761094570564],[102.69959779999999,4.992591394571757],[102.69988250481404,4.992299502143328],[102.69957525808887,4.992299502143328],[102.69957525808887,4.99378408231038]]],[[[102.6990570496983,4.993873040697229],[102.6990570496983,4.994266425910004],[102.69853884130774,4.994266425910004],[102.69853884130774,4.993873040697229],[102.69750242452663,4.993873040697229],[102.69750242452663,4.9907259672640425],[102.69802063291716,4.9907259672640425],[102.69802063291716,4.988927800708375],[102.6973683,4.989167894575256],[102.69792080000002,4.989907294574505],[102.69743799999999,4.990418994573995],[102.6974139,4.990982794573406],[102.6964660077455,4.9907259672640425],[102.69709869999997,4.991543294572846],[102.69733539999999,4.993720994570597],[102.6963886,4.994578694569708],[102.69672569999999,4.995808194568448],[102.6976258,4.994147894570149],[102.69906209999999,4.994547994569733],[102.69946898331665,4.993873040697229],[102.6990570496983,4.993873040697229]]],[[[102.70065023303222,4.992299502143328],[102.7007496,4.99295929457138],[102.70154085316041,4.992299502143328],[102.70065023303222,4.992299502143328]]],[[[102.70061167486998,4.992013938517345],[102.70009346647943,4.991906118079056],[102.70009346647943,4.991970769755916],[102.70061167486998,4.992013938517345]]],[[[102.7042391336039,4.992299502143328],[102.70320271682277,4.992299502143328],[102.70320271682277,4.992455928214886],[102.7037814,4.992687594571666],[102.7042391336039,4.992299502143328]]],[[[102.70311269481147,4.99269288643726],[102.70241888810132,4.992299502143328],[102.70243317825064,4.993479655714194],[102.70311269481147,4.99269288643726]]],[[[102.70527555038502,4.993721030456997],[102.7060828,4.993557994570766],[102.70579375877558,4.993119010390428],[102.70579375877558,4.993479655714194],[102.70527555038502,4.993721030456997]]],[[[102.70372092521335,4.995053197024835],[102.70475734199448,4.99503623563477],[102.70475734199448,4.994266425910004],[102.70527453307024,4.994266425910004],[102.70522132368681,4.993873040697229],[102.70475734199448,4.993873040697229],[102.70475734199448,4.99269288643726],[102.70372092521335,4.995053197024835]]],[[[102.7042391336039,4.997399597123992],[102.70475734199448,4.998174510499576],[102.70557719999998,4.997238694566987],[102.70527555038502,4.994272584263145],[102.70527555038502,4.995053197024835],[102.70478661816617,4.995053197024835],[102.70485159999998,4.996790494567444],[102.7042391336039,4.997399597123992]]],[[[102.70746866700682,4.997806903166197],[102.70769139999999,4.996566694567686],[102.70643549999998,4.996445794567808],[102.70579375877558,4.995615595420583],[102.70579375877558,4.996518210799249],[102.70667960000002,4.996746394567478],[102.70746866700682,4.997806903166197]]],[[[102.71253046785287,4.977744444565515],[102.71253046785287,4.9769576936350814],[102.71201225946233,4.9769576936350814],[102.71190919999998,4.975892994588919],[102.7115974,4.976424094588375],[102.71253046785287,4.977744444565515]]],[[[102.7127829,4.976047294588737],[102.71304867624343,4.975777568956464],[102.7143471984221,4.976170943620423],[102.71313829999998,4.975226294589598],[102.7127829,4.976047294588737]]],[[[102.71209150090915,4.980891457447938],[102.71275607508538,4.9812848350891255],[102.71335219999999,4.9801121945845415],[102.7129522,4.978948894585768],[102.7132693449527,4.97813782037419],[102.71253046785287,4.978924572678562],[102.71201225946233,4.978924572678562],[102.71201225946233,4.978000440513448],[102.71141629999997,4.97844419458628],[102.7120057,4.979147594585553],[102.7118736,4.979976594584723],[102.7123497,4.98021709458445],[102.71209150090915,4.980891457447938]],[[102.71304867624343,4.979317949174291],[102.71304867624343,4.980104702852933],[102.71253046785287,4.980104702852933],[102.71253046785287,4.979317949174291],[102.71304867624343,4.979317949174291]]],[[[102.71543699999998,4.976450794588327],[102.71601199999999,4.975509894589285],[102.71460330141512,4.976411854463514],[102.71512150980568,4.976564318513291],[102.71512150980568,4.977351068985818],[102.71460330141512,4.977351068985818],[102.71408509302456,4.97813782037419],[102.71333200510485,4.97813782037419],[102.7144378,4.978824294585877],[102.71484689999998,4.97751159458724],[102.71597679999998,4.977677294587088],[102.71543699999998,4.976450794588327]]],[[[102.71719434336792,4.9808630391693764],[102.71783419999998,4.980523694584162],[102.71823076014904,4.978870626335372],[102.71694699999999,4.9801529945845395],[102.7154564,4.98049229458417],[102.71424003537247,4.9812848350891255],[102.71512150980568,4.9812848350891255],[102.71563971819623,4.980498080035881],[102.71719434336792,4.980498080035881],[102.71719434336792,4.9808630391693764]]],[[[102.70838480072838,4.9812848350891255],[102.70885079782994,4.9812848350891255],[102.70838739999999,4.9808282945838505],[102.70869789999999,4.978659294586077],[102.70786659233782,4.977664430088383],[102.70752039999999,4.97774939458699],[102.7076344,4.9788790945858254],[102.7082701,4.980088794584566],[102.7075774,4.980611194584061],[102.7077347,4.981566494583085],[102.7085122,4.982213794582415],[102.70826196918202,4.983645105748966],[102.70838480072838,4.983251726732623],[102.70890300911896,4.983251726732623],[102.70890300911896,4.981678212959457],[102.70838480072838,4.981678212959457],[102.70838480072838,4.9812848350891255]]],[[[102.71045763429062,4.9812848350891255],[102.71045763429062,4.981678212959457],[102.71149405107175,4.981678212959457],[102.7105627,4.981384794583244],[102.71031389999999,4.980686094583977],[102.70932251514404,4.9812848350891255],[102.71045763429062,4.9812848350891255]]],[[[102.70734838394728,4.983645105748966],[102.70813496850597,4.983645105748966],[102.70734838394728,4.983277399218386],[102.70734838394728,4.983645105748966]]],[[[102.71201225946233,4.9812848350891255],[102.7118911,4.981061494583593],[102.71172985093894,4.9812848350891255],[102.71201225946233,4.9812848350891255]]],[[[102.71408509302456,4.981678212959457],[102.7138015,4.981495694583154],[102.71371839632978,4.981678212959457],[102.71408509302456,4.981678212959457]]],[[[102.71304867624343,4.981678212959457],[102.7134925212156,4.981678212959457],[102.71330529999999,4.981589894583068],[102.71304867624343,4.981678212959457]]],[[[102.71623064539216,4.983251726732623],[102.7158205,4.982647994581955],[102.7165387,4.982054194582593],[102.71718431956165,4.980891457447938],[102.71667613497736,4.980891457447938],[102.71667613497736,4.981678212959457],[102.71563971819623,4.982071591058956],[102.71563971819623,4.98285834794552],[102.71512150980568,4.98285834794552],[102.71408509302456,4.983914882782907],[102.71476909999998,4.9838343945807715],[102.7156992,4.98303779458158],[102.71623064539216,4.983251726732623]]],[[[102.71304867624343,4.982464969387636],[102.7128976,4.9826239945819815],[102.71304867624343,4.982794379854484],[102.71304867624343,4.982464969387636]]],[[[102.71045763429062,4.984038484994565],[102.71045763429062,4.984431864469442],[102.7107200486831,4.984431864469442],[102.71061699999997,4.984021494580564],[102.70998325622485,4.984038484994565],[102.71045763429062,4.984038484994565]]],[[[102.7109758426812,4.985149359283899],[102.71164159999998,4.984807694579741],[102.71149405107175,4.9841688085444735],[102.7109758426812,4.984710477989546],[102.7109758426812,4.985149359283899]]],[[[102.71148063949873,4.98285834794552],[102.71157989999999,4.983350794581245],[102.71196749999999,4.98335549458124],[102.71229082365167,4.98285834794552],[102.71148063949873,4.98285834794552]]],[[[102.71085168930354,4.98285834794552],[102.71098719999999,4.982936594581641],[102.71111394922731,4.98285834794552],[102.71085168930354,4.98285834794552]]],[[[102.70993942590007,4.98285834794552],[102.70993942590007,4.983251726732623],[102.70942121750952,4.983251726732623],[102.70942121750952,4.983645105748966],[102.71036689999998,4.983265894581338],[102.71044968012733,4.98285834794552],[102.70993942590007,4.98285834794552]]],[[[102.71356688463399,4.9831188042678205],[102.7129774,4.984538894580047],[102.7130954,4.984878494579655],[102.71393308561034,4.984038484994565],[102.71356688463399,4.984038484994565],[102.71356688463399,4.9831188042678205]]],[[[102.70683017555672,4.987972290063787],[102.70662719999999,4.987855194576595],[102.70652510674503,4.987972290063787],[102.70683017555672,4.987972290063787]]],[[[102.70993942590007,4.99157504374654],[102.71081150000002,4.991274094573113],[102.71112799999999,4.990237294574178],[102.7122392,4.989486794574963],[102.71212039999999,4.988627394575833],[102.7128969,4.986899994577584],[102.7123658,4.986159794578339],[102.71186829999999,4.986357494578161],[102.7110462,4.987412994577086],[102.71079797656009,4.987972290063787],[102.71149405107175,4.98718552721485],[102.71201225946233,4.98718552721485],[102.71201225946233,4.989152436058193],[102.71149405107175,4.989152436058193],[102.71149405107175,4.98993920120201],[102.7109758426812,4.98993920120201],[102.7109758426812,4.99033258411824],[102.71045763429062,4.99033258411824],[102.71027607516561,4.989545818515334],[102.70993942590007,4.99157504374654]],[[102.71253046785287,4.986398765283606],[102.71253046785287,4.986792146134525],[102.71201225946233,4.986792146134525],[102.71201225946233,4.986398765283606],[102.71253046785287,4.986398765283606]]],[[[102.70993942590007,4.985218624107095],[102.7105976,4.98542629457912],[102.7108280575073,4.985218624107095],[102.70993942590007,4.985218624107095]]],[[[102.70969439999999,4.98570689457881],[102.70942121750952,4.986005384662074],[102.70981833082604,4.986005384662074],[102.70969439999999,4.98570689457881]]],[[[102.70993942590007,4.986398765283606],[102.71045763429062,4.986398765283606],[102.70993942590007,4.987096181768346],[102.7107471,4.986415594578102],[102.71017919999997,4.985970694578557],[102.70993942590007,4.986398765283606]]],[[[102.71044613243357,4.987578908524596],[102.7102911,4.987495794577004],[102.71001384120909,4.987578908524596],[102.71044613243357,4.987578908524596]]],[[[102.71045763429062,4.987972290063787],[102.71064170881587,4.987972290063787],[102.71045763429062,4.987597568324266],[102.71045763429062,4.987972290063787]]],[[[102.70993942590007,4.989152436058193],[102.70942121750952,4.989152436058193],[102.70942121750952,4.989545818515334],[102.70890300911896,4.989545818515334],[102.70890300911896,4.989152436058193],[102.7085180285437,4.989152436058193],[102.70893259999998,4.990011594574387],[102.70993942590007,4.989152436058193]]],[[[102.70838480072838,4.989152436058193],[102.70838480072838,4.989545818515334],[102.70786659233782,4.989545818515334],[102.70786659233782,4.98993920120201],[102.70734838394728,4.98993920120201],[102.70683017555672,4.990564806132783],[102.7075043,4.990622094573786],[102.7076203,4.9899861945744295],[102.7083519,4.990390994574021],[102.70824129999998,4.989713594574709],[102.70841629999998,4.989565294574858],[102.70838480072838,4.989152436058193]]],[[[102.70527555038502,4.993086270960879],[102.70578131493662,4.993086270960879],[102.7053029,4.992602794571743],[102.70561691928265,4.991906118079056],[102.70527555038502,4.991906118079056],[102.70527555038502,4.993086270960879]]],[[[102.70579375877558,4.991801772439278],[102.70711358440427,4.991906118079056],[102.70631196716614,4.990865976263516],[102.70631196716614,4.991512734244431],[102.70579375877558,4.991801772439278]]]]},"properties":{"place_id":"7d61bbc9-2b5b-548d-a322-8c4c9bf2530f","habitat":"forest_edge_opening","habitat_label":"Forest edge or opening","resolution_m":50}},{"type":"Feature","geometry":{"type":"MultiPolygon","coordinates":[[[[102.70579375877558,4.980104702852933],[102.70527555038502,4.980498080035881],[102.70555557744675,4.980498080035881],[102.70579375877558,4.980104702852933]]],[[[102.70320271682277,4.985218624107095],[102.70372092521335,4.985159096013086],[102.70372092521335,4.984850699202644],[102.70320271682277,4.984933419460246],[102.70320271682277,4.985218624107095]]],[[[102.70268450843223,4.993086270960879],[102.70243317825064,4.993479655714194],[102.70266938171844,4.993479655714194],[102.70268450843223,4.993086270960879]]],[[[102.70631196716614,4.996363442454926],[102.70683017555672,4.996626742012164],[102.70683017555672,4.99659078642832],[102.70631196716614,4.996363442454926]]]]},"properties":{"place_id":"7d61bbc9-2b5b-548d-a322-8c4c9bf2530f","habitat":"cropland","habitat_label":"Cropland","resolution_m":50}},{"type":"Feature","geometry":{"type":"MultiPolygon","coordinates":[[[[102.70009346647943,4.98285834794552],[102.70009346647943,4.982747755507124],[102.69988547590003,4.98285834794552],[102.70009346647943,4.98285834794552]]],[[[102.69957525808887,4.983058880073908],[102.69932629999998,4.983243194581331],[102.69957525808887,4.983484393740393],[102.69957525808887,4.983058880073908]]],[[[102.69957525808887,4.985218624107095],[102.69957525808887,4.984220644825833],[102.699172,4.984454994580116],[102.69957525808887,4.985218624107095]]],[[[102.70268450843223,4.98503688817333],[102.7026603,4.985134094579409],[102.70268450843223,4.985174075384439],[102.70268450843223,4.98503688817333]]],[[[102.69853884130774,4.985406295608969],[102.69843979999997,4.985570594578973],[102.69853884130774,4.985776173532364],[102.69853884130774,4.985406295608969]]],[[[102.69957525808887,4.98561200426991],[102.69957525808887,4.986398765283606],[102.69982953737123,4.986398765283606],[102.6997316,4.985716594578817],[102.70018495308473,4.98561200426991],[102.69957525808887,4.98561200426991]]],[[[102.69829794323033,4.98718552721485],[102.69853884130774,4.986927009480749],[102.69830639999998,4.986945994577553],[102.69829794323033,4.98718552721485]]],[[[102.70167909184042,4.98718552721485],[102.7016276,4.987178494577309],[102.70158908793701,4.98718552721485],[102.70167909184042,4.98718552721485]]],[[[102.69802063291716,4.987578908524596],[102.69802063291716,4.987549259364858],[102.6979494834265,4.987578908524596],[102.69802063291716,4.987578908524596]]],[[[102.70216630004167,4.987578908524596],[102.70235575366488,4.987578908524596],[102.70216630004167,4.987465030646427],[102.70216630004167,4.987578908524596]]],[[[102.69957525808887,4.98718552721485],[102.69971049999998,4.987694894576795],[102.69987060589534,4.98718552721485],[102.69957525808887,4.98718552721485]]],[[[102.69957525808887,4.987972290063787],[102.69961021676984,4.987972290063787],[102.69957525808887,4.987933906635028],[102.69957525808887,4.987972290063787]]],[[[102.69802063291716,4.987972290063787],[102.69780242749295,4.987972290063787],[102.69802063291716,4.988151387874669],[102.69802063291716,4.987972290063787]]],[[[102.70112988326053,4.987786861148889],[102.701008,4.988309494576174],[102.70112988326053,4.9888186417356275],[102.70112988326053,4.987786861148889]]],[[[102.70009346647943,4.989152436058193],[102.7002037690899,4.989152436058193],[102.70009346647943,4.989083759657575],[102.70009346647943,4.989152436058193]]],[[[102.69750242452663,4.989042631954574],[102.69735149999997,4.989243994575174],[102.69750242452663,4.989490819192296],[102.69750242452663,4.989042631954574]]],[[[102.70162871556357,4.98993920120201],[102.70161549999999,4.989938094574485],[102.70159660871892,4.98993920120201],[102.70162871556357,4.98993920120201]]],[[[102.70164809165111,4.989152436058193],[102.7013044,4.989160494575272],[102.70164809165111,4.989416134249475],[102.70164809165111,4.989152436058193]]],[[[102.70320271682277,4.98993920120201],[102.70302098795793,4.98993920120201],[102.70320271682277,4.990230099855939],[102.70320271682277,4.98993920120201]]],[[[102.69698421613606,4.9918473863604165],[102.6969344,4.991972194572384],[102.69698421613606,4.992108119925327],[102.69698421613606,4.9918473863604165]]],[[[102.69698421613606,4.991378311737398],[102.69750242452663,4.991119350639432],[102.69750242452663,4.990291809280991],[102.6971564,4.991046294573336],[102.69613780000002,4.990445794573953],[102.69698421613606,4.991378311737398]]],[[[102.70061167486998,4.992382778868814],[102.70055069999998,4.992680894571682],[102.70061167486998,4.9929147237122],[102.70061167486998,4.992382778868814]]],[[[102.70112988326053,4.99269288643726],[102.70113859999998,4.99272199457162],[102.70117149650251,4.99269288643726],[102.70112988326053,4.99269288643726]]],[[[102.70268450843223,4.993086270960879],[102.70268450843223,4.993459814712709],[102.70297822369754,4.993086270960879],[102.70268450843223,4.993086270960879]]],[[[102.70266938171844,4.993479655714194],[102.702443,4.9936361945706675],[102.7025255,4.993668194570673],[102.70266938171844,4.993479655714194]]],[[[102.69698421613606,4.994266425910004],[102.69698421613606,4.993959944697018],[102.69671954516079,4.994266425910004],[102.69698421613606,4.994266425910004]]],[[[102.69977660481732,4.993873040697229],[102.699911,4.993896694570407],[102.69997830362766,4.993873040697229],[102.69977660481732,4.993873040697229]]],[[[102.69750242452663,4.994383907456553],[102.69755063722033,4.994266425910004],[102.69750242452663,4.994266425910004],[102.69750242452663,4.994383907456553]]],[[[102.69853884130774,4.994266425910004],[102.69837867514393,4.994266425910004],[102.69853884130774,4.99442084143026],[102.69853884130774,4.994266425910004]]],[[[102.6990570496983,4.994266425910004],[102.6992197,4.994427094569873],[102.69935914397455,4.994266425910004],[102.6990570496983,4.994266425910004]]],[[[102.6964660077455,4.994477184063661],[102.6963886,4.994578694569708],[102.6964660077455,4.994711907699106],[102.6964660077455,4.994477184063661]]],[[[102.69698421613606,4.995053197024835],[102.69698421613606,4.995446582926934],[102.69654396041376,4.995446582926934],[102.69673339999997,4.995812194568456],[102.69707789999998,4.9955519945687294],[102.69698421613606,4.995053197024835]]],[[[102.70527555038502,4.979394863657701],[102.70563140360794,4.979317949174291],[102.7055959,4.979114194585586],[102.7054185,4.9791479945855786],[102.7052835,4.9792745945854175],[102.70526129999999,4.9793432945853615],[102.70527555038502,4.979394863657701]]],[[[102.70579375877558,4.980192245796405],[102.70594230000002,4.980049394584644],[102.70579375877558,4.979854644531928],[102.70579375877558,4.980192245796405]]],[[[102.70527555038502,4.980498080035881],[102.70527555038502,4.980239536749131],[102.70505218991596,4.980498080035881],[102.70527555038502,4.980498080035881]]],[[[102.70527555038502,4.980498080035881],[102.7054732,4.980736194583935],[102.70555557744675,4.980498080035881],[102.70527555038502,4.980498080035881]]],[[[102.70786659233782,4.980373374353216],[102.7075774,4.980611194584061],[102.70786659233782,4.981604462435103],[102.70786659233782,4.980373374353216]]],[[[102.70475734199448,4.982071591058956],[102.70475734199448,4.9812848350891255],[102.7042391336039,4.9812848350891255],[102.70421059999998,4.980862094583786],[102.7040932,4.981227194583428],[102.70463700000002,4.981650694582973],[102.7044656773935,4.982071591058956],[102.70475734199448,4.982071591058956]]],[[[102.70527555038502,4.982071591058956],[102.70540959887187,4.982071591058956],[102.70527555038502,4.98192763320189],[102.70527555038502,4.982071591058956]]],[[[102.70631196716614,4.982071591058956],[102.70647271620933,4.982071591058956],[102.70631196716614,4.981931328256901],[102.70631196716614,4.982071591058956]]],[[[102.70683017555672,4.982464969387636],[102.7068633,4.9824402945821955],[102.70683017555672,4.982359464805771],[102.70683017555672,4.982464969387636]]],[[[102.7042391336039,4.983251726732623],[102.7042391336039,4.9829989523168345],[102.70393120132195,4.983251726732623],[102.7042391336039,4.983251726732623]]],[[[102.7042391336039,4.9824133136108015],[102.70423,4.982461694582151],[102.7042391336039,4.982485694583461],[102.7042391336039,4.9824133136108015]]],[[[102.7042391336039,4.983645105748966],[102.704156,4.983909994580687],[102.7042391336039,4.984036386874133],[102.7042391336039,4.983645105748966]]],[[[102.70289864347879,4.984825244173613],[102.70283790000002,4.984788094579771],[102.70273490814452,4.984825244173613],[102.70289864347879,4.984825244173613]]],[[[102.70372092521335,4.985159096013086],[102.7044627,4.985033494579508],[102.70475734199448,4.985534426601802],[102.70475734199448,4.984843653226662],[102.7038991,4.984725894579847],[102.70372092521335,4.985159096013086]]],[[[102.70475734199448,4.984038484994565],[102.70424525148786,4.984038484994565],[102.7045801,4.984082894580494],[102.70475734199448,4.984038484994565]]],[[[102.70280200178861,4.985218624107095],[102.70308469999999,4.985336094579219],[102.70333669866083,4.985218624107095],[102.70280200178861,4.985218624107095]]],[[[102.70286473088755,4.986792146134525],[102.70284940000002,4.986787094577721],[102.7028034575879,4.986792146134525],[102.70286473088755,4.986792146134525]]],[[[102.70527555038502,4.9866997372277755],[102.70503752050737,4.986398765283606],[102.70525799999997,4.986704894577787],[102.70527555038502,4.9866997372277755]]],[[[102.7042391336039,4.988365671832437],[102.70454919964948,4.987972290063787],[102.7041965,4.987817094576663],[102.70372092521335,4.988365671832437],[102.7042391336039,4.988365671832437]]],[[[102.70734838394728,4.99033258411824],[102.70756939999998,4.990536594573871],[102.707533313767,4.99033258411824],[102.70734838394728,4.99033258411824]]],[[[102.70810841387926,4.99033258411824],[102.70827809999999,4.990420394573997],[102.70838402219779,4.99033258411824],[102.70810841387926,4.99033258411824]]],[[[102.70683017555672,4.991906118079056],[102.70596995217713,4.991906118079056],[102.70729709999999,4.992239394572123],[102.70683017555672,4.991618990357038],[102.70683017555672,4.991906118079056]]],[[[102.70609701557684,4.993479655714194],[102.705948,4.993620794570694],[102.70611129999999,4.993517294570811],[102.70609701557684,4.993479655714194]]],[[[102.7042391336039,4.994659811352533],[102.7042391336039,4.993411148254548],[102.7037546048856,4.994659811352533],[102.7042391336039,4.994659811352533]]],[[[102.70527555038502,4.994659811352533],[102.70547778998917,4.994659811352533],[102.70527555038502,4.994272584263145],[102.70527555038502,4.994659811352533]]],[[[102.70372092521335,4.995053197024835],[102.70372092521335,4.994681298566927],[102.70363989999998,4.995198294569087],[102.70372092521335,4.995053197024835]]],[[[102.70683017555672,4.996626742012164],[102.70772221998331,4.996626742012164],[102.70631196716614,4.996363442454926],[102.70610815980194,4.996626742012164],[102.70683017555672,4.996951329494563],[102.70683017555672,4.996626742012164]]],[[[102.70527555038502,4.997020128833616],[102.70557719999998,4.997238694566987],[102.70552037368192,4.997020128833616],[102.70527555038502,4.997020128833616]]],[[[102.70475734199448,4.997806903166197],[102.70475734199448,4.99696446316187],[102.70420589999999,4.99733019456691],[102.7047435,4.998179994566013],[102.70510639999999,4.997812494566384],[102.70475734199448,4.997806903166197]]],[[[102.70709328120277,4.997413515884953],[102.7072468,4.997729694566494],[102.7072515,4.998267394565934],[102.70747108936986,4.997413515884953],[102.70709328120277,4.997413515884953]]],[[[102.71201225946233,4.976170943620423],[102.7121700782103,4.976170943620423],[102.71201225946233,4.975933748723349],[102.71201225946233,4.976170943620423]]],[[[102.71201225946233,4.9769576936350814],[102.71194246547185,4.9769576936350814],[102.71201225946233,4.977144899081864],[102.71201225946233,4.9769576936350814]]],[[[102.71201225946233,4.97813782037419],[102.71201225946233,4.978000440513448],[102.71178471030123,4.97813782037419],[102.71201225946233,4.97813782037419]]],[[[102.70786659233782,4.977744444565515],[102.70752039999999,4.97774939458699],[102.70786659233782,4.979237016477569],[102.70786659233782,4.977744444565515]]],[[[102.70838480072838,4.978531196411868],[102.70862647050792,4.978531196411868],[102.70838480072838,4.978345427351573],[102.70838480072838,4.978531196411868]]],[[[102.71149405107175,4.978294201355096],[102.71141629999997,4.97844419458628],[102.71149405107175,4.978653772958708],[102.71149405107175,4.978294201355096]]],[[[102.71201225946233,4.978924572678562],[102.71178044237271,4.978924572678562],[102.71201225946233,4.979178371852644],[102.71201225946233,4.978924572678562]]],[[[102.70826540874093,4.980104702852933],[102.70838480072838,4.979711325899076],[102.70818460936259,4.979711325899076],[102.70826540874093,4.980104702852933]]],[[[102.71201225946233,4.979770595047639],[102.7118663,4.979948594584741],[102.71201225946233,4.980021788226259],[102.71201225946233,4.979770595047639]]],[[[102.71253046785287,4.980104702852933],[102.712391422229,4.980498080035881],[102.71253046785287,4.980498080035881],[102.71253046785287,4.980104702852933]]],[[[102.70838480072838,4.980891457447938],[102.7086181,4.980409794584257],[102.70850644213643,4.980104702852933],[102.70838480072838,4.980104702852933],[102.70838480072838,4.980891457447938]]],[[[102.71045763429062,4.980891457447938],[102.71045763429062,4.9812848350891255],[102.71047775107884,4.9812848350891255],[102.7105178,4.9808944945837625],[102.7103616,4.98070479458395],[102.70979642833701,4.980891457447938],[102.71045763429062,4.980891457447938]]],[[[102.70942121750952,4.9812848350891255],[102.70942121750952,4.98119129274151],[102.70932251514404,4.9812848350891255],[102.70942121750952,4.9812848350891255]]],[[[102.71111389999999,4.981551794583097],[102.71149405107175,4.981678212959457],[102.71149405107175,4.98154566930116],[102.71111389999999,4.981551794583097]]],[[[102.70838480072838,4.983251726732623],[102.70838480072838,4.982403345365558],[102.70813999999997,4.983113594581484],[102.70838480072838,4.983251726732623]]],[[[102.70838480072838,4.981678212959457],[102.70818489999999,4.981830394582828],[102.70838480072838,4.982089562600773],[102.70838480072838,4.981678212959457]]],[[[102.71149405107175,4.98285834794552],[102.7114123,4.983069594581543],[102.71149405107175,4.9832283213706],[102.71149405107175,4.98285834794552]]],[[[102.71085168930354,4.98285834794552],[102.71098719999999,4.982936594581641],[102.71111394922731,4.98285834794552],[102.71085168930354,4.98285834794552]]],[[[102.71201225946233,4.98285834794552],[102.71201225946233,4.983251726732623],[102.71165709999998,4.983390894581207],[102.71196749999999,4.98335549458124],[102.7121077,4.9832104945814],[102.71201225946233,4.98285834794552]]],[[[102.70993942590007,4.983251726732623],[102.70993942590007,4.983644545183175],[102.71037326317598,4.983251726732623],[102.70993942590007,4.983251726732623]]],[[[102.71064549161753,4.984038484994565],[102.71048760000001,4.984002094580581],[102.70998325622485,4.984038484994565],[102.71064549161753,4.984038484994565]]],[[[102.71149405107175,4.984431864469442],[102.71149405107175,4.984979375209382],[102.71172479999998,4.984293994580261],[102.71129759999998,4.984187094580411],[102.71112874058538,4.984431864469442],[102.71149405107175,4.984431864469442]]],[[[102.71028605725755,4.986005384662074],[102.71017919999997,4.985970694578557],[102.70998100010507,4.986005384662074],[102.71028605725755,4.986005384662074]]],[[[102.71045763429062,4.986398765283606],[102.71074387500309,4.986398765283606],[102.71045763429062,4.986189055518717],[102.71045763429062,4.986398765283606]]],[[[102.71201225946233,4.986398765283606],[102.71201225946233,4.986257817941964],[102.7118424789615,4.986398765283606],[102.71201225946233,4.986398765283606]]],[[[102.7109758426812,4.987578908524596],[102.71096439999998,4.98754789457695],[102.7109537121371,4.987578908524596],[102.7109758426812,4.987578908524596]]],[[[102.71149405107175,4.98718552721485],[102.71149405107175,4.986906737838081],[102.71125055791939,4.98718552721485],[102.71149405107175,4.98718552721485]]],[[[102.71045763429062,4.986792146134525],[102.71045763429062,4.986952093020242],[102.71059090604207,4.986792146134525],[102.71045763429062,4.986792146134525]]],[[[102.71201225946233,4.989686199434053],[102.71212039999999,4.988627394575833],[102.71242865648067,4.988365671832437],[102.71201225946233,4.988365671832437],[102.71201225946233,4.989686199434053]]],[[[102.71178500858466,4.98993920120201],[102.71149405107175,4.9901855819544485],[102.7115545,4.990194594574241],[102.71178500858466,4.98993920120201]]],[[[102.7109758426812,4.99033258411824],[102.7109758426812,4.990719945489167],[102.71119,4.990613094573814],[102.7109758426812,4.99033258411824]]],[[[102.70899499999999,4.990018894574383],[102.70874489999999,4.989728294574714],[102.7088656,4.989938094574485],[102.70899499999999,4.990018894574383]]],[[[102.70838480072838,4.989545818515334],[102.70838480072838,4.9896121184289],[102.70841901387679,4.989545818515334],[102.70838480072838,4.989545818515334]]],[[[102.70838480072838,4.990328543173548],[102.7083961,4.990269894574129],[102.70838480072838,4.990164636113574],[102.70838480072838,4.990328543173548]]],[[[102.70993942590007,4.991512734244431],[102.70993942590007,4.990241615593268],[102.7101404443524,4.991512734244431],[102.70993942590007,4.991512734244431]]],[[[102.70942121750952,4.989545818515334],[102.70942121750952,4.989705845925242],[102.70963439023978,4.989545818515334],[102.70942121750952,4.989545818515334]]],[[[102.71308229246482,4.975384194521393],[102.7131759,4.975252994589569],[102.71310809999999,4.975232294589564],[102.71308229246482,4.975384194521393]]],[[[102.71304867624343,4.975777568956464],[102.71304867624343,4.975535820030868],[102.71290755227389,4.975777568956464],[102.71304867624343,4.975777568956464]]],[[[102.71356688463399,4.975777568956464],[102.71358425852156,4.975777568956464],[102.71356688463399,4.9757669917165375],[102.71356688463399,4.975777568956464]]],[[[102.71404704270878,4.975777568956464],[102.7139664,4.975754694589048],[102.71390253973263,4.975777568956464],[102.71404704270878,4.975777568956464]]],[[[102.7161579265868,4.975777568956464],[102.7160602,4.975501494589326],[102.71567477930338,4.975777568956464],[102.7161579265868,4.975777568956464]]],[[[102.71408509302456,4.976170943620423],[102.7143471984221,4.976170943620423],[102.71408509302456,4.975792996408157],[102.71408509302456,4.976170943620423]]],[[[102.71526762269181,4.976170943620423],[102.71563971819623,4.976117934861461],[102.71563971819623,4.97581112527661],[102.71526762269181,4.976170943620423]]],[[[102.71563971819623,4.977351068985818],[102.71591353867248,4.977351068985818],[102.71563971819623,4.977175727555847],[102.71563971819623,4.977351068985818]]],[[[102.71567581775973,4.977744444565515],[102.71574609999999,4.977754794586988],[102.7158914964167,4.977744444565515],[102.71567581775973,4.977744444565515]]],[[[102.71460330141512,4.978482112517042],[102.7148107,4.977865694586878],[102.71482785415985,4.977744444565515],[102.71460330141512,4.977744444565515],[102.71460330141512,4.978482112517042]]],[[[102.71304867624343,4.978643886955179],[102.71306049999997,4.978347994586382],[102.7132693449527,4.97813782037419],[102.71304867624343,4.97813782037419],[102.71304867624343,4.978643886955179]]],[[[102.71304867624343,4.979711325899076],[102.71321464055482,4.979711325899076],[102.71304867624343,4.97907390881643],[102.71304867624343,4.979711325899076]]],[[[102.71408509302456,4.978531196411868],[102.7138444938975,4.978531196411868],[102.71396509999998,4.9786251945860815],[102.71408509302456,4.978531196411868]]],[[[102.71356688463399,4.97813782037419],[102.71333200510485,4.97813782037419],[102.71347389999998,4.978183294586536],[102.71356688463399,4.97813782037419]]],[[[102.71771255175848,4.979317949174291],[102.71771255175848,4.979279514686953],[102.71766772204015,4.979317949174291],[102.71771255175848,4.979317949174291]]],[[[102.71823076014904,4.978924572678562],[102.71823076014904,4.979605890874911],[102.71843429999998,4.979245794585443],[102.71823076014904,4.978924572678562]]],[[[102.71719434336792,4.980104702852933],[102.71719434336792,4.979657433342003],[102.71700407384375,4.980104702852933],[102.71719434336792,4.980104702852933]]],[[[102.71563971819623,4.980498080035881],[102.71563971819623,4.980463048443968],[102.71544506154741,4.980498080035881],[102.71563971819623,4.980498080035881]]],[[[102.71771255175848,4.980621823809604],[102.71777789999999,4.979961894584708],[102.7180714507864,4.979711325899076],[102.71771255175848,4.979711325899076],[102.71771255175848,4.980621823809604]]],[[[102.71304867624343,4.980104702852933],[102.71321809999999,4.980426194584238],[102.71335234567253,4.980104702852933],[102.71304867624343,4.980104702852933]]],[[[102.71512150980568,4.980891457447938],[102.71512150980568,4.980857913233691],[102.71467452062245,4.980891457447938],[102.71512150980568,4.980891457447938]]],[[[102.71304867624343,4.981678212959457],[102.7134925212156,4.981678212959457],[102.71330529999999,4.981589894583068],[102.71304867624343,4.981678212959457]]],[[[102.71371839632978,4.981678212959457],[102.71408509302456,4.981479620661435],[102.7138015,4.981495694583154],[102.71371839632978,4.981678212959457]]],[[[102.71667613497736,4.981678212959457],[102.71667613497736,4.981807804510209],[102.71673949999999,4.981710094582924],[102.71667613497736,4.981678212959457]]],[[[102.7161579265868,4.982071591058956],[102.71634149999997,4.982248594582367],[102.7165242654655,4.982071591058956],[102.7161579265868,4.982071591058956]]],[[[102.716471,4.983421594581159],[102.71584179432043,4.983251726732623],[102.71645919999999,4.983514794581057],[102.716471,4.983421594581159]]],[[[102.71512150980568,4.983251726732623],[102.71512150980568,4.983483634583757],[102.71542869330972,4.983251726732623],[102.71512150980568,4.983251726732623]]],[[[102.71460330141512,4.983645105748966],[102.71476909999998,4.9838343945807715],[102.71491992174434,4.983645105748966],[102.71460330141512,4.983645105748966]]],[[[102.71304867624343,4.984825244173613],[102.71304867624343,4.984439987766998],[102.71321170603211,4.984825244173613],[102.71304867624343,4.984825244173613]]],[[[102.71253046785287,4.986398765283606],[102.7126173456622,4.986398765283606],[102.71253046785287,4.9862421069700815],[102.71253046785287,4.986398765283606]]],[[[102.71253046785287,4.987494437478512],[102.7128969,4.986899994577584],[102.71289260672496,4.986792146134525],[102.71253046785287,4.986792146134525],[102.71253046785287,4.987494437478512]]],[[[102.71253046785287,4.988308240086325],[102.71260189999998,4.988139794576326],[102.71253046785287,4.987709812937243],[102.71253046785287,4.988308240086325]]]]},"properties":{"place_id":"7d61bbc9-2b5b-548d-a322-8c4c9bf2530f","habitat":"permanent_water","habitat_label":"Permanent water","resolution_m":50}},{"type":"Feature","geometry":{"type":"MultiPolygon","coordinates":[[[[102.70475734199448,4.982071591058956],[102.70464017859341,4.981678212959457],[102.7044656773935,4.982071591058956],[102.70475734199448,4.982071591058956]]],[[[102.70009346647943,4.98285834794552],[102.70055210444708,4.98285834794552],[102.7003529,4.982676094581927],[102.70009346647943,4.98285834794552]]],[[[102.69957525808887,4.983058880073908],[102.69932629999998,4.983243194581331],[102.69957525808887,4.983484393740393],[102.69957525808887,4.983058880073908]]],[[[102.69957525808887,4.984431864469442],[102.69927929999999,4.984336094580237],[102.69917612673775,4.984431864469442],[102.69957525808887,4.984431864469442]]],[[[102.7042391336039,4.984825244173613],[102.70372092521335,4.985159096013086],[102.7042391336039,4.98498394048784],[102.7042391336039,4.984825244173613]]],[[[102.70280200178861,4.985218624107095],[102.70308469999999,4.985336094579219],[102.70320271682277,4.985313212207721],[102.70320271682277,4.985218624107095],[102.70280200178861,4.985218624107095]]],[[[102.70280702048483,4.98718552721485],[102.70302639999998,4.986978094577499],[102.7028085,4.986789094577726],[102.70280702048483,4.98718552721485]]],[[[102.69829794323033,4.98718552721485],[102.69853884130774,4.986927009480749],[102.69830639999998,4.986945994577553],[102.69829794323033,4.98718552721485]]],[[[102.70112988326053,4.987972290063787],[102.70112988326053,4.987786861148889],[102.70108075134652,4.987972290063787],[102.70112988326053,4.987972290063787]]],[[[102.7042391336039,4.987812510432149],[102.704047,4.98823729457624],[102.70372092521335,4.988365671832437],[102.7042391336039,4.988365671832437],[102.7042391336039,4.987812510432149]]],[[[102.70112988326053,4.988759053830566],[102.7011133,4.988789794575635],[102.70112988326053,4.9888186417356275],[102.70112988326053,4.988759053830566]]],[[[102.70268450843223,4.99053192796361],[102.70320271682277,4.9907259672640425],[102.70320271682277,4.990573018843103],[102.70268450843223,4.99053192796361]]],[[[102.69673230266368,4.991119350639432],[102.69664896271114,4.9907259672640425],[102.6964660077455,4.9907259672640425],[102.69673230266368,4.991119350639432]]],[[[102.70061167486998,4.99269288643726],[102.70061167486998,4.992382778868814],[102.70055069999998,4.992680894571682],[102.70061167486998,4.99269288643726]]],[[[102.70268450843223,4.992299502143328],[102.7024336,4.9935439945707705],[102.7025255,4.993668194570673],[102.70268450843223,4.992299502143328]]],[[[102.7042391336039,4.993873040697229],[102.7040718,4.993511294570804],[102.70409588557146,4.993873040697229],[102.7042391336039,4.993873040697229]]],[[[102.70469649936241,4.997020128833616],[102.70429370000001,4.997218694567018],[102.7042570349277,4.997413515884953],[102.70475734199448,4.997413515884953],[102.70469649936241,4.997020128833616]]],[[[102.70786659233782,4.977744444565515],[102.70774709999999,4.977542294587229],[102.70752301277507,4.977744444565515],[102.70786659233782,4.977744444565515]]],[[[102.70527555038502,4.979317949174291],[102.70563140360794,4.979317949174291],[102.7055959,4.979114194585586],[102.70550139999999,4.979093194585608],[102.70527555038502,4.979317949174291]]],[[[102.7079247593734,4.979317949174291],[102.70818460936259,4.979711325899076],[102.70838480072838,4.979711325899076],[102.70838480072838,4.979317949174291],[102.7079247593734,4.979317949174291]]],[[[102.70786659233782,4.9812848350891255],[102.7077236,4.981546494583075],[102.70786659233782,4.981604462435103],[102.70786659233782,4.9812848350891255]]],[[[102.70932251514404,4.9812848350891255],[102.70890300911896,4.9815412762916305],[102.70890300911896,4.981678212959457],[102.70942121750952,4.981678212959457],[102.70932251514404,4.9812848350891255]]],[[[102.70631196716614,4.982071591058956],[102.7062296,4.981917194582733],[102.7059312435179,4.982071591058956],[102.70631196716614,4.982071591058956]]],[[[102.70683017555672,4.982464969387636],[102.70683017555672,4.982529365187851],[102.70685412369288,4.982464969387636],[102.70683017555672,4.982464969387636]]],[[[102.70683017555672,4.98285834794552],[102.70724165710133,4.98285834794552],[102.70683017555672,4.982751623884815],[102.70683017555672,4.98285834794552]]],[[[102.70475734199448,4.985218624107095],[102.7046263,4.985408894579145],[102.70475734199448,4.985534426601802],[102.70475734199448,4.985218624107095]]],[[[102.70527555038502,4.986005384662074],[102.70489880648311,4.98561200426991],[102.70520815358806,4.986005384662074],[102.70527555038502,4.986005384662074]]],[[[102.70527555038502,4.986398765283606],[102.7051038,4.986636794577884],[102.70527555038502,4.9866997372277755],[102.70527555038502,4.986398765283606]]],[[[102.71044613243357,4.987578908524596],[102.7102911,4.987495794577004],[102.71001384120909,4.987578908524596],[102.71044613243357,4.987578908524596]]],[[[102.70683017555672,4.988759053830566],[102.70675005194843,4.988365671832437],[102.70679468564906,4.988759053830566],[102.70683017555672,4.988759053830566]]],[[[102.70631196716614,4.988365671832437],[102.70631196716614,4.988759053830566],[102.7064352482747,4.988759053830566],[102.7063309,4.98865079457583],[102.70631196716614,4.988365671832437]]],[[[102.70711358440427,4.991906118079056],[102.70683017555672,4.992069548151143],[102.70729709999999,4.992239394572123],[102.70711358440427,4.991906118079056]]],[[[102.70579375877558,4.993479655714194],[102.70609701557684,4.993479655714194],[102.70579375877558,4.993119010390428],[102.70579375877558,4.993479655714194]]],[[[102.70734838394728,4.996626742012164],[102.70772221998331,4.996626742012164],[102.7074936,4.99642639456783],[102.70734838394728,4.996626742012164]]],[[[102.70631196716614,4.996363442454926],[102.70667960000002,4.996746394567478],[102.70683017555672,4.996951329494563],[102.70683017555672,4.99659078642832],[102.70631196716614,4.996363442454926]]],[[[102.70734838394728,4.997806903166197],[102.70722297686495,4.998200290677358],[102.70733724295535,4.998200290677358],[102.70734838394728,4.997806903166197]]],[[[102.71304867624343,4.975777568956464],[102.71303319999998,4.975604194589189],[102.71290755227389,4.975777568956464],[102.71304867624343,4.975777568956464]]],[[[102.71356688463399,4.975777568956464],[102.71358425852156,4.975777568956464],[102.71356688463399,4.9757669917165375],[102.71356688463399,4.975777568956464]]],[[[102.71404704270878,4.975777568956464],[102.7139664,4.975754694589048],[102.71390253973263,4.975777568956464],[102.71404704270878,4.975777568956464]]],[[[102.711642915275,4.976170943620423],[102.71201225946233,4.975933748723349],[102.71190919999998,4.975892994588919],[102.711642915275,4.976170943620423]]],[[[102.71201225946233,4.9769576936350814],[102.71169279972915,4.976564318513291],[102.71194246547185,4.9769576936350814],[102.71201225946233,4.9769576936350814]]],[[[102.71356688463399,4.97813782037419],[102.71346449999999,4.978182994586548],[102.71356688463399,4.9781558910437],[102.71356688463399,4.97813782037419]]],[[[102.7132693449527,4.97813782037419],[102.71304867624343,4.978531196411868],[102.71306919999999,4.978531196411868],[102.7132693449527,4.97813782037419]]],[[[102.71201225946233,4.978924572678562],[102.7119648,4.979094194585598],[102.71201225946233,4.979178371852644],[102.71201225946233,4.978924572678562]]],[[[102.71201225946233,4.979770595047639],[102.7118663,4.979948594584741],[102.71201225946233,4.980021788226259],[102.71201225946233,4.979770595047639]]],[[[102.71715572134728,4.979711325899076],[102.7170684,4.98000269458466],[102.71700407384375,4.980104702852933],[102.71719434336792,4.980104702852933],[102.71715572134728,4.979711325899076]]],[[[102.70993942590007,4.983251726732623],[102.70993942590007,4.983644545183175],[102.71037326317598,4.983251726732623],[102.70993942590007,4.983251726732623]]],[[[102.716471,4.983421594581159],[102.7161579265868,4.9834025952397445],[102.71645919999999,4.983514794581057],[102.716471,4.983421594581159]]],[[[102.7106801,4.984071594580521],[102.71045763429062,4.984431864469442],[102.7107200486831,4.984431864469442],[102.7106801,4.984071594580521]]],[[[102.71304867624343,4.984825244173613],[102.71304867624343,4.984439987766998],[102.71297239999997,4.984568594579988],[102.71304867624343,4.984825244173613]]],[[[102.71045763429062,4.986398765283606],[102.71074387500309,4.986398765283606],[102.71045763429062,4.986189055518717],[102.71045763429062,4.986398765283606]]],[[[102.71201225946233,4.986398765283606],[102.71201225946233,4.986257817941964],[102.7118424789615,4.986398765283606],[102.71201225946233,4.986398765283606]]],[[[102.71149405107175,4.98718552721485],[102.71149405107175,4.986906737838081],[102.71125055791939,4.98718552721485],[102.71149405107175,4.98718552721485]]],[[[102.7109758426812,4.99033258411824],[102.7109758426812,4.990719945489167],[102.71119,4.990613094573814],[102.7109758426812,4.99033258411824]]]]},"properties":{"place_id":"7d61bbc9-2b5b-548d-a322-8c4c9bf2530f","habitat":"seasonal_water_wetland","habitat_label":"Seasonal water or wetland","resolution_m":50}},{"type":"Feature","geometry":{"type":"MultiPolygon","coordinates":[[[[102.71567477930338,4.975777568956464],[102.71563971819623,4.976117934861461],[102.7161579265868,4.975947592311962],[102.7161579265868,4.975777568956464],[102.71567477930338,4.975777568956464]]],[[[102.70838480072838,4.978345427351573],[102.70786659233782,4.977744444565515],[102.70786659233782,4.979237016477569],[102.70838480072838,4.979317949174291],[102.70850644213643,4.980104702852933],[102.70838480072838,4.978345427351573]]],[[[102.70527555038502,4.979394863657701],[102.70527555038502,4.980498080035881],[102.70555557744675,4.980498080035881],[102.70579375877558,4.979854644531928],[102.70563140360794,4.979317949174291],[102.70527555038502,4.979394863657701]]],[[[102.70273490814452,4.984825244173613],[102.70270449999997,4.985185794579337],[102.70372092521335,4.985159096013086],[102.70372092521335,4.984850699202644],[102.70273490814452,4.984825244173613]]],[[[102.70631196716614,4.996626742012164],[102.70619609999999,4.995696294568557],[102.7055128,4.995535994568744],[102.70521769999998,4.993840594570477],[102.70579375877558,4.993587857173567],[102.70548659999999,4.991996894572382],[102.70683017555672,4.991906118079056],[102.70621634728933,4.9907259672640425],[102.70579375877558,4.9907259672640425],[102.70579375877558,4.991512734244431],[102.70527555038502,4.991512734244431],[102.70475734199448,4.992299502143328],[102.7042391336039,4.992299502143328],[102.7042391336039,4.991906118079056],[102.70268450843223,4.991906118079056],[102.70268450843223,4.991512734244431],[102.70164809165111,4.991512734244431],[102.70164809165111,4.991906118079056],[102.70061167486998,4.991906118079056],[102.70061167486998,4.991512734244431],[102.70009346647943,4.991512734244431],[102.69994629940429,4.991906118079056],[102.7006942,4.992068394572305],[102.70066869999998,4.992946794571417],[102.7020286,4.991948794572418],[102.70268450843223,4.992299502143328],[102.70268450843223,4.993086270960879],[102.7033281,4.992353594572022],[102.7037814,4.992687594571666],[102.70445999999997,4.992552694571816],[102.7042391336039,4.994659811352533],[102.70372092521335,4.994681298566927],[102.70372092521335,4.995053197024835],[102.70425009999998,4.994845894569441],[102.70496029999998,4.995202594569094],[102.70475734199448,4.997806903166197],[102.70561470000001,4.996592794567649],[102.70631196716614,4.996626742012164]]],[[[102.70734838394728,4.990655940924648],[102.70767399999998,4.989984194574434],[102.70838402219779,4.99033258411824],[102.70847859999999,4.989153794575286],[102.70890300911896,4.98993920120201],[102.71027039999998,4.9892813945751815],[102.70993942590007,4.991512734244431],[102.71081150000002,4.991274094573113],[102.7109758426812,4.99033258411824],[102.71201225946233,4.989686199434053],[102.71201225946233,4.988365671832437],[102.71253046785287,4.988308240086325],[102.71253046785287,4.986792146134525],[102.71289260672496,4.986792146134525],[102.7124731,4.98619719457832],[102.7118424789615,4.986398765283606],[102.71077530000001,4.987988794576492],[102.71044613243357,4.987578908524596],[102.70942121750952,4.9879367497798786],[102.70993942590007,4.987972290063787],[102.70993942590007,4.988365671832437],[102.7109758426812,4.988365671832437],[102.7109758426812,4.989545818515334],[102.71045763429062,4.989545818515334],[102.70993942590007,4.988759053830566],[102.70942121750952,4.988759053830566],[102.70942121750952,4.989152436058193],[102.70838480072838,4.988759053830566],[102.70838480072838,4.989152436058193],[102.70786659233782,4.989152436058193],[102.70786659233782,4.989545818515334],[102.70734838394728,4.989545818515334],[102.70631196716614,4.990685978680424],[102.70734838394728,4.990655940924648]],[[102.7109758426812,4.987972290063787],[102.71149405107175,4.987972290063787],[102.71149405107175,4.988365671832437],[102.7109758426812,4.988365671832437],[102.7109758426812,4.987972290063787]]],[[[102.70942121750952,4.9876564133902805],[102.71074387500309,4.986398765283606],[102.7103019,4.986015494578522],[102.70890300911896,4.98561200426991],[102.70890300911896,4.986005384662074],[102.70993942590007,4.986398765283606],[102.70890300911896,4.987578908524596],[102.70942121750952,4.9876564133902805]]],[[[102.71149405107175,4.984431864469442],[102.7108799,4.984796994579782],[102.71045763429062,4.984038484994565],[102.7095871,4.9839432945806115],[102.71057009999997,4.982734194581877],[102.71142099999999,4.982669394581934],[102.71150821465882,4.983251726732623],[102.71201225946233,4.983251726732623],[102.7127829,4.982352794582259],[102.71356688463399,4.982836704584055],[102.71460330141512,4.981678212959457],[102.71512150980568,4.981678212959457],[102.71512150980568,4.9812848350891255],[102.71563971819623,4.9812848350891255],[102.71563971819623,4.980891457447938],[102.7161579265868,4.980891457447938],[102.7161579265868,4.981678212959457],[102.71512150980568,4.982071591058956],[102.71512150980568,4.98285834794552],[102.71460330141512,4.98285834794552],[102.71460330141512,4.983251726732623],[102.71358602038386,4.98285834794552],[102.71321170603211,4.984825244173613],[102.71512150980568,4.983251726732623],[102.7161579265868,4.983251726732623],[102.7158205,4.982647994581955],[102.71771255175848,4.980621823809604],[102.71771255175848,4.979711325899076],[102.71823076014904,4.979605890874911],[102.71812067513405,4.978924572678562],[102.71719434336792,4.980104702852933],[102.71544506154741,4.980498080035881],[102.71408509302456,4.981678212959457],[102.7128862,4.981607894583014],[102.71335234567253,4.980104702852933],[102.71304867624343,4.97813782037419],[102.71369789999999,4.978160894586566],[102.7144875,4.978835594585891],[102.71484689999998,4.97751159458724],[102.71604109999998,4.977512294587252],[102.71563971819623,4.977351068985818],[102.71557192968929,4.976170943620423],[102.71440569999999,4.976365994588388],[102.71323978406097,4.975384194521393],[102.7128178,4.9764059945883865],[102.711604,4.9762290945885805],[102.712386,4.97772269458704],[102.71149405107175,4.978653772958708],[102.71201225946233,4.978924572678562],[102.71201225946233,4.980021788226259],[102.71253046785287,4.980104702852933],[102.71253046785287,4.980498080035881],[102.71149405107175,4.981678212959457],[102.7106164,4.981425594583223],[102.71045763429062,4.980891457447938],[102.70979642833701,4.980891457447938],[102.70942121750952,4.981678212959457],[102.70890300911896,4.981678212959457],[102.70826540874093,4.980104702852933],[102.70786659233782,4.980373374353216],[102.70786659233782,4.981604462435103],[102.70838480072838,4.981678212959457],[102.7085122,4.982213794582415],[102.7081829,4.983665394580929],[102.70683017555672,4.98285834794552],[102.70647271620933,4.982071591058956],[102.70527555038502,4.982071591058956],[102.70527555038502,4.980498080035881],[102.7047819,4.981025394583645],[102.7042391336039,4.980891457447938],[102.7042391336039,4.9812848350891255],[102.70475734199448,4.9812848350891255],[102.70475734199448,4.982071591058956],[102.7038545,4.983362794581231],[102.7042391336039,4.984036386874133],[102.7050461,4.984010794580548],[102.70631196716614,4.984825244173613],[102.70631196716614,4.984431864469442],[102.70475734199448,4.983645105748966],[102.70527555038502,4.98285834794552],[102.70631196716614,4.98285834794552],[102.70734838394728,4.984038484994565],[102.70838480072838,4.984038484994565],[102.70838480072838,4.983645105748966],[102.70890300911896,4.983645105748966],[102.70890300911896,4.984038484994565],[102.70993942590007,4.984431864469442],[102.70993942590007,4.985218624107095],[102.70942121750952,4.985218624107095],[102.70942121750952,4.985389706793264],[102.71132649999998,4.985137694579433],[102.71149405107175,4.984431864469442]],[[102.71045763429062,4.981678212959457],[102.71045763429062,4.982464969387636],[102.70942121750952,4.98285834794552],[102.70942121750952,4.982071591058956],[102.71045763429062,4.981678212959457]],[[102.71201225946233,4.982071591058956],[102.71201225946233,4.982464969387636],[102.71149405107175,4.982464969387636],[102.71149405107175,4.982071591058956],[102.71201225946233,4.982071591058956]],[[102.71201225946233,4.981678212959457],[102.71253046785287,4.981678212959457],[102.71253046785287,4.982071591058956],[102.71201225946233,4.982071591058956],[102.71201225946233,4.981678212959457]],[[102.71356688463399,4.976170943620423],[102.71356688463399,4.976564318513291],[102.71460330141512,4.9769576936350814],[102.71408509302456,4.977744444565515],[102.71304867624343,4.977351068985818],[102.71304867624343,4.976170943620423],[102.71356688463399,4.976170943620423]]],[[[102.70475734199448,4.985534426601802],[102.70527555038502,4.98561200426991],[102.70527555038502,4.9866997372277755],[102.70631196716614,4.986718016894932],[102.70631196716614,4.986398765283606],[102.70579375877558,4.986398765283606],[102.70579375877558,4.986005384662074],[102.70631196716614,4.986005384662074],[102.70631196716614,4.98561200426991],[102.70579375877558,4.98561200426991],[102.70579375877558,4.984871936127905],[102.70475734199448,4.984843653226662],[102.70475734199448,4.985534426601802]]],[[[102.7042391336039,4.987972290063787],[102.7042391336039,4.988365671832437],[102.70316919999999,4.987990194576457],[102.70309273953038,4.98718552721485],[102.7027327,4.98774499457672],[102.7016913,4.987187194577309],[102.7012729,4.9873301945771535],[102.70130558925247,4.989152436058193],[102.70307729999999,4.989683894574732],[102.70320271682277,4.990230099855939],[102.70376999999998,4.990408394574002],[102.70320271682277,4.9907259672640425],[102.70268450843223,4.9907259672640425],[102.70198169999999,4.989976794574419],[102.7004927,4.989687894574733],[102.69949989999999,4.987825194576647],[102.70007529999998,4.986664794577865],[102.69957525808887,4.986398765283606],[102.69957525808887,4.98561200426991],[102.70038979999998,4.985545894578964],[102.70098459999998,4.98405089458053],[102.7004649,4.983617294580986],[102.70055210444708,4.98285834794552],[102.69988547590003,4.98285834794552],[102.69957525808887,4.985218624107095],[102.69853884130774,4.985406295608969],[102.69883679999998,4.986771694577754],[102.6976117,4.987805094576658],[102.69813669999999,4.988386994576091],[102.69800799999997,4.988949394575491],[102.69750242452663,4.989042631954574],[102.6979181,4.9900101945744035],[102.69750242452663,4.991119350639432],[102.69698421613606,4.991119350639432],[102.69733539999999,4.993720994570597],[102.6964660077455,4.994477184063661],[102.69654396041376,4.995446582926934],[102.69698421613606,4.995446582926934],[102.6976258,4.994147894570149],[102.6990570496983,4.994548501134949],[102.69950629999998,4.993787794570534],[102.70004709999999,4.993761094570564],[102.69980563010746,4.991906118079056],[102.6990570496983,4.992299502143328],[102.6990570496983,4.993873040697229],[102.69802063291716,4.993479655714194],[102.69853884130774,4.988759053830566],[102.6990570496983,4.988759053830566],[102.6990570496983,4.989152436058193],[102.69957525808887,4.989152436058193],[102.70112988326053,4.9907259672640425],[102.70216630004167,4.9907259672640425],[102.70216630004167,4.991119350639432],[102.70320271682277,4.991512734244431],[102.70320271682277,4.991119350639432],[102.7042391336039,4.9907259672640425],[102.7042391336039,4.98993920120201],[102.70372092521335,4.98993920120201],[102.70320271682277,4.989152436058193],[102.70216630004167,4.989152436058193],[102.70216630004167,4.988365671832437],[102.70320271682277,4.988365671832437],[102.70372092521335,4.989152436058193],[102.7042391336039,4.989152436058193],[102.7042391336039,4.988759053830566],[102.70579375877558,4.988759053830566],[102.70631196716614,4.989545818515334],[102.70786659233782,4.988759053830566],[102.70786659233782,4.988365671832437],[102.70734838394728,4.988365671832437],[102.70734838394728,4.987578908524596],[102.70651459999999,4.987988094576471],[102.70654069999999,4.989147794575299],[102.70595669999999,4.9880528945763976],[102.7042391336039,4.987972290063787]]],[[[102.70683017555672,4.986792146134525],[102.70641890654645,4.986792146134525],[102.70591139999998,4.987352894577148],[102.70683017555672,4.987484806236318],[102.70683017555672,4.986792146134525]]],[[[102.70683017555672,4.996626742012164],[102.70747108936986,4.997413515884953],[102.70772221998331,4.996626742012164],[102.70683017555672,4.996626742012164]]]]},"properties":{"place_id":"7d61bbc9-2b5b-548d-a322-8c4c9bf2530f","habitat":"water_edge","habitat_label":"Water edge","resolution_m":50}}]}