{"type":"FeatureCollection","metadata":{"schema_version":1,"place_id":"7edb4455-1538-5556-b176-c9f75b1cbbcf","place_name":"Rejang Esplanade","place_type":"park","osm_reference":"way/551840399","protection_context":"no protected status confirmed from included OSM tags","resolution_m":50,"raster_coverage":1.0,"interpretation":"Suggested search habitats, not predicted plant locations or probabilities of presence."},"features":[{"type":"Feature","geometry":{"type":"Polygon","coordinates":[[[111.83002159999998,2.28545939745951],[111.8313979,2.2850022974599984],[111.83196172493903,2.283868084925991],[111.83002159999998,2.28545939745951]]]},"properties":{"place_id":"7edb4455-1538-5556-b176-c9f75b1cbbcf","habitat":"forest_edge_opening","habitat_label":"Forest edge or opening","resolution_m":50}},{"type":"Feature","geometry":{"type":"MultiPolygon","coordinates":[[[[111.83144351654848,2.2845891412615305],[111.8301722,2.2853024974597047],[111.8302523,2.285684497459266],[111.8313979,2.2850022974599984],[111.8315038,2.2847548974602874],[111.83144351654848,2.2845891412615305]]],[[[111.83144351654848,2.284405950371915],[111.832071,2.2839142974612043],[111.8320017,2.283834997461287],[111.83144351654848,2.284405950371915]]]]},"properties":{"place_id":"7edb4455-1538-5556-b176-c9f75b1cbbcf","habitat":"disturbed_built_edge","habitat_label":"Disturbed, bare or built edge","resolution_m":50}},{"type":"Feature","geometry":{"type":"Polygon","coordinates":[[[111.83196172493903,2.283982020260097],[111.83196172493903,2.283868084925991],[111.83182407953332,2.283982020260097],[111.83196172493903,2.283982020260097]]]},"properties":{"place_id":"7edb4455-1538-5556-b176-c9f75b1cbbcf","habitat":"permanent_water","habitat_label":"Permanent water","resolution_m":50}},{"type":"Feature","geometry":{"type":"MultiPolygon","coordinates":[[[[111.83196172493903,2.283982020260097],[111.8318241,2.2839819974611277],[111.83182407953332,2.283982020260097],[111.83196172493903,2.283982020260097]]],[[[111.83040709976734,2.285154222081778],[111.83039996578208,2.285158725254867],[111.83040709976734,2.285158725254867],[111.83040709976734,2.285154222081778]]]]},"properties":{"place_id":"7edb4455-1538-5556-b176-c9f75b1cbbcf","habitat":"seasonal_water_wetland","habitat_label":"Seasonal water or wetland","resolution_m":50}},{"type":"Feature","geometry":{"type":"Polygon","coordinates":[[[111.8320017,2.283834997461287],[111.8302523,2.285684497459266],[111.8313979,2.2850022974599984],[111.8314391,2.284576997460478],[111.832071,2.2839142974612043],[111.8320017,2.283834997461287]]]},"properties":{"place_id":"7edb4455-1538-5556-b176-c9f75b1cbbcf","habitat":"water_edge","habitat_label":"Water edge","resolution_m":50}}]}