{"type":"FeatureCollection","metadata":{"schema_version":1,"place_id":"7f60bfb4-d189-5854-bd60-19b67be88c67","place_name":"Central Park","place_type":"park","osm_reference":"relation/8247595","protection_context":"no protected status confirmed from included OSM tags","resolution_m":50,"raster_coverage":1.0,"interpretation":"Suggested search habitats, not predicted plant locations or probabilities of presence."},"features":[{"type":"Feature","geometry":{"type":"MultiPolygon","coordinates":[[[[101.56469109999999,3.073534296599654],[101.56625350793274,3.07463906087864],[101.56635249999998,3.0743234965987885],[101.56533049999999,3.0736524965995367],[101.56533259999999,3.0723541966009367],[101.56475973510999,3.071824006320677],[101.56469109999999,3.073534296599654]]],[[[101.56469888276105,3.0702540856666296],[101.5643993,3.070627196602794],[101.56469888276105,3.071534123457444],[101.56507909999999,3.0707993966026255],[101.56469888276105,3.0702540856666296]]]]},"properties":{"place_id":"7f60bfb4-d189-5854-bd60-19b67be88c67","habitat":"forest_edge_opening","habitat_label":"Forest edge or opening","resolution_m":50}},{"type":"Feature","geometry":{"type":"MultiPolygon","coordinates":[[[[101.56505060134144,3.070646565619565],[101.56469888276105,3.071039045712872],[101.56505211354683,3.071039045712872],[101.56505060134144,3.070646565619565]]],[[[101.56521709115162,3.0741788915149115],[101.56506402739912,3.0741788915149115],[101.56521709115162,3.074317448899779],[101.56521709115162,3.0741788915149115]]]]},"properties":{"place_id":"7f60bfb4-d189-5854-bd60-19b67be88c67","habitat":"open_grassland","habitat_label":"Open grassland or shrubland","resolution_m":50}},{"type":"Feature","geometry":{"type":"Polygon","coordinates":[[[101.5646215,3.070146596603316],[101.5647662,3.0737439965994366],[101.56534429999998,3.0744111965987324],[101.5663471,3.074632796598474],[101.56521989999999,3.0734308965997696],[101.565059,3.070677496602758],[101.5646215,3.070146596603316]]]},"properties":{"place_id":"7f60bfb4-d189-5854-bd60-19b67be88c67","habitat":"disturbed_built_edge","habitat_label":"Disturbed, bare or built edge","resolution_m":50}},{"type":"Feature","geometry":{"type":"Polygon","coordinates":[[[101.56469888276105,3.0714315259465708],[101.56465265528816,3.0714315259465708],[101.56469888276105,3.071534123457444],[101.56469888276105,3.0714315259465708]]]},"properties":{"place_id":"7f60bfb4-d189-5854-bd60-19b67be88c67","habitat":"cropland","habitat_label":"Cropland","resolution_m":50}},{"type":"Feature","geometry":{"type":"Polygon","coordinates":[[[101.56521709115162,3.0737864102979735],[101.56521709115162,3.0741788915149115],[101.56573529954218,3.0741788915149115],[101.56573529954218,3.0739208769544013],[101.56521709115162,3.0737864102979735]]]},"properties":{"place_id":"7f60bfb4-d189-5854-bd60-19b67be88c67","habitat":"seasonal_water_wetland","habitat_label":"Seasonal water or wetland","resolution_m":50}},{"type":"Feature","geometry":{"type":"MultiPolygon","coordinates":[[[[101.56469888276105,3.0702540856666296],[101.56440049999999,3.0708933966025356],[101.56510665158201,3.071824006320677],[101.565059,3.070677496602758],[101.56469888276105,3.0702540856666296]]],[[[101.56521709115162,3.072216486835211],[101.56528385240964,3.072216486835211],[101.56521709115162,3.0720324421133887],[101.56521709115162,3.072216486835211]]],[[[101.56521709115162,3.0731180367713935],[101.56524393615804,3.0730014482856305],[101.56521709115162,3.0730014482856305],[101.56521709115162,3.0731180367713935]]],[[[101.56469888276105,3.073393929221552],[101.56534429999998,3.0744111965987324],[101.56641404420613,3.074571372872385],[101.5659052,3.073960496599216],[101.56521709115162,3.0741788915149115],[101.56521507116996,3.073393929221552],[101.56469888276105,3.073393929221552]]]]},"properties":{"place_id":"7f60bfb4-d189-5854-bd60-19b67be88c67","habitat":"water_edge","habitat_label":"Water edge","resolution_m":50}}]}