{"type":"FeatureCollection","metadata":{"schema_version":1,"place_id":"7fbd85d2-f203-59ae-8dbe-6a353225f10f","place_name":"Cactus Farm","place_type":"park","osm_reference":"way/355204875","protection_context":"no protected status confirmed from included OSM tags","resolution_m":50,"raster_coverage":1.0,"interpretation":"Suggested search habitats, not predicted plant locations or probabilities of presence."},"features":[{"type":"Feature","geometry":{"type":"Polygon","coordinates":[[[100.5075852,6.469043993099059],[100.50781879999998,6.469029893099099],[100.5076843,6.4689806930991285],[100.5075852,6.469043993099059]]]},"properties":{"place_id":"7fbd85d2-f203-59ae-8dbe-6a353225f10f","habitat":"forest_interior","habitat_label":"Forest interior","resolution_m":50}}]}