{"type":"FeatureCollection","metadata":{"schema_version":1,"place_id":"80b531a0-ea13-546b-9521-43c6b76e4066","place_name":"Dataran Teko","place_type":"park","osm_reference":"way/902633245","protection_context":"no protected status confirmed from included OSM tags","resolution_m":50,"raster_coverage":1.0,"interpretation":"Suggested search habitats, not predicted plant locations or probabilities of presence."},"features":[{"type":"Feature","geometry":{"type":"Polygon","coordinates":[[[103.84585221800901,2.429900747723405],[103.84585221800901,2.430118819116532],[103.84589754444532,2.429900747723405],[103.84585221800901,2.429900747723405]]]},"properties":{"place_id":"80b531a0-ea13-546b-9521-43c6b76e4066","habitat":"open_grassland","habitat_label":"Open grassland or shrubland","resolution_m":50}},{"type":"Feature","geometry":{"type":"Polygon","coordinates":[[[103.8456058,2.43040359730046],[103.8458459,2.4301516973007655],[103.8459277,2.429566197301395],[103.84551329999996,2.429627797301312],[103.8456058,2.43040359730046]]]},"properties":{"place_id":"80b531a0-ea13-546b-9521-43c6b76e4066","habitat":"disturbed_built_edge","habitat_label":"Disturbed, bare or built edge","resolution_m":50}}]}