{"type":"FeatureCollection","metadata":{"schema_version":1,"place_id":"80d2cb7f-3364-5bd3-9ab9-9c9d157d20a0","place_name":"Dataran Tampin","place_type":"park","osm_reference":"way/962827009","protection_context":"no protected status confirmed from included OSM tags","resolution_m":50,"raster_coverage":1.0,"interpretation":"Suggested search habitats, not predicted plant locations or probabilities of presence."},"features":[{"type":"Feature","geometry":{"type":"Polygon","coordinates":[[[102.22385995555419,2.4714825096524233],[102.22529519999999,2.471442297255515],[102.2253709,2.471264297255706],[102.22463969999998,2.470865397256129],[102.22385995555419,2.4714825096524233]]]},"properties":{"place_id":"80d2cb7f-3364-5bd3-9ab9-9c9d157d20a0","habitat":"forest_edge_opening","habitat_label":"Forest edge or opening","resolution_m":50}},{"type":"Feature","geometry":{"type":"Polygon","coordinates":[[[102.22375829999997,2.4716592972552607],[102.22529519999999,2.471442297255515],[102.2253709,2.471264297255706],[102.22463969999998,2.470865397256129],[102.22375829999997,2.4716592972552607]]]},"properties":{"place_id":"80d2cb7f-3364-5bd3-9ab9-9c9d157d20a0","habitat":"disturbed_built_edge","habitat_label":"Disturbed, bare or built edge","resolution_m":50}}]}