{"type":"FeatureCollection","metadata":{"schema_version":1,"place_id":"810347ed-a72c-539f-855e-171fca08554a","place_name":"Tanah Lapang Sunway Tunas","place_type":"park","osm_reference":"way/292411423","protection_context":"no protected status confirmed from included OSM tags","resolution_m":50,"raster_coverage":1.0,"interpretation":"Suggested search habitats, not predicted plant locations or probabilities of presence."},"features":[{"type":"Feature","geometry":{"type":"Polygon","coordinates":[[[100.27837226931793,5.3275480850957875],[100.2788969,5.327434894230155],[100.27913759999998,5.3260610942315445],[100.2780828,5.326281394231331],[100.27837226931793,5.3275480850957875]]]},"properties":{"place_id":"810347ed-a72c-539f-855e-171fca08554a","habitat":"forest_edge_opening","habitat_label":"Forest edge or opening","resolution_m":50}},{"type":"Feature","geometry":{"type":"Polygon","coordinates":[[[100.2783421,5.32755459423003],[100.2788969,5.327434894230155],[100.27913759999998,5.3260610942315445],[100.2780828,5.326281394231331],[100.2783421,5.32755459423003]]]},"properties":{"place_id":"810347ed-a72c-539f-855e-171fca08554a","habitat":"disturbed_built_edge","habitat_label":"Disturbed, bare or built edge","resolution_m":50}}]}