{"type":"FeatureCollection","metadata":{"schema_version":1,"place_id":"81535f2b-9fdf-5628-a798-9fedd629e444","place_name":"Taman Kejiranan Halaman Murni Bayan Lepas","place_type":"park","osm_reference":"way/1057272090","protection_context":"no protected status confirmed from included OSM tags","resolution_m":50,"raster_coverage":1.0,"interpretation":"Suggested search habitats, not predicted plant locations or probabilities of presence."},"features":[{"type":"Feature","geometry":{"type":"Polygon","coordinates":[[[100.26203509999999,5.295905294262146],[100.2622259,5.29578219426225],[100.2620951,5.295685394262378],[100.26203509999999,5.295905294262146]]]},"properties":{"place_id":"81535f2b-9fdf-5628-a798-9fedd629e444","habitat":"disturbed_built_edge","habitat_label":"Disturbed, bare or built edge","resolution_m":50}}]}