{"type":"FeatureCollection","metadata":{"schema_version":1,"place_id":"837ee7da-3b59-5dd7-8c45-f44bd9cd9feb","place_name":"Dataran Nilai","place_type":"park","osm_reference":"way/1276331117","protection_context":"no protected status confirmed from included OSM tags","resolution_m":50,"raster_coverage":1.0,"interpretation":"Suggested search habitats, not predicted plant locations or probabilities of presence."},"features":[{"type":"Feature","geometry":{"type":"Polygon","coordinates":[[[101.79011953265494,2.8198797035554395],[101.79063774104549,2.820272097633571],[101.79115594943606,2.8194873096061395],[101.79167415782662,2.8194873096061395],[101.79169781596016,2.8198797035554395],[101.79218779999998,2.8193395968756283],[101.79088349050065,2.8187025220939605],[101.79011953265494,2.8198797035554395]]]},"properties":{"place_id":"837ee7da-3b59-5dd7-8c45-f44bd9cd9feb","habitat":"forest_edge_opening","habitat_label":"Forest edge or opening","resolution_m":50}},{"type":"Feature","geometry":{"type":"MultiPolygon","coordinates":[[[[101.79115594943606,2.820272097633571],[101.79167415782662,2.819905781790541],[101.79156467966843,2.8187025220939605],[101.79115594943606,2.8187025220939605],[101.79115594943606,2.8194873096061395],[101.79063774104549,2.8194873096061395],[101.79115594943606,2.820272097633571]]],[[[101.79011953265494,2.819924305702132],[101.79050185068255,2.820272097633571],[101.79063774104549,2.820272097633571],[101.79063774104549,2.8198797035554395],[101.79011953265494,2.819924305702132]]],[[[101.79104169999997,2.820494396874395],[101.79063774104549,2.820272097633571],[101.79063774104549,2.8203754668214582],[101.79104169999997,2.820494396874395]]]]},"properties":{"place_id":"837ee7da-3b59-5dd7-8c45-f44bd9cd9feb","habitat":"open_grassland","habitat_label":"Open grassland or shrubland","resolution_m":50}},{"type":"Feature","geometry":{"type":"Polygon","coordinates":[[[101.7899697,2.8196124968753495],[101.7911447,2.820469696874402],[101.79218779999998,2.8193395968756283],[101.7913617,2.81849499687656],[101.7899697,2.8196124968753495]],[[101.79115594943606,2.8190949157856524],[101.79167415782662,2.8190949157856524],[101.79167415782662,2.8194873096061395],[101.79115594943606,2.8194873096061395],[101.79115594943606,2.8190949157856524]]]},"properties":{"place_id":"837ee7da-3b59-5dd7-8c45-f44bd9cd9feb","habitat":"disturbed_built_edge","habitat_label":"Disturbed, bare or built edge","resolution_m":50}}]}