{"type":"FeatureCollection","metadata":{"schema_version":1,"place_id":"83c20f45-dacc-5595-a005-eb2ab33426e2","place_name":"Taman Merdeka · OSM relation/7241885","place_type":"park","osm_reference":"relation/7241885","protection_context":"no protected status confirmed from included OSM tags","resolution_m":50,"raster_coverage":1.0,"interpretation":"Suggested search habitats, not predicted plant locations or probabilities of presence."},"features":[{"type":"Feature","geometry":{"type":"Polygon","coordinates":[[[100.36988071780483,6.13691362167717],[100.37022854251877,6.1365194915611765],[100.36976756583128,6.1365194915611765],[100.36988071780483,6.13691362167717]]]},"properties":{"place_id":"83c20f45-dacc-5595-a005-eb2ab33426e2","habitat":"forest_interior","habitat_label":"Forest interior","resolution_m":50}},{"type":"Feature","geometry":{"type":"MultiPolygon","coordinates":[[[[100.37022854251877,6.1365194915611765],[100.3699739,6.137238193422146],[100.37067,6.137413293421979],[100.37089789999999,6.136490493422864],[100.37048979999997,6.136090393423254],[100.36978619999998,6.136245193423104],[100.37022854251877,6.1365194915611765]]],[[[100.3700662,6.13477469342454],[100.36964769999999,6.13615869342319],[100.3705399,6.135938193423409],[100.37069309999998,6.134862193424449],[100.3700662,6.13477469342454]]]]},"properties":{"place_id":"83c20f45-dacc-5595-a005-eb2ab33426e2","habitat":"forest_edge_opening","habitat_label":"Forest edge or opening","resolution_m":50}},{"type":"Feature","geometry":{"type":"MultiPolygon","coordinates":[[[[100.37022854251877,6.1365194915611765],[100.3699739,6.137238193422146],[100.37067,6.137413293421979],[100.37089789999999,6.136490493422864],[100.37048979999997,6.136090393423254],[100.36978619999998,6.136245193423104],[100.37022854251877,6.1365194915611765]]],[[[100.36964769999999,6.13615869342319],[100.3705399,6.135938193423409],[100.37069309999998,6.134862193424449],[100.3700662,6.13477469342454],[100.37009529999999,6.135113793424231],[100.36943529999999,6.135309293424004],[100.36964769999999,6.13615869342319]]]]},"properties":{"place_id":"83c20f45-dacc-5595-a005-eb2ab33426e2","habitat":"disturbed_built_edge","habitat_label":"Disturbed, bare or built edge","resolution_m":50}},{"type":"Feature","geometry":{"type":"Polygon","coordinates":[[[100.36971033412823,6.135731232180483],[100.37022854251877,6.135731232180483],[100.37022854251877,6.134942973934722],[100.36971033412823,6.135149345013558],[100.36971033412823,6.135731232180483]]]},"properties":{"place_id":"83c20f45-dacc-5595-a005-eb2ab33426e2","habitat":"permanent_water","habitat_label":"Permanent water","resolution_m":50}},{"type":"Feature","geometry":{"type":"MultiPolygon","coordinates":[[[[100.37050029917067,6.136125361728952],[100.37048979999997,6.136090393423254],[100.37033086135267,6.136125361728952],[100.37050029917067,6.136125361728952]]],[[[100.37074675090935,6.13691362167717],[100.37022854251877,6.13691362167717],[100.37022854251877,6.136147873034475],[100.36978619999998,6.136245193423104],[100.37003529999998,6.1372925934220675],[100.37074675090935,6.137372990249344],[100.37074675090935,6.13691362167717]]],[[[100.37022854251877,6.134942973934722],[100.37022854251877,6.135731232180483],[100.36971033412823,6.135731232180483],[100.36971033412823,6.135149345013558],[100.36943529999999,6.135309293424004],[100.36964769999999,6.13615869342319],[100.3705399,6.135938193423409],[100.37069309999998,6.134862193424449],[100.37022854251877,6.134942973934722]]]]},"properties":{"place_id":"83c20f45-dacc-5595-a005-eb2ab33426e2","habitat":"water_edge","habitat_label":"Water edge","resolution_m":50}}]}