{"type":"FeatureCollection","metadata":{"schema_version":1,"place_id":"83e10da2-89d0-59d6-b4b0-8b295db05a9b","place_name":"Bandar Ainsdale Lake Park","place_type":"park","osm_reference":"way/1409116941","protection_context":"no protected status confirmed from included OSM tags","resolution_m":50,"raster_coverage":1.0,"interpretation":"Suggested search habitats, not predicted plant locations or probabilities of presence."},"features":[{"type":"Feature","geometry":{"type":"Polygon","coordinates":[[[101.88546987651809,2.73865687619663],[101.8850947639409,2.73865687619663],[101.88546987651809,2.7387728578320756],[101.88546987651809,2.73865687619663]]]},"properties":{"place_id":"83e10da2-89d0-59d6-b4b0-8b295db05a9b","habitat":"forest_interior","habitat_label":"Forest interior","resolution_m":50}},{"type":"Feature","geometry":{"type":"Polygon","coordinates":[[[101.8834402,2.738323496963885],[101.88618379999998,2.738993596963152],[101.8865062932992,2.7383120700595605],[101.88507739999997,2.737775796964498],[101.8853075,2.737025496965283],[101.88398119999997,2.7364470969659487],[101.8834402,2.738323496963885]],[[101.88443345973697,2.7374797735632],[101.88443345973697,2.737872140982609],[101.88391525134641,2.737872140982609],[101.88391525134641,2.7374797735632],[101.88443345973697,2.7374797735632]]]},"properties":{"place_id":"83e10da2-89d0-59d6-b4b0-8b295db05a9b","habitat":"forest_edge_opening","habitat_label":"Forest edge or opening","resolution_m":50}},{"type":"Feature","geometry":{"type":"MultiPolygon","coordinates":[[[[101.88398119999997,2.7364470969659487],[101.88443345973697,2.7366950390994953],[101.88443345973697,2.736644327600867],[101.88398119999997,2.7364470969659487]]],[[[101.88495166812754,2.737087406268834],[101.88443345973697,2.7366950390994953],[101.88443345973697,2.737087406268834],[101.88495166812754,2.737087406268834]]],[[[101.88391525134641,2.7366950390994953],[101.88365659235028,2.7374797735632],[101.88391525134641,2.7374797735632],[101.88391525134641,2.7366950390994953]]],[[[101.88443345973697,2.73826450852708],[101.88495166812754,2.73826450852708],[101.88495166812754,2.7374797735632],[101.88443345973697,2.7374797735632],[101.88443345973697,2.73826450852708]]],[[[101.88546987651809,2.73865687619663],[101.88653843390266,2.73865687619663],[101.88678959999999,2.7384183969637554],[101.88546987651809,2.73826450852708],[101.88546987651809,2.73865687619663]]]]},"properties":{"place_id":"83e10da2-89d0-59d6-b4b0-8b295db05a9b","habitat":"open_grassland","habitat_label":"Open grassland or shrubland","resolution_m":50}},{"type":"Feature","geometry":{"type":"MultiPolygon","coordinates":[[[[101.8834402,2.738323496963885],[101.88495166812754,2.73826450852708],[101.8850947639409,2.73865687619663],[101.88546987651809,2.73826450852708],[101.88637956618538,2.73826450852708],[101.88507739999997,2.737775796964498],[101.8853075,2.737025496965283],[101.88398119999997,2.7364470969659487],[101.8834402,2.738323496963885]],[[101.88443345973697,2.7366950390994953],[101.88443345973697,2.737087406268834],[101.88391525134641,2.737087406268834],[101.88391525134641,2.7366950390994953],[101.88443345973697,2.7366950390994953]]],[[[101.88598808490866,2.73865687619663],[101.88618379999998,2.738993596963152],[101.88678959999999,2.7384183969637554],[101.8865062932992,2.7383120700595605],[101.8865062932992,2.73865687619663],[101.88598808490866,2.73865687619663]]]]},"properties":{"place_id":"83e10da2-89d0-59d6-b4b0-8b295db05a9b","habitat":"disturbed_built_edge","habitat_label":"Disturbed, bare or built edge","resolution_m":50}},{"type":"Feature","geometry":{"type":"Polygon","coordinates":[[[101.88443345973697,2.737872140982609],[101.88495166812754,2.737087406268834],[101.88391525134641,2.7366950390994953],[101.88391525134641,2.737872140982609],[101.88443345973697,2.737872140982609]]]},"properties":{"place_id":"83e10da2-89d0-59d6-b4b0-8b295db05a9b","habitat":"permanent_water","habitat_label":"Permanent water","resolution_m":50}},{"type":"Feature","geometry":{"type":"MultiPolygon","coordinates":[[[[101.88495166812754,2.7374797735632],[101.88443345973697,2.7374797735632],[101.88443345973697,2.737872140982609],[101.88495166812754,2.737872140982609],[101.88495166812754,2.7374797735632]]],[[[101.88391525134641,2.73826450852708],[101.88443345973697,2.73826450852708],[101.88443345973697,2.737872140982609],[101.88391525134641,2.737872140982609],[101.88391525134641,2.73826450852708]]]]},"properties":{"place_id":"83e10da2-89d0-59d6-b4b0-8b295db05a9b","habitat":"seasonal_water_wetland","habitat_label":"Seasonal water or wetland","resolution_m":50}},{"type":"Feature","geometry":{"type":"Polygon","coordinates":[[[101.88495166812754,2.73826450852708],[101.88546987651809,2.73826450852708],[101.88507739999997,2.737775796964498],[101.8853798,2.737117896965206],[101.88398119999997,2.7364470969659487],[101.8834402,2.738323496963885],[101.88495166812754,2.73861263218459],[101.88495166812754,2.73826450852708]],[[101.88391525134641,2.7366950390994953],[101.88495166812754,2.737087406268834],[101.88495166812754,2.737872140982609],[101.88443345973697,2.737872140982609],[101.88443345973697,2.73826450852708],[101.88391525134641,2.73826450852708],[101.88391525134641,2.7366950390994953]]]},"properties":{"place_id":"83e10da2-89d0-59d6-b4b0-8b295db05a9b","habitat":"water_edge","habitat_label":"Water edge","resolution_m":50}}]}