{"type":"FeatureCollection","metadata":{"schema_version":1,"place_id":"857afa5e-9d5d-5135-adab-a8281639d3f4","place_name":"Taman Krubong Jaya Playground","place_type":"park","osm_reference":"way/506629942","protection_context":"no protected status confirmed from included OSM tags","resolution_m":50,"raster_coverage":1.0,"interpretation":"Suggested search habitats, not predicted plant locations or probabilities of presence."},"features":[{"type":"Feature","geometry":{"type":"Polygon","coordinates":[[[102.2443476,2.301046597442393],[102.2459204,2.301110097442336],[102.2454012,2.300226397443315],[102.2443476,2.301046597442393]]]},"properties":{"place_id":"857afa5e-9d5d-5135-adab-a8281639d3f4","habitat":"disturbed_built_edge","habitat_label":"Disturbed, bare or built edge","resolution_m":50}}]}