{"type":"FeatureCollection","metadata":{"schema_version":1,"place_id":"86aa6d20-e571-58eb-8622-51e4b1fcf9ca","place_name":"Licuala Garden","place_type":"park","osm_reference":"way/793483672","protection_context":"no protected status confirmed from included OSM tags","resolution_m":50,"raster_coverage":1.0,"interpretation":"Suggested search habitats, not predicted plant locations or probabilities of presence."},"features":[{"type":"Feature","geometry":{"type":"Polygon","coordinates":[[[103.722248,1.5469562982749645],[103.72284149999997,1.5466116982753557],[103.72261150000001,1.5462158982757928],[103.72201810000001,1.5465604982754004],[103.722248,1.5469562982749645]]]},"properties":{"place_id":"86aa6d20-e571-58eb-8622-51e4b1fcf9ca","habitat":"disturbed_built_edge","habitat_label":"Disturbed, bare or built edge","resolution_m":50}}]}