{"type":"FeatureCollection","metadata":{"schema_version":1,"place_id":"86f10bda-426e-5480-b4d0-61dbdc920785","place_name":"Hutan Simpanan Kekal Serendah","place_type":"park","osm_reference":"relation/18138042","protection_context":"mapped protected boundary","resolution_m":50,"raster_coverage":1.0,"interpretation":"Suggested search habitats, not predicted plant locations or probabilities of presence."},"features":[{"type":"Feature","geometry":{"type":"Polygon","coordinates":[[[101.636517,3.349673996301542],[101.63672984904898,3.3505215954701293],[101.63724805743954,3.3505215954701293],[101.63724805743954,3.3509141802546836],[101.63672984904898,3.3509141802546836],[101.63701589999997,3.3527987962981536],[101.6397679,3.351920496299127],[101.6390759,3.351534996299507],[101.63906509999998,3.349869496301308],[101.64066370000002,3.3498105963013765],[101.6405886,3.3471221963042708],[101.6394192,3.345831596305678],[101.64023459999999,3.3452692963062782],[101.64595309999999,3.3441018963075417],[101.6466397,3.3455691963059357],[101.6477501,3.3452531963062886],[101.6473961,3.3442356963073814],[101.65001929999998,3.3428700963088644],[101.6500246,3.3420882963096883],[101.6512209,3.342168596309632],[101.6520095,3.340626296311258],[101.65398899999998,3.344010796307637],[101.65678919999999,3.343876896307762],[101.6585916,3.344626696306989],[101.6593748,3.3455584963059564],[101.65885450000002,3.3459493963055276],[101.659643,3.3471275963042686],[101.66216429999999,3.3482574963030705],[101.6647768,3.3509726963001305],[101.66568869999999,3.3525738962984124],[101.6644335,3.353366396297547],[101.66442269999999,3.355519296295266],[101.6676414,3.358925196291557],[101.6679633,3.3598783962905685],[101.66701379999999,3.3628129962873965],[101.6752642,3.3635787962865744],[101.67636389999997,3.3634716962866777],[101.6777855,3.362175796288073],[101.6791105,3.363846596286286],[101.6779089,3.365501296284504],[101.67808459999999,3.3670208962828525],[101.6796791,3.367322096282544],[101.67880469999999,3.3681895962816033],[101.67997419999999,3.3688643962808915],[101.68034429999999,3.368585896281196],[101.6838366,3.372559396276897],[101.6930741,3.3723612962771083],[101.6930634,3.370936796278661],[101.6952199,3.3676165962822115],[101.69692039999998,3.3672524962826333],[101.6982883,3.3674612962823742],[101.70027849999998,3.366524196283413],[101.70149089999998,3.36642779628348],[101.7027032,3.367193596282678],[101.70444130000001,3.3652924962847277],[101.702157,3.361583996288723],[101.7010576,3.3582412962923005],[101.70028409999999,3.351549296299528],[101.69986869999998,3.3511550962999435],[101.69839664752571,3.3511098332431697],[101.69787843913514,3.3520919355282017],[101.69684202235402,3.351699350283701],[101.69684202235402,3.3513067651925343],[101.69736023074458,3.3513067651925343],[101.69736023074458,3.3504710184603694],[101.69536010000002,3.3486085963026926],[101.69273739999998,3.342803896308908],[101.69008729999999,3.342280296309503],[101.68859519999998,3.3402430963116987],[101.68730579999999,3.340180696311753],[101.6865745,3.3397495963122283],[101.68587729999999,3.3384288963136197],[101.68620159999999,3.3367361963154587],[101.68171629999999,3.332401396320149],[101.6803191,3.3323521963201914],[101.6791376,3.3383186963137788],[101.6768158,3.339364096312633],[101.67607959999997,3.3376414963144705],[101.6741559,3.336294496315956],[101.6729796,3.3344214963179626],[101.6718006,3.333487696318966],[101.6711435,3.3308299963218215],[101.6693052,3.32844819632436],[101.66934730000001,3.3261185963268822],[101.6685319,3.3249029963281815],[101.6688108,3.32278759633047],[101.66829579999998,3.32060259633285],[101.6666651,3.318985296334586],[101.667223,3.317014496336706],[101.6666543,3.316007596337772],[101.6661715,3.311337696342827],[101.663543,3.3105610963436343],[101.66209999999998,3.311942796342161],[101.66018749999999,3.3122882963418],[101.65958140000001,3.3115491963425803],[101.6569716,3.311278796342894],[101.6556573,3.311980296342121],[101.65423039999997,3.307465696346993],[101.6500515,3.307663796346767],[101.6486835,3.3080172963463674],[101.6485172,3.3088312963455313],[101.6473961,3.309093696345212],[101.6469616,3.307465696346993],[101.64550779999999,3.3081618963462187],[101.64451539999999,3.304335396350341],[101.64375899999999,3.304761196349895],[101.6419887,3.304675496349975],[101.64023189999997,3.303783796350968],[101.63942189999999,3.3020967963527488],[101.63880268261124,3.303019962539363],[101.63559969999999,3.303775696350967],[101.63439409999998,3.30167369635323],[101.6335773,3.3012974963536337],[101.63268149999999,3.301783496353126],[101.63227380000001,3.303213396351575],[101.63131359999998,3.3035936963511365],[101.63042937864488,3.3002720021830827],[101.6270247,3.302661796352167],[101.6266013,3.3017158963532],[101.62377463928497,3.3023242466964873],[101.62377463928497,3.302627396321066],[101.62170180572272,3.302627396321066],[101.621316819652,3.3022348302538367],[101.6215879,3.3060731963484784],[101.62229599999999,3.306624896347883],[101.62186149999998,3.3088366963454865],[101.619249,3.308177996346208],[101.6173553,3.309018796345305],[101.61688859999998,3.30865989634569],[101.61548849999998,3.309415096344883],[101.6117603,3.312821096341223],[101.60475969999999,3.317448196336221],[101.6064079,3.32108319633232],[101.60304630366254,3.3226993204432294],[101.60304630366254,3.3230410404132615],[101.60356451205311,3.3230410404132615],[101.60356451205311,3.3238261887629004],[101.60460092883423,3.3242187631657814],[101.60460092883423,3.32495153608691],[101.60563734561535,3.3253964872868833],[101.60563734561535,3.3259448539032617],[101.606502,3.325777496327266],[101.6064119,3.3342533963181546],[101.61071924222888,3.3379589631966926],[101.61185584630208,3.3379589631966926],[101.61185584630208,3.3383515430853157],[101.61392867986433,3.339529283667558],[101.61392867986433,3.340314444819547],[101.61444688825488,3.340314444819547],[101.61444688825488,3.3410996065827656],[101.61496509664543,3.3410996065827656],[101.61615803158463,3.3442402597508427],[101.61703793020769,3.344632842085112],[101.61703793020769,3.345418007212689],[101.61661647074781,3.345418007212689],[101.61707490991098,3.346595756051924],[101.61755613859823,3.346595756051924],[101.61738053601974,3.347380922710205],[101.61860304045489,3.3505215954701293],[101.61911076376994,3.3505215954701293],[101.61890866656367,3.3513067651925343],[101.61921429267242,3.3520919355282017],[101.61962897216048,3.3520919355282017],[101.61953999999999,3.3529286962980445],[101.62256019999998,3.3525925962984022],[101.62554139999999,3.3516098962994625],[101.6316086,3.351047596300051],[101.636517,3.349673996301542]],[[101.68336860419944,3.3709362079392293],[101.68285039580888,3.3709362079392293],[101.68285039580888,3.370543615313423],[101.68388681259,3.370151022841819],[101.68440502098056,3.3709362079392293],[101.68388681259,3.3709362079392293],[101.68388681259,3.3713288007192563],[101.68336860419944,3.3713288007192563],[101.68336860419944,3.3709362079392293]],[[101.68440502098056,3.367402879856764],[101.68388681259,3.367402879856764],[101.68388681259,3.3670102886181335],[101.68492322937114,3.366617697533543],[101.68544143776168,3.367402879856764],[101.68492322937114,3.367402879856764],[101.68492322937114,3.367795471249452],[101.68440502098056,3.367795471249452],[101.68440502098056,3.367402879856764]],[[101.69373277201065,3.358765908162234],[101.6932145636201,3.358765908162234],[101.6932145636201,3.3583733203082975],[101.69425098040122,3.357980732608002],[101.69476918879178,3.358765908162234],[101.69425098040122,3.358765908162234],[101.69425098040122,3.3591584961698295],[101.69373277201065,3.3591584961698295],[101.69373277201065,3.358765908162234]],[[101.69528739718234,3.356410383342871],[101.69476918879178,3.356410383342871],[101.69476918879178,3.355625209631683],[101.6958056055729,3.3552326230063687],[101.6958056055729,3.355625209631683],[101.69632381396346,3.355625209631683],[101.69632381396346,3.356410383342871],[101.6958056055729,3.356410383342871],[101.6958056055729,3.3568029704287827],[101.69528739718234,3.3568029704287827],[101.69528739718234,3.356410383342871]]]},"properties":{"place_id":"86f10bda-426e-5480-b4d0-61dbdc920785","habitat":"forest_interior","habitat_label":"Forest interior","resolution_m":50}},{"type":"Feature","geometry":{"type":"MultiPolygon","coordinates":[[[[101.60356451205311,3.3230410404132615],[101.60304630366254,3.3230410404132615],[101.60304630366254,3.3226993204432294],[101.6024701,3.322931796330342],[101.60460092883423,3.32495153608691],[101.60460092883423,3.3242187631657814],[101.60356451205311,3.3238261887629004],[101.60356451205311,3.3230410404132615]]],[[[101.60511913722479,3.3250039124277544],[101.60465618590527,3.3250039124277544],[101.6048699,3.326093396326917],[101.60563734561535,3.3259448539032617],[101.60511913722479,3.3250039124277544]]],[[[101.61392867986433,3.340314444819547],[101.61392867986433,3.339529283667558],[101.61341047147376,3.339529283667558],[101.61185584630208,3.3379589631966926],[101.61071924222888,3.3379589631966926],[101.6128922630832,3.339529283667558],[101.6128922630832,3.3398283982011874],[101.61482623935086,3.341492187693632],[101.61496509664543,3.341492187693632],[101.61496509664543,3.3410996065827656],[101.61444688825488,3.3410996065827656],[101.61444688825488,3.340314444819547],[101.61392867986433,3.340314444819547]]],[[[101.61703793020769,3.345418007212689],[101.61703793020769,3.344632842085112],[101.61615803158463,3.3442402597508427],[101.61661647074781,3.345418007212689],[101.61703793020769,3.345418007212689]]],[[[101.61703793020769,3.346203172952439],[101.6169220968566,3.346203172952439],[101.61703793020769,3.3465007536403704],[101.61703793020769,3.346203172952439]]],[[[101.61738053601974,3.347380922710205],[101.61755613859823,3.346595756051924],[101.61707490991098,3.346595756051924],[101.61738053601974,3.347380922710205]]],[[[101.61859255537937,3.350129010838853],[101.61845022740049,3.350129010838853],[101.61859255537937,3.3504946587645725],[101.61859255537937,3.350129010838853]]],[[[101.61890866656367,3.3513067651925343],[101.61911076376994,3.3505215954701293],[101.61860304045489,3.3505215954701293],[101.61890866656367,3.3513067651925343]]],[[[101.61906147961805,3.351699350283701],[101.61911076376994,3.3518259639970007],[101.61911076376994,3.351699350283701],[101.61906147961805,3.351699350283701]]],[[[101.61951991878122,3.3528771064772735],[101.61962897216048,3.3520919355282017],[101.61921429267242,3.3520919355282017],[101.61951991878122,3.3528771064772735]]],[[[101.63047654663166,3.3002720021830827],[101.630474,3.3002618963547445],[101.63042937864488,3.3002720021830827],[101.63047654663166,3.3002720021830827]]],[[[101.62144687393868,3.3022348302538367],[101.6213083,3.3021141963527514],[101.621316819652,3.3022348302538367],[101.62144687393868,3.3022348302538367]]],[[[101.62377463928497,3.302627396321066],[101.62377463928497,3.3023242466964873],[101.62170180572272,3.3024567581363855],[101.62170180572272,3.302627396321066],[101.62377463928497,3.302627396321066]]],[[[101.63828447422067,3.30291040900117],[101.63880268261124,3.303019962539363],[101.63932089100179,3.3022348302538367],[101.63828447422067,3.30291040900117]]],[[[101.63724805743954,3.3509141802546836],[101.63658964690677,3.350129010838853],[101.63672984904898,3.351007149468365],[101.63724805743954,3.3509141802546836]]],[[[101.69736023074458,3.3513067651925343],[101.69684202235402,3.3513067651925343],[101.69684202235402,3.351699350283701],[101.69787843913514,3.3520919355282017],[101.69839664752571,3.3511098332431697],[101.69736023074458,3.3504710184603694],[101.69736023074458,3.3513067651925343]]],[[[101.6958056055729,3.355625209631683],[101.6958056055729,3.3552326230063687],[101.69476918879178,3.355625209631683],[101.69476918879178,3.356410383342871],[101.69528739718234,3.356410383342871],[101.69528739718234,3.3568029704287827],[101.69632381396346,3.356410383342871],[101.69632381396346,3.355625209631683],[101.6958056055729,3.355625209631683]]],[[[101.69425098040122,3.3583733203082975],[101.69425098040122,3.357980732608002],[101.69373277201065,3.357980732608002],[101.6932145636201,3.358765908162234],[101.69425098040122,3.3591584961698295],[101.69425098040122,3.358765908162234],[101.69476918879178,3.358765908162234],[101.69476918879178,3.3583733203082975],[101.69425098040122,3.3583733203082975]]],[[[101.68492322937114,3.366617697533543],[101.68388681259,3.3670102886181335],[101.68440502098056,3.367795471249452],[101.68544143776168,3.367402879856764],[101.68492322937114,3.366617697533543]]],[[[101.68388681259,3.370151022841819],[101.68285039580888,3.370543615313423],[101.68336860419944,3.3713288007192563],[101.68440502098056,3.3709362079392293],[101.68388681259,3.370151022841819]]]]},"properties":{"place_id":"86f10bda-426e-5480-b4d0-61dbdc920785","habitat":"forest_edge_opening","habitat_label":"Forest edge or opening","resolution_m":50}},{"type":"Feature","geometry":{"type":"MultiPolygon","coordinates":[[[[101.60252809527199,3.322908397479263],[101.6024701,3.322931796330342],[101.60252809527199,3.322986768011361],[101.60252809527199,3.322908397479263]]],[[[101.60299951942068,3.3234336145120658],[101.60304630366254,3.3230410404132615],[101.60258535279951,3.3230410404132615],[101.60299951942068,3.3234336145120658]]],[[[101.60356451205311,3.3238261887629004],[101.60341368604183,3.3238261887629004],[101.60356451205311,3.3239691515730505],[101.60356451205311,3.3238261887629004]]],[[[101.60408272044367,3.3242187631657814],[101.60382785266296,3.3242187631657814],[101.60408272044367,3.3244603437109417],[101.60408272044367,3.3242187631657814]]],[[[101.60511913722479,3.3260451553799],[101.60483939658168,3.3253964872868833],[101.6048699,3.326093396326917],[101.60511913722479,3.3260451553799]]],[[[101.61237405469264,3.33913670332073],[101.61185584630208,3.3383515430853157],[101.61117557524243,3.3383515430853157],[101.61341047147376,3.3399218641671578],[101.61341047147376,3.339529283667558],[101.61237405469264,3.33913670332073]]],[[[101.61391357332374,3.3407070256247438],[101.61392867986433,3.340314444819547],[101.6134572403102,3.340314444819547],[101.61391357332374,3.3407070256247438]]],[[[101.61444688825488,3.3410996065827656],[101.61436990633732,3.3410996065827656],[101.61444688825488,3.341165833747864],[101.61444688825488,3.3410996065827656]]],[[[101.61651972181713,3.344632842085112],[101.61631084463903,3.344632842085112],[101.61651972181713,3.3451694554543074],[101.61651972181713,3.344632842085112]]],[[[101.6367150057459,3.3509141802546836],[101.63672984904898,3.3505215954701293],[101.63665232632634,3.3505215954701293],[101.6367150057459,3.3509141802546836]]],[[[101.6958056055729,3.356410383342871],[101.6958056055729,3.355625209631683],[101.69528739718234,3.355625209631683],[101.69528739718234,3.356410383342871],[101.6958056055729,3.356410383342871]]],[[[101.69425098040122,3.358765908162234],[101.69425098040122,3.3583733203082975],[101.69373277201065,3.3583733203082975],[101.69373277201065,3.358765908162234],[101.69425098040122,3.358765908162234]]],[[[101.68492322937114,3.367402879856764],[101.68492322937114,3.3670102886181335],[101.68440502098056,3.3670102886181335],[101.68440502098056,3.367402879856764],[101.68492322937114,3.367402879856764]]]]},"properties":{"place_id":"86f10bda-426e-5480-b4d0-61dbdc920785","habitat":"open_grassland","habitat_label":"Open grassland or shrubland","resolution_m":50}},{"type":"Feature","geometry":{"type":"MultiPolygon","coordinates":[[[[101.60252809527199,3.322908397479263],[101.6024701,3.322931796330342],[101.60252809527199,3.322986768011361],[101.60252809527199,3.322908397479263]]],[[[101.60356451205311,3.3234336145120658],[101.60304630366254,3.3234336145120658],[101.60304630366254,3.3230410404132615],[101.60258535279951,3.3230410404132615],[101.60356451205311,3.3239691515730505],[101.60356451205311,3.3234336145120658]]],[[[101.60408272044367,3.3242187631657814],[101.60382785266296,3.3242187631657814],[101.60408272044367,3.3244603437109417],[101.60408272044367,3.3242187631657814]]],[[[101.60460092883423,3.324611337720726],[101.60424201928411,3.324611337720726],[101.60460092883423,3.32495153608691],[101.60460092883423,3.324611337720726]]],[[[101.61133763791152,3.3383515430853157],[101.61117557524243,3.3383515430853157],[101.61133763791152,3.338490964427757],[101.61133763791152,3.3383515430853157]]],[[[101.61185584630208,3.3387441231266544],[101.61163190825599,3.3387441231266544],[101.61185584630208,3.338936775488584],[101.61185584630208,3.3387441231266544]]],[[[101.63932089100179,3.3022348302538367],[101.63828447422067,3.30291040900117],[101.63828447422067,3.303019962539363],[101.63880268261124,3.303019962539363],[101.63932089100179,3.3022348302538367]]],[[[101.61237405469264,3.33913670332073],[101.61208824126953,3.33913670332073],[101.61237405469264,3.339382586746386],[101.61237405469264,3.33913670332073]]],[[[101.6128922630832,3.339529283667558],[101.61254457428309,3.339529283667558],[101.6128922630832,3.3398283982011874],[101.6128922630832,3.339529283667558]]],[[[101.61890866656367,3.3513067651925343],[101.61911076376994,3.3509141802546836],[101.61875585350927,3.3509141802546836],[101.61890866656367,3.3513067651925343]]],[[[101.69736023074458,3.3505215954701293],[101.69736023074458,3.3513067651925343],[101.69684202235402,3.3513067651925343],[101.69684202235402,3.351699350283701],[101.69787843913514,3.3520919355282017],[101.69839664752571,3.3511098332431697],[101.69736023074458,3.3505215954701293]]],[[[101.68388681259,3.370543615313423],[101.68388681259,3.370151022841819],[101.68336860419944,3.370151022841819],[101.68285039580888,3.3709362079392293],[101.68388681259,3.3713288007192563],[101.68388681259,3.3709362079392293],[101.68440502098056,3.3709362079392293],[101.68440502098056,3.370543615313423],[101.68388681259,3.370543615313423]]]]},"properties":{"place_id":"86f10bda-426e-5480-b4d0-61dbdc920785","habitat":"disturbed_built_edge","habitat_label":"Disturbed, bare or built edge","resolution_m":50}}]}