{"type":"FeatureCollection","metadata":{"schema_version":1,"place_id":"87327c41-5509-5ce9-ac66-8916adb4ba83","place_name":"Kayangan Heights","place_type":"wood","osm_reference":"way/704771417","protection_context":"no protected status confirmed from included OSM tags","resolution_m":50,"raster_coverage":1.0,"interpretation":"Suggested search habitats, not predicted plant locations or probabilities of presence."},"features":[{"type":"Feature","geometry":{"type":"MultiPolygon","coordinates":[[[[101.51235983531443,3.1350151904331334],[101.51235983531443,3.134622687217418],[101.51206732387773,3.134622687217418],[101.51193413208657,3.1350151904331334],[101.51235983531443,3.1350151904331334]]],[[[101.51298607614257,3.1354076937921875],[101.51311287723742,3.134622687217418],[101.512878043705,3.134622687217418],[101.51298607614257,3.1354076937921875]]],[[[101.51495087726724,3.144827817458022],[101.51495087726724,3.14443531065342],[101.5154690856578,3.14443531065342],[101.51598729404836,3.145220324406414],[101.51702371082949,3.145220324406414],[101.51702371082949,3.144827817458022],[101.51598729404836,3.14443531065342],[101.51650550243892,3.143650297475518],[101.51754191922004,3.143650297475518],[101.51702371082949,3.1416877670458296],[101.51495087726724,3.1416877670458296],[101.51495087726724,3.141310233312795],[101.51391446048612,3.141295261390902],[101.51443266887668,3.142080272844403],[101.51339625209555,3.142472778786641],[101.51339625209555,3.142080272844403],[101.512878043705,3.142080272844403],[101.512878043705,3.1416877670458296],[101.51339625209555,3.1416877670458296],[101.512878043705,3.1401177452878133],[101.51184162692388,3.1401177452878133],[101.51184162692388,3.1397252402072877],[101.51028700175219,3.1389402304768845],[101.51080521014275,3.138155221320561],[101.51235983531443,3.138155221320561],[101.51235983531443,3.137762716957631],[101.5132988421005,3.137762716957631],[101.512878043705,3.1361927009403834],[101.51080521014275,3.137370212738167],[101.50976879336163,3.13697770866215],[101.50976879336163,3.1365852047295615],[101.51017696449892,3.1365852047295615],[101.50976879336163,3.134622687217418],[101.51235983531443,3.133837681215928],[101.5124012,3.1323555965360197],[101.51134539999998,3.131957796536431],[101.51028700175219,3.1326601732882797],[101.50882249999998,3.132708596535617],[101.50925058497107,3.137762716957631],[101.50873237658051,3.137762716957631],[101.50873237658051,3.138155221320561],[101.50821416818995,3.1381667250598975],[101.50821416818995,3.1389402304768845],[101.50769595979939,3.1389519322562207],[101.50769595979939,3.1397252402072877],[101.50821416818995,3.1397252402072877],[101.50821416818995,3.142472778786641],[101.50769595979939,3.142472778786641],[101.50769595979939,3.1428652848725607],[101.50925058497107,3.143650297475518],[101.50925058497107,3.145220324406414],[101.50976879336163,3.145220324406414],[101.50976879336163,3.144827817458022],[101.51080521014275,3.145220324406414],[101.51184162692388,3.1432577911021795],[101.51235983531443,3.1432577911021795],[101.512878043705,3.1440428039925923],[101.51339625209555,3.1440428039925923],[101.51339625209555,3.143650297475518],[101.51443266887668,3.1440428039925923],[101.51391446048612,3.144827817458022],[101.51339625209555,3.144827817458022],[101.51339625209555,3.14443531065342],[101.51235983531443,3.14443531065342],[101.51235983531443,3.145220324406414],[101.512878043705,3.145220324406414],[101.51339625209555,3.1460053387346414],[101.51391446048612,3.1460053387346414],[101.51391446048612,3.145220324406414],[101.51495087726724,3.144827817458022]]],[[[101.51028700175219,3.147182861305864],[101.51132341853331,3.147182861305864],[101.51132341853331,3.1463978461145135],[101.51080521014275,3.1463978461145135],[101.51080521014275,3.1460053387346414],[101.51132341853331,3.1460053387346414],[101.51132341853331,3.145220324406414],[101.51080521014275,3.145220324406414],[101.51028700175219,3.1460053387346414],[101.50925058497107,3.1456128314986143],[101.50925058497107,3.147182861305864],[101.50976879336163,3.147182861305864],[101.50976879336163,3.1467903536382487],[101.51028700175219,3.1467903536382487],[101.51028700175219,3.147182861305864]]],[[[101.50976879336163,3.1479678770728112],[101.50976879336163,3.147575369117379],[101.50877509826668,3.147182861305864],[101.50976879336163,3.1484720057106763],[101.51132341853331,3.148401187516581],[101.51080521014275,3.1483603851721793],[101.51080521014275,3.1479678770728112],[101.50976879336163,3.1479678770728112]]],[[[101.51184162692388,3.1483603851721793],[101.51184162692388,3.148377581452924],[101.51221912557287,3.1483603851721793],[101.51184162692388,3.1483603851721793]]],[[[101.5154690856578,3.1456128314986143],[101.51598729404836,3.1456128314986143],[101.51598729404836,3.145220324406414],[101.5154690856578,3.145220324406414],[101.5154690856578,3.1456128314986143]]],[[[101.5154690856578,3.1460053387346414],[101.5154690856578,3.1456128314986143],[101.51495087726724,3.1456128314986143],[101.51495087726724,3.1463978461145135],[101.51443266887668,3.1463978461145135],[101.51443266887668,3.1467903536382487],[101.5154690856578,3.1467903536382487],[101.5154690856578,3.1463978461145135],[101.51598729404836,3.1463978461145135],[101.51598729404836,3.1460053387346414],[101.5154690856578,3.1460053387346414]]],[[[101.51766656633731,3.1463978461145135],[101.5176638275643,3.1460053387346414],[101.51650550243892,3.1460053387346414],[101.51650550243892,3.1463978461145135],[101.51766656633731,3.1463978461145135]]],[[[101.51339625209555,3.147182861305864],[101.51339625209555,3.1467903536382487],[101.51391446048612,3.1467903536382487],[101.51391446048612,3.1463978461145135],[101.512878043705,3.1463978461145135],[101.512878043705,3.147182861305864],[101.51339625209555,3.147182861305864]]],[[[101.51443266887668,3.147182861305864],[101.51443266887668,3.1467903536382487],[101.51391446048612,3.1467903536382487],[101.51391446048612,3.147182861305864],[101.51443266887668,3.147182861305864]]],[[[101.51391446048612,3.1484928278190685],[101.51339625209555,3.1483603851721793],[101.51339625209555,3.148453414845134],[101.51391446048612,3.1484928278190685]]]]},"properties":{"place_id":"87327c41-5509-5ce9-ac66-8916adb4ba83","habitat":"forest_interior","habitat_label":"Forest interior","resolution_m":50}},{"type":"Feature","geometry":{"type":"MultiPolygon","coordinates":[[[[101.50925058497107,3.1326601732882797],[101.50925058497107,3.132607544908211],[101.5090276353794,3.1326601732882797],[101.50925058497107,3.1326601732882797]]],[[[101.50976879336163,3.1326601732882797],[101.51028700175219,3.132408834439739],[101.50976879336163,3.1324852192035015],[101.50976879336163,3.1326601732882797]]],[[[101.50884001441418,3.1350151904331334],[101.5088598,3.1376208965303123],[101.50822777535375,3.138155221320561],[101.50925058497107,3.137762716957631],[101.50925058497107,3.1350151904331334],[101.50884001441418,3.1350151904331334]]],[[[101.50821416818995,3.1389402304768845],[101.50821416818995,3.1381667250598975],[101.50770922683483,3.1389402304768845],[101.50821416818995,3.1389402304768845]]],[[[101.50925058497107,3.147182861305864],[101.50925058497107,3.1456128314986143],[101.51028700175219,3.1460053387346414],[101.51080521014275,3.145220324406414],[101.51028700175219,3.145220324406414],[101.51028700175219,3.144827817458022],[101.50925058497107,3.145220324406414],[101.50925058497107,3.143650297475518],[101.50769595979939,3.1428652848725607],[101.50769595979939,3.142472778786641],[101.50821416818995,3.142472778786641],[101.50821416818995,3.1397252402072877],[101.50769595979939,3.1397252402072877],[101.50769595979939,3.1389519322562207],[101.50725439999998,3.139341396528456],[101.50785719999999,3.14015229652758],[101.5073917,3.143251896524211],[101.5078741,3.143294796524162],[101.50876649999996,3.1445080965228565],[101.50913269999997,3.145537296521766],[101.50871229999998,3.1470281965201425],[101.50925058497107,3.147182861305864]]],[[[101.50925058497107,3.1479678770728112],[101.50921661035574,3.1479678770728112],[101.50925058497107,3.148005712916706],[101.50925058497107,3.1479678770728112]]],[[[101.50976879336163,3.1483603851721793],[101.50959233139427,3.1483603851721793],[101.50972069999999,3.1484741965185927],[101.50976879336163,3.1483603851721793]]],[[[101.51080521014275,3.132267670932214],[101.51080521014275,3.132130324321837],[101.51062949124729,3.132267670932214],[101.51080521014275,3.132267670932214]]],[[[101.51028700175219,3.1342301841450224],[101.51028700175219,3.134622687217418],[101.50976879336163,3.134622687217418],[101.50976879336163,3.1350151904331334],[101.51121171048841,3.1342301841450224],[101.51028700175219,3.1342301841450224]]],[[[101.51311287723742,3.134622687217418],[101.51208309999998,3.1345761965335908],[101.51235983531443,3.1350151904331334],[101.51193413208657,3.1350151904331334],[101.5114224737906,3.13697770866215],[101.512878043705,3.1361927009403834],[101.512878043705,3.137370212738167],[101.51320080646964,3.137370212738167],[101.51311287723742,3.134622687217418]]],[[[101.51215189999999,3.1340068965342023],[101.51184162692388,3.133837681215928],[101.51184162692388,3.1339457422457833],[101.51215189999999,3.1340068965342023]]],[[[101.51028700175219,3.13697770866215],[101.51028700175219,3.137370212738167],[101.51080521014275,3.137370212738167],[101.51017696449892,3.1365852047295615],[101.50976879336163,3.1365852047295615],[101.50976879336163,3.13697770866215],[101.51028700175219,3.13697770866215]]],[[[101.51028700175219,3.1389402304768845],[101.51051038243408,3.138547725826972],[101.51028700175219,3.138547725826972],[101.51028700175219,3.1389402304768845]]],[[[101.51079527495538,3.1389402304768845],[101.51071109999998,3.1388959965289414],[101.51045701761379,3.1389402304768845],[101.51079527495538,3.1389402304768845]]],[[[101.51391446048612,3.1416877670458296],[101.51391446048612,3.141295261390902],[101.5149001898168,3.141295261390902],[101.51486539999999,3.140731396526927],[101.51391446048612,3.140510250511912],[101.51362509999997,3.1392316965285736],[101.513401,3.139045196528747],[101.5124109,3.139809896527941],[101.51080521014275,3.1389454514190116],[101.51184162692388,3.1401177452878133],[101.512878043705,3.1401177452878133],[101.512878043705,3.140902755879602],[101.51339625209555,3.140902755879602],[101.51339625209555,3.1416877670458296],[101.512878043705,3.1416877670458296],[101.512878043705,3.142080272844403],[101.51339625209555,3.142080272844403],[101.51339625209555,3.142472778786641],[101.51443266887668,3.142080272844403],[101.51443266887668,3.1416877670458296],[101.51391446048612,3.1416877670458296]]],[[[101.51495087726724,3.1416877670458296],[101.51702371082949,3.1416877670458296],[101.51728370669073,3.142472778786641],[101.5169133,3.1413192965263366],[101.51495087726724,3.141310233312795],[101.51495087726724,3.1416877670458296]]],[[[101.51235983531443,3.137762716957631],[101.51235983531443,3.138155221320561],[101.51080521014275,3.1383131916825087],[101.51236919999998,3.138284496529574],[101.51290999999999,3.137854096530051],[101.5136368,3.1391157965286918],[101.5132988421005,3.137762716957631],[101.51235983531443,3.137762716957631]]],[[[101.51495087726724,3.144827817458022],[101.51443266887668,3.144827817458022],[101.51443266887668,3.145220324406414],[101.51391446048612,3.145220324406414],[101.51391446048612,3.1460053387346414],[101.51339625209555,3.1460053387346414],[101.51339625209555,3.1456128314986143],[101.51235983531443,3.145220324406414],[101.51235983531443,3.14443531065342],[101.51339625209555,3.14443531065342],[101.51339625209555,3.144827817458022],[101.51391446048612,3.144827817458022],[101.51443266887668,3.1440428039925923],[101.51391446048612,3.1440428039925923],[101.51391446048612,3.143650297475518],[101.512878043705,3.1440428039925923],[101.512878043705,3.143650297475518],[101.51184162692388,3.1432577911021795],[101.51184162692388,3.143650297475518],[101.51132341853331,3.143650297475518],[101.51132341853331,3.144827817458022],[101.51080521014275,3.144827817458022],[101.51080521014275,3.145220324406414],[101.51132341853331,3.145220324406414],[101.51132341853331,3.1460053387346414],[101.51080521014275,3.1460053387346414],[101.51080521014275,3.1463978461145135],[101.51132341853331,3.1463978461145135],[101.51132341853331,3.147182861305864],[101.51028700175219,3.147182861305864],[101.51028700175219,3.1467903536382487],[101.50976879336163,3.1467903536382487],[101.50976879336163,3.147182861305864],[101.50925058497107,3.147182861305864],[101.50925058497107,3.147575369117379],[101.50976879336163,3.147575369117379],[101.50976879336163,3.1479678770728112],[101.51080521014275,3.1479678770728112],[101.51080521014275,3.1483603851721793],[101.51702371082949,3.1485245338337657],[101.51650550243892,3.1479678770728112],[101.5154690856578,3.1483603851721793],[101.5154690856578,3.147182861305864],[101.51702371082949,3.147182861305864],[101.51768862019128,3.1479678770728112],[101.51766656633731,3.1463978461145135],[101.51650550243892,3.1463978461145135],[101.51650550243892,3.1460053387346414],[101.5176638275643,3.1460053387346414],[101.51754191922004,3.1435265619960107],[101.51598729404836,3.1440428039925923],[101.51702371082949,3.145220324406414],[101.51598729404836,3.145220324406414],[101.5154690856578,3.14443531065342],[101.51495087726724,3.14443531065342],[101.51495087726724,3.144827817458022]],[[101.51598729404836,3.1456128314986143],[101.5154690856578,3.1456128314986143],[101.5154690856578,3.145220324406414],[101.51598729404836,3.145220324406414],[101.51598729404836,3.1456128314986143]],[[101.5154690856578,3.1460053387346414],[101.51598729404836,3.1460053387346414],[101.51598729404836,3.1463978461145135],[101.5154690856578,3.1463978461145135],[101.5154690856578,3.1467903536382487],[101.51443266887668,3.1467903536382487],[101.51443266887668,3.1463978461145135],[101.51495087726724,3.1463978461145135],[101.51495087726724,3.1456128314986143],[101.5154690856578,3.1456128314986143],[101.5154690856578,3.1460053387346414]],[[101.51443266887668,3.147182861305864],[101.51391446048612,3.147182861305864],[101.51391446048612,3.1467903536382487],[101.51443266887668,3.1467903536382487],[101.51443266887668,3.147182861305864]],[[101.51339625209555,3.1467903536382487],[101.51339625209555,3.147182861305864],[101.512878043705,3.147182861305864],[101.512878043705,3.1463978461145135],[101.51391446048612,3.1463978461145135],[101.51391446048612,3.1467903536382487],[101.51339625209555,3.1467903536382487]]]]},"properties":{"place_id":"87327c41-5509-5ce9-ac66-8916adb4ba83","habitat":"forest_edge_opening","habitat_label":"Forest edge or opening","resolution_m":50}},{"type":"Feature","geometry":{"type":"MultiPolygon","coordinates":[[[[101.51183942528587,3.1354076937921875],[101.51166780309636,3.1365852047295615],[101.51184162692388,3.1365852047295615],[101.51183942528587,3.1354076937921875]]],[[[101.50821416818995,3.1432577911021795],[101.50769595979939,3.1432577911021795],[101.50769595979939,3.1432789544539017],[101.50821416818995,3.1436071627074114],[101.50821416818995,3.1432577911021795]]],[[[101.50873237658051,3.143650297475518],[101.508359,3.143740196523722],[101.50873237658051,3.1444437937440126],[101.50873237658051,3.143650297475518]]],[[[101.51132341853331,3.144827817458022],[101.51132341853331,3.145220324406414],[101.51184162692388,3.145220324406414],[101.51184162692388,3.144827817458022],[101.51132341853331,3.144827817458022]]],[[[101.50909867459102,3.1456128314986143],[101.50925058497107,3.145220324406414],[101.50901991808179,3.145220324406414],[101.50909867459102,3.1456128314986143]]],[[[101.51443266887668,3.1456128314986143],[101.51495087726724,3.1456128314986143],[101.51495087726724,3.145220324406414],[101.51443266887668,3.145220324406414],[101.51443266887668,3.1456128314986143]]]]},"properties":{"place_id":"87327c41-5509-5ce9-ac66-8916adb4ba83","habitat":"open_grassland","habitat_label":"Open grassland or shrubland","resolution_m":50}},{"type":"Feature","geometry":{"type":"MultiPolygon","coordinates":[[[[101.50925058497107,3.1326601732882797],[101.50925058497107,3.132607544908211],[101.5090276353794,3.1326601732882797],[101.50925058497107,3.1326601732882797]]],[[[101.50976879336163,3.1326601732882797],[101.51028700175219,3.132408834439739],[101.50976879336163,3.1324852192035015],[101.50976879336163,3.1326601732882797]]],[[[101.50884001441418,3.1350151904331334],[101.5088598,3.1376208965303123],[101.50822777535375,3.138155221320561],[101.50925058497107,3.137762716957631],[101.50925058497107,3.1350151904331334],[101.50884001441418,3.1350151904331334]]],[[[101.51028700175219,3.137370212738167],[101.51080521014275,3.137178565621356],[101.50976879336163,3.1365852047295615],[101.50976879336163,3.13697770866215],[101.51028700175219,3.13697770866215],[101.51028700175219,3.137370212738167]]],[[[101.50821416818995,3.1381667250598975],[101.5078461,3.1384778965293836],[101.50770922683483,3.1389402304768845],[101.50821416818995,3.1389402304768845],[101.50821416818995,3.1381667250598975]]],[[[101.50769595979939,3.1397252402072877],[101.50769595979939,3.1389519322562207],[101.50725439999998,3.139341396528456],[101.50785719999999,3.14015229652758],[101.5073917,3.143251896524211],[101.50769595979939,3.1432789544539017],[101.50769595979939,3.142472778786641],[101.50821416818995,3.142472778786641],[101.50821416818995,3.1397252402072877],[101.50769595979939,3.1397252402072877]]],[[[101.50873237658051,3.14443531065342],[101.50872787487664,3.14443531065342],[101.50873237658051,3.1444437937440126],[101.50873237658051,3.14443531065342]]],[[[101.51028700175219,3.145220324406414],[101.51028700175219,3.144827817458022],[101.50976879336163,3.144827817458022],[101.50925058497107,3.1456128314986143],[101.51028700175219,3.1460053387346414],[101.51028700175219,3.1456128314986143],[101.51080521014275,3.1456128314986143],[101.51080521014275,3.145220324406414],[101.51028700175219,3.145220324406414]]],[[[101.50925058497107,3.147182861305864],[101.50925058497107,3.1463978461145135],[101.50885184143036,3.1463978461145135],[101.50877509826668,3.147182861305864],[101.50925058497107,3.147182861305864]]],[[[101.50925058497107,3.1479678770728112],[101.50921661035574,3.1479678770728112],[101.50925058497107,3.148005712916706],[101.50925058497107,3.1479678770728112]]],[[[101.50976879336163,3.1483603851721793],[101.50959233139427,3.1483603851721793],[101.50972069999999,3.1484741965185927],[101.50976879336163,3.1483603851721793]]],[[[101.51080521014275,3.132267670932214],[101.51080521014275,3.132130324321837],[101.51062949124729,3.132267670932214],[101.51080521014275,3.132267670932214]]],[[[101.51215189999999,3.1340068965342023],[101.51184162692388,3.133837681215928],[101.51184162692388,3.1339457422457833],[101.51215189999999,3.1340068965342023]]],[[[101.51235983531443,3.134622687217418],[101.51235983531443,3.1350151904331334],[101.512878043705,3.1350151904331334],[101.51313149999999,3.134507396533683],[101.51235983531443,3.134622687217418]]],[[[101.51028700175219,3.134622687217418],[101.50976879336163,3.134622687217418],[101.50976879336163,3.1350151904331334],[101.51121171048841,3.1342301841450224],[101.51028700175219,3.1342301841450224],[101.51028700175219,3.134622687217418]]],[[[101.51172501049288,3.1361927009403834],[101.51184162692388,3.1354076937921875],[101.51235983531443,3.1354076937921875],[101.51235983531443,3.1350151904331334],[101.51193413208657,3.1350151904331334],[101.51186839999997,3.135208896532935],[101.51172501049288,3.1361927009403834]]],[[[101.51320080646964,3.137370212738167],[101.512878043705,3.1360779718813405],[101.512878043705,3.137370212738167],[101.51320080646964,3.137370212738167]]],[[[101.512878043705,3.1354076937921875],[101.512878043705,3.136076506875016],[101.51298607614257,3.1354076937921875],[101.512878043705,3.1354076937921875]]],[[[101.51028700175219,3.138547725826972],[101.51039984739255,3.1389402304768845],[101.51051038243408,3.138547725826972],[101.51028700175219,3.138547725826972]]],[[[101.51079527495538,3.1389402304768845],[101.51071109999998,3.1388959965289414],[101.51045701761379,3.1389402304768845],[101.51079527495538,3.1389402304768845]]],[[[101.512878043705,3.1401177452878133],[101.512878043705,3.140902755879602],[101.51339625209555,3.140902755879602],[101.51339625209555,3.1416877670458296],[101.512878043705,3.1416877670458296],[101.512878043705,3.142080272844403],[101.51391446048612,3.142472778786641],[101.51391446048612,3.142080272844403],[101.51443266887668,3.142080272844403],[101.51391446048612,3.141295261390902],[101.5149001898168,3.141295261390902],[101.5146339,3.1403507965273723],[101.513401,3.139045196528747],[101.5124109,3.139809896527941],[101.51080521014275,3.1389454514190116],[101.51184162692388,3.1401177452878133],[101.512878043705,3.1401177452878133]]],[[[101.51495087726724,3.1416877670458296],[101.51702371082949,3.1416877670458296],[101.51728370669073,3.142472778786641],[101.5169133,3.1413192965263366],[101.51495087726724,3.141310233312795],[101.51495087726724,3.1416877670458296]]],[[[101.51235983531443,3.137762716957631],[101.51235983531443,3.138155221320561],[101.51080521014275,3.1383131916825087],[101.51236919999998,3.138284496529574],[101.51290999999999,3.137854096530051],[101.5136368,3.1391157965286918],[101.5132988421005,3.137762716957631],[101.51235983531443,3.137762716957631]]],[[[101.51391446048612,3.144827817458022],[101.51391446048612,3.14443531065342],[101.51443266887668,3.14443531065342],[101.51391446048612,3.143650297475518],[101.51339625209555,3.143650297475518],[101.51339625209555,3.1440428039925923],[101.512878043705,3.1440428039925923],[101.51235983531443,3.1432577911021795],[101.51132341853331,3.143650297475518],[101.51132341853331,3.14443531065342],[101.51184162692388,3.14443531065342],[101.51184162692388,3.144827817458022],[101.51235983531443,3.144827817458022],[101.51235983531443,3.14443531065342],[101.51339625209555,3.14443531065342],[101.51339625209555,3.144827817458022],[101.51391446048612,3.144827817458022]]],[[[101.51443266887668,3.144827817458022],[101.51495087726724,3.1456128314986143],[101.51598729404836,3.145220324406414],[101.5154690856578,3.14443531065342],[101.51443266887668,3.144827817458022]]],[[[101.51391446048612,3.1456128314986143],[101.51391446048612,3.1460053387346414],[101.51339625209555,3.1460053387346414],[101.512878043705,3.145220324406414],[101.51184162692388,3.145220324406414],[101.51184162692388,3.1456128314986143],[101.51080521014275,3.1460053387346414],[101.51080521014275,3.1463978461145135],[101.51132341853331,3.1463978461145135],[101.51132341853331,3.147182861305864],[101.51028700175219,3.147182861305864],[101.51028700175219,3.1467903536382487],[101.50976879336163,3.1467903536382487],[101.50976879336163,3.147182861305864],[101.50925058497107,3.147182861305864],[101.50925058497107,3.147575369117379],[101.50976879336163,3.147575369117379],[101.50976879336163,3.1479678770728112],[101.51080521014275,3.1479678770728112],[101.51080521014275,3.1483603851721793],[101.5176967,3.1485313965185155],[101.51766656633731,3.1463978461145135],[101.51650550243892,3.1463978461145135],[101.51650550243892,3.1460053387346414],[101.5176638275643,3.1460053387346414],[101.51754191922004,3.1435265619960107],[101.51598729404836,3.1440428039925923],[101.51702371082949,3.145220324406414],[101.51598729404836,3.145220324406414],[101.51598729404836,3.1456128314986143],[101.5154690856578,3.1456128314986143],[101.5154690856578,3.1460053387346414],[101.51598729404836,3.1460053387346414],[101.5154690856578,3.1467903536382487],[101.51443266887668,3.1467903536382487],[101.51495087726724,3.1460053387346414],[101.51391446048612,3.1456128314986143]],[[101.51443266887668,3.147182861305864],[101.51391446048612,3.147182861305864],[101.51391446048612,3.1467903536382487],[101.51443266887668,3.1467903536382487],[101.51443266887668,3.147182861305864]],[[101.51339625209555,3.1467903536382487],[101.51339625209555,3.147182861305864],[101.512878043705,3.147182861305864],[101.512878043705,3.1463978461145135],[101.51391446048612,3.1463978461145135],[101.51391446048612,3.1467903536382487],[101.51339625209555,3.1467903536382487]]]]},"properties":{"place_id":"87327c41-5509-5ce9-ac66-8916adb4ba83","habitat":"disturbed_built_edge","habitat_label":"Disturbed, bare or built edge","resolution_m":50}},{"type":"Feature","geometry":{"type":"Polygon","coordinates":[[[101.512878043705,3.1358001972945986],[101.512878043705,3.1354076937921875],[101.51184162692388,3.1354076937921875],[101.51184162692388,3.1358001972945986],[101.512878043705,3.1358001972945986]]]},"properties":{"place_id":"87327c41-5509-5ce9-ac66-8916adb4ba83","habitat":"permanent_water","habitat_label":"Permanent water","resolution_m":50}},{"type":"Feature","geometry":{"type":"Polygon","coordinates":[[[101.51235983531443,3.1358001972945986],[101.51235983531443,3.1354076937921875],[101.51184162692388,3.1354076937921875],[101.51184162692388,3.1358001972945986],[101.51235983531443,3.1358001972945986]]]},"properties":{"place_id":"87327c41-5509-5ce9-ac66-8916adb4ba83","habitat":"seasonal_water_wetland","habitat_label":"Seasonal water or wetland","resolution_m":50}},{"type":"Feature","geometry":{"type":"MultiPolygon","coordinates":[[[[101.51184162692388,3.132267670932214],[101.51230432123302,3.132267670932214],[101.51184162692388,3.132048072182027],[101.51184162692388,3.132267670932214]]],[[[101.51235983531443,3.13244492217113],[101.5124012,3.1323555965360197],[101.51235983531443,3.1323180546147826],[101.51235983531443,3.13244492217113]]],[[[101.51290669957699,3.1361927009403834],[101.512878043705,3.134622687217418],[101.51206732387773,3.134622687217418],[101.51186839999997,3.135208896532935],[101.51172501049288,3.1361927009403834],[101.51184162692388,3.1365852047295615],[101.512878043705,3.1365852047295615],[101.51290669957699,3.1361927009403834]],[[101.512878043705,3.1358001972945986],[101.51184162692388,3.1358001972945986],[101.51184162692388,3.1354076937921875],[101.512878043705,3.1354076937921875],[101.512878043705,3.1358001972945986]]]]},"properties":{"place_id":"87327c41-5509-5ce9-ac66-8916adb4ba83","habitat":"water_edge","habitat_label":"Water edge","resolution_m":50}}]}