{"type":"FeatureCollection","metadata":{"schema_version":1,"place_id":"87553d64-92d2-5d85-9c77-49b378cabc73","place_name":"Palm Oil Plantation","place_type":"forest","osm_reference":"way/511079415","protection_context":"no protected status confirmed from included OSM tags","resolution_m":50,"raster_coverage":1.0,"interpretation":"Suggested search habitats, not predicted plant locations or probabilities of presence."},"features":[{"type":"Feature","geometry":{"type":"Polygon","coordinates":[[[101.6932145636201,3.4376792107780916],[101.69367129999999,3.436793896207866],[101.69204589999998,3.4362530962084494],[101.6916207,3.4373413962072594],[101.6932145636201,3.4376792107780916]]]},"properties":{"place_id":"87553d64-92d2-5d85-9c77-49b378cabc73","habitat":"forest_interior","habitat_label":"Forest interior","resolution_m":50}},{"type":"Feature","geometry":{"type":"Polygon","coordinates":[[[101.6935186250722,3.43728659167421],[101.6932145636201,3.4376792107780916],[101.69339696154908,3.4376792107780916],[101.6935186250722,3.43728659167421]]]},"properties":{"place_id":"87553d64-92d2-5d85-9c77-49b378cabc73","habitat":"forest_edge_opening","habitat_label":"Forest edge or opening","resolution_m":50}}]}