{"type":"FeatureCollection","metadata":{"schema_version":1,"place_id":"876d6f05-f3cf-54af-b985-de2b17719c5f","place_name":"Taman Damai Park","place_type":"park","osm_reference":"way/172244504","protection_context":"no protected status confirmed from included OSM tags","resolution_m":50,"raster_coverage":1.0,"interpretation":"Suggested search habitats, not predicted plant locations or probabilities of presence."},"features":[{"type":"Feature","geometry":{"type":"Polygon","coordinates":[[[118.07844566475698,5.858333350259631],[118.0794613,5.858891893696838],[118.07896387314756,5.85827897788104],[118.07844566475698,5.858333350259631]]]},"properties":{"place_id":"876d6f05-f3cf-54af-b985-de2b17719c5f","habitat":"forest_edge_opening","habitat_label":"Forest edge or opening","resolution_m":50}},{"type":"Feature","geometry":{"type":"Polygon","coordinates":[[[118.0789323,5.85883679369689],[118.0794613,5.858891893696838],[118.07947859999999,5.858602593697126],[118.0785124,5.858200293697505],[118.0789323,5.85883679369689]]]},"properties":{"place_id":"876d6f05-f3cf-54af-b985-de2b17719c5f","habitat":"disturbed_built_edge","habitat_label":"Disturbed, bare or built edge","resolution_m":50}},{"type":"Feature","geometry":{"type":"Polygon","coordinates":[[[118.07844566475698,5.858333350259631],[118.07834339999997,5.858466293697244],[118.07844566475698,5.8585306324344275],[118.07844566475698,5.858333350259631]]]},"properties":{"place_id":"876d6f05-f3cf-54af-b985-de2b17719c5f","habitat":"water_edge","habitat_label":"Water edge","resolution_m":50}}]}