{"type":"FeatureCollection","metadata":{"schema_version":1,"place_id":"882e7a00-4a9e-5273-b4c1-6bad732a0053","place_name":"Taman Kejiranan Lorong Gemilang","place_type":"park","osm_reference":"way/983090603","protection_context":"no protected status confirmed from included OSM tags","resolution_m":50,"raster_coverage":1.0,"interpretation":"Suggested search habitats, not predicted plant locations or probabilities of presence."},"features":[{"type":"Feature","geometry":{"type":"Polygon","coordinates":[[[100.3110197,5.395854794160879],[100.31143539999998,5.396127794160605],[100.31130139999999,5.395758394160979],[100.3110197,5.395854794160879]]]},"properties":{"place_id":"882e7a00-4a9e-5273-b4c1-6bad732a0053","habitat":"forest_edge_opening","habitat_label":"Forest edge or opening","resolution_m":50}},{"type":"Feature","geometry":{"type":"Polygon","coordinates":[[[100.3110197,5.395854794160879],[100.31143539999998,5.396127794160605],[100.31130139999999,5.395758394160979],[100.3110197,5.395854794160879]]]},"properties":{"place_id":"882e7a00-4a9e-5273-b4c1-6bad732a0053","habitat":"disturbed_built_edge","habitat_label":"Disturbed, bare or built edge","resolution_m":50}}]}