{"type":"FeatureCollection","metadata":{"schema_version":1,"place_id":"885c07c8-69ab-509b-a68f-4163ca01b34f","place_name":"Pulau Pasir Pulai","place_type":"wood","osm_reference":"way/724599631","protection_context":"no protected status confirmed from included OSM tags","resolution_m":50,"raster_coverage":1.0,"interpretation":"Suggested search habitats, not predicted plant locations or probabilities of presence."},"features":[{"type":"Feature","geometry":{"type":"Polygon","coordinates":[[[102.67060249999999,5.171794594388442],[102.66951917143635,5.171706857455863],[102.66951917143635,5.172493839586083],[102.67159200499859,5.173674314567438],[102.67159200499859,5.173280822668826],[102.67262842177972,5.172887331008378],[102.67262842177972,5.1721003484019175],[102.67314663017027,5.1721003484019175],[102.67314663017027,5.1713133667479045],[102.67243579999999,5.171097694389135],[102.67262842177972,5.170526386046193],[102.67314663017027,5.170526386046193],[102.6727442,5.170133694390109],[102.67418304695138,5.170015050957374],[102.67362529999998,5.16659219439371],[102.67418304695138,5.165804521825957],[102.67366483856082,5.165804521825957],[102.67366483856082,5.164624061123013],[102.67314663017027,5.164624061123013],[102.6730866,5.163852794396508],[102.67366483856082,5.164154147752496],[102.67366483856082,5.163837088509885],[102.67418304695138,5.163837088509885],[102.67418304695138,5.163120929897384],[102.67366483856082,5.163050116847651],[102.67366483856082,5.161869661136902],[102.67314663017027,5.161869661136902],[102.67314663017027,5.161491150799458],[102.67273519999999,5.1614975943989325],[102.67301879999997,5.162081994398333],[102.67211021338915,5.162468773754934],[102.67211021338915,5.165807317838848],[102.6725096,5.16599049439432],[102.67180421821428,5.1669849846692495],[102.67230599999998,5.167247694393051],[102.67107379660801,5.167378472759398],[102.67107379660801,5.168165449653385],[102.67159200499859,5.168165449653385],[102.67159200499859,5.16855893845726],[102.67107379660801,5.168600525445381],[102.6710129,5.169408794390853],[102.67003737982691,5.169739406296635],[102.67067889999998,5.170748094389481],[102.67055558821747,5.1713133667479045],[102.6700633990617,5.1713133667479045],[102.67060249999999,5.171794594388442]]]},"properties":{"place_id":"885c07c8-69ab-509b-a68f-4163ca01b34f","habitat":"forest_interior","habitat_label":"Forest interior","resolution_m":50}},{"type":"Feature","geometry":{"type":"MultiPolygon","coordinates":[[[[102.67366483856082,5.163837088509885],[102.674031,5.1642106943961315],[102.6745578,5.163332894397054],[102.67418304695138,5.163120929897384],[102.67418304695138,5.163837088509885],[102.67366483856082,5.163837088509885]]],[[[102.67314663017027,5.164230574697579],[102.67314663017027,5.164624061123013],[102.67366483856082,5.164624061123013],[102.67366483856082,5.165804521825957],[102.67418304695138,5.165804521825957],[102.67366483856082,5.166545977693946],[102.67412490000001,5.166512694393825],[102.67462819999999,5.165811494394529],[102.67423020000001,5.165633194394697],[102.67386469999997,5.164779394395555],[102.67374839999998,5.164652594395709],[102.67314663017027,5.164230574697579]]],[[[102.67366483856082,5.16855893845726],[102.67418159999998,5.1683455943919405],[102.6742912,5.167068994393211],[102.67366483856082,5.166654453355582],[102.67366483856082,5.16855893845726]]],[[[102.67418304695138,5.170015050957374],[102.67490709999997,5.1691472943911005],[102.6743472,5.168643394391614],[102.67418304695138,5.168665484488675],[102.67418304695138,5.170015050957374]]],[[[102.67314663017027,5.170132896052403],[102.6737447,5.170571094389669],[102.67405449999998,5.170350694389892],[102.67406087453332,5.170132896052403],[102.67314663017027,5.170132896052403]]],[[[102.67328669999999,5.170881594389347],[102.67262842177972,5.170526386046193],[102.67262842177972,5.171097782249576],[102.67328669999999,5.170881594389347]]],[[[102.67262842177972,5.1713133667479045],[102.67314663017027,5.1713133667479045],[102.67314663017027,5.1721003484019175],[102.67262842177972,5.1721003484019175],[102.67262842177972,5.172887331008378],[102.67211021338915,5.172887331008378],[102.67211021338915,5.173280822668826],[102.67159200499859,5.173280822668826],[102.67159200499859,5.173674314567438],[102.66951917143635,5.172493839586083],[102.66951917143635,5.171706857455863],[102.67003737982691,5.171706857455863],[102.66973279999999,5.1715213943887175],[102.66912999999998,5.171855294388361],[102.66893379999999,5.173248094386933],[102.66963959999998,5.173293094386889],[102.66974079999999,5.172734794387476],[102.6707765,5.174102194386066],[102.67158419999998,5.173813994386346],[102.67305069999999,5.172641994387563],[102.67342149999999,5.171428594388785],[102.6732445,5.171288294388932],[102.67262842177972,5.1713133667479045]]],[[[102.67055558821747,5.1713133667479045],[102.67055558821747,5.170806290107808],[102.6697864,5.1708034943894425],[102.6700633990617,5.1713133667479045],[102.67055558821747,5.1713133667479045]]],[[[102.67055558821747,5.170132896052403],[102.67003737982691,5.170132896052403],[102.67055558821747,5.169402372232445],[102.66992120000002,5.169457194390827],[102.66975629999999,5.170251894389998],[102.67055558821747,5.170605663536832],[102.67055558821747,5.170132896052403]]],[[[102.67107379660801,5.169345916778866],[102.67107379660801,5.168600525445381],[102.67058439999998,5.168653794391628],[102.67054149999998,5.168996994391267],[102.67107379660801,5.169345916778866]]],[[[102.67130061505924,5.16855893845726],[102.67159200499859,5.168165449653385],[102.67107379660801,5.168165449653385],[102.67107379660801,5.167378472759398],[102.6715225,5.167155794393132],[102.6708037,5.167406894392889],[102.67064939999999,5.167743494392571],[102.67130061505924,5.16855893845726]]],[[[102.67211021338915,5.1669849846692495],[102.67211021338915,5.16607550338177],[102.67180010000001,5.166047894394263],[102.67137429999997,5.166638294393689],[102.67211021338915,5.1669849846692495]]],[[[102.67211021338915,5.1652168560466745],[102.67153889999999,5.165245494395106],[102.67211021338915,5.165807317838848],[102.67211021338915,5.1652168560466745]]],[[[102.67211021338915,5.162468773754934],[102.6716499,5.162769494397597],[102.67150909999998,5.164008994396334],[102.67211021338915,5.164815655099142],[102.67211021338915,5.162468773754934]]],[[[102.67262842177972,5.162263146136162],[102.6723506,5.161585094398832],[102.6717733,5.161453894398987],[102.67184699999999,5.1620148943983715],[102.67262842177972,5.162263146136162]]],[[[102.67293960163512,5.161476176375274],[102.67282399999999,5.161401094399001],[102.67273985609202,5.161476176375274],[102.67293960163512,5.161476176375274]]],[[[102.67314663017027,5.161869661136902],[102.67366483856082,5.161869661136902],[102.67366483856082,5.163050116847651],[102.67406433592033,5.163050116847651],[102.6737289,5.1623230943980785],[102.6744126,5.162203194398204],[102.67441489999997,5.16158379439883],[102.67314663017027,5.161491150799458],[102.67314663017027,5.161869661136902]]]]},"properties":{"place_id":"885c07c8-69ab-509b-a68f-4163ca01b34f","habitat":"forest_edge_opening","habitat_label":"Forest edge or opening","resolution_m":50}},{"type":"Feature","geometry":{"type":"Polygon","coordinates":[[[102.67454367984703,5.161869661136902],[102.67418304695138,5.162263146136162],[102.67431564001816,5.162263146136162],[102.67454367984703,5.161869661136902]]]},"properties":{"place_id":"885c07c8-69ab-509b-a68f-4163ca01b34f","habitat":"cropland","habitat_label":"Cropland","resolution_m":50}},{"type":"Feature","geometry":{"type":"MultiPolygon","coordinates":[[[[102.67211021338915,5.161869661136902],[102.67176761805446,5.161869661136902],[102.67211021338915,5.162088733868617],[102.67211021338915,5.161869661136902]]],[[[102.67159200499859,5.1637204967884305],[102.67150909999998,5.164008994396334],[102.67159200499859,5.164348401833242],[102.67159200499859,5.1637204967884305]]],[[[102.67159200499859,5.1651870532637165],[102.67153889999999,5.165245494395106],[102.67159200499859,5.165556478632536],[102.67159200499859,5.1651870532637165]]],[[[102.67159200499859,5.166279023108455],[102.6713663,5.16655609439378],[102.67159200499859,5.166837106483915],[102.67159200499859,5.166279023108455]]],[[[102.67107379660801,5.167378472759398],[102.6709713,5.167297394393003],[102.67084720196783,5.167378472759398],[102.67107379660801,5.167378472759398]]],[[[102.67107379660801,5.168165449653385],[102.67098535296125,5.168165449653385],[102.67107379660801,5.1683089259398445],[102.67107379660801,5.168165449653385]]],[[[102.67055558821747,5.1686848821490825],[102.670508,5.168912894391378],[102.67055558821747,5.169011443074483],[102.67055558821747,5.1686848821490825]]],[[[102.67003737982691,5.170752972887828],[102.6697549,5.170858294389392],[102.67003737982691,5.17128221557529],[102.67003737982691,5.170752972887828]]],[[[102.67003737982691,5.170132896052403],[102.6697274,5.170200494390033],[102.67003737982691,5.1704015344335446],[102.67003737982691,5.170132896052403]]],[[[102.66951917143635,5.171706857455863],[102.66951917143635,5.17159897317079],[102.66930329482793,5.171706857455863],[102.66951917143635,5.171706857455863]]],[[[102.66900096304578,5.172696900788757],[102.66876789999998,5.172911194387271],[102.66900096304578,5.173279308720567],[102.66900096304578,5.172696900788757]]],[[[102.66999447040013,5.172887331008378],[102.67003737982691,5.172939482780912],[102.67003737982691,5.172887331008378],[102.66999447040013,5.172887331008378]]],[[[102.66951917143635,5.172887331008378],[102.66951917143635,5.173280822668826],[102.66900620822082,5.173280822668826],[102.66963959999998,5.173293094386889],[102.66951917143635,5.172887331008378]]],[[[102.67055558821747,5.173280822668826],[102.67035738228145,5.173280822668826],[102.67055558821747,5.1734859328934135],[102.67055558821747,5.173280822668826]]],[[[102.67159200499859,5.173674314567438],[102.67159200499859,5.173807112795916],[102.67164189999998,5.173723194386455],[102.67159200499859,5.173674314567438]]],[[[102.67075997216939,5.1740678067042385],[102.6707986,5.174109894386038],[102.67088216681373,5.1740678067042385],[102.67075997216939,5.1740678067042385]]],[[[102.67373203658511,5.161476176375274],[102.67350059999998,5.161448594398993],[102.67321548618783,5.161476176375274],[102.67373203658511,5.161476176375274]]],[[[102.67211021338915,5.161869661136902],[102.67249200267496,5.161869661136902],[102.67211021338915,5.16145693118497],[102.67211021338915,5.161869661136902]]],[[[102.67418304695138,5.162263146136162],[102.67418304695138,5.162304102897605],[102.67431564001816,5.162263146136162],[102.67418304695138,5.162263146136162]]],[[[102.67418304695138,5.163837088509885],[102.67418304695138,5.164109034298388],[102.67442224068887,5.163837088509885],[102.67418304695138,5.163837088509885]]],[[[102.67366483856082,5.164624061123013],[102.67370156979594,5.164624061123013],[102.67366483856082,5.164601681073023],[102.67366483856082,5.164624061123013]]],[[[102.67418304695138,5.165804521825957],[102.6746232417291,5.165804521825957],[102.67418304695138,5.165564483804038],[102.67418304695138,5.165804521825957]]],[[[102.67418304695138,5.166198009202547],[102.67418304695138,5.166492374222535],[102.67436254928138,5.166198009202547],[102.67418304695138,5.166198009202547]]],[[[102.67418304695138,5.167679240292852],[102.6742912,5.167068994393211],[102.67418304695138,5.166875526928659],[102.67418304695138,5.167679240292852]]],[[[102.67418304695138,5.1683388719092695],[102.67419769999998,5.168270794392027],[102.67418304695138,5.168198579741795],[102.67418304695138,5.1683388719092695]]],[[[102.67470125534196,5.169164686744179],[102.67490709999997,5.1691472943911005],[102.67470125534196,5.168892156184002],[102.67470125534196,5.169164686744179]]],[[[102.67470125534196,5.169509271965693],[102.67471029999999,5.1694577943907944],[102.67470125534196,5.169418942456693],[102.67470125534196,5.169509271965693]]],[[[102.67314663017027,5.170526386046193],[102.6733075,5.170843594389393],[102.67319650507451,5.170526386046193],[102.67314663017027,5.170526386046193]]],[[[102.67314663017027,5.1713133667479045],[102.67331211672513,5.1713133667479045],[102.67314663017027,5.1712830983906635],[102.67314663017027,5.1713133667479045]]],[[[102.67364472831024,5.170526386046193],[102.6737447,5.170571094389669],[102.67388888607071,5.170526386046193],[102.67364472831024,5.170526386046193]]],[[[102.67314663017027,5.1721003484019175],[102.67314663017027,5.1721811526530255],[102.67318588671284,5.1721003484019175],[102.67314663017027,5.1721003484019175]]],[[[102.67262842177972,5.172887331008378],[102.67262842177972,5.17317328869285],[102.67283176628659,5.172887331008378],[102.67262842177972,5.172887331008378]]],[[[102.67211021338915,5.173290825092236],[102.67212439026602,5.173280822668826],[102.67211021338915,5.173280822668826],[102.67211021338915,5.173290825092236]]],[[[102.67227669923213,5.173280822668826],[102.67238899999998,5.173342394386854],[102.67254633007286,5.173280822668826],[102.67227669923213,5.173280822668826]]]]},"properties":{"place_id":"885c07c8-69ab-509b-a68f-4163ca01b34f","habitat":"permanent_water","habitat_label":"Permanent water","resolution_m":50}},{"type":"Feature","geometry":{"type":"MultiPolygon","coordinates":[[[[102.67159200499859,5.1637204967884305],[102.67150909999998,5.164008994396334],[102.67159200499859,5.164348401833242],[102.67159200499859,5.1637204967884305]]],[[[102.67107379660801,5.167378472759398],[102.67159200499859,5.167158714771223],[102.67107379660801,5.167266073118545],[102.67107379660801,5.167378472759398]]],[[[102.67159200499859,5.166591496816972],[102.67136773040095,5.166591496816972],[102.67159200499859,5.166837106483915],[102.67159200499859,5.166591496816972]]],[[[102.67107379660801,5.168165449653385],[102.67098535296125,5.168165449653385],[102.67107379660801,5.1683089259398445],[102.67107379660801,5.168165449653385]]],[[[102.67055558821747,5.168952427499081],[102.67055558821747,5.1686848821490825],[102.670508,5.168912894391378],[102.67055558821747,5.168952427499081]]],[[[102.67003737982691,5.169739406296635],[102.67003737982691,5.169421905742632],[102.66977244397701,5.169739406296635],[102.67003737982691,5.169739406296635]]],[[[102.66976843517023,5.1709198762780195],[102.67003737982691,5.170752972887828],[102.6697864,5.1708034943894425],[102.66976843517023,5.1709198762780195]]],[[[102.67003737982691,5.170132896052403],[102.6697274,5.170200494390033],[102.67003737982691,5.1704015344335446],[102.67003737982691,5.170132896052403]]],[[[102.66900096304578,5.172887331008378],[102.66876789999998,5.172911194387271],[102.66900096304578,5.173279308720567],[102.66900096304578,5.172887331008378]]],[[[102.67055558821747,5.173280822668826],[102.67035738228145,5.173280822668826],[102.67055558821747,5.1734859328934135],[102.67055558821747,5.173280822668826]]],[[[102.67418304695138,5.161869661136902],[102.67441489999997,5.16158379439883],[102.67418304695138,5.161514182167326],[102.67418304695138,5.161869661136902]]],[[[102.67211021338915,5.162656631373072],[102.67211021338915,5.162468773754934],[102.67172942143699,5.162656631373072],[102.67211021338915,5.162656631373072]]],[[[102.67418304695138,5.163443602559914],[102.6745578,5.163332894397054],[102.67418304695138,5.163120929897384],[102.67418304695138,5.163443602559914]]],[[[102.67370156979594,5.164624061123013],[102.67366483856082,5.164601681073023],[102.67366483856082,5.164624061123013],[102.67370156979594,5.164624061123013]]],[[[102.67167037085052,5.164624061123013],[102.67203919999999,5.164686894395658],[102.67211021338915,5.164815655099142],[102.67211021338915,5.164624061123013],[102.67167037085052,5.164624061123013]]],[[[102.67158019999997,5.165190794395153],[102.67211021338915,5.165411034687184],[102.67211021338915,5.1652168560466745],[102.67158019999997,5.165190794395153]]],[[[102.67470125534196,5.168952427499081],[102.6747753,5.168908194391361],[102.67470125534196,5.168892156184002],[102.67470125534196,5.168952427499081]]],[[[102.67366483856082,5.170526386046193],[102.6737447,5.170571094389669],[102.67388888607071,5.170526386046193],[102.67366483856082,5.170526386046193]]]]},"properties":{"place_id":"885c07c8-69ab-509b-a68f-4163ca01b34f","habitat":"seasonal_water_wetland","habitat_label":"Seasonal water or wetland","resolution_m":50}},{"type":"Feature","geometry":{"type":"MultiPolygon","coordinates":[[[[102.67176761805446,5.161869661136902],[102.6721022,5.161443094398981],[102.6717733,5.161453894398987],[102.67176761805446,5.161869661136902]]],[[[102.67172942143699,5.162656631373072],[102.67162109999998,5.164495894395874],[102.67241629999998,5.1651686943951685],[102.67159200499859,5.165556478632536],[102.6725096,5.16599049439432],[102.67159200499859,5.166279023108455],[102.67159200499859,5.166837106483915],[102.67230269999999,5.167256294393043],[102.67159200499859,5.167158714771223],[102.6706548,5.167607294392702],[102.6713062,5.168538194391748],[102.67055558821747,5.1686848821490825],[102.6710129,5.169408794390853],[102.66977244397701,5.169739406296635],[102.6697303133818,5.170132896052403],[102.6706736,5.170717994389526],[102.67003737982691,5.170752972887828],[102.67055558821747,5.171691843349279],[102.67055558821747,5.1713133667479045],[102.67107379660801,5.1713133667479045],[102.67107379660801,5.170132896052403],[102.67055558821747,5.170132896052403],[102.67055558821747,5.169739406296635],[102.67159200499859,5.169345916778866],[102.67159200499859,5.16855893845726],[102.67211021338915,5.16855893845726],[102.67159200499859,5.167771961087437],[102.67262842177972,5.167378472759398],[102.67262842177972,5.165411034687184],[102.67366483856082,5.165804521825957],[102.67366483856082,5.166198009202547],[102.67314663017027,5.166198009202547],[102.67314663017027,5.16855893845726],[102.67366483856082,5.16855893845726],[102.67366483856082,5.169739406296635],[102.67282971298886,5.170132896052403],[102.67388888607071,5.170526386046193],[102.67470125534196,5.169509271965693],[102.67470125534196,5.168892156184002],[102.67386469999997,5.168616994391662],[102.67418304695138,5.166875526928659],[102.67362529999998,5.16659219439371],[102.67462819999999,5.165811494394529],[102.67418304695138,5.165804521825957],[102.67314663017027,5.164080791061214],[102.67262842177972,5.164230574697579],[102.67262842177972,5.162656631373072],[102.67314663017027,5.162656631373072],[102.67314663017027,5.163443602559914],[102.67366483856082,5.163443602559914],[102.6735449,5.1640837943963],[102.674031,5.1642106943961315],[102.67442224068887,5.163837088509885],[102.67458330563147,5.163443602559914],[102.67418304695138,5.163443602559914],[102.6737289,5.1623230943980785],[102.67454367984703,5.161869661136902],[102.67418304695138,5.161514182167326],[102.67279549999999,5.1614030943990015],[102.67301879999997,5.162081994398333],[102.67211021338915,5.161869661136902],[102.67236939999998,5.16236749439805],[102.67172942143699,5.162656631373072]]],[[[102.6700737000924,5.171706857455863],[102.66912999999998,5.171855294388361],[102.66900096304578,5.173279308720567],[102.66951917143635,5.173280822668826],[102.66984609999999,5.172772194387441],[102.67088216681373,5.1740678067042385],[102.67305069999999,5.172641994387563],[102.67342149999999,5.171428594388785],[102.67243579999999,5.171087694389152],[102.67314663017027,5.17094516846406],[102.67318139999999,5.170486994389749],[102.67262842177972,5.170132896052403],[102.67262842177972,5.170526386046193],[102.67211021338915,5.170526386046193],[102.67262842177972,5.1721003484019175],[102.67211021338915,5.1721003484019175],[102.67211021338915,5.172887331008378],[102.67159200499859,5.172887331008378],[102.67159200499859,5.173280822668826],[102.67003737982691,5.172493839586083],[102.6700737000924,5.171706857455863]]]]},"properties":{"place_id":"885c07c8-69ab-509b-a68f-4163ca01b34f","habitat":"water_edge","habitat_label":"Water edge","resolution_m":50}}]}