{"type":"FeatureCollection","metadata":{"schema_version":1,"place_id":"8886da2f-c55f-5d3e-9044-8312d01f5a07","place_name":"The Club @ Rimbayu","place_type":"park","osm_reference":"way/420046203","protection_context":"no protected status confirmed from included OSM tags","resolution_m":50,"raster_coverage":1.0,"interpretation":"Suggested search habitats, not predicted plant locations or probabilities of presence."},"features":[{"type":"Feature","geometry":{"type":"MultiPolygon","coordinates":[[[[101.54671789999999,2.9386444967459067],[101.5465669170989,2.939958389565102],[101.5469717,2.9385370967460434],[101.54671789999999,2.9386444967459067]]],[[[101.54811621426312,2.9413276082765187],[101.54823129999998,2.9411210967432417],[101.54811621426312,2.9410695434832523],[101.54811621426312,2.9413276082765187]]],[[[101.54756874195004,2.942312997670962],[101.54707979748198,2.9407432583961084],[101.54604338070088,2.9403508239134184],[101.54604338070088,2.9407432583961084],[101.5455251723103,2.9407432583961084],[101.5455251723103,2.941135693013189],[101.54604338070088,2.941135693013189],[101.54579000929893,2.942312997670962],[101.54707979748198,2.942607214274415],[101.54756874195004,2.942312997670962]]]]},"properties":{"place_id":"8886da2f-c55f-5d3e-9044-8312d01f5a07","habitat":"forest_edge_opening","habitat_label":"Forest edge or opening","resolution_m":50}},{"type":"Feature","geometry":{"type":"MultiPolygon","coordinates":[[[[101.54671789999999,2.9386444967459067],[101.5470634,2.938590796746],[101.5469717,2.9385370967460434],[101.54671789999999,2.9386444967459067]]],[[[101.54550803376708,2.939958389565102],[101.5453213,2.939914996744536],[101.54516617273278,2.939958389565102],[101.54550803376708,2.939958389565102]]],[[[101.54656158909144,2.9403508239134184],[101.54656158909144,2.939183362524987],[101.54604338070088,2.9403508239134184],[101.54656158909144,2.9403508239134184]]],[[[101.54707979748198,2.9403508239134184],[101.54724248539686,2.9403508239134184],[101.54707979748198,2.940287947522385],[101.54707979748198,2.9403508239134184]]],[[[101.54759800587254,2.941135693013189],[101.54823129999998,2.9411210967432417],[101.54707979748198,2.9407432583961084],[101.54656158909144,2.9415281277646796],[101.54791389473225,2.9419205626505978],[101.54759800587254,2.941135693013189]]],[[[101.54707979748198,2.942312997670962],[101.54733529999999,2.9426536967416026],[101.54756874195004,2.942312997670962],[101.54707979748198,2.942312997670962]]]]},"properties":{"place_id":"8886da2f-c55f-5d3e-9044-8312d01f5a07","habitat":"open_grassland","habitat_label":"Open grassland or shrubland","resolution_m":50}},{"type":"Feature","geometry":{"type":"MultiPolygon","coordinates":[[[[101.54671789999999,2.9386444967459067],[101.5470634,2.938590796746],[101.5469717,2.9385370967460434],[101.54671789999999,2.9386444967459067]]],[[[101.54656158909144,2.9395659553511404],[101.5463303,2.940279296744158],[101.5450764,2.940003096744473],[101.54457149999999,2.9409041967434937],[101.54601650000001,2.941433796742891],[101.54581269999998,2.942376696741861],[101.54733529999999,2.9426536967416026],[101.54823129999998,2.9411210967432417],[101.54655829999999,2.9400863967443573],[101.54656158909144,2.9395659553511404]],[[101.54707979748198,2.9415281277646796],[101.54707979748198,2.9419205626505978],[101.54656158909144,2.9419205626505978],[101.54656158909144,2.9415281277646796],[101.54707979748198,2.9415281277646796]]]]},"properties":{"place_id":"8886da2f-c55f-5d3e-9044-8312d01f5a07","habitat":"disturbed_built_edge","habitat_label":"Disturbed, bare or built edge","resolution_m":50}}]}