{"type":"FeatureCollection","metadata":{"schema_version":1,"place_id":"8923a6ae-19c2-591d-bb80-b627257f65a6","place_name":"Datuk Sulaiman Playground","place_type":"park","osm_reference":"way/262866752","protection_context":"no protected status confirmed from included OSM tags","resolution_m":50,"raster_coverage":1.0,"interpretation":"Suggested search habitats, not predicted plant locations or probabilities of presence."},"features":[{"type":"Feature","geometry":{"type":"Polygon","coordinates":[[[101.62895672319058,3.1520854013161412],[101.62947493158113,3.1522108151338277],[101.62915589999999,3.1516884965151006],[101.62895672319058,3.1520854013161412]]]},"properties":{"place_id":"8923a6ae-19c2-591d-bb80-b627257f65a6","habitat":"forest_edge_opening","habitat_label":"Forest edge or opening","resolution_m":50}},{"type":"Feature","geometry":{"type":"Polygon","coordinates":[[[101.62926670000002,3.15267119651405],[101.62960949999999,3.1519132965148673],[101.62915589999999,3.1516884965151006],[101.62878469999998,3.152428196514316],[101.62926670000002,3.15267119651405]]]},"properties":{"place_id":"8923a6ae-19c2-591d-bb80-b627257f65a6","habitat":"disturbed_built_edge","habitat_label":"Disturbed, bare or built edge","resolution_m":50}}]}