{"type":"FeatureCollection","metadata":{"schema_version":1,"place_id":"8943f2ee-3519-540b-8cb0-678d254fffbc","place_name":"Taman Permainan Desa Jati","place_type":"park","osm_reference":"way/698414993","protection_context":"no protected status confirmed from included OSM tags","resolution_m":50,"raster_coverage":1.0,"interpretation":"Suggested search habitats, not predicted plant locations or probabilities of presence."},"features":[{"type":"Feature","geometry":{"type":"Polygon","coordinates":[[[101.78778519999999,2.8353328968582283],[101.7891539,2.835342296858209],[101.789116,2.8349250968587008],[101.78778109999999,2.8349268968586907],[101.78778519999999,2.8353328968582283]]]},"properties":{"place_id":"8943f2ee-3519-540b-8cb0-678d254fffbc","habitat":"forest_edge_opening","habitat_label":"Forest edge or opening","resolution_m":50}},{"type":"Feature","geometry":{"type":"Polygon","coordinates":[[[101.78778519999999,2.8353328968582283],[101.7891539,2.835342296858209],[101.789116,2.8349250968587008],[101.78778109999999,2.8349268968586907],[101.78778519999999,2.8353328968582283]]]},"properties":{"place_id":"8943f2ee-3519-540b-8cb0-678d254fffbc","habitat":"disturbed_built_edge","habitat_label":"Disturbed, bare or built edge","resolution_m":50}}]}