{"type":"FeatureCollection","metadata":{"schema_version":1,"place_id":"89c2ca17-5864-5b62-9c83-5b65f3ed90c7","place_name":"Lembah Ledang","place_type":"wood","osm_reference":"way/1316068227","protection_context":"no protected status confirmed from included OSM tags","resolution_m":50,"raster_coverage":1.0,"interpretation":"Suggested search habitats, not predicted plant locations or probabilities of presence."},"features":[{"type":"Feature","geometry":{"type":"MultiPolygon","coordinates":[[[[101.66885876926374,3.1533734897565617],[101.66882411928164,3.1534630035703044],[101.66885876926374,3.1534630035703044],[101.66885876926374,3.1533734897565617]]],[[[101.67093160282599,3.1542480239472335],[101.6719680196071,3.1538555136866657],[101.6719680196071,3.153070493598131],[101.67248622799768,3.153070493598131],[101.67248622799768,3.152677983770128],[101.67144981121655,3.152677983770128],[101.67093160282599,3.1534630035703044],[101.66937697765431,3.1531262761159238],[101.66937697765431,3.1538555136866657],[101.66989518604487,3.1538555136866657],[101.6700286,3.154304996512291],[101.66994759999999,3.155787596510684],[101.67093160282599,3.15553210744097],[101.67093160282599,3.1542480239472335]]]]},"properties":{"place_id":"89c2ca17-5864-5b62-9c83-5b65f3ed90c7","habitat":"forest_interior","habitat_label":"Forest interior","resolution_m":50}},{"type":"Feature","geometry":{"type":"MultiPolygon","coordinates":[[[[101.66989518604487,3.1532923768362795],[101.67093160282599,3.1534630035703044],[101.67093160282599,3.153227111561999],[101.66989518604487,3.1532923768362795]]],[[[101.66937697765431,3.1538555136866657],[101.66937697765431,3.1531262761159238],[101.66900109999997,3.1530057965136744],[101.66878699999998,3.153558896513088],[101.66989518604487,3.154224825617612],[101.66989518604487,3.1538555136866657],[101.66937697765431,3.1538555136866657]]],[[[101.67127904654289,3.153070493598131],[101.67144981121655,3.152677983770128],[101.67248622799768,3.152677983770128],[101.67248622799768,3.153070493598131],[101.6719680196071,3.153070493598131],[101.6719680196071,3.1538555136866657],[101.67093160282599,3.1542480239472335],[101.67093160282599,3.15553210744097],[101.67271269999999,3.152952996513749],[101.6726216,3.1525612965141763],[101.67158829999998,3.1522595965144964],[101.67127904654289,3.153070493598131]]]]},"properties":{"place_id":"89c2ca17-5864-5b62-9c83-5b65f3ed90c7","habitat":"forest_edge_opening","habitat_label":"Forest edge or opening","resolution_m":50}},{"type":"Feature","geometry":{"type":"MultiPolygon","coordinates":[[[[101.66989518604487,3.1532923768362795],[101.67093160282599,3.1534630035703044],[101.67093160282599,3.153227111561999],[101.66989518604487,3.1532923768362795]]],[[[101.66937697765431,3.1538555136866657],[101.66937697765431,3.1531262761159238],[101.66900109999997,3.1530057965136744],[101.66878699999998,3.153558896513088],[101.66989518604487,3.154224825617612],[101.66989518604487,3.1538555136866657],[101.66937697765431,3.1538555136866657]]],[[[101.67127904654289,3.153070493598131],[101.67144981121655,3.152677983770128],[101.67248622799768,3.152677983770128],[101.67248622799768,3.153070493598131],[101.6719680196071,3.153070493598131],[101.6719680196071,3.1538555136866657],[101.67093160282599,3.1542480239472335],[101.67093160282599,3.15553210744097],[101.67271269999999,3.152952996513749],[101.6726216,3.1525612965141763],[101.67158829999998,3.1522595965144964],[101.67127904654289,3.153070493598131]]]]},"properties":{"place_id":"89c2ca17-5864-5b62-9c83-5b65f3ed90c7","habitat":"disturbed_built_edge","habitat_label":"Disturbed, bare or built edge","resolution_m":50}}]}