{"type":"FeatureCollection","metadata":{"schema_version":1,"place_id":"89e19cdd-7520-5bcd-9e30-bce5364971a9","place_name":"Taman Negara Kelantan","place_type":"park","osm_reference":"relation/18174317","protection_context":"mapped protected boundary","resolution_m":50,"raster_coverage":1.0,"interpretation":"Suggested search habitats, not predicted plant locations or probabilities of presence."},"features":[{"type":"Feature","geometry":{"type":"MultiPolygon","coordinates":[[[[102.22334174716363,4.62772859791558],[102.22334174716363,4.627345688687952],[102.22230533038251,4.627363962045155],[102.22230533038251,4.628121777223596],[102.22334174716363,4.62772859791558]]],[[[102.22178712199195,4.628514956744222],[102.22230533038251,4.628514956744222],[102.22230533038251,4.628121777223596],[102.22178712199195,4.628121777223596],[102.22178712199195,4.628514956744222]]],[[[102.226450997507,4.629694496581919],[102.22696920589756,4.629694496581919],[102.22696920589756,4.630087676953154],[102.22748741428812,4.630087676953154],[102.22748741428812,4.629689882286248],[102.22665886574947,4.629301316423365],[102.226450997507,4.629694496581919]]],[[[102.22489637233532,4.630480857537087],[102.22541458072588,4.630480857537087],[102.22541458072588,4.630087676953154],[102.22489637233532,4.630087676953154],[102.22489637233532,4.630480857537087]]],[[[102.22334174716363,4.631660400565259],[102.22282353877308,4.631660400565259],[102.22230533038251,4.6308740383337375],[102.22126891360138,4.6308740383337375],[102.22126891360138,4.630480857537087],[102.22075070521082,4.630480857537087],[102.22178712199195,4.628514956744222],[102.22075070521082,4.628514956744222],[102.22075070521082,4.628121777223596],[102.22023249682027,4.628036854813614],[102.2152717,4.62991549494629],[102.2108311,4.633683794942367],[102.2014019,4.636257494939718],[102.20044009999998,4.637689594938212],[102.1994085,4.637705794938191],[102.1976921,4.6388567949370225],[102.19517230000001,4.641659494934092],[102.1948141,4.643555594932136],[102.1931758,4.645017794930608],[102.1923376,4.648245594927257],[102.18924999999999,4.65189599492349],[102.1859767,4.654290994920967],[102.18148799999997,4.656781494918375],[102.17891379999998,4.657685194917466],[102.17725249999998,4.657628294917525],[102.174933,4.6581884949169305],[102.1748326,4.660834194914202],[102.1737687,4.6620813949129065],[102.17366429999997,4.6637605949111745],[102.17592239999999,4.666766994908051],[102.17532899999999,4.670962894903694],[102.1757864,4.672622694901972],[102.1747024,4.6765391948979],[102.17257059999997,4.678044194896332],[102.16986389999998,4.682790094891413],[102.16251829999999,4.687137294886878],[102.1606228,4.69222209488163],[102.1581169,4.693195294880625],[102.1547392,4.695727394877999],[102.1532813,4.699043094874538],[102.15132449999999,4.700134894873443],[102.1487977,4.703823294869612],[102.1447728,4.705522694867823],[102.1418671,4.706286194867032],[102.13978439999998,4.707342394865957],[102.13635980000001,4.710035294863161],[102.13147199999999,4.71215479486097],[102.13068749999998,4.714324294858722],[102.1281822,4.718150794854772],[102.1250104,4.720741794852097],[102.12423209999997,4.722082794850684],[102.1263655,4.726423194846194],[102.1263761,4.729541394842965],[102.1275433,4.734312694838017],[102.1269749,4.738186494834014],[102.1227749,4.744763294827186],[102.12207819999998,4.74893539482288],[102.1202764,4.750729994821014],[102.1198442,4.753281494818396],[102.11737,4.757522394814011],[102.11652749999999,4.761256294810147],[102.1134651,4.761489194809913],[102.10974409999999,4.760912194810472],[102.10297319999997,4.758922794812537],[102.1004615,4.759101694812363],[102.09845010000001,4.758282994813199],[102.09674239999998,4.758248594813254],[102.09481169999998,4.758891594812564],[102.09099829999997,4.753941594817696],[102.08768519999998,4.753965694817678],[102.08421469999998,4.750605694821148],[102.0809167,4.7487196948231185],[102.0784166,4.7458610948260835],[102.07659289999997,4.7445600948274125],[102.0729834,4.742890794829162],[102.07017709999998,4.742618794829412],[102.0695094,4.741486794830591],[102.06744910000002,4.7411277948309705],[102.0669741,4.740284794831823],[102.0639352,4.738975594833178],[102.0623877,4.738965394833198],[102.0613364,4.741512694830558],[102.05969909999999,4.742755894829291],[102.0587435,4.743290294828754],[102.05748399999999,4.743074694828946],[102.05563669999998,4.740358394831758],[102.0502329,4.73508689483721],[102.0518128,4.732370494840052],[102.0514122,4.726373094846231],[102.0501702,4.7254096948472295],[102.0476341,4.725772394846847],[102.0471204,4.726977194845608],[102.0463161,4.727236394845341],[102.04373210000001,4.72639059484624],[102.0418303,4.730704094841762],[102.04002130000002,4.732024394840411],[102.0361202,4.731316494841123],[102.0344232,4.732307694840094],[102.0312844,4.737475694834755],[102.03066699999997,4.739351094832803],[102.0285416,4.741867494830195],[102.02958889729584,4.744905520448067],[102.03108643426565,4.744905520448067],[102.03108643426565,4.745298763926451],[102.0316046426562,4.745298763926451],[102.03108643426565,4.746085251537499],[102.02999558428975,4.746085251537499],[102.03013114662104,4.746478495670199],[102.0316046426562,4.746478495670199],[102.0316046426562,4.746871740021041],[102.03212285104675,4.746871740021041],[102.03212285104675,4.747658229377226],[102.0316046426562,4.747658229377226],[102.0316046426562,4.748051474382604],[102.03067339594628,4.748051474382604],[102.03108008294019,4.74923121070811],[102.03108643426565,4.748837965048027],[102.03212285104675,4.74923121070811],[102.0313512076028,4.750017702683103],[102.05449099999998,4.8171412947523935],[102.06336969999998,4.845929594722673],[102.22621872231042,4.790916492144868],[102.22541458072588,4.790523223245622],[102.22541458072588,4.790129954566583],[102.22593278911643,4.790129954566583],[102.226450997507,4.78934341786904],[102.22696920589756,4.78934341786904],[102.22696920589756,4.7897366861077275],[102.22800562267868,4.78934341786904],[102.22852383106924,4.790137750538007],[102.2896724211554,4.7694800590072015],[102.29019062954596,4.768500515794752],[102.29122704632707,4.768954871355865],[102.29910450000001,4.76629369480493],[102.30262763091942,4.768924699456187],[102.30314583930996,4.768893772390929],[102.30363942113962,4.769680286240874],[102.31891087942545,4.781084835682609],[102.31972850780792,4.780691572282939],[102.32024671619847,4.781478099302039],[102.3212831329796,4.781478099302039],[102.32180134137016,4.78226462720026],[102.32101728746488,4.782657891479086],[102.3740933,4.822791694746552],[102.4389918609205,4.870754664298476],[102.44059779999999,4.868855594699022],[102.4415479,4.868359894699541],[102.44297519999999,4.868575694699304],[102.44476839999999,4.869912094697929],[102.4462214,4.869978894697846],[102.4475086,4.869585594698288],[102.45171159999998,4.866747894701205],[102.45287789999999,4.867307994700625],[102.45446268935368,4.869335064025874],[102.45498089774424,4.868788096627244],[102.4554991061348,4.868788096627244],[102.45554853811993,4.8691814097136765],[102.45724859999999,4.864962194703032],[102.45726889999999,4.863416394704648],[102.45646439999997,4.862274694705808],[102.45373941586864,4.860528573497894],[102.45342627257256,4.860921881886914],[102.45238985579144,4.860528573497894],[102.45238985579144,4.859348649671657],[102.452908064182,4.859348649671657],[102.452908064182,4.858955342176458],[102.45342627257256,4.858955342176458],[102.45342627257256,4.859308130187972],[102.4560023,4.858170694710054],[102.45727429999998,4.858533594709662],[102.4593292,4.860311794707831],[102.4608857,4.863795694704229],[102.46133300000001,4.863619694704433],[102.46110089999998,4.86083069470728],[102.4624771,4.860236194707916],[102.4632681,4.862344094705741],[102.46326470000001,4.864932694703071],[102.4644661,4.867730794700175],[102.4626929,4.869090394698797],[102.46230549999999,4.869987694697852],[102.4624032,4.870648594697172],[102.46316449999998,4.870618994697186],[102.46356109999999,4.871206894696606],[102.462789,4.873714194694028],[102.46376500000001,4.87403839469366],[102.4671712,4.873620094694142],[102.47002219999999,4.872434394695342],[102.470639,4.874818994692872],[102.473083,4.874897494692789],[102.4739234,4.878107694689478],[102.47589260000001,4.879486194688081],[102.47706040000001,4.87982389468774],[102.47735829999999,4.881058294686471],[102.4792948,4.8810536946864636],[102.47864259999997,4.88377869468366],[102.4774004,4.884952794682448],[102.47780579999998,4.8865923946807595],[102.47701769999999,4.887280594680059],[102.47881859999998,4.889959694677266],[102.4783797,4.891337894675851],[102.4788809,4.89264949467453],[102.47981859999999,4.893043994674096],[102.48146950000002,4.8927802946743775],[102.48394879999998,4.891232794675976],[102.48465319999998,4.891938894675261],[102.48515439999998,4.891915194675254],[102.48596319999999,4.890303694676935],[102.48765210000002,4.889536594677697],[102.4881713,4.8900353946771915],[102.48834909999998,4.8913399946758505],[102.49148509999999,4.8901832946770725],[102.492414,4.890828194676371],[102.49118440000001,4.892416994674738],[102.4896563,4.893466894673658],[102.48942649999998,4.895180394671913],[102.48814989999998,4.896543994670504],[102.4889661,4.897856694669171],[102.4882004,4.89899219466797],[102.49188379999998,4.90036359466658],[102.49166049999998,4.901295794665601],[102.49270479999998,4.902975194663876],[102.492911,4.904377294662425],[102.49217419999998,4.904373794662442],[102.4926996,4.905407994661367],[102.491875,4.905926494660847],[102.4915588,4.9085324946581625],[102.49202849999999,4.908699494657965],[102.4928379,4.908014994658683],[102.49331149999999,4.909120194657563],[102.49524359999998,4.909347794657305],[102.49582430000001,4.911227794655389],[102.4991694,4.913767994652755],[102.5001513,4.915898494650597],[102.501552,4.916093494650374],[102.5057722,4.915313594651187],[102.5073439,4.9164566946500265],[102.5103129,4.9163549946501055],[102.50997199999999,4.913241994653314],[102.51122740000001,4.911647194654962],[102.50801909999998,4.908466194658214],[102.50661189999998,4.90624389466051],[102.5062841,4.904035894662776],[102.50518660000002,4.901952394664917],[102.50887409999999,4.901490294665395],[102.51238039999998,4.90003899466689],[102.51597480000001,4.9000709946668675],[102.52021649999999,4.8983916946685895],[102.52776059999998,4.894133894672989],[102.52937870000001,4.894597794672498],[102.53203849999998,4.896524194670494],[102.53460919999999,4.902255594664596],[102.53678499999998,4.904962494661845],[102.53944869999998,4.905267894661515],[102.5422184,4.904515994662285],[102.54390019999998,4.9022898946645865],[102.5458326,4.900984094665936],[102.54693569999999,4.900687994666247],[102.54908239999999,4.9011069946658115],[102.55279460000001,4.89992049466703],[102.55457489999999,4.899959394667006],[102.55789669999999,4.898633994668368],[102.5597403,4.895994394671057],[102.5604646,4.895731694671355],[102.56328859999999,4.8962443946707905],[102.5642238,4.894039494673075],[102.56520069999999,4.893673994673461],[102.56709619999998,4.893391094673749],[102.5693573,4.8939713946731755],[102.5729301,4.893577694673577],[102.57287489999999,4.892577394674594],[102.5757441,4.888250394679065],[102.5765719,4.88790749467939],[102.57809829999998,4.888405494678893],[102.5793051,4.8879829946793025],[102.58377639999999,4.882681194684788],[102.5867034,4.880298894687233],[102.58671079999999,4.878274294689313],[102.5919618,4.871804294695979],[102.59410939999997,4.871961094695847],[102.59648919999998,4.871520394696271],[102.5991609,4.872886794694897],[102.60297339999998,4.873371094694386],[102.60528399999998,4.872941794694829],[102.6083835,4.870375394697468],[102.6094049,4.867549094700384],[102.6123848,4.86318799470486],[102.61392669999998,4.862456994705634],[102.61646449999999,4.8595666947085965],[102.6170859,4.859269594708917],[102.6178985,4.860111994708041],[102.6214698,4.8605609947075745],[102.6223213,4.860161194707976],[102.62710659999999,4.855207794713082],[102.62876149999998,4.855075294713252],[102.6299241,4.8544119947139],[102.631909,4.855085794713222],[102.6343002,4.854679494713653],[102.6349679,4.854256094714088],[102.63537489999999,4.852842494715526],[102.6367364,4.851202094717229],[102.6387367,4.850806194717626],[102.64123710000001,4.848766894719754],[102.6427662,4.848369394720146],[102.64471179999998,4.847236994721318],[102.6463135,4.849105594719401],[102.64857549999998,4.849400594719081],[102.64834919999998,4.848387694720127],[102.6508383,4.846244794722345],[102.65118589999997,4.845463694723138],[102.6509298,4.84313929472555],[102.65257909999998,4.84130429472746],[102.6525585,4.840659994728116],[102.6514833,4.839402694729416],[102.6515082,4.835629894733282],[102.6503707,4.835672094733257],[102.6492764,4.8333448947356406],[102.6480273,4.8324435947365805],[102.64731149999999,4.830198194738892],[102.6441055,4.824171694745122],[102.644239,4.822159094747186],[102.64545939999998,4.821380994747991],[102.64388959999998,4.8170850947524615],[102.64384939999998,4.81548619475411],[102.64451839999998,4.8146946947549],[102.6467274,4.813747194755894],[102.64855479999999,4.813511594756109],[102.6504145,4.813885794755754],[102.65137099999998,4.812968694756693],[102.65234399999999,4.810786394758939],[102.65426619999998,4.809699894760051],[102.65738499999999,4.804844394765066],[102.6580038,4.802039694767969],[102.65970439999998,4.798674994771448],[102.65861479999998,4.795013494775237],[102.66066099999999,4.7913737947789885],[102.65989079999999,4.788299994782179],[102.6608921,4.78771659478279],[102.6631542,4.784767794785838],[102.66597749999997,4.782246294788453],[102.66626649999999,4.778485894792312],[102.6641853,4.775844894795048],[102.664526,4.773729494797231],[102.66416670000001,4.771462294799599],[102.66299999999998,4.770043594801034],[102.6601821,4.76787189480331],[102.65767669999998,4.761733094809643],[102.65382939999998,4.761708494809649],[102.65091509999999,4.763941994807339],[102.6440336,4.76433339480695],[102.6361363,4.766009694805204],[102.63194369999998,4.769205094801922],[102.6294235,4.77368279479726],[102.6282946,4.774553394796406],[102.61914270000001,4.776926994793918],[102.61491450000001,4.780352294790386],[102.6110407,4.781121594789611],[102.6093892,4.780402894790329],[102.60720680000001,4.777232194793596],[102.6061264,4.774329794796601],[102.6031806,4.772594494798416],[102.6024726,4.771476294799569],[102.6007168,4.770987294800065],[102.59951449999998,4.769959594801107],[102.59947319999999,4.7687169948024195],[102.59999329999998,4.767810094803345],[102.6036355,4.764451894806821],[102.6038681,4.763670494807636],[102.60306349999999,4.760665594810743],[102.6047106,4.7593941948120655],[102.6051305,4.757704694813822],[102.60489170000001,4.757025194814499],[102.6033101,4.756019094815552],[102.59962660000001,4.751946194819752],[102.60009439999999,4.74962409482218],[102.59753579999999,4.745773594826133],[102.59858829999999,4.743764094828227],[102.5982648,4.741197794830913],[102.59536370000001,4.739842294832318],[102.59462379999998,4.738056694834131],[102.596173,4.735921194836384],[102.59828740000002,4.73500929483731],[102.6021787,4.729408894843087],[102.60326709999998,4.720727894852107],[102.6037297,4.719935694852887],[102.60246899999997,4.715997494856999],[102.603729,4.710687294862488],[102.6042093,4.7049834948684035],[102.6055807,4.700593994872947],[102.6036995,4.696791594876907],[102.6034674,4.691211794882699],[102.60387029999998,4.687808394886213],[102.59761579999999,4.6864873948875685],[102.5942066,4.689144494884841],[102.59210049999999,4.690264694883667],[102.591124,4.690295894883628],[102.5901271,4.689751994884197],[102.58898759999997,4.690392294883521],[102.58563299999999,4.6937051948801125],[102.5815234,4.695842494877881],[102.5801675,4.694776394878989],[102.5781731,4.694877394878873],[102.5765383,4.694360694879407],[102.57422199999999,4.693023894880777],[102.5726547,4.691118094882779],[102.57198080000002,4.690814694883114],[102.5710741,4.691026594882888],[102.56794979999998,4.695254194878485],[102.56517509999999,4.697106794876582],[102.56251979999999,4.698259694875379],[102.5614932,4.700790794872746],[102.559046,4.703288794870171],[102.55683499999999,4.706420094866907],[102.5538893,4.708145194865121],[102.55237309999997,4.710236294862966],[102.5497797,4.710734994862449],[102.54849900000002,4.710381394862784],[102.5466645,4.708967394864288],[102.5456341,4.707271994866009],[102.54515210000001,4.704213594869224],[102.54556249999999,4.701356894872167],[102.54415029999998,4.698613594874995],[102.54433839999999,4.697948894875715],[102.54349499999998,4.695760794877971],[102.5390221,4.6916179948822645],[102.5380053,4.689635594884308],[102.53622849999998,4.688175894885834],[102.53556299999998,4.6867242948873535],[102.5325839,4.686737794887322],[102.53011419999999,4.68284999489137],[102.5296684,4.681158694893125],[102.5297441,4.677047594897369],[102.528726,4.67681089489764],[102.527588,4.677342594897047],[102.52577699999999,4.67744469489695],[102.51713889999999,4.674145294900386],[102.5155978,4.6733649949011875],[102.5121744,4.668333494906406],[102.5083248,4.6698911949047845],[102.5041657,4.6698961949047995],[102.50107399999999,4.668094294906659],[102.49600089999998,4.67398459490057],[102.493161,4.675319694899177],[102.4893734,4.679335494894995],[102.48699359999999,4.680455594893827],[102.48270109999999,4.684559594889558],[102.47504559999999,4.689455094884491],[102.4726689,4.690127394883799],[102.47125149999998,4.691196994882698],[102.4670897,4.6931197948806975],[102.46647699999998,4.693861794879938],[102.46350789999998,4.695586394878126],[102.4616937,4.697686694875948],[102.4569855,4.7006161948729295],[102.45693499999999,4.701258894872273],[102.45907299999998,4.705006794868381],[102.45866699999999,4.705692994867669],[102.4564228,4.707009194866306],[102.45522089999999,4.708390294864866],[102.4520686,4.710136394863052],[102.44986349999999,4.710798294862389],[102.44803089999999,4.712255294860868],[102.4455057,4.712857494860255],[102.4434615,4.711946994861204],[102.4416754,4.711738994861416],[102.4372917,4.712637794860461],[102.43030740000002,4.710428794862741],[102.42751159999999,4.710397194862784],[102.4251793,4.711253294861919],[102.42370069999998,4.711311594861849],[102.42295559999998,4.712891194860232],[102.41909400000002,4.714459794858589],[102.4167087,4.714706794858341],[102.4130107,4.714324194858724],[102.40948189999999,4.715803394857203],[102.40726889999999,4.71601709485696],[102.4068011,4.715726594857257],[102.4072087,4.71487969485813],[102.40605100000002,4.713401294859674],[102.4053651,4.7131665948598975],[102.4044319,4.713849094859236],[102.4017031,4.711015594862156],[102.40002309999998,4.711968194861173],[102.39104039999998,4.713419394859661],[102.37905369999999,4.713608394859472],[102.37581289999999,4.710288694862886],[102.3703655,4.7109153948622415],[102.3664595,4.709210194864018],[102.36579960000002,4.708608194864643],[102.3654549,4.7072045948661225],[102.36274229999998,4.705278294868086],[102.36090789999997,4.702393794871097],[102.3606791,4.700841694872678],[102.36093729999997,4.700005194873575],[102.36188289999998,4.699219594874388],[102.3623275,4.6964549948772305],[102.3636497,4.695832894877875],[102.36563569999997,4.693825994879959],[102.36789049999997,4.692613494881227],[102.37020519999999,4.692595794881234],[102.371486,4.6913992948825],[102.3719933,4.68793449488608],[102.37111389999998,4.686033094888032],[102.37113269999998,4.68351809489067],[102.37071589999996,4.682584794891639],[102.36858469999999,4.681076294893202],[102.36769230000002,4.679358494894962],[102.36491379999998,4.677087294897311],[102.36406730000002,4.670810394903861],[102.3634602,4.66925559490546],[102.35631229999998,4.665987894908854],[102.3545568,4.6648150949100415],[102.35289409999999,4.661931794913072],[102.34955529999999,4.6580254949171325],[102.34675099999998,4.656121594919067],[102.345414,4.654136494921132],[102.34267719999998,4.647880194927626],[102.34270969999999,4.646594094928991],[102.3442451,4.6435616949321314],[102.34354929999999,4.641615894934163],[102.33920209999998,4.64076859493503],[102.3378791,4.641494094934274],[102.3360661,4.643375694932301],[102.33344829999999,4.641082594934695],[102.3325099,4.637928994937994],[102.3318829,4.6374763949384175],[102.33050589999999,4.6377878949381],[102.32674770000001,4.6363132949396295],[102.32279089999999,4.636824194939131],[102.3179641,4.635789594940195],[102.31469729999999,4.639015794936874],[102.3123539,4.639825594936003],[102.30933659999998,4.640148994935667],[102.30751330000001,4.641817194933919],[102.2996962,4.645000894930619],[102.29797959999999,4.6462210949293645],[102.29675369999998,4.646155694929433],[102.28731629999999,4.654552594920725],[102.27976360000001,4.657588194917544],[102.27785149999998,4.658887694916206],[102.27417809999999,4.659611994915489],[102.2715847,4.661586094913428],[102.26821899999999,4.659527894915547],[102.26668589999998,4.659150094915939],[102.2650265,4.6572752949178975],[102.2635204,4.656345294918844],[102.26103479999999,4.656179794919045],[102.25824439999998,4.655333394919914],[102.25724299999997,4.655925394919272],[102.25604330000002,4.655376794919879],[102.2542634,4.655860194919345],[102.24966679999999,4.6559456949192555],[102.24618249999999,4.6528741949224655],[102.2444244,4.651953994923418],[102.241368,4.651439494923954],[102.23831859999999,4.6499814949254645],[102.23445469999999,4.650186794925238],[102.2325464,4.650945394924449],[102.22973599999999,4.645162694930491],[102.23257720000001,4.63611419493986],[102.23495,4.633011294943103],[102.23059666463148,4.6308481823447085],[102.22956024785036,4.631267219343121],[102.22956024785036,4.631660400565259],[102.22852383106924,4.631660400565259],[102.22852383106924,4.632053582000171],[102.22696920589756,4.632053582000171],[102.22696920589756,4.632446763647869],[102.22593278911643,4.632446763647869],[102.22593278911643,4.632053582000171],[102.22489637233532,4.631660400565259],[102.22489637233532,4.630480857537087],[102.22385995555419,4.630480857537087],[102.22385995555419,4.631267219343121],[102.22334174716363,4.631267219343121],[102.22334174716363,4.631660400565259]],[[102.49851040255135,4.905760507841679],[102.49851040255135,4.905367173854701],[102.49902861094188,4.905367173854701],[102.49954681933245,4.90615384205426],[102.49851040255135,4.906547176492465],[102.49851040255135,4.90615384205426],[102.49799219416077,4.90615384205426],[102.49799219416077,4.905760507841679],[102.49851040255135,4.905760507841679]],[[102.06528818804264,4.840076844797182],[102.06528818804264,4.839683548227386],[102.0658063964332,4.839683548227386],[102.06632460482376,4.840470141589504],[102.06528818804264,4.84086343860437],[102.06528818804264,4.840470141589504],[102.06476997965208,4.840470141589504],[102.06476997965208,4.840076844797182],[102.06528818804264,4.840076844797182]],[[102.623916833067,4.833390833359008],[102.623916833067,4.832997540569319],[102.62443504145757,4.832997540569319],[102.62495324984813,4.833784126370911],[102.623916833067,4.834177419605042],[102.623916833067,4.833784126370911],[102.62339862467644,4.833784126370911],[102.62339862467644,4.833390833359008],[102.623916833067,4.833390833359008]],[[102.47104535785162,4.826704886140055],[102.47104535785162,4.826311597125148],[102.47208177463274,4.826311597125148],[102.4725999830233,4.82709817537686],[102.47208177463274,4.82709817537686],[102.47208177463274,4.827491464835585],[102.47104535785162,4.827491464835585],[102.47104535785162,4.82709817537686],[102.47052714946105,4.82709817537686],[102.47052714946105,4.826704886140055],[102.47104535785162,4.826704886140055]],[[102.11918186066093,4.823558580232406],[102.11918186066093,4.823165292992025],[102.1197000690515,4.823165292992025],[102.12021827744206,4.82395186769454],[102.11918186066093,4.824345155378443],[102.11918186066093,4.82395186769454],[102.1186636522704,4.82395186769454],[102.1186636522704,4.823558580232406],[102.11918186066093,4.823558580232406]],[[102.47778206692891,4.819625717804351],[102.47778206692891,4.819232432780468],[102.47830027531947,4.819232432780468],[102.47881848371003,4.8200190030498],[102.47778206692891,4.820412288516837],[102.47778206692891,4.8200190030498],[102.47726385853834,4.8200190030498],[102.47726385853834,4.819625717804351],[102.47778206692891,4.819625717804351]],[[102.47311819141386,4.8176592949002375],[102.47311819141386,4.817266010983913],[102.47363639980442,4.817266010983913],[102.474154608195,4.818052579038038],[102.47311819141386,4.818445863397329],[102.47311819141386,4.818052579038038],[102.4725999830233,4.818052579038038],[102.4725999830233,4.8176592949002375],[102.47311819141386,4.8176592949002375]],[[102.49643756898911,4.799961737646152],[102.49643756898911,4.799568463677134],[102.49695577737964,4.799568463677134],[102.49747398577021,4.800355011835818],[102.49643756898911,4.800748286246147],[102.49643756898911,4.800355011835818],[102.49591936059853,4.800355011835818],[102.49591936059853,4.799961737646152],[102.49643756898911,4.799961737646152]],[[102.49747398577021,4.79720882449555],[102.49799219416077,4.796422279866022],[102.49902861094188,4.796815552070537],[102.49799219416077,4.797995370007147],[102.49695577737964,4.79760209714108],[102.49695577737964,4.79720882449555],[102.49747398577021,4.79720882449555]],[[102.04818731115414,4.795242464575288],[102.04818731115414,4.794849193252583],[102.04766910276358,4.794849193252583],[102.04766910276358,4.7932761101656505],[102.047150894373,4.7932761101656505],[102.047150894373,4.791703030604041],[102.04663268598246,4.791703030604041],[102.0461144775919,4.788163614473798],[102.04559626920134,4.788163614473798],[102.04559626920134,4.787377079977466],[102.04507806081077,4.787377079977466],[102.04507806081077,4.786983813059395],[102.04559626920134,4.786983813059395],[102.04559626920134,4.786590546361362],[102.04507806081077,4.786590546361362],[102.04507806081077,4.785804013625338],[102.04559626920134,4.785804013625338],[102.047150894373,4.784230950792938],[102.04818731115414,4.784230950792938],[102.04818731115414,4.784624216171127],[102.04922372793524,4.785017481769244],[102.0487055195447,4.785804013625338],[102.04922372793524,4.785804013625338],[102.04974193632582,4.787770347115593],[102.05026014471638,4.787770347115593],[102.05026014471638,4.790523223245622],[102.05077835310695,4.790523223245622],[102.05026014471638,4.791309761264333],[102.05077835310695,4.791309761264333],[102.05077835310695,4.792489569944253],[102.0512965614975,4.792489569944253],[102.0512965614975,4.7932761101656505],[102.05077835310695,4.7932761101656505],[102.05077835310695,4.7940626512683755],[102.05026014471638,4.7940626512683755],[102.05026014471638,4.795635736118415],[102.04922372793524,4.796029007881989],[102.04922372793524,4.795635736118415],[102.04818731115414,4.795242464575288]],[[102.49902861094188,4.794455922150286],[102.49902861094188,4.7940626512683755],[102.49954681933245,4.7940626512683755],[102.50006502772301,4.794849193252583],[102.49902861094188,4.795242464575288],[102.49902861094188,4.794849193252583],[102.49851040255135,4.794849193252583],[102.49851040255135,4.794455922150286],[102.49902861094188,4.794455922150286]],[[102.39383230765809,4.791309761264333],[102.39383230765809,4.790916492144868],[102.39435051604865,4.790916492144868],[102.39486872443919,4.791703030604041],[102.39383230765809,4.792096300164008],[102.39383230765809,4.791703030604041],[102.39331409926753,4.791703030604041],[102.39331409926753,4.791309761264333],[102.39383230765809,4.791309761264333]],[[102.50472890323806,4.787377079977466],[102.50472890323806,4.787770347115593],[102.50421069484749,4.787770347115593],[102.50369248645696,4.786983813059395],[102.50472890323806,4.786590546361362],[102.50472890323806,4.786983813059395],[102.50524711162862,4.786983813059395],[102.50524711162862,4.787377079977466],[102.50472890323806,4.787377079977466]],[[102.50472890323806,4.786197279883349],[102.50421069484749,4.786197279883349],[102.50421069484749,4.785804013625338],[102.50524711162862,4.785410747587308],[102.5057653200192,4.786197279883349],[102.50524711162862,4.786197279883349],[102.50524711162862,4.786590546361362],[102.50472890323806,4.786590546361362],[102.50472890323806,4.786197279883349]],[[102.50369248645696,4.78226462720026],[102.50369248645696,4.781871363141249],[102.50421069484749,4.781871363141249],[102.50472890323806,4.782657891479086],[102.50369248645696,4.78305115597775],[102.50369248645696,4.782657891479086],[102.50317427806638,4.782657891479086],[102.50317427806638,4.78226462720026],[102.50369248645696,4.78226462720026]],[[102.0435234356391,4.780691572282939],[102.0435234356391,4.779905046142817],[102.04404164402965,4.779905046142817],[102.04404164402965,4.779511783402323],[102.04507806081077,4.779511783402323],[102.04507806081077,4.779905046142817],[102.04559626920134,4.779905046142817],[102.04559626920134,4.780298309103016],[102.0445598524202,4.780691572282939],[102.0445598524202,4.781478099302039],[102.04404164402965,4.781478099302039],[102.04404164402965,4.781871363141249],[102.04300522724853,4.781478099302039],[102.04300522724853,4.780691572282939],[102.0435234356391,4.780691572282939]],[[102.60629774778793,4.779511783402323],[102.60629774778793,4.779118520881519],[102.60733416456907,4.779511783402323],[102.60733416456907,4.780298309103016],[102.60681595617851,4.780298309103016],[102.60681595617851,4.780691572282939],[102.60577953939739,4.780298309103016],[102.60577953939739,4.779511783402323],[102.60629774778793,4.779511783402323]],[[102.12280931939488,4.776365689385619],[102.12280931939488,4.77597242862166],[102.12332752778543,4.77597242862166],[102.12384573617598,4.776758950369119],[102.12280931939488,4.7771522115721785],[102.12280931939488,4.776758950369119],[102.1222911110043,4.776758950369119],[102.1222911110043,4.776365689385619],[102.12280931939488,4.776365689385619]],[[102.50524711162862,4.77597242862166],[102.50524711162862,4.775579168077221],[102.5057653200192,4.775579168077221],[102.50628352840975,4.776365689385619],[102.50524711162862,4.776758950369119],[102.50524711162862,4.776365689385619],[102.50472890323806,4.776365689385619],[102.50472890323806,4.77597242862166],[102.50524711162862,4.77597242862166]],[[102.50524711162862,4.7712533165716495],[102.50524711162862,4.770860058660049],[102.50628352840975,4.770466800967731],[102.50731994519086,4.771646574702553],[102.50628352840975,4.772039833052774],[102.50628352840975,4.771646574702553],[102.50524711162862,4.7712533165716495]],[[102.5264936556416,4.7641747076981735],[102.5264936556416,4.763781453730858],[102.52701186403216,4.763781453730858],[102.52701186403216,4.7641747076981735],[102.5280482808133,4.7645679618844605],[102.5280482808133,4.765354470914018],[102.52753007242273,4.765354470914018],[102.52753007242273,4.765747725757327],[102.5264936556416,4.765747725757327],[102.5264936556416,4.765354470914018],[102.52597544725104,4.765354470914018],[102.52597544725104,4.7641747076981735],[102.5264936556416,4.7641747076981735]],[[102.09275323274235,4.75827592117001],[102.09275323274235,4.757882670485039],[102.09327144113291,4.757882670485039],[102.09378964952349,4.758669172073675],[102.09275323274235,4.75906242319605],[102.09275323274235,4.758669172073675],[102.09223502435178,4.758669172073675],[102.09223502435178,4.75827592117001],[102.09275323274235,4.75827592117001]],[[102.04041418529573,4.755916420339964],[102.04041418529573,4.7555231709667725],[102.04093239368629,4.7555231709667725],[102.04093239368629,4.75434342415852],[102.0419688104674,4.753950175659481],[102.0419688104674,4.75434342415852],[102.04248701885797,4.75434342415852],[102.04248701885797,4.7555231709667725],[102.0419688104674,4.7555231709667725],[102.04248701885797,4.756309669931737],[102.0419688104674,4.756309669931737],[102.0419688104674,4.7567029197421125],[102.04041418529573,4.7567029197421125],[102.04041418529573,4.756309669931737],[102.03989597690516,4.756309669931737],[102.03989597690516,4.755916420339964],[102.04041418529573,4.755916420339964]],[[102.03575030978068,4.740579856574311],[102.03575030978068,4.740186615711534],[102.03626851817125,4.740186615711534],[102.03678672656179,4.740973097654955],[102.03575030978068,4.7413663389534815],[102.03575030978068,4.740973097654955],[102.03523210139012,4.740973097654955],[102.03523210139012,4.740579856574311],[102.03575030978068,4.740579856574311]],[[102.13835557111169,4.730355664894739],[102.13835557111169,4.729962429690019],[102.13887377950225,4.729962429690019],[102.13939198789281,4.730748900316847],[102.13835557111169,4.731142135956358],[102.13835557111169,4.730748900316847],[102.13783736272113,4.730748900316847],[102.13783736272113,4.730355664894739],[102.13835557111169,4.730355664894739]],[[102.51302023748704,4.70047040754477],[102.51302023748704,4.700077188807672],[102.5135384458776,4.700077188807672],[102.51405665426815,4.700863626497856],[102.51302023748704,4.7012568456669515],[102.51302023748704,4.700863626497856],[102.51250202909647,4.700863626497856],[102.51250202909647,4.70047040754477],[102.51302023748704,4.70047040754477]],[[102.22696920589756,4.680023319186758],[102.22696920589756,4.679630111655765],[102.22748741428812,4.679630111655765],[102.22800562267868,4.680416526932786],[102.22696920589756,4.680809734893865],[102.22696920589756,4.680416526932786],[102.226450997507,4.680416526932786],[102.226450997507,4.680023319186758],[102.22696920589756,4.680023319186758]],[[102.23111487302204,4.6623291928955926],[102.23111487302204,4.661935995022051],[102.23163308141261,4.661935995022051],[102.23215128980317,4.662722390983336],[102.23111487302204,4.6631155892853045],[102.23111487302204,4.662722390983336],[102.23059666463148,4.662722390983336],[102.23059666463148,4.6623291928955926],[102.23111487302204,4.6623291928955926]],[[102.21815966325802,4.636771775821987],[102.21867787164858,4.635985408055766],[102.21971428842971,4.63637859183238],[102.21867787164858,4.637558144440248],[102.21764145486748,4.637164960024603],[102.21764145486748,4.636771775821987],[102.21815966325802,4.636771775821987]],[[102.22075070521082,4.633233127581715],[102.22075070521082,4.63283994550838],[102.22126891360138,4.63283994550838],[102.22178712199195,4.633626309867896],[102.22075070521082,4.634019492366941],[102.22075070521082,4.633626309867896],[102.22023249682027,4.633626309867896],[102.22023249682027,4.633233127581715],[102.22075070521082,4.633233127581715]]],[[[102.04766910276358,4.785804013625338],[102.04818731115414,4.785804013625338],[102.04818731115414,4.785410747587308],[102.04766910276358,4.785410747587308],[102.04766910276358,4.785804013625338]]],[[[102.45498089774424,4.869574723023996],[102.45474739045936,4.869574723023996],[102.45482979999998,4.869644094698237],[102.45498089774424,4.869574723023996]]]]},"properties":{"place_id":"89e19cdd-7520-5bcd-9e30-bce5364971a9","habitat":"forest_interior","habitat_label":"Forest interior","resolution_m":50}},{"type":"Feature","geometry":{"type":"MultiPolygon","coordinates":[[[[102.22282353877308,4.627293020693383],[102.22251383131874,4.627335418820147],[102.22282353877308,4.627335418820147],[102.22282353877308,4.627293020693383]]],[[[102.22075070521082,4.628514956744222],[102.22178712199195,4.628514956744222],[102.22178712199195,4.628121777223596],[102.22230533038251,4.628121777223596],[102.22230533038251,4.627363962045155],[102.22023249682027,4.628036854813614],[102.22075070521082,4.628121777223596],[102.22075070521082,4.628514956744222]]],[[[102.22696920589756,4.632053582000171],[102.22852383106924,4.632053582000171],[102.22852383106924,4.631660400565259],[102.22956024785036,4.631660400565259],[102.22956024785036,4.631267219343121],[102.23059666463148,4.6308481823447085],[102.22956024785036,4.630487858488005],[102.22956024785036,4.6308740383337375],[102.2290420394598,4.6308740383337375],[102.2290420394598,4.630480857537087],[102.22852383106924,4.630480857537087],[102.22800562267868,4.631267219343121],[102.22593278911643,4.631660400565259],[102.226450997507,4.6308740383337375],[102.22748741428812,4.6308740383337375],[102.22748741428812,4.630480857537087],[102.22837638675011,4.630087676953154],[102.22748741428812,4.629689882286248],[102.22748741428812,4.630087676953154],[102.22696920589756,4.630087676953154],[102.22593278911643,4.628543924653043],[102.22593278911643,4.629301316423365],[102.22385995555419,4.629694496581919],[102.22437816394475,4.628908136477472],[102.22385995555419,4.628908136477472],[102.22334174716363,4.628121777223596],[102.22385995555419,4.628121777223596],[102.22437816394475,4.627439271002558],[102.22334174716363,4.627345688687952],[102.22230533038251,4.628514956744222],[102.22178712199195,4.628514956744222],[102.22178712199195,4.628908136477472],[102.22126891360138,4.628908136477472],[102.22126891360138,4.630087676953154],[102.22075070521082,4.630087676953154],[102.22075070521082,4.630480857537087],[102.22126891360138,4.630480857537087],[102.22126891360138,4.6308740383337375],[102.22230533038251,4.6308740383337375],[102.22282353877308,4.631660400565259],[102.22385995555419,4.631267219343121],[102.22385995555419,4.630480857537087],[102.22489637233532,4.630480857537087],[102.22489637233532,4.631660400565259],[102.22541458072588,4.631660400565259],[102.22593278911643,4.632446763647869],[102.22696920589756,4.632446763647869],[102.22696920589756,4.632053582000171]],[[102.22489637233532,4.630087676953154],[102.22541458072588,4.630087676953154],[102.22541458072588,4.630480857537087],[102.22489637233532,4.630480857537087],[102.22489637233532,4.630087676953154]]],[[[102.22126891360138,4.63283994550838],[102.22023249682027,4.633233127581715],[102.22075070521082,4.634019492366941],[102.22178712199195,4.633626309867896],[102.22126891360138,4.63283994550838]]],[[[102.21919608003914,4.63637859183238],[102.21919608003914,4.635985408055766],[102.21867787164858,4.635985408055766],[102.21764145486748,4.637164960024603],[102.21867787164858,4.637558144440248],[102.21867787164858,4.637164960024603],[102.21971428842971,4.636771775821987],[102.21971428842971,4.63637859183238],[102.21919608003914,4.63637859183238]]],[[[102.13835557111169,4.729962429690019],[102.13783736272113,4.730748900316847],[102.13887377950225,4.731142135956358],[102.13939198789281,4.730355664894739],[102.13835557111169,4.729962429690019]]],[[[102.03626851817125,4.740186615711534],[102.03523210139012,4.740579856574311],[102.03575030978068,4.7413663389534815],[102.03678672656179,4.740973097654955],[102.03626851817125,4.740186615711534]]],[[[102.02958889729584,4.744905520448067],[102.02999558428975,4.746085251537499],[102.03108643426565,4.746085251537499],[102.03108643426565,4.745692007622923],[102.0316046426562,4.745692007622923],[102.03108643426565,4.744905520448067],[102.02958889729584,4.744905520448067]]],[[[102.03013114662104,4.746478495670199],[102.03067339594628,4.748051474382604],[102.0316046426562,4.748051474382604],[102.0316046426562,4.747658229377226],[102.03212285104675,4.747658229377226],[102.03212285104675,4.746871740021041],[102.0316046426562,4.746871740021041],[102.0316046426562,4.746478495670199],[102.03013114662104,4.746478495670199]]],[[[102.0316046426562,4.748837965048027],[102.03108643426565,4.748837965048027],[102.0313512076028,4.750017702683103],[102.03212285104675,4.74962445658646],[102.0316046426562,4.748837965048027]]],[[[102.04248701885797,4.7555231709667725],[102.04248701885797,4.75434342415852],[102.04145060207685,4.753950175659481],[102.04145060207685,4.75434342415852],[102.04093239368629,4.75434342415852],[102.04093239368629,4.7555231709667725],[102.04041418529573,4.7555231709667725],[102.03989597690516,4.756309669931737],[102.04041418529573,4.756309669931737],[102.04041418529573,4.7567029197421125],[102.0419688104674,4.7567029197421125],[102.0419688104674,4.756309669931737],[102.04248701885797,4.756309669931737],[102.0419688104674,4.7555231709667725],[102.04248701885797,4.7555231709667725]]],[[[102.09275323274235,4.757882670485039],[102.09223502435178,4.758669172073675],[102.09327144113291,4.75906242319605],[102.09378964952349,4.75827592117001],[102.09275323274235,4.757882670485039]]],[[[102.12332752778543,4.77597242862166],[102.1222911110043,4.776365689385619],[102.12280931939488,4.7771522115721785],[102.12384573617598,4.776758950369119],[102.12332752778543,4.77597242862166]]],[[[102.04559626920134,4.780298309103016],[102.04507806081077,4.779511783402323],[102.04404164402965,4.779511783402323],[102.04404164402965,4.779905046142817],[102.0435234356391,4.779905046142817],[102.0435234356391,4.780691572282939],[102.04300522724853,4.780691572282939],[102.04300522724853,4.781478099302039],[102.04404164402965,4.781871363141249],[102.04404164402965,4.781478099302039],[102.0445598524202,4.781478099302039],[102.0445598524202,4.780691572282939],[102.04559626920134,4.780298309103016]]],[[[102.0512965614975,4.7932761101656505],[102.05077835310695,4.791309761264333],[102.05026014471638,4.791309761264333],[102.05026014471638,4.790916492144868],[102.05077835310695,4.790916492144868],[102.05077835310695,4.790523223245622],[102.05026014471638,4.790523223245622],[102.05026014471638,4.787770347115593],[102.04974193632582,4.787770347115593],[102.04974193632582,4.786590546361362],[102.04922372793524,4.786590546361362],[102.04922372793524,4.785804013625338],[102.0487055195447,4.785804013625338],[102.04922372793524,4.785017481769244],[102.0487055195447,4.785017481769244],[102.04818731115414,4.784230950792938],[102.047150894373,4.784230950792938],[102.047150894373,4.784624216171127],[102.04507806081077,4.785804013625338],[102.04507806081077,4.786590546361362],[102.04559626920134,4.786590546361362],[102.04507806081077,4.787377079977466],[102.04559626920134,4.787377079977466],[102.04559626920134,4.788163614473798],[102.0461144775919,4.788163614473798],[102.0461144775919,4.7897366861077275],[102.04663268598246,4.7897366861077275],[102.04663268598246,4.791703030604041],[102.047150894373,4.791703030604041],[102.04766910276358,4.794849193252583],[102.04974193632582,4.796029007881989],[102.04974193632582,4.795635736118415],[102.05026014471638,4.795635736118415],[102.05026014471638,4.7940626512683755],[102.05077835310695,4.7940626512683755],[102.05077835310695,4.7932761101656505],[102.0512965614975,4.7932761101656505]],[[102.047150894373,4.788163614473798],[102.04663268598246,4.788163614473798],[102.04663268598246,4.786983813059395],[102.0487055195447,4.786590546361362],[102.04922372793524,4.788556882052093],[102.0487055195447,4.788556882052093],[102.04818731115414,4.78934341786904],[102.0487055195447,4.78934341786904],[102.0487055195447,4.7897366861077275],[102.04922372793524,4.7897366861077275],[102.04922372793524,4.790523223245622],[102.04974193632582,4.790523223245622],[102.04974193632582,4.790916492144868],[102.04922372793524,4.790916492144868],[102.04974193632582,4.791703030604041],[102.04922372793524,4.791703030604041],[102.0487055195447,4.792489569944253],[102.04922372793524,4.792489569944253],[102.04922372793524,4.792882839944794],[102.05026014471638,4.792489569944253],[102.05026014471638,4.7932761101656505],[102.04974193632582,4.7932761101656505],[102.04922372793524,4.794849193252583],[102.0487055195447,4.794849193252583],[102.0487055195447,4.7932761101656505],[102.04818731115414,4.7932761101656505],[102.04818731115414,4.791703030604041],[102.04766910276358,4.791703030604041],[102.047150894373,4.788163614473798]],[[102.04663268598246,4.786197279883349],[102.0461144775919,4.786197279883349],[102.0461144775919,4.785804013625338],[102.04663268598246,4.785804013625338],[102.04663268598246,4.786197279883349]],[[102.04818731115414,4.785804013625338],[102.04766910276358,4.785804013625338],[102.04766910276358,4.785410747587308],[102.04818731115414,4.785410747587308],[102.04818731115414,4.785804013625338]]],[[[102.1197000690515,4.823165292992025],[102.1186636522704,4.823558580232406],[102.11918186066093,4.824345155378443],[102.12021827744206,4.82395186769454],[102.1197000690515,4.823165292992025]]],[[[102.06528818804264,4.839683548227386],[102.06476997965208,4.840470141589504],[102.0658063964332,4.84086343860437],[102.06632460482376,4.840076844797182],[102.06528818804264,4.839683548227386]]],[[[102.23111487302204,4.661935995022051],[102.23059666463148,4.662722390983336],[102.23163308141261,4.6631155892853045],[102.23215128980317,4.6623291928955926],[102.23111487302204,4.661935995022051]]],[[[102.22748741428812,4.679630111655765],[102.226450997507,4.680023319186758],[102.22696920589756,4.680809734893865],[102.22800562267868,4.680416526932786],[102.22748741428812,4.679630111655765]]],[[[102.29019062954596,4.768500515794752],[102.29019062954596,4.768893772390929],[102.2896724211554,4.768893772390929],[102.2896724211554,4.7694800590072015],[102.29122704632707,4.768954871355865],[102.29019062954596,4.768500515794752]]],[[[102.30366404770052,4.769680286240874],[102.30366404770052,4.769287029206297],[102.30262763091942,4.768893772390929],[102.30262763091942,4.768924699456187],[102.30366404770052,4.769680286240874]]],[[[102.31101184927762,4.775185907752291],[102.31143717355894,4.775503535017232],[102.31143717355894,4.775185907752291],[102.31101184927762,4.775185907752291]]],[[[102.31153845128746,4.775579168077221],[102.3119553819495,4.775890527256542],[102.3119553819495,4.775579168077221],[102.31153845128746,4.775579168077221]]],[[[102.32024671619847,4.781478099302039],[102.32024671619847,4.781084835682609],[102.31921029941736,4.780691572282939],[102.31891087942545,4.781084835682609],[102.3212831329796,4.782657891479086],[102.32180134137016,4.781871363141249],[102.3212831329796,4.781871363141249],[102.3212831329796,4.781478099302039],[102.32024671619847,4.781478099302039]]],[[[102.22800562267868,4.78934341786904],[102.22748741428812,4.78934341786904],[102.22748741428812,4.7897366861077275],[102.226450997507,4.78934341786904],[102.22541458072588,4.790523223245622],[102.22621872231042,4.790916492144868],[102.22852383106924,4.790137750538007],[102.22800562267868,4.78934341786904]]],[[[102.39383230765809,4.790916492144868],[102.39331409926753,4.791703030604041],[102.39435051604865,4.792096300164008],[102.39486872443919,4.791309761264333],[102.39383230765809,4.790916492144868]]],[[[102.47104535785162,4.826311597125148],[102.47052714946105,4.82709817537686],[102.47104535785162,4.82709817537686],[102.47104535785162,4.827491464835585],[102.47208177463274,4.827491464835585],[102.4725999830233,4.826704886140055],[102.47208177463274,4.826704886140055],[102.47208177463274,4.826311597125148],[102.47104535785162,4.826311597125148]]],[[[102.45342627257256,4.858955342176458],[102.45238985579144,4.859348649671657],[102.45238985579144,4.860528573497894],[102.452908064182,4.860528573497894],[102.452908064182,4.860921881886914],[102.45373941586864,4.860528573497894],[102.4530586,4.859914494708257],[102.45342627257256,4.858955342176458]]],[[[102.46428297886719,4.867214846520041],[102.46430864877432,4.867250836119295],[102.46430864877432,4.867214846520041],[102.46428297886719,4.867214846520041]]],[[[102.45498089774424,4.868788096627244],[102.45498089774424,4.8691814097136765],[102.45446268935368,4.8691814097136765],[102.45498089774424,4.869616975983779],[102.45554853811993,4.8691814097136765],[102.4554991061348,4.868788096627244],[102.45498089774424,4.868788096627244]]],[[[102.43943464602741,4.869968036558225],[102.43943464602741,4.870008633962996],[102.4394738397436,4.869968036558225],[102.43943464602741,4.869968036558225]]],[[[102.46223581521208,4.870361350316376],[102.46223581521208,4.870319514050551],[102.4622287,4.8703533946974575],[102.46223581521208,4.870361350316376]]],[[[102.4389918609205,4.870754664298476],[102.43903,4.870782994697034],[102.43904480418176,4.870754664298476],[102.4389918609205,4.870754664298476]]],[[[102.4632722319932,4.872185783065067],[102.46313979292164,4.872327922466676],[102.4632722319932,4.872327922466676],[102.4632722319932,4.872185783065067]]],[[[102.51302023748704,4.700077188807672],[102.51250202909647,4.700863626497856],[102.5135384458776,4.7012568456669515],[102.51405665426815,4.70047040754477],[102.51302023748704,4.700077188807672]]],[[[102.52701186403216,4.7641747076981735],[102.52701186403216,4.763781453730858],[102.52597544725104,4.7641747076981735],[102.52597544725104,4.765354470914018],[102.5264936556416,4.765354470914018],[102.5264936556416,4.765747725757327],[102.52753007242273,4.765747725757327],[102.52753007242273,4.765354470914018],[102.5280482808133,4.765354470914018],[102.5280482808133,4.7645679618844605],[102.52701186403216,4.7641747076981735]]],[[[102.5068017368003,4.770860058660049],[102.5057653200192,4.770466800967731],[102.50524711162862,4.7712533165716495],[102.5068017368003,4.772039833052774],[102.5068017368003,4.771646574702553],[102.50731994519086,4.771646574702553],[102.5068017368003,4.770860058660049]]],[[[102.50524711162862,4.775579168077221],[102.50472890323806,4.776365689385619],[102.5057653200192,4.776758950369119],[102.50628352840975,4.77597242862166],[102.50524711162862,4.775579168077221]]],[[[102.60629774778793,4.779118520881519],[102.60629774778793,4.779511783402323],[102.60577953939739,4.779511783402323],[102.60577953939739,4.780298309103016],[102.60681595617851,4.780691572282939],[102.60681595617851,4.780298309103016],[102.60733416456907,4.780298309103016],[102.60733416456907,4.779511783402323],[102.60629774778793,4.779118520881519]]],[[[102.50421069484749,4.781871363141249],[102.50317427806638,4.78226462720026],[102.50369248645696,4.78305115597775],[102.50472890323806,4.782657891479086],[102.50421069484749,4.781871363141249]]],[[[102.50472890323806,4.785410747587308],[102.50421069484749,4.786197279883349],[102.50524711162862,4.786590546361362],[102.5057653200192,4.785804013625338],[102.50472890323806,4.785410747587308]]],[[[102.50472890323806,4.787770347115593],[102.50524711162862,4.786983813059395],[102.50421069484749,4.786590546361362],[102.50369248645696,4.787377079977466],[102.50472890323806,4.787770347115593]]],[[[102.49954681933245,4.7940626512683755],[102.49851040255135,4.794455922150286],[102.49902861094188,4.795242464575288],[102.50006502772301,4.794849193252583],[102.49954681933245,4.7940626512683755]]],[[[102.49851040255135,4.796815552070537],[102.49851040255135,4.796422279866022],[102.49799219416077,4.796422279866022],[102.49695577737964,4.79760209714108],[102.49799219416077,4.797995370007147],[102.49799219416077,4.79760209714108],[102.49902861094188,4.79720882449555],[102.49902861094188,4.796815552070537],[102.49851040255135,4.796815552070537]]],[[[102.49643756898911,4.799568463677134],[102.49591936059853,4.800355011835818],[102.49695577737964,4.800748286246147],[102.49747398577021,4.799961737646152],[102.49643756898911,4.799568463677134]]],[[[102.47311819141386,4.817266010983913],[102.4725999830233,4.818052579038038],[102.47363639980442,4.818445863397329],[102.474154608195,4.8176592949002375],[102.47311819141386,4.817266010983913]]],[[[102.47778206692891,4.819232432780468],[102.47726385853834,4.8200190030498],[102.47830027531947,4.820412288516837],[102.47881848371003,4.819625717804351],[102.47778206692891,4.819232432780468]]],[[[102.623916833067,4.832997540569319],[102.62339862467644,4.833784126370911],[102.62443504145757,4.834177419605042],[102.62495324984813,4.833390833359008],[102.623916833067,4.832997540569319]]],[[[102.49851040255135,4.905367173854701],[102.49799219416077,4.90615384205426],[102.49902861094188,4.906547176492465],[102.49954681933245,4.905760507841679],[102.49851040255135,4.905367173854701]]]]},"properties":{"place_id":"89e19cdd-7520-5bcd-9e30-bce5364971a9","habitat":"forest_edge_opening","habitat_label":"Forest edge or opening","resolution_m":50}},{"type":"Feature","geometry":{"type":"MultiPolygon","coordinates":[[[[102.03626851817125,4.740579856574311],[102.03575030978068,4.740579856574311],[102.03575030978068,4.740973097654955],[102.03626851817125,4.740973097654955],[102.03626851817125,4.740579856574311]]],[[[102.03108643426565,4.745298763926451],[102.02972445962713,4.745298763926451],[102.02986002195844,4.745692007622923],[102.03108643426565,4.745692007622923],[102.03108643426565,4.745298763926451]]],[[[102.03056822587507,4.747658229377226],[102.0316046426562,4.747658229377226],[102.0316046426562,4.746871740021041],[102.03026670895235,4.746871740021041],[102.03056822587507,4.747658229377226]]],[[[102.03108643426565,4.74923121070811],[102.0312156452715,4.74962445658646],[102.0316046426562,4.74962445658646],[102.0316046426562,4.74923121070811],[102.03108643426565,4.74923121070811]]],[[[102.04145060207685,4.75434342415852],[102.04145060207685,4.7555231709667725],[102.0419688104674,4.7555231709667725],[102.0419688104674,4.75434342415852],[102.04145060207685,4.75434342415852]]],[[[102.04093239368629,4.755916420339964],[102.04041418529573,4.755916420339964],[102.04041418529573,4.756309669931737],[102.0419688104674,4.756309669931737],[102.04145060207685,4.7555231709667725],[102.04093239368629,4.7555231709667725],[102.04093239368629,4.755916420339964]]],[[[102.09327144113291,4.75827592117001],[102.09275323274235,4.75827592117001],[102.09275323274235,4.758669172073675],[102.09327144113291,4.758669172073675],[102.09327144113291,4.75827592117001]]],[[[102.04404164402965,4.780691572282939],[102.0445598524202,4.780691572282939],[102.04507806081077,4.779905046142817],[102.04404164402965,4.779905046142817],[102.04404164402965,4.780691572282939]]],[[[102.0435234356391,4.780691572282939],[102.0435234356391,4.781478099302039],[102.04404164402965,4.781478099302039],[102.04404164402965,4.780691572282939],[102.0435234356391,4.780691572282939]]],[[[102.04766910276358,4.785410747587308],[102.04766910276358,4.785017481769244],[102.04818731115414,4.785017481769244],[102.04818731115414,4.784624216171127],[102.047150894373,4.784624216171127],[102.047150894373,4.785410747587308],[102.04766910276358,4.785410747587308]]],[[[102.0487055195447,4.785017481769244],[102.04818731115414,4.785017481769244],[102.04818731115414,4.785410747587308],[102.0487055195447,4.785410747587308],[102.0487055195447,4.785017481769244]]],[[[102.047150894373,4.785410747587308],[102.0461144775919,4.785410747587308],[102.0461144775919,4.785804013625338],[102.04559626920134,4.785804013625338],[102.04559626920134,4.786590546361362],[102.04766910276358,4.786197279883349],[102.047150894373,4.785410747587308]]],[[[102.05077835310695,4.792489569944253],[102.05026014471638,4.792489569944253],[102.05026014471638,4.791309761264333],[102.04974193632582,4.791309761264333],[102.04974193632582,4.790916492144868],[102.05026014471638,4.790916492144868],[102.05026014471638,4.790523223245622],[102.04974193632582,4.790523223245622],[102.04974193632582,4.787770347115593],[102.04922372793524,4.787770347115593],[102.04922372793524,4.786590546361362],[102.0487055195447,4.786590546361362],[102.0487055195447,4.785804013625338],[102.04818731115414,4.785804013625338],[102.04766910276358,4.786590546361362],[102.04663268598246,4.786590546361362],[102.04663268598246,4.786983813059395],[102.04559626920134,4.786983813059395],[102.04559626920134,4.787377079977466],[102.0461144775919,4.787377079977466],[102.0461144775919,4.788163614473798],[102.04663268598246,4.788163614473798],[102.04663268598246,4.7897366861077275],[102.047150894373,4.7897366861077275],[102.047150894373,4.791703030604041],[102.04766910276358,4.791703030604041],[102.04818731115414,4.794849193252583],[102.0487055195447,4.794849193252583],[102.04922372793524,4.795635736118415],[102.04974193632582,4.795635736118415],[102.04974193632582,4.7940626512683755],[102.05026014471638,4.7940626512683755],[102.05077835310695,4.792489569944253]],[[102.04974193632582,4.792096300164008],[102.04974193632582,4.792489569944253],[102.04922372793524,4.792489569944253],[102.04922372793524,4.792096300164008],[102.04974193632582,4.792096300164008]],[[102.04922372793524,4.788950149850502],[102.04922372793524,4.78934341786904],[102.0487055195447,4.78934341786904],[102.0487055195447,4.788950149850502],[102.04922372793524,4.788950149850502]]],[[[102.06528818804264,4.840076844797182],[102.06528818804264,4.840470141589504],[102.0658063964332,4.840470141589504],[102.0658063964332,4.840076844797182],[102.06528818804264,4.840076844797182]]],[[[102.22178712199195,4.628121777223596],[102.22178712199195,4.6274349034038496],[102.22075070521082,4.627834417715906],[102.22075070521082,4.628121777223596],[102.22178712199195,4.628121777223596]]],[[[102.22489637233532,4.629694496581919],[102.22541458072588,4.629694496581919],[102.22541458072588,4.630087676953154],[102.226450997507,4.630087676953154],[102.226450997507,4.629694496581919],[102.22593278911643,4.629694496581919],[102.226450997507,4.629093806469036],[102.2250432,4.627493394948825],[102.22385995555419,4.62739710238223],[102.22334174716363,4.628121777223596],[102.22282353877308,4.628121777223596],[102.22282353877308,4.628908136477472],[102.22385995555419,4.628908136477472],[102.22385995555419,4.629301316423365],[102.22334174716363,4.629301316423365],[102.22334174716363,4.630087676953154],[102.22489637233532,4.630087676953154],[102.22489637233532,4.629694496581919]]],[[[102.22282353877308,4.628908136477472],[102.22178712199195,4.628908136477472],[102.22178712199195,4.629694496581919],[102.22230533038251,4.629694496581919],[102.22282353877308,4.628908136477472]]],[[[102.22126891360138,4.630480857537087],[102.22230533038251,4.630480857537087],[102.22230533038251,4.6308740383337375],[102.22334174716363,4.631267219343121],[102.22334174716363,4.630480857537087],[102.22282353877308,4.630480857537087],[102.22282353877308,4.630087676953154],[102.22126891360138,4.630087676953154],[102.22126891360138,4.630480857537087]]],[[[102.22075070521082,4.633233127581715],[102.22075070521082,4.633626309867896],[102.22126891360138,4.633626309867896],[102.22126891360138,4.633233127581715],[102.22075070521082,4.633233127581715]]],[[[102.21867787164858,4.63637859183238],[102.21867787164858,4.636771775821987],[102.21919608003914,4.636771775821987],[102.21919608003914,4.63637859183238],[102.21867787164858,4.63637859183238]]],[[[102.21867787164858,4.636771775821987],[102.21815966325802,4.636771775821987],[102.21815966325802,4.637164960024603],[102.21867787164858,4.637164960024603],[102.21867787164858,4.636771775821987]]],[[[102.22748741428812,4.680023319186758],[102.22696920589756,4.680023319186758],[102.22696920589756,4.680416526932786],[102.22748741428812,4.680416526932786],[102.22748741428812,4.680023319186758]]],[[[102.13887377950225,4.730355664894739],[102.13835557111169,4.730355664894739],[102.13835557111169,4.730748900316847],[102.13887377950225,4.730748900316847],[102.13887377950225,4.730355664894739]]],[[[102.12280931939488,4.776365689385619],[102.12280931939488,4.776758950369119],[102.12332752778543,4.776758950369119],[102.12332752778543,4.776365689385619],[102.12280931939488,4.776365689385619]]],[[[102.226450997507,4.7897366861077275],[102.226450997507,4.790129954566583],[102.22696920589756,4.790129954566583],[102.22696920589756,4.7897366861077275],[102.226450997507,4.7897366861077275]]],[[[102.226450997507,4.790129954566583],[102.22593278911643,4.790129954566583],[102.22593278911643,4.790523223245622],[102.226450997507,4.790523223245622],[102.226450997507,4.790129954566583]]],[[[102.22696920589756,4.790523223245622],[102.22696920589756,4.790662953993639],[102.22738281490221,4.790523223245622],[102.22696920589756,4.790523223245622]]],[[[102.1197000690515,4.823558580232406],[102.11918186066093,4.823558580232406],[102.11918186066093,4.82395186769454],[102.1197000690515,4.82395186769454],[102.1197000690515,4.823558580232406]]],[[[102.22956024785036,4.631267219343121],[102.23007845624093,4.63065986179861],[102.22800562267868,4.62992176855877],[102.22748741428812,4.630480857537087],[102.226450997507,4.630480857537087],[102.226450997507,4.6308740383337375],[102.22541458072588,4.630480857537087],[102.22541458072588,4.631660400565259],[102.22593278911643,4.631660400565259],[102.22593278911643,4.632053582000171],[102.22852383106924,4.631660400565259],[102.22852383106924,4.6308740383337375],[102.22956024785036,4.631267219343121]]],[[[102.23111487302204,4.6623291928955926],[102.23111487302204,4.662722390983336],[102.23163308141261,4.662722390983336],[102.23163308141261,4.6623291928955926],[102.23111487302204,4.6623291928955926]]],[[[102.5135384458776,4.70047040754477],[102.51302023748704,4.70047040754477],[102.51302023748704,4.700863626497856],[102.5135384458776,4.700863626497856],[102.5135384458776,4.70047040754477]]],[[[102.5264936556416,4.765354470914018],[102.52753007242273,4.765354470914018],[102.52753007242273,4.7645679618844605],[102.52701186403216,4.7645679618844605],[102.52701186403216,4.7641747076981735],[102.5264936556416,4.7641747076981735],[102.5264936556416,4.765354470914018]]],[[[102.2907088379365,4.76912993386287],[102.29019062954596,4.768893772390929],[102.29019062954596,4.769304996413317],[102.2907088379365,4.76912993386287]]],[[[102.30311281912977,4.769287029206297],[102.30314583930996,4.769311688084378],[102.30314583930996,4.769287029206297],[102.30311281912977,4.769287029206297]]],[[[102.60629774778793,4.779511783402323],[102.60629774778793,4.780298309103016],[102.60681595617851,4.780298309103016],[102.60681595617851,4.779511783402323],[102.60629774778793,4.779511783402323]]],[[[102.31972850780792,4.781084835682609],[102.31921029941736,4.781308440935435],[102.31972850780792,4.78169543636524],[102.31972850780792,4.781084835682609]]],[[[102.31996408344516,4.781871363141249],[102.3212831329796,4.78226462720026],[102.3212831329796,4.781871363141249],[102.31996408344516,4.781871363141249]]],[[[102.22748741428812,4.7897366861077275],[102.22748741428812,4.790129954566583],[102.22800562267868,4.790129954566583],[102.22800562267868,4.7897366861077275],[102.22748741428812,4.7897366861077275]]],[[[102.39435051604865,4.791309761264333],[102.39383230765809,4.791309761264333],[102.39383230765809,4.791703030604041],[102.39435051604865,4.791703030604041],[102.39435051604865,4.791309761264333]]],[[[102.623916833067,4.833390833359008],[102.623916833067,4.833784126370911],[102.62443504145757,4.833784126370911],[102.62443504145757,4.833390833359008],[102.623916833067,4.833390833359008]]],[[[102.49851040255135,4.905760507841679],[102.49851040255135,4.90615384205426],[102.49902861094188,4.90615384205426],[102.49902861094188,4.905760507841679],[102.49851040255135,4.905760507841679]]]]},"properties":{"place_id":"89e19cdd-7520-5bcd-9e30-bce5364971a9","habitat":"open_grassland","habitat_label":"Open grassland or shrubland","resolution_m":50}},{"type":"Feature","geometry":{"type":"MultiPolygon","coordinates":[[[[102.50006502772301,4.794455922150286],[102.49902861094188,4.7940626512683755],[102.49851040255135,4.794849193252583],[102.49954681933245,4.795242464575288],[102.50006502772301,4.794455922150286]]],[[[102.49851040255135,4.79720882449555],[102.49902861094188,4.79720882449555],[102.49902861094188,4.796815552070537],[102.49799219416077,4.796422279866022],[102.49695577737964,4.79760209714108],[102.49799219416077,4.797995370007147],[102.49851040255135,4.79720882449555]]],[[[102.49747398577021,4.799961737646152],[102.49643756898911,4.799568463677134],[102.49591936059853,4.800355011835818],[102.49695577737964,4.800748286246147],[102.49747398577021,4.799961737646152]]],[[[102.47208177463274,4.826704886140055],[102.47208177463274,4.826311597125148],[102.47156356624218,4.826311597125148],[102.47104535785162,4.82709817537686],[102.47208177463274,4.827491464835585],[102.47208177463274,4.82709817537686],[102.4725999830233,4.82709817537686],[102.4725999830233,4.826704886140055],[102.47208177463274,4.826704886140055]]],[[[102.45238985579144,4.859741957390282],[102.45238985579144,4.860135265332354],[102.45342627257256,4.860528573497894],[102.4530586,4.859914494708257],[102.45336734991176,4.859348649671657],[102.45238985579144,4.859741957390282]]],[[[102.43943464602741,4.869968036558225],[102.4394366,4.8700048946978445],[102.4394738397436,4.869968036558225],[102.43943464602741,4.869968036558225]]],[[[102.5068017368003,4.7712533165716495],[102.50628352840975,4.770466800967731],[102.50524711162862,4.770860058660049],[102.50628352840975,4.772039833052774],[102.50731994519086,4.771646574702553],[102.50731994519086,4.7712533165716495],[102.5068017368003,4.7712533165716495]]],[[[102.5057653200192,4.77597242862166],[102.5057653200192,4.775579168077221],[102.50524711162862,4.775579168077221],[102.50472890323806,4.776365689385619],[102.5057653200192,4.776758950369119],[102.5057653200192,4.776365689385619],[102.50628352840975,4.776365689385619],[102.50628352840975,4.77597242862166],[102.5057653200192,4.77597242862166]]],[[[102.50472890323806,4.78226462720026],[102.50369248645696,4.781871363141249],[102.50317427806638,4.782657891479086],[102.50421069484749,4.78305115597775],[102.50472890323806,4.78226462720026]]],[[[102.50524711162862,4.785804013625338],[102.50524711162862,4.785410747587308],[102.50472890323806,4.785410747587308],[102.50421069484749,4.786197279883349],[102.50524711162862,4.786590546361362],[102.50524711162862,4.786197279883349],[102.5057653200192,4.786197279883349],[102.5057653200192,4.785804013625338],[102.50524711162862,4.785804013625338]]],[[[102.50421069484749,4.787377079977466],[102.50421069484749,4.787770347115593],[102.50472890323806,4.787770347115593],[102.50524711162862,4.786983813059395],[102.50421069484749,4.786590546361362],[102.50421069484749,4.786983813059395],[102.50369248645696,4.786983813059395],[102.50369248645696,4.787377079977466],[102.50421069484749,4.787377079977466]]]]},"properties":{"place_id":"89e19cdd-7520-5bcd-9e30-bce5364971a9","habitat":"disturbed_built_edge","habitat_label":"Disturbed, bare or built edge","resolution_m":50}},{"type":"Feature","geometry":{"type":"MultiPolygon","coordinates":[[[[102.47311819141386,4.8176592949002375],[102.47311819141386,4.818052579038038],[102.47363639980442,4.818052579038038],[102.47363639980442,4.8176592949002375],[102.47311819141386,4.8176592949002375]]],[[[102.47778206692891,4.8200190030498],[102.47830027531947,4.8200190030498],[102.47830027531947,4.819625717804351],[102.47778206692891,4.819625717804351],[102.47778206692891,4.8200190030498]]],[[[102.47104535785162,4.82709817537686],[102.47156356624218,4.82709817537686],[102.47156356624218,4.826704886140055],[102.47104535785162,4.826704886140055],[102.47104535785162,4.82709817537686]]],[[[102.452908064182,4.859348649671657],[102.452908064182,4.859741957390282],[102.45309199829258,4.859741957390282],[102.45336734991176,4.859348649671657],[102.452908064182,4.859348649671657]]],[[[102.452908064182,4.860528573497894],[102.45342627257256,4.860528573497894],[102.45328231228437,4.860135265332354],[102.452908064182,4.860135265332354],[102.452908064182,4.860528573497894]]],[[[102.45498089774424,4.869574723023996],[102.45538529999999,4.869544394698315],[102.4554991061348,4.8691814097136765],[102.45498089774424,4.8691814097136765],[102.45498089774424,4.869574723023996]]]]},"properties":{"place_id":"89e19cdd-7520-5bcd-9e30-bce5364971a9","habitat":"permanent_water","habitat_label":"Permanent water","resolution_m":50}},{"type":"Feature","geometry":{"type":"MultiPolygon","coordinates":[[[[102.3052186728722,4.770466800967731],[102.30470046448166,4.770466800967731],[102.30470046448166,4.770472655242691],[102.3052186728722,4.7708596447201],[102.3052186728722,4.770466800967731]]],[[[102.30521922716919,4.770860058660049],[102.30573688126277,4.771246634409859],[102.30573688126277,4.770860058660049],[102.30521922716919,4.770860058660049]]],[[[102.30625508965333,4.7712533165716495],[102.30574582917903,4.7712533165716495],[102.30625508965333,4.771633624311984],[102.30625508965333,4.7712533165716495]]],[[[102.474154608195,4.818052579038038],[102.47467281658554,4.818052579038038],[102.47467281658554,4.8176592949002375],[102.474154608195,4.8176592949002375],[102.47363639980442,4.816872727289046],[102.47208177463274,4.8176592949002375],[102.47311819141386,4.818839147978133],[102.47363639980442,4.818839147978133],[102.474154608195,4.818052579038038]],[[102.47311819141386,4.818052579038038],[102.47311819141386,4.8176592949002375],[102.47363639980442,4.8176592949002375],[102.47363639980442,4.818052579038038],[102.47311819141386,4.818052579038038]]],[[[102.47881848371003,4.8200190030498],[102.47933669210059,4.8200190030498],[102.47933669210059,4.819625717804351],[102.47881848371003,4.819625717804351],[102.47830027531947,4.818839147978133],[102.47674565014779,4.819625717804351],[102.47778206692891,4.820805574205475],[102.47830027531947,4.820805574205475],[102.47881848371003,4.8200190030498]],[[102.47778206692891,4.8200190030498],[102.47778206692891,4.819625717804351],[102.47830027531947,4.819625717804351],[102.47830027531947,4.8200190030498],[102.47778206692891,4.8200190030498]]],[[[102.47208177463274,4.82709817537686],[102.4725999830233,4.82709817537686],[102.4725999830233,4.826704886140055],[102.47208177463274,4.826704886140055],[102.47156356624218,4.8259183083321195],[102.47000894107049,4.826704886140055],[102.47104535785162,4.827884754516244],[102.47156356624218,4.827884754516244],[102.47208177463274,4.82709817537686]],[[102.47104535785162,4.82709817537686],[102.47104535785162,4.826704886140055],[102.47156356624218,4.826704886140055],[102.47156356624218,4.82709817537686],[102.47104535785162,4.82709817537686]]],[[[102.452908064182,4.859348649671657],[102.45393929031981,4.858955342176458],[102.45342627257256,4.858955342176458],[102.45342627257256,4.858562034904669],[102.45187164740086,4.859348649671657],[102.45187164740086,4.859741957390282],[102.45238985579144,4.859741957390282],[102.45187164740086,4.860528573497894],[102.45238985579144,4.860528573497894],[102.452908064182,4.861315190499437],[102.45394448096312,4.860921881886914],[102.45342627257256,4.860267593940761],[102.452908064182,4.860528573497894],[102.45328231228437,4.860135265332354],[102.452908064182,4.859348649671657]]],[[[102.45498089774424,4.868394783764684],[102.45428015681634,4.8691814097136765],[102.45482979999998,4.869644094698237],[102.4557219117062,4.868788096627244],[102.45498089774424,4.868394783764684]]],[[[102.43925033229807,4.870361350316376],[102.43891643763686,4.870698638521671],[102.43903,4.870782994697034],[102.43925033229807,4.870361350316376]]]]},"properties":{"place_id":"89e19cdd-7520-5bcd-9e30-bce5364971a9","habitat":"water_edge","habitat_label":"Water edge","resolution_m":50}}]}