{"type":"FeatureCollection","metadata":{"schema_version":1,"place_id":"8b49efaf-41ce-5d66-9936-3f6a281fdd62","place_name":"Bayu Balau Park","place_type":"park","osm_reference":"way/494803225","protection_context":"no protected status confirmed from included OSM tags","resolution_m":50,"raster_coverage":1.0,"interpretation":"Suggested search habitats, not predicted plant locations or probabilities of presence."},"features":[{"type":"Feature","geometry":{"type":"Polygon","coordinates":[[[104.25980489999999,1.6122722982025437],[104.2590647,1.6126433982021187],[104.2596884,1.6127739982019826],[104.25980489999999,1.6122722982025437]]]},"properties":{"place_id":"8b49efaf-41ce-5d66-9936-3f6a281fdd62","habitat":"forest_edge_opening","habitat_label":"Forest edge or opening","resolution_m":50}},{"type":"Feature","geometry":{"type":"Polygon","coordinates":[[[104.25938251367639,1.6122216188565532],[104.25951990214739,1.6122216188565532],[104.25938251367639,1.6121971879435915],[104.25938251367639,1.6122216188565532]]]},"properties":{"place_id":"8b49efaf-41ce-5d66-9936-3f6a281fdd62","habitat":"open_grassland","habitat_label":"Open grassland or shrubland","resolution_m":50}},{"type":"Feature","geometry":{"type":"Polygon","coordinates":[[[104.2596884,1.6127739982019826],[104.25980489999999,1.6122722982025437],[104.25917449999999,1.6121601982026637],[104.2590647,1.6126433982021187],[104.2596884,1.6127739982019826]]]},"properties":{"place_id":"8b49efaf-41ce-5d66-9936-3f6a281fdd62","habitat":"disturbed_built_edge","habitat_label":"Disturbed, bare or built edge","resolution_m":50}},{"type":"Feature","geometry":{"type":"Polygon","coordinates":[[[104.25980489999999,1.6122722982025437],[104.2590647,1.6126433982021187],[104.2596884,1.6127739982019826],[104.25980489999999,1.6122722982025437]]]},"properties":{"place_id":"8b49efaf-41ce-5d66-9936-3f6a281fdd62","habitat":"water_edge","habitat_label":"Water edge","resolution_m":50}}]}