{"type":"FeatureCollection","metadata":{"schema_version":1,"place_id":"8ba81746-1a57-5b4d-9e9b-c13d7417541f","place_name":"SkySanctuary Central Park","place_type":"park","osm_reference":"way/1087260994","protection_context":"no protected status confirmed from included OSM tags","resolution_m":50,"raster_coverage":1.0,"interpretation":"Suggested search habitats, not predicted plant locations or probabilities of presence."},"features":[{"type":"Feature","geometry":{"type":"Polygon","coordinates":[[[101.72016139992925,3.1911446349087735],[101.72067960831981,3.1911446349087735],[101.72067960831981,3.190359587261104],[101.72016139992925,3.1906512411857864],[101.72016139992925,3.1911446349087735]]]},"properties":{"place_id":"8ba81746-1a57-5b4d-9e9b-c13d7417541f","habitat":"forest_interior","habitat_label":"Forest interior","resolution_m":50}},{"type":"Feature","geometry":{"type":"Polygon","coordinates":[[[101.72067960831981,3.19260256539723],[101.72119781671037,3.192322207474765],[101.72126059999997,3.1916658964719185],[101.72086259999999,3.1916787964718907],[101.7208249,3.190085196473588],[101.72035329999999,3.1900692964736064],[101.72067960831981,3.1911446349087735],[101.72016139992925,3.1911446349087735],[101.72016139992925,3.1906512411857864],[101.7200789,3.1909573964726814],[101.72067960831981,3.19260256539723]]]},"properties":{"place_id":"8ba81746-1a57-5b4d-9e9b-c13d7417541f","habitat":"forest_edge_opening","habitat_label":"Forest edge or opening","resolution_m":50}},{"type":"Feature","geometry":{"type":"Polygon","coordinates":[[[101.72119781671037,3.191929683140146],[101.72067960831981,3.191929683140146],[101.72078949999998,3.1926470964708438],[101.7211857,3.1925431964709623],[101.72119781671037,3.191929683140146]]]},"properties":{"place_id":"8ba81746-1a57-5b4d-9e9b-c13d7417541f","habitat":"open_grassland","habitat_label":"Open grassland or shrubland","resolution_m":50}},{"type":"Feature","geometry":{"type":"Polygon","coordinates":[[[101.72035329999999,3.1900692964736064],[101.72067960831981,3.1911446349087735],[101.72016139992925,3.1911446349087735],[101.72016139992925,3.1906512411857864],[101.7200789,3.1909573964726814],[101.72078949999998,3.1926470964708438],[101.7211857,3.1925431964709623],[101.72126059999997,3.1916658964719185],[101.72086259999999,3.1916787964718907],[101.7208249,3.190085196473588],[101.72035329999999,3.1900692964736064]]]},"properties":{"place_id":"8ba81746-1a57-5b4d-9e9b-c13d7417541f","habitat":"disturbed_built_edge","habitat_label":"Disturbed, bare or built edge","resolution_m":50}},{"type":"Feature","geometry":{"type":"Polygon","coordinates":[[[101.72119781671037,3.192322207474765],[101.72119781671037,3.192401273991716],[101.72120456705882,3.192322207474765],[101.72119781671037,3.192322207474765]]]},"properties":{"place_id":"8ba81746-1a57-5b4d-9e9b-c13d7417541f","habitat":"water_edge","habitat_label":"Water edge","resolution_m":50}}]}