{"type":"FeatureCollection","metadata":{"schema_version":1,"place_id":"8ba9e2c0-9975-579e-b202-a3b958166ad0","place_name":"Dataran Segamat","place_type":"park","osm_reference":"way/23641277","protection_context":"no protected status confirmed from included OSM tags","resolution_m":50,"raster_coverage":1.0,"interpretation":"Suggested search habitats, not predicted plant locations or probabilities of presence."},"features":[{"type":"Feature","geometry":{"type":"Polygon","coordinates":[[[102.8141985,2.511586097211564],[102.81537789999999,2.5112101972119842],[102.81514089999999,2.5105236972127325],[102.81413729999998,2.5108868972123264],[102.8141985,2.511586097211564]]]},"properties":{"place_id":"8ba9e2c0-9975-579e-b202-a3b958166ad0","habitat":"disturbed_built_edge","habitat_label":"Disturbed, bare or built edge","resolution_m":50}}]}