{"type":"FeatureCollection","metadata":{"schema_version":1,"place_id":"8c645ff9-379d-5e40-8b60-562f7695b7b8","place_name":"The Archaeological Heritage of Niah National Park’s Caves Complex","place_type":"wood","osm_reference":"relation/17960575","protection_context":"mapped protected boundary","resolution_m":50,"raster_coverage":1.0,"interpretation":"Suggested search habitats, not predicted plant locations or probabilities of presence."},"features":[{"type":"Feature","geometry":{"type":"MultiPolygon","coordinates":[[[[113.75917872943405,3.829201715281267],[113.75917872943405,3.829594500409774],[113.75710589587182,3.8307728568480126],[113.75710589587182,3.83195121486571],[113.75658768748124,3.83195121486571],[113.75658768748124,3.8323440012226837],[113.75710589587182,3.8323440012226837],[113.75710589587182,3.832736787755228],[113.75917872943405,3.8339151484064455],[113.75917872943405,3.8350935106384347],[113.76021514621517,3.835486298400463],[113.76021514621517,3.8362718744516817],[113.76073335460573,3.8362718744516817],[113.76073335460573,3.8370574512059017],[113.76125156299629,3.8370574512059017],[113.76125156299629,3.838628606823927],[113.76073335460573,3.838628606823927],[113.76073335460573,3.8394141856880224],[113.76021514621517,3.8394141856880224],[113.76021514621517,3.843734882021018],[113.76073335460573,3.843734882021018],[113.76073335460573,3.8441276736529577],[113.76332439655855,3.843734882021018],[113.76384260494909,3.844293742258038],[113.77420677276031,3.8444987529314365],[113.77420677276031,3.8441276736529577],[113.77472498115087,3.8441276736529577],[113.77472498115087,3.8445090034663654],[113.775761397932,3.844520465461012],[113.775761397932,3.8441276736529577],[113.7767978147131,3.8441276736529577],[113.7767978147131,3.844520465461012],[113.7791573,3.8445488957720704],[113.78042809999998,3.842618695774099],[113.78146169022816,3.8429492992854097],[113.78146169022816,3.842556508181702],[113.78197989861872,3.8425873469051703],[113.78209019999998,3.8394143957775175],[113.7810714,3.838892695778081],[113.7815723,3.8374484957796247],[113.7806961,3.8368488957802764],[113.78111049999998,3.834918095782313],[113.77992499999999,3.8327458957846368],[113.7818948,3.830927895786546],[113.78378959999999,3.829903895787638],[113.784298,3.8288695957887326],[113.7854692,3.828457795789188],[113.78673999999998,3.826225995791537],[113.78664377413375,3.824095524567486],[113.78716198252432,3.8240080413150648],[113.7872912,3.823120495794871],[113.78871849999999,3.8222945957957397],[113.7903106,3.822175495795862],[113.79122679999999,3.820221395797921],[113.7923726,3.8193937957988386],[113.79393729999998,3.819748595798425],[113.79593539999999,3.8215451957965363],[113.79779119999999,3.8215451957965363],[113.7986441,3.8210093957971085],[113.79978919999999,3.81906569579919],[113.80275929999999,3.818508695799749],[113.80359989999998,3.8154065958030796],[113.8050738,3.8141042958044533],[113.8059339,3.8139988958045468],[113.8063527,3.8131422958054686],[113.8067882,3.8100290958087903],[113.808509,3.808634795810256],[113.8097219,3.8065998958124414],[113.81112389999998,3.8057950958132807],[113.8124195,3.8057092958133856],[113.8139389,3.8068468958121966],[113.8152536,3.8068828958121332],[113.8170768,3.808934795809951],[113.8177548,3.8084617958104645],[113.817763,3.8067101958123324],[113.8170896,3.805394595813724],[113.81666949999999,3.78610549583426],[113.82062799999997,3.7868590958334334],[113.82141379999999,3.782995595837574],[113.8119832,3.7823317958382536],[113.81004289999998,3.7834786958370312],[113.80115360906946,3.779068218041929],[113.80115360906946,3.7793194235793357],[113.80011719228834,3.7793194235793357],[113.79959898389778,3.780104949743502],[113.7980443587261,3.780104949743502],[113.79794668128672,3.7797121865748555],[113.79752615033554,3.7797121865748555],[113.79752615033554,3.780104949743502],[113.79648973355441,3.780104949743502],[113.79648973355441,3.7797121865748555],[113.79441689999217,3.7793194235793357],[113.79338048321107,3.7781411356313686],[113.7928622748205,3.7781411356313686],[113.7928622748205,3.7785338981076113],[113.78975302447712,3.7785338981076113],[113.78923481608656,3.7777483733281834],[113.788716607696,3.7777483733281834],[113.788716607696,3.7781411356313686],[113.78768019091488,3.7777483733281834],[113.78768019091488,3.7785338981076113],[113.78716198252432,3.7785338981076113],[113.78716198252432,3.7793194235793357],[113.78664377413375,3.7793194235793357],[113.78664377413375,3.7797121865748555],[113.78560735735265,3.7797121865748555],[113.78560735735265,3.7793194235793357],[113.78301631539985,3.7793194235793357],[113.78301631539985,3.7797121865748555],[113.78197989861872,3.7797121865748555],[113.78146169022816,3.7804977130852966],[113.7799496,3.7805765958401567],[113.7799791,3.778361895842482],[113.7829155,3.7769141958440406],[113.78293190000001,3.7760994958449126],[113.77665259999999,3.7744286958466904],[113.7755044,3.7748776958462003],[113.7723434,3.773219195847975],[113.77063169999998,3.773757095847406],[113.7682769,3.7714447958498836],[113.7672442,3.768991495852481],[113.76436081333966,3.7687148880764827],[113.76436081333966,3.7698931635781814],[113.76384260494909,3.7698931635781814],[113.76384260494909,3.770678681442651],[113.76332439655855,3.770678681442651],[113.76332439655855,3.7726424791265742],[113.76228797977741,3.773035239181688],[113.76228797977741,3.773820759810395],[113.76176977138685,3.773820759810395],[113.7612516773305,3.774606281130524],[113.76176977138685,3.774606281130524],[113.76176977138685,3.775391803142222],[113.76125156299629,3.775391803142222],[113.76125156299629,3.7761773258456355],[113.76073335460573,3.7761773258456355],[113.76073335460573,3.7773556111980344],[113.76021514621517,3.7773556111980344],[113.76021514621517,3.7781411356313686],[113.75917872943405,3.7785338981076113],[113.75917872943405,3.7793194235793357],[113.7586605210435,3.7793194235793357],[113.7586605210435,3.780104949743502],[113.75814231265294,3.780104949743502],[113.75762410426236,3.781676004149744],[113.75710589587182,3.781676004149744],[113.75710589587182,3.7820687681843084],[113.75658768748124,3.7820687681843084],[113.75658768748124,3.78285429677317],[113.75555127070012,3.783247061327503],[113.75555127070012,3.7844253560303285],[113.75414128107445,3.7852108866989185],[113.75367676053477,3.785996418061042],[113.75399664552845,3.786389184002223],[113.75347843713789,3.786389184002223],[113.75347843713789,3.787567482866473],[113.75296022874733,3.787567482866473],[113.75296022874733,3.7879602495015168],[113.75192381196621,3.788353016310073],[113.75192381196621,3.789138550447789],[113.75088739518509,3.789531317776987],[113.75140560357563,3.7922806939427303],[113.75192381196621,3.7922806939427303],[113.75192381196621,3.793066231553213],[113.75244202035677,3.793066231553213],[113.75244202035677,3.793851769858687],[113.75296022874733,3.793851769858687],[113.75296022874733,3.7946373088592966],[113.75347843713789,3.7946373088592966],[113.75347843713789,3.7958156186639074],[113.75399664552845,3.7958156186639074],[113.75399664552845,3.796601159402994],[113.754514853919,3.796601159402994],[113.75503306230956,3.798957785794707],[113.7560694790907,3.799350557468958],[113.75555127070012,3.800098879566721],[113.75658768748124,3.800528873536018],[113.75658768748124,3.801314418451161],[113.75762410426236,3.801707191169918],[113.75762410426236,3.8024927371298944],[113.7586605210435,3.8028855103711514],[113.7586605210435,3.8036710573762895],[113.75917872943405,3.8036710573762895],[113.75917872943405,3.804456605078383],[113.76021514621517,3.804849379190835],[113.76073335460573,3.806420477383757],[113.76176977138685,3.8068132523678586],[113.76176977138685,3.808384354048294],[113.76125156299629,3.808384354048294],[113.76073335460573,3.809169905935183],[113.7586605210435,3.8087771299044997],[113.7569379,3.806942495812072],[113.75555127070012,3.8068132523678586],[113.75503306230956,3.8077406223888692],[113.75555127070012,3.808384354048294],[113.75503306230956,3.808384354048294],[113.754514853919,3.8094880286549673],[113.75503306230956,3.8095626821403594],[113.75503306230956,3.8107410118030343],[113.754514853919,3.8107410118030343],[113.7543797482416,3.8111337887063677],[113.754514853919,3.81191934303681],[113.75503306230956,3.81191934303681],[113.75503306230956,3.813490453793294],[113.754514853919,3.813490453793294],[113.754514853919,3.813883231919104],[113.75503306230956,3.813883231919104],[113.75503306230956,3.8158471251692085],[113.754514853919,3.8158471251692085],[113.754514853919,3.8162399043435684],[113.75503306230956,3.8162399043435684],[113.75503306230956,3.817025463216768],[113.75459272726252,3.817025463216768],[113.75503306230956,3.8178110227894],[113.75555127070012,3.8178110227894],[113.75509603303999,3.8193821440335416],[113.7560694790907,3.8197749247819504],[113.755968347825,3.8205604868037404],[113.75655902795738,3.8209532680771607],[113.75658768748124,3.8205604868037404],[113.75710589587182,3.8205604868037404],[113.75710589587182,3.8209532680771607],[113.75814231265294,3.8209532680771607],[113.75814231265294,3.8213460495256197],[113.75969693782461,3.8213460495256197],[113.75969693782461,3.821738831149138],[113.76125156299629,3.821738831149138],[113.76125156299629,3.8221316129477327],[113.76228797977741,3.8221316129477327],[113.76228797977741,3.821738831149138],[113.76332439655855,3.8221316129477327],[113.76332439655855,3.8225243949214205],[113.76280618816797,3.8225243949214205],[113.76280618816797,3.822917177070223],[113.76332439655855,3.822917177070223],[113.76332439655855,3.8237027418932374],[113.76283371065851,3.8237027418932374],[113.76280618816797,3.8252738736414234],[113.76332439655855,3.8252738736414234],[113.76332439655855,3.825666657016526],[113.76280618816797,3.825666657016526],[113.76280618816797,3.8268450081934566],[113.76228797977741,3.8268450081934566],[113.76228797977741,3.8272377922697034],[113.76176977138685,3.8272377922697034],[113.76176977138685,3.8276305765212806],[113.76125156299629,3.8276305765212806],[113.76125156299629,3.828023360948207],[113.75917872943405,3.829201715281267]],[[113.77161573080751,3.8178110227894],[113.77213393919806,3.817025463216768],[113.77317035597919,3.817418242915645],[113.77265214758863,3.8182038028380476],[113.77161573080751,3.8178110227894]],[[113.77006110563582,3.8166326836927476],[113.77006110563582,3.8158471251692085],[113.77109752241695,3.8154543461696546],[113.77109752241695,3.8158471251692085],[113.77161573080751,3.8158471251692085],[113.77161573080751,3.8166326836927476],[113.77109752241695,3.8166326836927476],[113.77109752241695,3.817025463216768],[113.77006110563582,3.8166326836927476]],[[113.78042527344704,3.8162399043435684],[113.78094348183761,3.8154543461696546],[113.78197989861872,3.8158471251692085],[113.78146169022816,3.8166326836927476],[113.78042527344704,3.8162399043435684]],[[113.77006110563582,3.814668788694882],[113.77006110563582,3.811526565784287],[113.77057931402639,3.811526565784287],[113.77057931402639,3.8107410118030343],[113.77161573080751,3.8103482350742666],[113.77161573080751,3.8107410118030343],[113.77213393919806,3.8107410118030343],[113.77213393919806,3.814668788694882],[113.77161573080751,3.814668788694882],[113.77161573080751,3.815061567344884],[113.77057931402639,3.815061567344884],[113.77057931402639,3.814668788694882],[113.77006110563582,3.814668788694882]],[[113.79752615033554,3.8107410118030343],[113.7980443587261,3.8099554585200477],[113.79908077550722,3.8103482350742666],[113.79856256711665,3.8111337887063677],[113.79752615033554,3.8107410118030343]],[[113.76798827207358,3.8075988028592334],[113.76850648046415,3.8068132523678586],[113.76954289724526,3.807206027526344],[113.7690246888547,3.8079915783665443],[113.76798827207358,3.8075988028592334]],[[113.77317035597919,3.806420477383757],[113.77317035597919,3.8056349279386352],[113.77420677276031,3.8052421534775784],[113.77420677276031,3.8056349279386352],[113.77472498115087,3.8056349279386352],[113.77472498115087,3.806420477383757],[113.77420677276031,3.806420477383757],[113.77420677276031,3.8068132523678586],[113.77317035597919,3.806420477383757]],[[113.76695185529246,3.804849379190835],[113.76747006368302,3.8040638311402066],[113.76850648046415,3.804456605078383],[113.76798827207358,3.8052421534775784],[113.76695185529246,3.804849379190835]],[[113.77317035597919,3.804456605078383],[113.77368856436975,3.8036710573762895],[113.77472498115087,3.8040638311402066],[113.77420677276031,3.804849379190835],[113.77317035597919,3.804456605078383]],[[113.76591543851134,3.8036710573762895],[113.7664336469019,3.8028855103711514],[113.76747006368302,3.80327828378661],[113.76695185529246,3.8040638311402066],[113.76591543851134,3.8036710573762895]],[[113.76591543851134,3.798957785794707],[113.76591543851134,3.800528873536018],[113.76487902173021,3.800921645906533],[113.76539723012078,3.801707191169918],[113.76436081333966,3.802099964062825],[113.76436081333966,3.801707191169918],[113.76384260494909,3.801707191169918],[113.76384260494909,3.801314418451161],[113.76436081333966,3.801314418451161],[113.76436081333966,3.800528873536018],[113.76384260494909,3.800528873536018],[113.76384260494909,3.800136101339595],[113.76436081333966,3.800136101339595],[113.76436081333966,3.798957785794707],[113.76487902173021,3.798957785794707],[113.76487902173021,3.798565014294476],[113.76591543851134,3.798957785794707]],[[113.76539723012078,3.798172242968246],[113.76487902173021,3.798172242968246],[113.76487902173021,3.7977794718160034],[113.76591543851134,3.7973867008377247],[113.7664336469019,3.798172242968246],[113.76591543851134,3.798172242968246],[113.76591543851134,3.798565014294476],[113.76539723012078,3.798565014294476],[113.76539723012078,3.798172242968246]],[[113.77472498115087,3.800921645906533],[113.77472498115087,3.800136101339595],[113.775761397932,3.7997433293172476],[113.775761397932,3.800136101339595],[113.77627960632255,3.800136101339595],[113.77627960632255,3.800921645906533],[113.775761397932,3.800921645906533],[113.775761397932,3.801314418451161],[113.77472498115087,3.800921645906533]],[[113.80426285941283,3.800136101339595],[113.80426285941283,3.800528873536018],[113.80374465102226,3.800528873536018],[113.80322644263171,3.7997433293172476],[113.80426285941283,3.799350557468958],[113.80426285941283,3.7997433293172476],[113.80478106780339,3.7997433293172476],[113.80478106780339,3.800136101339595],[113.80426285941283,3.800136101339595]],[[113.80478106780339,3.799350557468958],[113.80529927619395,3.799350557468958],[113.80529927619395,3.798957785794707],[113.80633569297507,3.798957785794707],[113.80633569297507,3.7969939300333952],[113.80737210975619,3.796601159402994],[113.80737210975619,3.7969939300333952],[113.8084085265373,3.7973867008377247],[113.8084085265373,3.798172242968246],[113.80789031814676,3.798172242968246],[113.8084085265373,3.798957785794707],[113.80789031814676,3.798957785794707],[113.80737210975619,3.7997433293172476],[113.80633569297507,3.7997433293172476],[113.80633569297507,3.800136101339595],[113.80529927619395,3.800136101339595],[113.80478106780339,3.799350557468958]],[[113.80737210975619,3.7950300786203215],[113.80789031814676,3.794244539272091],[113.80892673492787,3.7946373088592966],[113.8084085265373,3.795422848555186],[113.80737210975619,3.7950300786203215]],[[113.78353452379041,3.793066231553213],[113.78405273218095,3.7922806939427303],[113.78508914896209,3.792673462661108],[113.78457094057151,3.7934590006190683],[113.78353452379041,3.793066231553213]],[[113.78353452379041,3.7911023888297937],[113.78405273218095,3.79031685295615],[113.78508914896209,3.7907096208061533],[113.78457094057151,3.7914951570270916],[113.78353452379041,3.7911023888297937]],[[113.7690246888547,3.781676004149744],[113.76954289724526,3.7808904766002573],[113.77057931402639,3.7812832402884],[113.77006110563582,3.7820687681843084],[113.7690246888547,3.781676004149744]]],[[[113.75969693782461,3.828808930328182],[113.75969693782461,3.828580975234652],[113.75940995024818,3.828808930328182],[113.75969693782461,3.828808930328182]]],[[[113.78146169022816,3.8433420905651747],[113.78132269999999,3.843487295773196],[113.78146169022816,3.8435662306542775],[113.78146169022816,3.8433420905651747]]]]},"properties":{"place_id":"8c645ff9-379d-5e40-8b60-562f7695b7b8","habitat":"forest_interior","habitat_label":"Forest interior","resolution_m":50}},{"type":"Feature","geometry":{"type":"MultiPolygon","coordinates":[[[[113.76280618816797,3.7726424791265742],[113.76332439655855,3.7726424791265742],[113.76332439655855,3.770678681442651],[113.76384260494909,3.770678681442651],[113.76436081333966,3.7687148880764827],[113.76487902173021,3.768593792167593],[113.76443099999999,3.76853569585296],[113.7640084,3.7688894958525787],[113.76145699114765,3.774213520384022],[113.76228797977741,3.773820759810395],[113.76228797977741,3.773035239181688],[113.76280618816797,3.773035239181688],[113.76280618816797,3.7726424791265742]]],[[[113.75555127070012,3.783247061327503],[113.75658768748124,3.78285429677317],[113.75658768748124,3.7820687681843084],[113.75762410426236,3.781676004149744],[113.75762410426236,3.7808904766002573],[113.75814231265294,3.7808904766002573],[113.75814231265294,3.780104949743502],[113.7586605210435,3.780104949743502],[113.75917872943405,3.7785338981076113],[113.76021514621517,3.7781411356313686],[113.76021514621517,3.7773556111980344],[113.76073335460573,3.7773556111980344],[113.76073335460573,3.7761773258456355],[113.76125156299629,3.7761773258456355],[113.76176977138685,3.774606281130524],[113.7612516773305,3.774606281130524],[113.7597412,3.7774957958433975],[113.7549733,3.7838038958366993],[113.75414128107445,3.7852108866989185],[113.75555127070012,3.7844253560303285],[113.75555127070012,3.783247061327503]]],[[[113.75503306230956,3.798957785794707],[113.754514853919,3.796601159402994],[113.75399664552845,3.796601159402994],[113.75399664552845,3.7958156186639074],[113.75347843713789,3.7958156186639074],[113.75347843713789,3.7946373088592966],[113.75296022874733,3.7946373088592966],[113.75296022874733,3.793851769858687],[113.75244202035677,3.793851769858687],[113.75244202035677,3.793066231553213],[113.75192381196621,3.793066231553213],[113.75192381196621,3.7922806939427303],[113.75140560357563,3.7922806939427303],[113.75140560357563,3.7907096208061533],[113.75088739518509,3.7907096208061533],[113.75088739518509,3.789531317776987],[113.75140560357563,3.789531317776987],[113.75140560357563,3.789138550447789],[113.75192381196621,3.789138550447789],[113.75192381196621,3.788353016310073],[113.75347843713789,3.787567482866473],[113.75347843713789,3.786389184002223],[113.75399664552845,3.786389184002223],[113.75367676053477,3.785996418061042],[113.75260070000002,3.7877271958325207],[113.75178469999999,3.7880344958322008],[113.7505442,3.7894679958306594],[113.75044659999999,3.7908073958292667],[113.75555127070012,3.800098879566721],[113.7560694790907,3.799350557468958],[113.75503306230956,3.798957785794707]]],[[[113.76125156299629,3.8068132523678586],[113.76125156299629,3.806420477383757],[113.76073335460573,3.806420477383757],[113.76073335460573,3.8056349279386352],[113.76021514621517,3.8056349279386352],[113.76021514621517,3.804849379190835],[113.75917872943405,3.804456605078383],[113.7586605210435,3.8028855103711514],[113.75762410426236,3.8024927371298944],[113.75762410426236,3.801707191169918],[113.75658768748124,3.801314418451161],[113.75658768748124,3.800528873536018],[113.75558191013171,3.800136101339595],[113.76092479999997,3.807042795811969],[113.76117209999998,3.8078969958110522],[113.76021514621517,3.809169905935183],[113.76176977138685,3.808384354048294],[113.76176977138685,3.8068132523678586],[113.76125156299629,3.8068132523678586]]],[[[113.75519160122872,3.807206027526344],[113.75555127070012,3.8068132523678586],[113.75658768748124,3.806762544080604],[113.75537179999998,3.806598395812449],[113.75519160122872,3.807206027526344]]],[[[113.75503306230956,3.8077406223888692],[113.75472567694773,3.8087771299044997],[113.75555127070012,3.808384354048294],[113.75503306230956,3.8077406223888692]]],[[[113.75814231265294,3.808384354048294],[113.75865840308971,3.808384354048294],[113.75818972221926,3.8079915783665443],[113.75814231265294,3.8079915783665443],[113.75814231265294,3.808384354048294]]],[[[113.75917872943405,3.808662133178555],[113.758781,3.8084870958104178],[113.7586605210435,3.8083861289893597],[113.7586605210435,3.8087771299044997],[113.75917872943405,3.808662133178555]]],[[[113.754514853919,3.8094880286549673],[113.7543799,3.8099430958088685],[113.7543797482416,3.8111337887063677],[113.754514853919,3.8107410118030343],[113.75503306230956,3.8107410118030343],[113.75503306230956,3.8095626821403594],[113.754514853919,3.8094880286549673]]],[[[113.754514853919,3.813883231919104],[113.754514853919,3.813490453793294],[113.75503306230956,3.813490453793294],[113.75503306230956,3.81191934303681],[113.754514853919,3.81191934303681],[113.75437969818071,3.811526565784287],[113.75437909999997,3.816219895802188],[113.75459272726252,3.817025463216768],[113.75503306230956,3.817025463216768],[113.75503306230956,3.8162399043435684],[113.754514853919,3.8162399043435684],[113.754514853919,3.8158471251692085],[113.75503306230956,3.8158471251692085],[113.75503306230956,3.813883231919104],[113.754514853919,3.813883231919104]]],[[[113.7546968878745,3.817418242915645],[113.75490769999999,3.8182131958000833],[113.75503306230956,3.8189893634601004],[113.75503306230956,3.8185965830616095],[113.75555127070012,3.8185965830616095],[113.75555127070012,3.8178110227894],[113.7546968878745,3.817418242915645]]],[[[113.7560694790907,3.8205604868037404],[113.7560694790907,3.8197749247819504],[113.75509603303999,3.8193821440335416],[113.75551359999999,3.8202580957979064],[113.7560694790907,3.8205604868037404]]],[[[113.76332439655855,3.8221316129477327],[113.76280618816797,3.8221316129477327],[113.76280618816797,3.821738831149138],[113.76228797977741,3.821738831149138],[113.76228797977741,3.8221316129477327],[113.76125156299629,3.8221316129477327],[113.76125156299629,3.821738831149138],[113.75969693782461,3.821738831149138],[113.75969693782461,3.8213460495256197],[113.75814231265294,3.8213460495256197],[113.75814231265294,3.8209532680771607],[113.75710589587182,3.8209532680771607],[113.75710589587182,3.8205604868037404],[113.75658768748124,3.8205604868037404],[113.7569039,3.8211825957969263],[113.76066679999998,3.8220291957960186],[113.76203559999998,3.822705895795305],[113.76283371065851,3.8237027418932374],[113.76332439655855,3.8237027418932374],[113.76332439655855,3.822917177070223],[113.76280618816797,3.822917177070223],[113.76332439655855,3.8221316129477327]]],[[[113.76125156299629,3.8276305765212806],[113.76280618816797,3.8268450081934566],[113.76280618816797,3.825666657016526],[113.76332439655855,3.825666657016526],[113.76280618816797,3.824981695033514],[113.7618048,3.826906695790842],[113.75969693782461,3.828808930328182],[113.76021514621517,3.828808930328182],[113.76125156299629,3.8276305765212806]]],[[[113.76384260494909,3.8441276736529577],[113.76332439655855,3.8441276736529577],[113.76332439655855,3.843734882021018],[113.76176977138685,3.843734882021018],[113.76176977138685,3.8441276736529577],[113.76073335460573,3.8441276736529577],[113.76073335460573,3.843734882021018],[113.76021514621517,3.843734882021018],[113.76021514621517,3.8394141856880224],[113.76073335460573,3.8394141856880224],[113.76073335460573,3.838628606823927],[113.76125156299629,3.838628606823927],[113.76125156299629,3.8370574512059017],[113.76073335460573,3.8370574512059017],[113.76021514621517,3.835486298400463],[113.75917872943405,3.8350935106384347],[113.75917872943405,3.8339151484064455],[113.7586605210435,3.8339151484064455],[113.7586605210435,3.83352236134709],[113.75658768748124,3.8323440012226837],[113.75658768748124,3.83195121486571],[113.75710589587182,3.83195121486571],[113.75710589587182,3.8307728568480126],[113.75762410426236,3.8307728568480126],[113.75762410426236,3.8303800711931295],[113.75969693782461,3.829201715281267],[113.75940995024818,3.828808930328182],[113.75761319999997,3.8302360957873054],[113.75650279999999,3.8312976957861684],[113.75597890000002,3.832455195784939],[113.75843349999998,3.8340861957831884],[113.7601556,3.836458495780651],[113.7604565,3.838567095778427],[113.7594043,3.8404168957764555],[113.75985389999998,3.8438847957727655],[113.7609721,3.8445386957720578],[113.76244439999999,3.8439515957727117],[113.76337009999999,3.844284395772366],[113.76384260494909,3.8441276736529577]]],[[[113.7664336469019,3.769023443458593],[113.76695185529246,3.769107646404404],[113.76695185529246,3.768980538323702],[113.7664336469019,3.769023443458593]]],[[[113.77006110563582,3.7808904766002573],[113.7690246888547,3.7812832402884],[113.76954289724526,3.7820687681843084],[113.77057931402639,3.781676004149744],[113.77006110563582,3.7808904766002573]]],[[[113.76539723012078,3.7973867008377247],[113.76487902173021,3.798172242968246],[113.76591543851134,3.798565014294476],[113.7664336469019,3.7977794718160034],[113.76539723012078,3.7973867008377247]]],[[[113.76436081333966,3.800528873536018],[113.76436081333966,3.801314418451161],[113.76384260494909,3.801314418451161],[113.76384260494909,3.801707191169918],[113.76487902173021,3.802099964062825],[113.76487902173021,3.801707191169918],[113.76539723012078,3.801707191169918],[113.76487902173021,3.800921645906533],[113.76591543851134,3.800528873536018],[113.76591543851134,3.798957785794707],[113.76539723012078,3.798957785794707],[113.76539723012078,3.798565014294476],[113.76436081333966,3.798957785794707],[113.76436081333966,3.800136101339595],[113.76384260494909,3.800136101339595],[113.76384260494909,3.800528873536018],[113.76436081333966,3.800528873536018]]],[[[113.775761397932,3.7997433293172476],[113.77472498115087,3.800136101339595],[113.77472498115087,3.800921645906533],[113.77524318954143,3.800921645906533],[113.77524318954143,3.801314418451161],[113.77627960632255,3.800921645906533],[113.77627960632255,3.800136101339595],[113.775761397932,3.800136101339595],[113.775761397932,3.7997433293172476]]],[[[113.7664336469019,3.8028855103711514],[113.76591543851134,3.8036710573762895],[113.76695185529246,3.8040638311402066],[113.76747006368302,3.80327828378661],[113.7664336469019,3.8028855103711514]]],[[[113.77368856436975,3.8036710573762895],[113.77317035597919,3.804456605078383],[113.77420677276031,3.804849379190835],[113.77472498115087,3.8040638311402066],[113.77368856436975,3.8036710573762895]]],[[[113.76798827207358,3.8040638311402066],[113.76695185529246,3.804456605078383],[113.76747006368302,3.8052421534775784],[113.76850648046415,3.804849379190835],[113.76798827207358,3.8040638311402066]]],[[[113.77420677276031,3.8052421534775784],[113.77317035597919,3.8056349279386352],[113.77317035597919,3.806420477383757],[113.77368856436975,3.806420477383757],[113.77368856436975,3.8068132523678586],[113.77472498115087,3.806420477383757],[113.77472498115087,3.8056349279386352],[113.77420677276031,3.8056349279386352],[113.77420677276031,3.8052421534775784]]],[[[113.7690246888547,3.8068132523678586],[113.76798827207358,3.807206027526344],[113.76850648046415,3.8079915783665443],[113.76954289724526,3.8075988028592334],[113.7690246888547,3.8068132523678586]]],[[[113.77109752241695,3.8103482350742666],[113.77109752241695,3.8107410118030343],[113.77057931402639,3.8107410118030343],[113.77057931402639,3.811526565784287],[113.77006110563582,3.811526565784287],[113.77006110563582,3.814668788694882],[113.77057931402639,3.814668788694882],[113.77057931402639,3.815061567344884],[113.77161573080751,3.815061567344884],[113.77161573080751,3.814668788694882],[113.77213393919806,3.814668788694882],[113.77213393919806,3.8107410118030343],[113.77109752241695,3.8103482350742666]]],[[[113.77057931402639,3.8154543461696546],[113.77057931402639,3.8158471251692085],[113.77006110563582,3.8158471251692085],[113.77006110563582,3.8166326836927476],[113.77109752241695,3.817025463216768],[113.77109752241695,3.8166326836927476],[113.77161573080751,3.8166326836927476],[113.77161573080751,3.8158471251692085],[113.77057931402639,3.8154543461696546]]],[[[113.77265214758863,3.817025463216768],[113.77161573080751,3.817418242915645],[113.77213393919806,3.8182038028380476],[113.77317035597919,3.8178110227894],[113.77265214758863,3.817025463216768]]],[[[113.77420677276031,3.8441276736529577],[113.77420677276031,3.8444987529314365],[113.77472498115087,3.8445090034663654],[113.77472498115087,3.8441276736529577],[113.77420677276031,3.8441276736529577]]],[[[113.77530443400538,3.844520465461012],[113.77731602310367,3.8445602561428114],[113.7767978147131,3.844520465461012],[113.7767978147131,3.8441276736529577],[113.775761397932,3.8441276736529577],[113.775761397932,3.844520465461012],[113.77530443400538,3.844520465461012]]],[[[113.78249810700927,3.7769628492409066],[113.78249810700927,3.777119978234433],[113.78281681522635,3.7769628492409066],[113.78249810700927,3.7769628492409066]]],[[[113.78197989861872,3.7773556111980344],[113.78197989861872,3.777375464529812],[113.78202016755657,3.7773556111980344],[113.78197989861872,3.7773556111980344]]],[[[113.78560735735265,3.7793194235793357],[113.78560735735265,3.7797121865748555],[113.78664377413375,3.7797121865748555],[113.78664377413375,3.7793194235793357],[113.78716198252432,3.7793194235793357],[113.78716198252432,3.7785338981076113],[113.78768019091488,3.7785338981076113],[113.78768019091488,3.7777483733281834],[113.78819839930546,3.7777483733281834],[113.78819839930546,3.7781411356313686],[113.78923481608656,3.7777483733281834],[113.78975302447712,3.7785338981076113],[113.7928622748205,3.7785338981076113],[113.7928622748205,3.7781411356313686],[113.7938594487329,3.7785338981076113],[113.7938418512371,3.7777483733281834],[113.79338048321107,3.7777483733281834],[113.79338048321107,3.777426491394168],[113.7928622748205,3.7777483733281834],[113.79002039999999,3.7779036958430043],[113.78923481608656,3.777055783317317],[113.788716607696,3.7773556111980344],[113.78770689999999,3.7771878958437455],[113.78635229999999,3.779088295841716],[113.78352839999998,3.7787715958420653],[113.78042527344704,3.7804977130852966],[113.78146169022816,3.7804977130852966],[113.78146169022816,3.780104949743502],[113.78197989861872,3.780104949743502],[113.78197989861872,3.7797121865748555],[113.78301631539985,3.7797121865748555],[113.78301631539985,3.7793194235793357],[113.78560735735265,3.7793194235793357]]],[[[113.7799611139992,3.7797121865748555],[113.77990706505648,3.780104949743502],[113.77995588236159,3.780104949743502],[113.7799611139992,3.7797121865748555]]],[[[113.79959898389778,3.7797121865748555],[113.80011719228834,3.7797121865748555],[113.80011719228834,3.7793194235793357],[113.80115360906946,3.7793194235793357],[113.80115360906946,3.779068218041929],[113.80011719228834,3.778633815637182],[113.79959898389778,3.7793194235793357],[113.7980443587261,3.779735622551845],[113.7980443587261,3.780104949743502],[113.79959898389778,3.780104949743502],[113.79959898389778,3.7797121865748555]]],[[[113.7938986916016,3.778740943463395],[113.79441689999217,3.7789266607569276],[113.79441689999217,3.7793194235793357],[113.7954533167733,3.7793194235793357],[113.7954533167733,3.7797121865748555],[113.79648973355441,3.7797121865748555],[113.79648973355441,3.780104949743502],[113.79752615033554,3.780104949743502],[113.79752615033554,3.7797121865748555],[113.79794668128672,3.7797121865748555],[113.7938986916016,3.778740943463395]]],[[[113.81675266631706,3.789924085279767],[113.81669986078629,3.79031685295615],[113.81676122051336,3.79031685295615],[113.81675266631706,3.789924085279767]]],[[[113.78405273218095,3.79031685295615],[113.78353452379041,3.7911023888297937],[113.78457094057151,3.7914951570270916],[113.78508914896209,3.7907096208061533],[113.78405273218095,3.79031685295615]]],[[[113.78457094057151,3.7922806939427303],[113.78353452379041,3.792673462661108],[113.78405273218095,3.7934590006190683],[113.78508914896209,3.793066231553213],[113.78457094057151,3.7922806939427303]]],[[[113.80789031814676,3.794244539272091],[113.80737210975619,3.7950300786203215],[113.8084085265373,3.795422848555186],[113.80892673492787,3.7946373088592966],[113.80789031814676,3.794244539272091]]],[[[113.8084085265373,3.798957785794707],[113.8084085265373,3.798565014294476],[113.80789031814676,3.798565014294476],[113.80789031814676,3.798172242968246],[113.8084085265373,3.798172242968246],[113.8084085265373,3.7973867008377247],[113.80685390136563,3.796601159402994],[113.80685390136563,3.7969939300333952],[113.80633569297507,3.7969939300333952],[113.80633569297507,3.798957785794707],[113.80529927619395,3.798957785794707],[113.80478106780339,3.7997433293172476],[113.80529927619395,3.7997433293172476],[113.80529927619395,3.800136101339595],[113.80633569297507,3.800136101339595],[113.80633569297507,3.7997433293172476],[113.80737210975619,3.7997433293172476],[113.80737210975619,3.799350557468958],[113.8084085265373,3.798957785794707]]],[[[113.80426285941283,3.799350557468958],[113.80322644263171,3.7997433293172476],[113.80374465102226,3.800528873536018],[113.80478106780339,3.800136101339595],[113.80426285941283,3.799350557468958]]],[[[113.7980443587261,3.8099554585200477],[113.79752615033554,3.8107410118030343],[113.79856256711665,3.8111337887063677],[113.79908077550722,3.8103482350742666],[113.7980443587261,3.8099554585200477]]],[[[113.78094348183761,3.8154543461696546],[113.78042527344704,3.8162399043435684],[113.78146169022816,3.8166326836927476],[113.78197989861872,3.8158471251692085],[113.78094348183761,3.8154543461696546]]],[[[113.78716198252432,3.8240080413150648],[113.78734569999997,3.824011695793922],[113.78716198252432,3.82350914334374],[113.78716198252432,3.8240080413150648]]],[[[113.78664377413375,3.824095524567486],[113.78664377413375,3.825666657016526],[113.78672313363438,3.825666657016526],[113.78702642354224,3.824095524567486],[113.78664377413375,3.824095524567486]]],[[[113.78146169022816,3.842556508181702],[113.78149589999998,3.8435714957731055],[113.78197989861872,3.842556508181702],[113.78146169022816,3.842556508181702]]]]},"properties":{"place_id":"8c645ff9-379d-5e40-8b60-562f7695b7b8","habitat":"forest_edge_opening","habitat_label":"Forest edge or opening","resolution_m":50}},{"type":"Feature","geometry":{"type":"MultiPolygon","coordinates":[[[[113.78301631539985,3.77902987009603],[113.78244221313503,3.7793194235793357],[113.78301631539985,3.7793194235793357],[113.78301631539985,3.77902987009603]]],[[[113.78197989861872,3.7797121865748555],[113.78197989861872,3.7795525960053014],[113.78166347603829,3.7797121865748555],[113.78197989861872,3.7797121865748555]]],[[[113.78146169022816,3.7798139590749287],[113.78088473894155,3.780104949743502],[113.78146169022816,3.780104949743502],[113.78146169022816,3.7798139590749287]]],[[[113.76954289724526,3.7812832402884],[113.76954289724526,3.781676004149744],[113.77006110563582,3.781676004149744],[113.77006110563582,3.7812832402884],[113.76954289724526,3.7812832402884]]],[[[113.75339075271751,3.796208388946505],[113.75347843713789,3.79637206012939],[113.75347843713789,3.796208388946505],[113.75339075271751,3.796208388946505]]],[[[113.76591543851134,3.7977794718160034],[113.76539723012078,3.7977794718160034],[113.76539723012078,3.798172242968246],[113.76591543851134,3.798172242968246],[113.76591543851134,3.7977794718160034]]],[[[113.76436081333966,3.800528873536018],[113.76539723012078,3.800528873536018],[113.76539723012078,3.798957785794707],[113.76487902173021,3.798957785794707],[113.76487902173021,3.800136101339595],[113.76436081333966,3.800136101339595],[113.76436081333966,3.800528873536018]]],[[[113.775761397932,3.800136101339595],[113.77524318954143,3.800136101339595],[113.77524318954143,3.800921645906533],[113.775761397932,3.800921645906533],[113.775761397932,3.800136101339595]]],[[[113.76436081333966,3.801314418451161],[113.76436081333966,3.801707191169918],[113.76487902173021,3.801707191169918],[113.76487902173021,3.801314418451161],[113.76436081333966,3.801314418451161]]],[[[113.7664336469019,3.80327828378661],[113.7664336469019,3.8036710573762895],[113.76695185529246,3.8036710573762895],[113.76695185529246,3.80327828378661],[113.7664336469019,3.80327828378661]]],[[[113.77420677276031,3.8040638311402066],[113.77368856436975,3.8040638311402066],[113.77368856436975,3.804456605078383],[113.77420677276031,3.804456605078383],[113.77420677276031,3.8040638311402066]]],[[[113.76798827207358,3.804456605078383],[113.76747006368302,3.804456605078383],[113.76747006368302,3.804849379190835],[113.76798827207358,3.804849379190835],[113.76798827207358,3.804456605078383]]],[[[113.77420677276031,3.8056349279386352],[113.77368856436975,3.8056349279386352],[113.77368856436975,3.806420477383757],[113.77420677276031,3.806420477383757],[113.77420677276031,3.8056349279386352]]],[[[113.76850648046415,3.807206027526344],[113.76850648046415,3.8075988028592334],[113.7690246888547,3.8075988028592334],[113.7690246888547,3.807206027526344],[113.76850648046415,3.807206027526344]]],[[[113.77161573080751,3.814668788694882],[113.77161573080751,3.8107410118030343],[113.77109752241695,3.8107410118030343],[113.77109752241695,3.811526565784287],[113.77057931402639,3.811526565784287],[113.77057931402639,3.814668788694882],[113.77161573080751,3.814668788694882]]],[[[113.78146169022816,3.8158471251692085],[113.78094348183761,3.8158471251692085],[113.78094348183761,3.8162399043435684],[113.78146169022816,3.8162399043435684],[113.78146169022816,3.8158471251692085]]],[[[113.77109752241695,3.8158471251692085],[113.77057931402639,3.8158471251692085],[113.77057931402639,3.8166326836927476],[113.77109752241695,3.8166326836927476],[113.77109752241695,3.8158471251692085]]],[[[113.77265214758863,3.817418242915645],[113.77213393919806,3.817418242915645],[113.77213393919806,3.8178110227894],[113.77265214758863,3.8178110227894],[113.77265214758863,3.817418242915645]]],[[[113.78146169022816,3.8429492992854097],[113.78146169022816,3.8433420905651747],[113.7817477275826,3.8433420905651747],[113.78189578788567,3.8429492992854097],[113.78146169022816,3.8429492992854097]]],[[[113.7767978147131,3.844520465461012],[113.775761397932,3.8445295045365846],[113.7767978147131,3.8445500056072826],[113.7767978147131,3.844520465461012]]],[[[113.78768019091488,3.7777483733281834],[113.787587352831,3.7773556111980344],[113.78730739285842,3.7777483733281834],[113.78768019091488,3.7777483733281834]]],[[[113.788716607696,3.7773556111980344],[113.78819839930546,3.7773556111980344],[113.78819839930546,3.7777483733281834],[113.788716607696,3.7777483733281834],[113.788716607696,3.7773556111980344]]],[[[113.7928622748205,3.7777483733281834],[113.79234406642993,3.7777483733281834],[113.79234406642993,3.7781411356313686],[113.7928622748205,3.7781411356313686],[113.7928622748205,3.7777483733281834]]],[[[113.79338048321107,3.7777483733281834],[113.79338048321107,3.7781411356313686],[113.793850649985,3.7781411356313686],[113.7938418512371,3.7777483733281834],[113.79338048321107,3.7777483733281834]]],[[[113.78716198252432,3.7785338981076113],[113.78716198252432,3.7779523728183917],[113.78674747291329,3.7785338981076113],[113.78716198252432,3.7785338981076113]]],[[[113.78405273218095,3.7789266607569276],[113.78353452379041,3.778772282624202],[113.78353452379041,3.7789266607569276],[113.78405273218095,3.7789266607569276]]],[[[113.79441689999217,3.7789266607569276],[113.79467273263319,3.7789266607569276],[113.79441689999217,3.778865278288736],[113.79441689999217,3.7789266607569276]]],[[[113.78664377413375,3.7789266607569276],[113.78560735735265,3.779004750614542],[113.78560735735265,3.7793194235793357],[113.78664377413375,3.7793194235793357],[113.78664377413375,3.7789266607569276]]],[[[113.7954533167733,3.7793194235793357],[113.79630970695995,3.7793194235793357],[113.7954533167733,3.7791139479914575],[113.7954533167733,3.7793194235793357]]],[[[113.79959898389778,3.7797121865748555],[113.80011719228834,3.7789266607569276],[113.80081587539222,3.7789266607569276],[113.79989549999999,3.7785408958423297],[113.79817120448688,3.7797121865748555],[113.79959898389778,3.7797121865748555]]],[[[113.79752615033554,3.7796112876050696],[113.79648973355441,3.7793626177635677],[113.79648973355441,3.7797121865748555],[113.79752615033554,3.7796112876050696]]],[[[113.78457094057151,3.7907096208061533],[113.78405273218095,3.7907096208061533],[113.78405273218095,3.7911023888297937],[113.78457094057151,3.7911023888297937],[113.78457094057151,3.7907096208061533]]],[[[113.78457094057151,3.792673462661108],[113.78405273218095,3.792673462661108],[113.78405273218095,3.793066231553213],[113.78457094057151,3.793066231553213],[113.78457094057151,3.792673462661108]]],[[[113.80789031814676,3.7946373088592966],[113.80789031814676,3.7950300786203215],[113.8084085265373,3.7950300786203215],[113.8084085265373,3.7946373088592966],[113.80789031814676,3.7946373088592966]]],[[[113.80685390136563,3.7969939300333952],[113.80685390136563,3.798565014294476],[113.80737210975619,3.798565014294476],[113.80737210975619,3.798172242968246],[113.80789031814676,3.798172242968246],[113.80789031814676,3.7973867008377247],[113.80685390136563,3.7969939300333952]]],[[[113.80789031814676,3.798565014294476],[113.80737210975619,3.798565014294476],[113.80737210975619,3.798957785794707],[113.80789031814676,3.798957785794707],[113.80789031814676,3.798565014294476]]],[[[113.80633569297507,3.799350557468958],[113.80737210975619,3.799350557468958],[113.80737210975619,3.798957785794707],[113.80633569297507,3.798957785794707],[113.80633569297507,3.799350557468958]]],[[[113.80633569297507,3.799350557468958],[113.80529927619395,3.799350557468958],[113.80529927619395,3.7997433293172476],[113.80633569297507,3.7997433293172476],[113.80633569297507,3.799350557468958]]],[[[113.80374465102226,3.7997433293172476],[113.80374465102226,3.800136101339595],[113.80426285941283,3.800136101339595],[113.80426285941283,3.7997433293172476],[113.80374465102226,3.7997433293172476]]],[[[113.7980443587261,3.8103482350742666],[113.7980443587261,3.8107410118030343],[113.79856256711665,3.8107410118030343],[113.79856256711665,3.8103482350742666],[113.7980443587261,3.8103482350742666]]]]},"properties":{"place_id":"8c645ff9-379d-5e40-8b60-562f7695b7b8","habitat":"open_grassland","habitat_label":"Open grassland or shrubland","resolution_m":50}},{"type":"Feature","geometry":{"type":"MultiPolygon","coordinates":[[[[113.75399664552845,3.7969939300333952],[113.75381159461239,3.7969939300333952],[113.75399664552845,3.797339345240779],[113.75399664552845,3.7969939300333952]]],[[[113.75423243650728,3.7977794718160034],[113.754514853919,3.7973867008377247],[113.75402201555984,3.7973867008377247],[113.75423243650728,3.7977794718160034]]],[[[113.754514853919,3.798172242968246],[113.75444285745472,3.798172242968246],[113.754514853919,3.798306631407147],[113.754514853919,3.798172242968246]]],[[[113.75555127070012,3.7997433293172476],[113.7552845412445,3.7997433293172476],[113.75555127070012,3.800098879566721],[113.75555127070012,3.7997433293172476]]],[[[113.7560694790907,3.800528873536018],[113.75590522396082,3.800528873536018],[113.7560694790907,3.8007284160977],[113.7560694790907,3.800528873536018]]],[[[113.75658768748124,3.801314418451161],[113.75655185161908,3.801314418451161],[113.75658768748124,3.801357953075944],[113.75658768748124,3.801314418451161]]],[[[113.75710589587182,3.801707191169918],[113.7568751654482,3.801707191169918],[113.75710589587182,3.8019874905015265],[113.75710589587182,3.801707191169918]]],[[[113.75762410426236,3.8024927371298944],[113.75752179310646,3.8024927371298944],[113.75762410426236,3.802617028374527],[113.75762410426236,3.8024927371298944]]],[[[113.75503306230956,3.8107410118030343],[113.75437989842433,3.8099554585200477],[113.7543797482416,3.8111337887063677],[113.754514853919,3.8107410118030343],[113.75503306230956,3.8107410118030343]]],[[[113.75496946879227,3.8185965830616095],[113.75503306230956,3.8182038028380476],[113.7549052090984,3.8182038028380476],[113.75496946879227,3.8185965830616095]]],[[[113.78768019091488,3.7773556111980344],[113.78768019091488,3.7777483733281834],[113.78923481608656,3.7777483733281834],[113.78975302447712,3.7785338981076113],[113.79234406642993,3.7785338981076113],[113.79234406642993,3.7781411356313686],[113.793850649985,3.7781411356313686],[113.79383319999998,3.777362195843564],[113.79002039999999,3.7779036958430043],[113.78990429999999,3.7769978958439427],[113.78768019091488,3.7773556111980344]]],[[[113.79441689999217,3.7789266607569276],[113.79467273263319,3.7789266607569276],[113.79441689999217,3.778865278288736],[113.79441689999217,3.7789266607569276]]],[[[113.78353452379041,3.778772282624202],[113.78405273218095,3.7789266607569276],[113.78405273218095,3.7793194235793357],[113.78560735735265,3.7793194235793357],[113.78560735735265,3.779004750614542],[113.78353452379041,3.778772282624202]]],[[[113.7954533167733,3.7793194235793357],[113.79493510838273,3.778989613131424],[113.79493510838273,3.7793194235793357],[113.7954533167733,3.7793194235793357]]],[[[113.7586605210435,3.8036710573762895],[113.75849173459386,3.8036710573762895],[113.7586605210435,3.8038761054630736],[113.7586605210435,3.8036710573762895]]],[[[113.76097707814527,3.808384354048294],[113.76021514621517,3.808871338359022],[113.76021514621517,3.809169905935183],[113.76125156299629,3.8087771299044997],[113.76097707814527,3.808384354048294]]],[[[113.76280618816797,3.8221316129477327],[113.76280618816797,3.821738831149138],[113.76228797977741,3.821738831149138],[113.76176977138685,3.8225243949214205],[113.76280618816797,3.822917177070223],[113.76280618816797,3.8225243949214205],[113.76332439655855,3.8225243949214205],[113.76332439655855,3.8221316129477327],[113.76280618816797,3.8221316129477327]]],[[[113.78716198252432,3.8237027418932374],[113.78716198252432,3.8240080413150648],[113.78732380000001,3.824039995793881],[113.7873371,3.823910995793992],[113.78716198252432,3.8237027418932374]]],[[[113.78664377413375,3.825666657016526],[113.7869818,3.8248611957929963],[113.78702642354224,3.824095524567486],[113.78664377413375,3.824095524567486],[113.78664377413375,3.825666657016526]]]]},"properties":{"place_id":"8c645ff9-379d-5e40-8b60-562f7695b7b8","habitat":"disturbed_built_edge","habitat_label":"Disturbed, bare or built edge","resolution_m":50}},{"type":"Feature","geometry":{"type":"Polygon","coordinates":[[[113.76228797977741,3.822917177070223],[113.76223865649447,3.822917177070223],[113.76228797977741,3.8229684981948377],[113.76228797977741,3.822917177070223]]]},"properties":{"place_id":"8c645ff9-379d-5e40-8b60-562f7695b7b8","habitat":"cropland","habitat_label":"Cropland","resolution_m":50}},{"type":"Feature","geometry":{"type":"MultiPolygon","coordinates":[[[[113.7560694790907,3.78285429677317],[113.7560694790907,3.7824118851353496],[113.75571632116102,3.78285429677317],[113.7560694790907,3.78285429677317]]],[[[113.75555127070012,3.783247061327503],[113.75555127070012,3.783065235177467],[113.75540899938949,3.783247061327503],[113.75555127070012,3.783247061327503]]],[[[113.75503306230956,3.7844253560303285],[113.75503306230956,3.7837275181182535],[113.75460580161415,3.7844253560303285],[113.75503306230956,3.7844253560303285]]],[[[113.754514853919,3.784818121277941],[113.754514853919,3.784579153704068],[113.75437354134431,3.784818121277941],[113.754514853919,3.784818121277941]]],[[[113.75347843713789,3.786389184002223],[113.75347843713789,3.7863317947192083],[113.75344450026492,3.786389184002223],[113.75347843713789,3.786389184002223]]],[[[113.75296022874733,3.787567482866473],[113.75296022874733,3.7872081165217346],[113.75272316258508,3.787567482866473],[113.75296022874733,3.787567482866473]]],[[[113.75192381196621,3.788353016310073],[113.75178469999999,3.7880344958322008],[113.7516628457381,3.788353016310073],[113.75192381196621,3.788353016310073]]],[[[113.75140560357563,3.789138550447789],[113.75140560357563,3.7887110247719233],[113.7509190959214,3.789138550447789],[113.75140560357563,3.789138550447789]]],[[[113.75088739518509,3.789531317776987],[113.75088739518509,3.7891664079379366],[113.75053958582468,3.789531317776987],[113.75088739518509,3.789531317776987]]],[[[113.75088739518509,3.7918879253980657],[113.75088739518509,3.7907096208061533],[113.75045372470926,3.7907096208061533],[113.75044659999999,3.7908073958292667],[113.75088739518509,3.7918879253980657]]],[[[113.75099323918924,3.7922806939427303],[113.75127697056514,3.792673462661108],[113.75140560357563,3.792673462661108],[113.75140560357563,3.7922806939427303],[113.75099323918924,3.7922806939427303]]],[[[113.75156317034539,3.793066231553213],[113.75184937012564,3.7934590006190683],[113.75192381196621,3.7934590006190683],[113.75192381196621,3.793066231553213],[113.75156317034539,3.793066231553213]]],[[[113.75244202035677,3.793851769858687],[113.75240653089797,3.794244539272091],[113.75244202035677,3.794244539272091],[113.75244202035677,3.793851769858687]]],[[[113.75296022874733,3.7946373088592966],[113.75260237712125,3.7946373088592966],[113.75296022874733,3.795354980719561],[113.75296022874733,3.7946373088592966]]],[[[113.75339075271751,3.796208388946505],[113.75347843713789,3.7958156186639074],[113.75318991579108,3.7958156186639074],[113.75339075271751,3.796208388946505]]],[[[113.75360117366493,3.796601159402994],[113.75399664552845,3.797339345240779],[113.75399664552845,3.796601159402994],[113.75360117366493,3.796601159402994]]],[[[113.75423243650728,3.7977794718160034],[113.754514853919,3.798306631407147],[113.754514853919,3.7977794718160034],[113.75423243650728,3.7977794718160034]]],[[[113.75503306230956,3.798957785794707],[113.75486369934961,3.798957785794707],[113.75503306230956,3.7992739186287667],[113.75503306230956,3.798957785794707]]],[[[113.7552845412445,3.7997433293172476],[113.75555127070012,3.799350557468958],[113.75507412029708,3.799350557468958],[113.7552845412445,3.7997433293172476]]],[[[113.7560694790907,3.800528873536018],[113.75590522396082,3.800528873536018],[113.7560694790907,3.8007284160977],[113.7560694790907,3.800528873536018]]],[[[113.75530808229897,3.8068132523678586],[113.75555127070012,3.806563784784303],[113.75537179999998,3.806598395812449],[113.75530808229897,3.8068132523678586]]],[[[113.75495863908822,3.8079915783665443],[113.75484215801798,3.808384354048294],[113.75503306230956,3.808384354048294],[113.75495863908822,3.8079915783665443]]],[[[113.75449271480723,3.8095626821403594],[113.7543799,3.8099430958088685],[113.75437984836341,3.8103482350742666],[113.754514853919,3.8103482350742666],[113.75449271480723,3.8095626821403594]]],[[[113.75437944787616,3.813490453793294],[113.754514853919,3.81191934303681],[113.75437964811981,3.81191934303681],[113.75437944787616,3.813490453793294]]],[[[113.75437914751073,3.8158471251692085],[113.754514853919,3.813883231919104],[113.75437939781527,3.813883231919104],[113.75437914751073,3.8158471251692085]]],[[[113.75438440603861,3.8162399043435684],[113.754514853919,3.816731810405521],[113.754514853919,3.8162399043435684],[113.75438440603861,3.8162399043435684]]],[[[113.75503306230956,3.8178110227894],[113.75496946879227,3.8185965830616095],[113.75503306230956,3.8185965830616095],[113.75503306230956,3.8178110227894]]],[[[113.75555127070012,3.8197749247819504],[113.75551359999999,3.8202580957979064],[113.75555127070012,3.8202831454594652],[113.75555127070012,3.8197749247819504]]],[[[113.75969693782461,3.7781411356313686],[113.75969693782461,3.777553378966329],[113.7592451495602,3.7781411356313686],[113.75969693782461,3.7781411356313686]]],[[[113.75917872943405,3.778227545327385],[113.75894324676531,3.7785338981076113],[113.75917872943405,3.7785338981076113],[113.75917872943405,3.778227545327385]]],[[[113.75864134397044,3.7789266607569276],[113.7584347,3.7791954958416105],[113.75835138777275,3.7793194235793357],[113.7586605210435,3.7793194235793357],[113.75864134397044,3.7789266607569276]]],[[[113.75814231265294,3.780104949743502],[113.75814231265294,3.7796304249029213],[113.75782330663381,3.780104949743502],[113.75814231265294,3.780104949743502]]],[[[113.75762410426236,3.7808904766002573],[113.75762410426236,3.7804012655143056],[113.75729522549486,3.7808904766002573],[113.75762410426236,3.7808904766002573]]],[[[113.75710589587182,3.781676004149744],[113.75710589587182,3.7811495460525144],[113.75667365841726,3.781676004149744],[113.75710589587182,3.781676004149744]]],[[[113.75658768748124,3.7817807153702625],[113.75635118785439,3.7820687681843084],[113.75658768748124,3.7820687681843084],[113.75658768748124,3.7817807153702625]]],[[[113.75658768748124,3.801314418451161],[113.75655185161908,3.801314418451161],[113.75658768748124,3.801357953075944],[113.75658768748124,3.801314418451161]]],[[[113.75710589587182,3.801707191169918],[113.7568751654482,3.801707191169918],[113.75710589587182,3.8019874905015265],[113.75710589587182,3.801707191169918]]],[[[113.75762410426236,3.8024927371298944],[113.75752179310646,3.8024927371298944],[113.75762410426236,3.802617028374527],[113.75762410426236,3.8024927371298944]]],[[[113.75784510693558,3.8028855103711514],[113.75814231265294,3.803246566695018],[113.75814231265294,3.8028855103711514],[113.75784510693558,3.8028855103711514]]],[[[113.7586605210435,3.8036710573762895],[113.75849173459386,3.8036710573762895],[113.7586605210435,3.8038761054630736],[113.7586605210435,3.8036710573762895]]],[[[113.75969693782461,3.804849379190835],[113.75917872943405,3.804849379190835],[113.75884414437542,3.804456605078383],[113.75969693782461,3.805551251319899],[113.75969693782461,3.804849379190835]]],[[[113.75658768748124,3.820972325645371],[113.7569039,3.8211825957969263],[113.75710589587182,3.821244071940115],[113.75710589587182,3.8209532680771607],[113.75658768748124,3.820972325645371]]],[[[113.75814231265294,3.8213460495256197],[113.75744096974455,3.8213460495256197],[113.75814231265294,3.8215594987826975],[113.75814231265294,3.8213460495256197]]],[[[113.75969693782461,3.821738831149138],[113.75899199999999,3.8218180957962153],[113.75969693782461,3.8219069496082048],[113.75969693782461,3.821738831149138]]],[[[113.76021514621517,3.828416145550501],[113.76021514621517,3.828169360903945],[113.75990445274084,3.828416145550501],[113.76021514621517,3.828416145550501]]],[[[113.75917872943405,3.829201715281267],[113.75917872943405,3.8289925897579713],[113.75891544775551,3.829201715281267],[113.75917872943405,3.829201715281267]]],[[[113.7586605210435,3.829594500409774],[113.7586605210435,3.8294042044739243],[113.75842094526284,3.829594500409774],[113.7586605210435,3.829594500409774]]],[[[113.75814231265294,3.8299872857137225],[113.75814231265294,3.8298158193825316],[113.75792644277017,3.8299872857137225],[113.75814231265294,3.8299872857137225]]],[[[113.75762410426236,3.8303800711931295],[113.75762410426236,3.8302274344838168],[113.75746260620362,3.8303800711931295],[113.75762410426236,3.8303800711931295]]],[[[113.75710589587182,3.8307728568480126],[113.75710589587182,3.8307211046897596],[113.75705176475097,3.8307728568480126],[113.75710589587182,3.8307728568480126]]],[[[113.7560694790907,3.83195121486571],[113.75658768748124,3.83195121486571],[113.75658768748124,3.831216538905533],[113.75650279999999,3.8312976957861684],[113.7560694790907,3.83195121486571]]],[[[113.75598989617856,3.8323440012226837],[113.7561913,3.8326664957846974],[113.75762410426236,3.833606375506818],[113.75762410426236,3.833129574463355],[113.75710589587182,3.833129574463355],[113.75658768748124,3.8323440012226837],[113.75598989617856,3.8323440012226837]]],[[[113.75814496489602,3.8339151484064455],[113.75843349999998,3.8340861957831884],[113.7586605210435,3.834640196711588],[113.7586605210435,3.8339151484064455],[113.75814496489602,3.8339151484064455]]],[[[113.75917872943405,3.8350935106384347],[113.75884628199879,3.8350935106384347],[113.75917872943405,3.835386712431561],[113.75917872943405,3.8350935106384347]]],[[[113.75969693782461,3.835486298400463],[113.75930346234942,3.835486298400463],[113.75969693782461,3.8358004467994777],[113.75969693782461,3.835486298400463]]],[[[113.75969693782461,3.8433420905651747],[113.75969693782461,3.8398069753839055],[113.7596506189038,3.8398069753839055],[113.7594043,3.8404168957764555],[113.75969693782461,3.8433420905651747]]],[[[113.76436081333966,3.7687148880764827],[113.76436081333966,3.7685944559956512],[113.76421696200921,3.7687148880764827],[113.76436081333966,3.7687148880764827]]],[[[113.76384260494909,3.7698931635781814],[113.76384260494909,3.7693134079415938],[113.7634955821346,3.7698931635781814],[113.76384260494909,3.7698931635781814]]],[[[113.76332439655855,3.770678681442651],[113.76326350000001,3.7701484958512173],[113.76302640341126,3.770678681442651],[113.76332439655855,3.770678681442651]]],[[[113.76280618816797,3.7726424791265742],[113.76280618816797,3.7715593686835236],[113.76237394741952,3.7726424791265742],[113.76280618816797,3.7726424791265742]]],[[[113.76228797977741,3.773035239181688],[113.76228797977741,3.7727578497958243],[113.76208128507454,3.773035239181688],[113.76228797977741,3.773035239181688]]],[[[113.76176977138685,3.773820759810395],[113.76176977138685,3.7736151791046417],[113.76166230496479,3.773820759810395],[113.76176977138685,3.773820759810395]]],[[[113.76125156299629,3.775391803142222],[113.76125156299629,3.774606499849395],[113.76084104969624,3.775391803142222],[113.76125156299629,3.775391803142222]]],[[[113.76073335460573,3.7761773258456355],[113.76073335460573,3.7755978216955555],[113.760430422062,3.7761773258456355],[113.76073335460573,3.7761773258456355]]],[[[113.76021514621517,3.7773556111980344],[113.76021514621517,3.776589144643417],[113.75981448061059,3.7773556111980344],[113.76021514621517,3.7773556111980344]]],[[[113.76021514621517,3.8056349279386352],[113.75976582174822,3.8056349279386352],[113.76021514621517,3.8061807441975692],[113.76021514621517,3.8056349279386352]]],[[[113.76041249822974,3.806420477383757],[113.76073335460573,3.806810237523084],[113.76073335460573,3.806420477383757],[113.76041249822974,3.806420477383757]]],[[[113.76073583647049,3.8068132523678586],[113.76097707814527,3.808384354048294],[113.76125156299629,3.808384354048294],[113.76125156299629,3.8068132523678586],[113.76073583647049,3.8068132523678586]]],[[[113.76085308346849,3.8221316129477327],[113.76125156299629,3.8223506938249825],[113.76125156299629,3.8221316129477327],[113.76085308346849,3.8221316129477327]]],[[[113.76228797977741,3.822917177070223],[113.76228797977741,3.8225243949214205],[113.761567502554,3.8225243949214205],[113.76203559999998,3.822705895795305],[113.76228797977741,3.822917177070223]]],[[[113.76228797977741,3.822917177070223],[113.7624158,3.8231014957948717],[113.76280618816797,3.823663145402952],[113.76280618816797,3.822917177070223],[113.76228797977741,3.822917177070223]]],[[[113.76265301331252,3.825666657016526],[113.76280618816797,3.8252738736414234],[113.76274084961325,3.8252738736414234],[113.76265301331252,3.825666657016526]]],[[[113.76228797977741,3.8268450081934566],[113.76228797977741,3.8262487023522618],[113.76185009861197,3.8268450081934566],[113.76228797977741,3.8268450081934566]]],[[[113.76176977138685,3.8272377922697034],[113.76176977138685,3.8269345190672954],[113.76138796021885,3.8272377922697034],[113.76176977138685,3.8272377922697034]]],[[[113.76125156299629,3.8276305765212806],[113.76125156299629,3.8273461328202876],[113.76089345772618,3.8276305765212806],[113.76125156299629,3.8276305765212806]]],[[[113.76073335460573,3.828023360948207],[113.76073335460573,3.82775774676583],[113.76039895523351,3.828023360948207],[113.76073335460573,3.828023360948207]]],[[[113.7601556,3.836458495780651],[113.76021514621517,3.8362718744516817],[113.76004627525337,3.8362718744516817],[113.7601556,3.836458495780651]]],[[[113.76032755633992,3.8370574512059017],[113.76041510196134,3.838628606823927],[113.76073335460573,3.838628606823927],[113.76073335460573,3.8370574512059017],[113.76032755633992,3.8370574512059017]]],[[[113.76021514621517,3.8394141856880224],[113.76021514621517,3.8389257100178544],[113.759886393528,3.8394141856880224],[113.76021514621517,3.8394141856880224]]],[[[113.76073335460573,3.8441276736529577],[113.76021514621517,3.8441276736529577],[113.76021514621517,3.843734882021018],[113.75980047408746,3.843734882021018],[113.76038869999998,3.844363395772261],[113.76073335460573,3.844466957564931],[113.76073335460573,3.8441276736529577]]],[[[113.76176977138685,3.8441276736529577],[113.76176977138685,3.8442915004047946],[113.76209492789502,3.8441276736529577],[113.76176977138685,3.8441276736529577]]],[[[113.76332439655855,3.8441276736529577],[113.7631805600192,3.8441276736529577],[113.76332439655855,3.844246605641414],[113.76332439655855,3.8441276736529577]]],[[[113.76091142936382,3.844520465461012],[113.7609721,3.8445386957720578],[113.76103627068831,3.844520465461012],[113.76091142936382,3.844520465461012]]]]},"properties":{"place_id":"8c645ff9-379d-5e40-8b60-562f7695b7b8","habitat":"permanent_water","habitat_label":"Permanent water","resolution_m":50}},{"type":"Feature","geometry":{"type":"MultiPolygon","coordinates":[[[[113.75699612898009,3.7812832402884],[113.75667365841726,3.781676004149744],[113.75710589587182,3.781676004149744],[113.75699612898009,3.7812832402884]]],[[[113.7549052090984,3.8182038028380476],[113.75503306230956,3.8178110227894],[113.75480104848646,3.8178110227894],[113.7549052090984,3.8182038028380476]]],[[[113.75814231265294,3.8213460495256197],[113.7586605210435,3.821717212246327],[113.7586605210435,3.8213460495256197],[113.75814231265294,3.8213460495256197]]],[[[113.75639447203552,3.832736787755228],[113.75658768748124,3.832803635023063],[113.75658768748124,3.832736787755228],[113.75639447203552,3.832736787755228]]],[[[113.76332439655855,3.8441276736529577],[113.7631805600192,3.8441276736529577],[113.76332439655855,3.844246605641414],[113.76332439655855,3.8441276736529577]]],[[[113.76091142936382,3.844520465461012],[113.7609721,3.8445386957720578],[113.76103627068831,3.844520465461012],[113.76091142936382,3.844520465461012]]]]},"properties":{"place_id":"8c645ff9-379d-5e40-8b60-562f7695b7b8","habitat":"seasonal_water_wetland","habitat_label":"Seasonal water or wetland","resolution_m":50}},{"type":"Feature","geometry":{"type":"MultiPolygon","coordinates":[[[[113.7664336469019,3.7695004049049654],[113.76695185529246,3.7695004049049654],[113.76695185529246,3.769107646404404],[113.76735566840614,3.769107646404404],[113.76591543851134,3.7688869202749937],[113.7664336469019,3.7695004049049654]]],[[[113.75503306230956,3.784818121277941],[113.7560694790907,3.7844253560303285],[113.7560694790907,3.783247061327503],[113.75710589587182,3.78285429677317],[113.75710589587182,3.7820687681843084],[113.75814231265294,3.781676004149744],[113.75814231265294,3.7808904766002573],[113.7586605210435,3.7808904766002573],[113.7586605210435,3.780104949743502],[113.75917872943405,3.780104949743502],[113.75969693782461,3.7785338981076113],[113.76073335460573,3.7781411356313686],[113.76125156299629,3.7761773258456355],[113.76176977138685,3.7761773258456355],[113.76176977138685,3.775391803142222],[113.76228797977741,3.775391803142222],[113.76228797977741,3.774606281130524],[113.76176977138685,3.774606281130524],[113.76176977138685,3.774213520384022],[113.76228797977741,3.774213520384022],[113.76228797977741,3.773820759810395],[113.76280618816797,3.773820759810395],[113.76280618816797,3.773035239181688],[113.76384260494909,3.7726424791265742],[113.76384260494909,3.770678681442651],[113.76436081333966,3.770678681442651],[113.76436081333966,3.7698931635781814],[113.76487902173021,3.7698931635781814],[113.76487902173021,3.7687148880764827],[113.76566949999999,3.7686962958527923],[113.76443099999999,3.76853569585296],[113.7640084,3.7688894958525787],[113.76384260494909,3.7698931635781814],[113.76294379999999,3.770863395850497],[113.76280618816797,3.7726424791265742],[113.76205329999999,3.7730727958481385],[113.76125156299629,3.775391803142222],[113.76084104969624,3.775391803142222],[113.76021514621517,3.776589144643417],[113.76021514621517,3.7773556111980344],[113.75981448061059,3.7773556111980344],[113.75969693782461,3.7781411356313686],[113.7592451495602,3.7781411356313686],[113.75864134397044,3.7789266607569276],[113.75710589587182,3.781676004149744],[113.75667365841726,3.781676004149744],[113.75571632116102,3.78285429677317],[113.75399664552845,3.7856036522932794],[113.754514853919,3.7856036522932794],[113.75503306230956,3.784818121277941]]],[[[113.75296022874733,3.787567482866473],[113.75191279031658,3.7879602495015168],[113.75140560357563,3.789138550447789],[113.75053958582468,3.789531317776987],[113.75099323918924,3.7922806939427303],[113.75140560357563,3.7922806939427303],[113.75127697056514,3.792673462661108],[113.75296022874733,3.7946373088592966],[113.75507412029708,3.799350557468958],[113.75555127070012,3.799350557468958],[113.75533290000001,3.799833595819641],[113.75814231265294,3.8028855103711514],[113.75917872943405,3.804849379190835],[113.75969693782461,3.804849379190835],[113.75969693782461,3.805551251319899],[113.76021514621517,3.8056349279386352],[113.76073583647049,3.8068132523678586],[113.76125156299629,3.8068132523678586],[113.76125156299629,3.808384354048294],[113.76039534585924,3.8087771299044997],[113.76125156299629,3.809169905935183],[113.76125156299629,3.8087771299044997],[113.76228797977741,3.808384354048294],[113.76228797977741,3.8068132523678586],[113.76125156299629,3.806420477383757],[113.76125156299629,3.8056349279386352],[113.76073335460573,3.8056349279386352],[113.76073335460573,3.804849379190835],[113.75969693782461,3.804456605078383],[113.75917872943405,3.8028855103711514],[113.75814231265294,3.8024927371298944],[113.75814231265294,3.801707191169918],[113.75762410426236,3.801707191169918],[113.75762410426236,3.801314418451161],[113.75710589587182,3.801314418451161],[113.75710589587182,3.800528873536018],[113.7560694790907,3.800136101339595],[113.75658768748124,3.799350557468958],[113.75555127070012,3.798957785794707],[113.75503306230956,3.796601159402994],[113.754514853919,3.796601159402994],[113.754514853919,3.7958156186639074],[113.75399664552845,3.7958156186639074],[113.75399664552845,3.7946373088592966],[113.75347843713789,3.7946373088592966],[113.75347843713789,3.793851769858687],[113.75296022874733,3.793851769858687],[113.75296022874733,3.793066231553213],[113.75244202035677,3.793066231553213],[113.75244202035677,3.7922806939427303],[113.75192381196621,3.7922806939427303],[113.75192381196621,3.7907096208061533],[113.75140560357563,3.7907096208061533],[113.75140560357563,3.789531317776987],[113.75192381196621,3.789531317776987],[113.75192381196621,3.789138550447789],[113.75244202035677,3.789138550447789],[113.75244202035677,3.788353016310073],[113.75399664552845,3.787567482866473],[113.75399664552845,3.786389184002223],[113.754514853919,3.786389184002223],[113.75399664552845,3.7856036522932794],[113.75296022874733,3.787567482866473]]],[[[113.75944003121043,3.8087771299044997],[113.75762410426236,3.8079915783665443],[113.75762410426236,3.808384354048294],[113.75917872943405,3.809169905935183],[113.75944003121043,3.8087771299044997]]],[[[113.76384260494909,3.822917177070223],[113.76332439655855,3.822917177070223],[113.76228797977741,3.821738831149138],[113.75969693782461,3.8213460495256197],[113.75969693782461,3.8209532680771607],[113.7586605210435,3.8209532680771607],[113.7586605210435,3.8205604868037404],[113.75710589587182,3.8205604868037404],[113.75710589587182,3.820167705705343],[113.75555127070012,3.8193821440335416],[113.75555127070012,3.8185965830616095],[113.7560694790907,3.8185965830616095],[113.7560694790907,3.8178110227894],[113.75503306230956,3.817418242915645],[113.75503306230956,3.817025463216768],[113.75555127070012,3.817025463216768],[113.75555127070012,3.8162399043435684],[113.75503306230956,3.8162399043435684],[113.75503306230956,3.8158471251692085],[113.75555127070012,3.8158471251692085],[113.75555127070012,3.813883231919104],[113.75503306230956,3.813883231919104],[113.75503306230956,3.813490453793294],[113.75555127070012,3.813490453793294],[113.75555127070012,3.81191934303681],[113.754514853919,3.811526565784287],[113.754514853919,3.8107410118030343],[113.75555127070012,3.8103482350742666],[113.75555127070012,3.8095626821403594],[113.75503306230956,3.8095626821403594],[113.75503306230956,3.8087771299044997],[113.7560694790907,3.808384354048294],[113.7560694790907,3.8079915783665443],[113.75555127070012,3.8079915783665443],[113.75555127070012,3.807206027526344],[113.75658768748124,3.807206027526344],[113.75668637326856,3.8068132523678586],[113.75555127070012,3.806563784784303],[113.75437984836341,3.8103482350742666],[113.75437909999997,3.816219895802188],[113.75511899999998,3.819524695798693],[113.75555127070012,3.8202831454594652],[113.75710589587182,3.821244071940115],[113.7586605210435,3.8213460495256197],[113.7586605210435,3.821717212246327],[113.76228797977741,3.8225243949214205],[113.76228797977741,3.822917177070223],[113.76280618816797,3.822917177070223],[113.7629118192476,3.824095524567486],[113.76384260494909,3.8237027418932374],[113.76384260494909,3.822917177070223]]],[[[113.76228797977741,3.822917177070223],[113.76223865649447,3.822917177070223],[113.76228797977741,3.8229684981948377],[113.76228797977741,3.822917177070223]]],[[[113.76244439999999,3.8439515957727117],[113.76436081333966,3.8443039927905676],[113.76332439655855,3.843734882021018],[113.76332439655855,3.8433420905651747],[113.76073335460573,3.843734882021018],[113.76073335460573,3.8394141856880224],[113.76125156299629,3.8394141856880224],[113.76125156299629,3.838628606823927],[113.76176977138685,3.838628606823927],[113.76176977138685,3.8370574512059017],[113.76125156299629,3.8370574512059017],[113.76073335460573,3.835486298400463],[113.75969693782461,3.8350935106384347],[113.75969693782461,3.8339151484064455],[113.75917872943405,3.8339151484064455],[113.75917872943405,3.83352236134709],[113.75710589587182,3.8323440012226837],[113.75710589587182,3.83195121486571],[113.75762410426236,3.83195121486571],[113.75762410426236,3.8307728568480126],[113.75814231265294,3.8307728568480126],[113.75814231265294,3.8303800711931295],[113.7586605210435,3.8303800711931295],[113.7586605210435,3.8299872857137225],[113.75917872943405,3.8299872857137225],[113.75917872943405,3.829594500409774],[113.75969693782461,3.829594500409774],[113.75969693782461,3.829201715281267],[113.76021514621517,3.829201715281267],[113.76021514621517,3.828808930328182],[113.76073335460573,3.828808930328182],[113.76073335460573,3.828416145550501],[113.76125156299629,3.828416145550501],[113.76125156299629,3.828023360948207],[113.76332439655855,3.8268450081934566],[113.76332439655855,3.825666657016526],[113.76384260494909,3.825666657016526],[113.76384260494909,3.8252738736414234],[113.76282868591396,3.8248810904415627],[113.76228797977741,3.8268450081934566],[113.75762410426236,3.8302274344838168],[113.75598989617856,3.8323440012226837],[113.75658768748124,3.8323440012226837],[113.75658768748124,3.832736787755228],[113.75762410426236,3.833129574463355],[113.75762410426236,3.833606375506818],[113.7586605210435,3.8339151484064455],[113.75884628199879,3.8350935106384347],[113.75969693782461,3.835486298400463],[113.76032755633992,3.8370574512059017],[113.76073335460573,3.8370574512059017],[113.76073335460573,3.838628606823927],[113.7596506189038,3.8398069753839055],[113.75980047408746,3.843734882021018],[113.76091142936382,3.844520465461012],[113.76244439999999,3.8439515957727117]]]]},"properties":{"place_id":"8c645ff9-379d-5e40-8b60-562f7695b7b8","habitat":"water_edge","habitat_label":"Water edge","resolution_m":50}}]}