{"type":"FeatureCollection","metadata":{"schema_version":1,"place_id":"8c8acc44-4648-5921-8016-2cb1ca9f341c","place_name":"Pulau Jelam","place_type":"wood","osm_reference":"way/412285783","protection_context":"no protected status confirmed from included OSM tags","resolution_m":50,"raster_coverage":1.0,"interpretation":"Suggested search habitats, not predicted plant locations or probabilities of presence."},"features":[{"type":"Feature","geometry":{"type":"Polygon","coordinates":[[[102.44047106280854,3.3560177964105105],[102.44047106280854,3.355625209631683],[102.44150747958966,3.355625209631683],[102.44150747958966,3.3548400365345508],[102.44202568798022,3.3548400365345508],[102.44254389637078,3.3532696921818816],[102.44202568798022,3.3532696921818816],[102.44150747958966,3.3540548640513324],[102.44047106280854,3.3540548640513324],[102.44047106280854,3.3544474502162127],[102.43995285441798,3.3544474502162127],[102.43995285441798,3.3552326230063687],[102.43891643763686,3.355625209631683],[102.43891643763686,3.3560177964105105],[102.44047106280854,3.3560177964105105]]]},"properties":{"place_id":"8c8acc44-4648-5921-8016-2cb1ca9f341c","habitat":"forest_interior","habitat_label":"Forest interior","resolution_m":50}},{"type":"Feature","geometry":{"type":"Polygon","coordinates":[[[102.43788002085574,3.356410383342871],[102.4395221,3.356542096294131],[102.44152310000001,3.3557682962949804],[102.44391048278206,3.352484520926053],[102.4435803131519,3.3523484743880245],[102.44113279999999,3.3535957962973226],[102.43922939999999,3.35479749629602],[102.43788002085574,3.3558356204856987],[102.43788002085574,3.356410383342871]],[[102.43891643763686,3.355625209631683],[102.43995285441798,3.3552326230063687],[102.43995285441798,3.3544474502162127],[102.44047106280854,3.3544474502162127],[102.44047106280854,3.3540548640513324],[102.44150747958966,3.3540548640513324],[102.44150747958966,3.353662278039895],[102.44254389637078,3.3532696921818816],[102.44254389637078,3.3540548640513324],[102.44202568798022,3.3540548640513324],[102.44150747958966,3.355625209631683],[102.44047106280854,3.355625209631683],[102.44047106280854,3.3560177964105105],[102.43891643763686,3.3560177964105105],[102.43891643763686,3.355625209631683]]]},"properties":{"place_id":"8c8acc44-4648-5921-8016-2cb1ca9f341c","habitat":"forest_edge_opening","habitat_label":"Forest edge or opening","resolution_m":50}},{"type":"Feature","geometry":{"type":"MultiPolygon","coordinates":[[[[102.43943464602741,3.3548400365345508],[102.43891643763686,3.3552326230063687],[102.43943464602741,3.3552326230063687],[102.43943464602741,3.3548400365345508]]],[[[102.44202568798022,3.3548400365345508],[102.44202568798022,3.3552326230063687],[102.442138678913,3.3552326230063687],[102.44248658970743,3.3548400365345508],[102.44202568798022,3.3548400365345508]]],[[[102.43866597830959,3.3552326230063687],[102.4383982292463,3.3554356065098525],[102.4383982292463,3.355625209631683],[102.43891643763686,3.355625209631683],[102.43866597830959,3.3552326230063687]]],[[[102.43788002085574,3.3560177964105105],[102.43788002085574,3.356410383342871],[102.4383982292463,3.356410383342871],[102.4383982292463,3.3560177964105105],[102.43788002085574,3.3560177964105105]]]]},"properties":{"place_id":"8c8acc44-4648-5921-8016-2cb1ca9f341c","habitat":"cropland","habitat_label":"Cropland","resolution_m":50}},{"type":"Feature","geometry":{"type":"MultiPolygon","coordinates":[[[[102.44150747958966,3.353662278039895],[102.44150747958966,3.353435455891636],[102.44102386836707,3.353662278039895],[102.44150747958966,3.353662278039895]]],[[[102.44047106280854,3.3540548640513324],[102.44047106280854,3.3539996592324064],[102.44038789481507,3.3540548640513324],[102.44047106280854,3.3540548640513324]]],[[[102.43995285441798,3.3544474502162127],[102.43995285441798,3.3543489453018043],[102.43980713411572,3.3544474502162127],[102.43995285441798,3.3544474502162127]]],[[[102.43943464602741,3.3548400365345508],[102.43943464602741,3.3546671133851027],[102.43917440999002,3.3548400365345508],[102.43943464602741,3.3548400365345508]]],[[[102.4383982292463,3.3560177964105105],[102.43891643763686,3.355039603815362],[102.4375813,3.3560662962946486],[102.4375178,3.356411896294271],[102.4400776515499,3.356410383342871],[102.43788002085574,3.356410383342871],[102.43788002085574,3.3560177964105105],[102.4383982292463,3.3560177964105105]]],[[[102.44150747958966,3.355625209631683],[102.44150747958966,3.3557759836352252],[102.44169275798778,3.355625209631683],[102.44150747958966,3.355625209631683]]],[[[102.44047106280854,3.3560177964105105],[102.4406165,3.3562073962945043],[102.44101612442829,3.3560177964105105],[102.44047106280854,3.3560177964105105]]],[[[102.44306210476135,3.3528771064772735],[102.44306210476135,3.352612760327526],[102.44257077569436,3.3528771064772735],[102.44306210476135,3.3528771064772735]]],[[[102.44332734267049,3.352484520926053],[102.4435803131519,3.3529439171725532],[102.4440524,3.3521119962989268],[102.44332734267049,3.352484520926053]]],[[[102.44202568798022,3.3532696921818816],[102.44202568798022,3.3532021074081357],[102.44187845901554,3.3532696921818816],[102.44202568798022,3.3532696921818816]]],[[[102.44306210476135,3.3532696921818816],[102.44306210476135,3.3538133025933345],[102.44337720917213,3.3532696921818816],[102.44306210476135,3.3532696921818816]]],[[[102.44254389637078,3.3540548640513324],[102.44254389637078,3.35475717518372],[102.4429283566547,3.3540548640513324],[102.44254389637078,3.3540548640513324]]],[[[102.44202568798022,3.3552326230063687],[102.44202568798022,3.355335939270977],[102.442138678913,3.3552326230063687],[102.44202568798022,3.3552326230063687]]]]},"properties":{"place_id":"8c8acc44-4648-5921-8016-2cb1ca9f341c","habitat":"permanent_water","habitat_label":"Permanent water","resolution_m":50}},{"type":"Feature","geometry":{"type":"MultiPolygon","coordinates":[[[[102.4435803131519,3.3523484743880245],[102.44391048278206,3.352484520926053],[102.4440524,3.3521119962989268],[102.4435803131519,3.3523484743880245]]],[[[102.44306210476135,3.3528771064772735],[102.44306210476135,3.353662278039895],[102.4431459130048,3.353662278039895],[102.4435803131519,3.3528771064772735],[102.44306210476135,3.3528771064772735]]],[[[102.4429283566547,3.3540548640513324],[102.44254389637078,3.3544474502162127],[102.44273140779129,3.3544474502162127],[102.4429283566547,3.3540548640513324]]],[[[102.43943464602741,3.3548400365345508],[102.43943464602741,3.3546671133851027],[102.43917440999002,3.3548400365345508],[102.43943464602741,3.3548400365345508]]],[[[102.4383982292463,3.356410383342871],[102.4383982292463,3.3554356065098525],[102.4374837,3.3563117962943854],[102.4383982292463,3.356410383342871]]]]},"properties":{"place_id":"8c8acc44-4648-5921-8016-2cb1ca9f341c","habitat":"seasonal_water_wetland","habitat_label":"Seasonal water or wetland","resolution_m":50}},{"type":"Feature","geometry":{"type":"MultiPolygon","coordinates":[[[[102.4435803131519,3.352484520926053],[102.44306210476135,3.352612760327526],[102.44306210476135,3.3528771064772735],[102.4435803131519,3.3528771064772735],[102.4435803131519,3.352484520926053]]],[[[102.44306210476135,3.3528771064772735],[102.43891643763686,3.355039603815362],[102.4383982292463,3.356410383342871],[102.44013959999998,3.3563956962943147],[102.44190619999999,3.3554451962953133],[102.44306210476135,3.3538133025933345],[102.44306210476135,3.3528771064772735]],[[102.44047106280854,3.3548400365345508],[102.44047106280854,3.3544474502162127],[102.44150747958966,3.3544474502162127],[102.44150747958966,3.3552326230063687],[102.44047106280854,3.3552326230063687],[102.44047106280854,3.355625209631683],[102.43995285441798,3.355625209631683],[102.43995285441798,3.3548400365345508],[102.44047106280854,3.3548400365345508]]]]},"properties":{"place_id":"8c8acc44-4648-5921-8016-2cb1ca9f341c","habitat":"water_edge","habitat_label":"Water edge","resolution_m":50}}]}