{"type":"FeatureCollection","metadata":{"schema_version":1,"place_id":"8ca02767-dde8-539c-981a-57ebec23851a","place_name":"Taman Tasik Puchong Perdana","place_type":"park","osm_reference":"way/424882045","protection_context":"no protected status confirmed from included OSM tags","resolution_m":50,"raster_coverage":1.0,"interpretation":"Suggested search habitats, not predicted plant locations or probabilities of presence."},"features":[{"type":"Feature","geometry":{"type":"MultiPolygon","coordinates":[[[[101.60667376239648,3.0082440042112255],[101.60615555400591,3.0082597019167108],[101.60615555400591,3.0086364622123685],[101.607065,3.008675296669964],[101.6076382,3.009186896669387],[101.60667376239648,3.0082440042112255]]],[[[101.60771017917759,3.0094213786272213],[101.60771017917759,3.009137078147169],[101.60753718359781,3.0094213786272213],[101.60771017917759,3.0094213786272213]]],[[[101.60748558358215,3.009813837040968],[101.60797199999999,3.010112196668375],[101.60717209999997,3.0102428966682324],[101.60701354768474,3.0105987542811925],[101.60742209999997,3.010480496667991],[101.60741809999999,3.0113605966670467],[101.60797109999999,3.0113521966670476],[101.608833,3.0100318966684565],[101.60803429299231,3.0094213786272213],[101.60771017917759,3.0094213786272213],[101.60748558358215,3.009813837040968]]],[[[101.60587924573392,3.010206295592285],[101.60587790000001,3.010485996667975],[101.60672118909736,3.0105987542811925],[101.6061564,3.0104867966679896],[101.60587924573392,3.010206295592285]]]]},"properties":{"place_id":"8ca02767-dde8-539c-981a-57ebec23851a","habitat":"forest_edge_opening","habitat_label":"Forest edge or opening","resolution_m":50}},{"type":"Feature","geometry":{"type":"Polygon","coordinates":[[[101.606553,3.0088198966697983],[101.60615555400591,3.0086364622123685],[101.60615555400591,3.008769745383721],[101.606553,3.0088198966697983]]]},"properties":{"place_id":"8ca02767-dde8-539c-981a-57ebec23851a","habitat":"open_grassland","habitat_label":"Open grassland or shrubland","resolution_m":50}},{"type":"Feature","geometry":{"type":"Polygon","coordinates":[[[101.60773330000002,3.0091206966694437],[101.60797199999999,3.010112196668375],[101.60717209999997,3.0102428966682324],[101.6069067,3.010727196667725],[101.6065952,3.010469096668012],[101.6060095,3.010377196668081],[101.6060929,3.0087699966698427],[101.60719197078703,3.0086364622123685],[101.6077303,3.009114596669472],[101.6067296,3.0081361966705433],[101.6058887,3.008241296670395],[101.60587790000001,3.010485996667975],[101.6068433,3.010829996667608],[101.60742209999997,3.010480496667991],[101.60741809999999,3.0113605966670467],[101.60797109999999,3.0113521966670476],[101.608833,3.0100318966684565],[101.60773330000002,3.0091206966694437]]]},"properties":{"place_id":"8ca02767-dde8-539c-981a-57ebec23851a","habitat":"disturbed_built_edge","habitat_label":"Disturbed, bare or built edge","resolution_m":50}},{"type":"Feature","geometry":{"type":"MultiPolygon","coordinates":[[[[101.60771017917759,3.009137078147169],[101.6074375,3.009688096668845],[101.60771017917759,3.009972223221985],[101.60771017917759,3.009137078147169]]],[[[101.6076382,3.009186896669387],[101.60765155040811,3.009028920351027],[101.60746120232311,3.009028920351027],[101.6076382,3.009186896669387]]],[[[101.60667376239648,3.0105987542811925],[101.60672118909736,3.0105987542811925],[101.60667376239648,3.0105499466209276],[101.60667376239648,3.0105987542811925]]],[[[101.60701354768474,3.0105987542811925],[101.60719197078703,3.0105170568806003],[101.60719197078703,3.010235756656545],[101.60701354768474,3.0105987542811925]]]]},"properties":{"place_id":"8ca02767-dde8-539c-981a-57ebec23851a","habitat":"permanent_water","habitat_label":"Permanent water","resolution_m":50}},{"type":"Feature","geometry":{"type":"MultiPolygon","coordinates":[[[[101.60719197078703,3.0087886222858407],[101.60667376239648,3.0086364622123685],[101.60667376239648,3.008763724502494],[101.60719197078703,3.0087886222858407]]],[[[101.60771017917759,3.0094213786272213],[101.60748558358215,3.009813837040968],[101.60771017917759,3.009813837040968],[101.60771017917759,3.0094213786272213]]],[[[101.60667376239648,3.0105987542811925],[101.60672118909736,3.0105987542811925],[101.60667376239648,3.0105499466209276],[101.60667376239648,3.0105987542811925]]],[[[101.60701354768474,3.0105987542811925],[101.60719197078703,3.0105170568806003],[101.60719197078703,3.010235756656545],[101.60701354768474,3.0105987542811925]]]]},"properties":{"place_id":"8ca02767-dde8-539c-981a-57ebec23851a","habitat":"seasonal_water_wetland","habitat_label":"Seasonal water or wetland","resolution_m":50}},{"type":"Feature","geometry":{"type":"MultiPolygon","coordinates":[[[[101.60615555400591,3.0082597019167108],[101.60588679872528,3.0086364622123685],[101.60587790000001,3.010485996667975],[101.6068433,3.010829996667608],[101.60715266292671,3.0105987542811925],[101.6060095,3.010377196668081],[101.6060929,3.0087699966698427],[101.60719197078703,3.0086364622123685],[101.60765155040811,3.009028920351027],[101.6067296,3.0081361966705433],[101.60615555400591,3.0082597019167108]]],[[[101.60771017917759,3.0109912131077055],[101.60771017917759,3.0105987542811925],[101.60874659595872,3.010206295592285],[101.60773330000002,3.0091206966694437],[101.60797199999999,3.010112196668375],[101.60719197078703,3.010235756656545],[101.60771017917759,3.0109912131077055]]],[[[101.60771017917759,3.0091303918423447],[101.6077303,3.009114596669472],[101.60771017917759,3.00909270604127],[101.60771017917759,3.0091303918423447]]]]},"properties":{"place_id":"8ca02767-dde8-539c-981a-57ebec23851a","habitat":"water_edge","habitat_label":"Water edge","resolution_m":50}}]}