{"type":"FeatureCollection","metadata":{"schema_version":1,"place_id":"8ca1c8a2-4923-5e42-90f4-f9812baee589","place_name":"Taman Rekreasi Jubli Perak","place_type":"park","osm_reference":"way/245634673","protection_context":"no protected status confirmed from included OSM tags","resolution_m":50,"raster_coverage":1.0,"interpretation":"Suggested search habitats, not predicted plant locations or probabilities of presence."},"features":[{"type":"Feature","geometry":{"type":"Polygon","coordinates":[[[100.37592883481496,6.145584556061246],[100.374994,6.146675693412871],[100.3780016683772,6.146766966857698],[100.3783802766681,6.146372829641313],[100.37842839999999,6.14570909341383],[100.37696525159608,6.145978692709168],[100.37696525159608,6.145606878652228],[100.37592883481496,6.145584556061246]]]},"properties":{"place_id":"8ca1c8a2-4923-5e42-90f4-f9812baee589","habitat":"forest_interior","habitat_label":"Forest interior","resolution_m":50}},{"type":"Feature","geometry":{"type":"MultiPolygon","coordinates":[[[[100.37500598163535,6.146372829641313],[100.37592883481496,6.145584556061246],[100.37664571587953,6.145584556061246],[100.37504159999997,6.145472493414057],[100.37500598163535,6.146372829641313]]],[[[100.37696525159608,6.145978692709168],[100.37748345998662,6.145978692709168],[100.37748345998662,6.145643080409864],[100.37696525159608,6.145606878652228],[100.37696525159608,6.145978692709168]]],[[[100.3783802766681,6.146372829641313],[100.3780016683772,6.146766966857698],[100.37748390996711,6.146766966857698],[100.37834939999999,6.146798693412753],[100.3783802766681,6.146372829641313]]]]},"properties":{"place_id":"8ca1c8a2-4923-5e42-90f4-f9812baee589","habitat":"forest_edge_opening","habitat_label":"Forest edge or opening","resolution_m":50}},{"type":"Feature","geometry":{"type":"MultiPolygon","coordinates":[[[[100.37500598163535,6.146372829641313],[100.37592883481496,6.145584556061246],[100.37664571587953,6.145584556061246],[100.37504159999997,6.145472493414057],[100.37500598163535,6.146372829641313]]],[[[100.37696525159608,6.145978692709168],[100.37748345998662,6.145978692709168],[100.37748345998662,6.145643080409864],[100.37696525159608,6.145606878652228],[100.37696525159608,6.145978692709168]]],[[[100.3783802766681,6.146372829641313],[100.3780016683772,6.146785946499158],[100.37834939999999,6.146798693412753],[100.3783802766681,6.146372829641313]]]]},"properties":{"place_id":"8ca1c8a2-4923-5e42-90f4-f9812baee589","habitat":"disturbed_built_edge","habitat_label":"Disturbed, bare or built edge","resolution_m":50}}]}