{"type":"FeatureCollection","metadata":{"schema_version":1,"place_id":"8ca4561c-3033-5d8f-a997-263994c6e506","place_name":"Mawar Flat Playground","place_type":"park","osm_reference":"way/486696170","protection_context":"no protected status confirmed from included OSM tags","resolution_m":50,"raster_coverage":1.0,"interpretation":"Suggested search habitats, not predicted plant locations or probabilities of presence."},"features":[{"type":"Feature","geometry":{"type":"Polygon","coordinates":[[[101.6345937,3.0693424966042024],[101.63382300000002,3.0688489966047294],[101.63356699999999,3.069480296604029],[101.6345937,3.0693424966042024]]]},"properties":{"place_id":"8ca4561c-3033-5d8f-a997-263994c6e506","habitat":"forest_edge_opening","habitat_label":"Forest edge or opening","resolution_m":50}},{"type":"Feature","geometry":{"type":"Polygon","coordinates":[[[101.6345937,3.0693424966042024],[101.63382300000002,3.0688489966047294],[101.63356699999999,3.069480296604029],[101.6345937,3.0693424966042024]]]},"properties":{"place_id":"8ca4561c-3033-5d8f-a997-263994c6e506","habitat":"disturbed_built_edge","habitat_label":"Disturbed, bare or built edge","resolution_m":50}}]}