{"type":"FeatureCollection","metadata":{"schema_version":1,"place_id":"8dd147ec-7919-502e-a1e3-186f25407f44","place_name":"Taman Tasik Cempaka","place_type":"park","osm_reference":"way/461807577","protection_context":"no protected status confirmed from included OSM tags","resolution_m":50,"raster_coverage":1.0,"interpretation":"Suggested search habitats, not predicted plant locations or probabilities of presence."},"features":[{"type":"Feature","geometry":{"type":"MultiPolygon","coordinates":[[[[101.75799061244018,2.957618068525179],[101.7590270292213,2.957618068525179],[101.7590270292213,2.957225628247353],[101.75799061244018,2.956833188104676],[101.75799061244018,2.957225628247353],[101.75747240404962,2.957225628247353],[101.75747240404962,2.958010508938174],[101.75799061244018,2.958010508938174],[101.75799061244018,2.957618068525179]]],[[[101.75695419565906,2.9591878309883475],[101.75695419565906,2.9599727130313003],[101.75747240404962,2.9599727130313003],[101.75747240404962,2.9591878309883475],[101.75695419565906,2.9591878309883475]]],[[[101.76058165439298,2.960757595615359],[101.76058165439298,2.961150037110347],[101.76006344600243,2.961150037110347],[101.76006344600243,2.9615424787406672],[101.7609158914527,2.9615424787406672],[101.76058165439298,2.960757595615359]]]]},"properties":{"place_id":"8dd147ec-7919-502e-a1e3-186f25407f44","habitat":"forest_interior","habitat_label":"Forest interior","resolution_m":50}},{"type":"Feature","geometry":{"type":"Polygon","coordinates":[[[101.75797260717326,2.961150037110347],[101.75834029999997,2.962215996720335],[101.7607878,2.9625052967200376],[101.7609158914527,2.9615424787406672],[101.76006344600243,2.9615424787406672],[101.76006344600243,2.961150037110347],[101.76089881756073,2.960757595615359],[101.7603965,2.9585923967242636],[101.75892369999998,2.956995396726009],[101.75806,2.956600896726453],[101.75739397489326,2.9564407480971306],[101.75740309999999,2.958048496724887],[101.75616970000002,2.959484496723291],[101.75715284095448,2.961150037110347],[101.75797260717326,2.961150037110347]],[[101.75695419565906,2.9591878309883475],[101.75747240404962,2.9591878309883475],[101.75747240404962,2.9599727130313003],[101.75695419565906,2.9599727130313003],[101.75695419565906,2.9591878309883475]],[[101.75954523761186,2.9595802719421944],[101.7590270292213,2.9595802719421944],[101.7590270292213,2.9584029494863544],[101.75954523761186,2.9584029494863544],[101.76006344600243,2.9599727130313003],[101.75954523761186,2.9599727130313003],[101.75954523761186,2.9595802719421944]],[[101.75747240404962,2.957225628247353],[101.75850882083073,2.956833188104676],[101.7590270292213,2.957618068525179],[101.75799061244018,2.957618068525179],[101.75799061244018,2.958010508938174],[101.75747240404962,2.958010508938174],[101.75747240404962,2.957225628247353]]]},"properties":{"place_id":"8dd147ec-7919-502e-a1e3-186f25407f44","habitat":"forest_edge_opening","habitat_label":"Forest edge or opening","resolution_m":50}},{"type":"Feature","geometry":{"type":"MultiPolygon","coordinates":[[[[101.75747240404962,2.958010508938174],[101.75740309999999,2.958048496724887],[101.75718036227623,2.9584029494863544],[101.75747240404962,2.9584029494863544],[101.75747240404962,2.958010508938174]]],[[[101.75850882083073,2.95879539016974],[101.75850882083073,2.9591878309883475],[101.7590270292213,2.9591878309883475],[101.7590270292213,2.95879539016974],[101.75850882083073,2.95879539016974]]],[[[101.75850882083073,2.9599727130313003],[101.75850882083073,2.9595802719421944],[101.75799061244018,2.9595802719421944],[101.75799061244018,2.960757595615359],[101.7590270292213,2.960757595615359],[101.7590270292213,2.9599727130313003],[101.75850882083073,2.9599727130313003]]],[[[101.75850882083073,2.9615424787406672],[101.7590270292213,2.9615424787406672],[101.7590270292213,2.961150037110347],[101.75850882083073,2.961150037110347],[101.75850882083073,2.9615424787406672]]],[[[101.75954523761186,2.9623273624073696],[101.76006344600243,2.9623273624073696],[101.76006344600243,2.961934920506335],[101.75954523761186,2.961934920506335],[101.75954523761186,2.9623273624073696]]]]},"properties":{"place_id":"8dd147ec-7919-502e-a1e3-186f25407f44","habitat":"open_grassland","habitat_label":"Open grassland or shrubland","resolution_m":50}},{"type":"Feature","geometry":{"type":"Polygon","coordinates":[[[101.76058165439298,2.9591878309883475],[101.76058165439298,2.960757595615359],[101.76089881756073,2.960757595615359],[101.7608374,2.959787796722989],[101.76019099999999,2.9582636967246487],[101.75892369999998,2.956995396726009],[101.75806,2.956600896726453],[101.75740149999999,2.956420796726632],[101.75740309999999,2.958048496724887],[101.75616970000002,2.959484496723291],[101.75730829999999,2.961455996721195],[101.7581123,2.9610748967215894],[101.75834029999997,2.962215996720335],[101.76064299999999,2.962594996719913],[101.7609158914527,2.9615424787406672],[101.76058165439298,2.961934920506335],[101.7590270292213,2.961934920506335],[101.76006344600243,2.960757595615359],[101.75954523761186,2.960757595615359],[101.75954523761186,2.9603651542556824],[101.75850882083073,2.960757595615359],[101.75799061244018,2.9599727130313003],[101.75695419565906,2.9599727130313003],[101.75695419565906,2.9591878309883475],[101.75747240404962,2.9591878309883475],[101.75747240404962,2.9595802719421944],[101.75850882083073,2.9595802719421944],[101.75850882083073,2.9599727130313003],[101.7590270292213,2.9599727130313003],[101.75954523761186,2.9591878309883475],[101.76058165439298,2.9591878309883475]],[[101.7590270292213,2.9591878309883475],[101.7590270292213,2.95879539016974],[101.75954523761186,2.95879539016974],[101.75954523761186,2.9591878309883475],[101.7590270292213,2.9591878309883475]],[[101.75850882083073,2.95879539016974],[101.75850882083073,2.9584029494863544],[101.7590270292213,2.9584029494863544],[101.7590270292213,2.95879539016974],[101.75850882083073,2.95879539016974]],[[101.7590270292213,2.958010508938174],[101.75850882083073,2.958010508938174],[101.75850882083073,2.957618068525179],[101.75747240404962,2.958010508938174],[101.75747240404962,2.957225628247353],[101.75850882083073,2.956833188104676],[101.75850882083073,2.957225628247353],[101.75954523761186,2.957618068525179],[101.75954523761186,2.9584029494863544],[101.7590270292213,2.9584029494863544],[101.7590270292213,2.958010508938174]]]},"properties":{"place_id":"8dd147ec-7919-502e-a1e3-186f25407f44","habitat":"disturbed_built_edge","habitat_label":"Disturbed, bare or built edge","resolution_m":50}},{"type":"Feature","geometry":{"type":"Polygon","coordinates":[[[101.7590270292213,2.9584029494863544],[101.7590270292213,2.958010508938174],[101.75850882083073,2.958010508938174],[101.75850882083073,2.9584029494863544],[101.7590270292213,2.9584029494863544]]]},"properties":{"place_id":"8dd147ec-7919-502e-a1e3-186f25407f44","habitat":"cropland","habitat_label":"Cropland","resolution_m":50}},{"type":"Feature","geometry":{"type":"MultiPolygon","coordinates":[[[[101.76058165439298,2.9591878309883475],[101.75954523761186,2.95879539016974],[101.75954523761186,2.958010508938174],[101.75850882083073,2.9584029494863544],[101.75850882083073,2.95879539016974],[101.7590270292213,2.95879539016974],[101.75954523761186,2.960757595615359],[101.76058165439298,2.960757595615359],[101.76058165439298,2.9591878309883475]]],[[[101.76006344600243,2.9615424787406672],[101.75954523761186,2.9615424787406672],[101.75954523761186,2.961934920506335],[101.76006344600243,2.961934920506335],[101.76006344600243,2.9615424787406672]]]]},"properties":{"place_id":"8dd147ec-7919-502e-a1e3-186f25407f44","habitat":"permanent_water","habitat_label":"Permanent water","resolution_m":50}},{"type":"Feature","geometry":{"type":"MultiPolygon","coordinates":[[[[101.7590270292213,2.95879539016974],[101.75850882083073,2.95879539016974],[101.75850882083073,2.9591878309883475],[101.7590270292213,2.9591878309883475],[101.7590270292213,2.95879539016974]]],[[[101.76006344600243,2.9603651542556824],[101.75954523761186,2.9603651542556824],[101.75954523761186,2.961150037110347],[101.76006344600243,2.961150037110347],[101.76006344600243,2.9603651542556824]]]]},"properties":{"place_id":"8dd147ec-7919-502e-a1e3-186f25407f44","habitat":"seasonal_water_wetland","habitat_label":"Seasonal water or wetland","resolution_m":50}},{"type":"Feature","geometry":{"type":"Polygon","coordinates":[[[101.7590270292213,2.957225628247353],[101.7590270292213,2.957618068525179],[101.75747240404962,2.9584029494863544],[101.75747240404962,2.9591878309883475],[101.75799061244018,2.9591878309883475],[101.75850882083073,2.961150037110347],[101.7590270292213,2.961150037110347],[101.75850882083073,2.961934920506335],[101.76006344600243,2.9625211420518154],[101.7608636817417,2.961934920506335],[101.7608374,2.959787796722989],[101.76019099999999,2.9582636967246487],[101.7590270292213,2.957225628247353]],[[101.75954523761186,2.9615424787406672],[101.76006344600243,2.9615424787406672],[101.76006344600243,2.961934920506335],[101.75954523761186,2.961934920506335],[101.75954523761186,2.9615424787406672]],[[101.75954523761186,2.9599727130313003],[101.7590270292213,2.9599727130313003],[101.7590270292213,2.9591878309883475],[101.75850882083073,2.9591878309883475],[101.75850882083073,2.9584029494863544],[101.7590270292213,2.9584029494863544],[101.7590270292213,2.958010508938174],[101.75954523761186,2.958010508938174],[101.75954523761186,2.95879539016974],[101.76058165439298,2.9591878309883475],[101.76058165439298,2.960757595615359],[101.76006344600243,2.960757595615359],[101.76006344600243,2.961150037110347],[101.75954523761186,2.961150037110347],[101.75954523761186,2.9599727130313003]]]},"properties":{"place_id":"8dd147ec-7919-502e-a1e3-186f25407f44","habitat":"water_edge","habitat_label":"Water edge","resolution_m":50}}]}