{"type":"FeatureCollection","metadata":{"schema_version":1,"place_id":"8de77a42-8908-5993-b6f9-3a80778f90fe","place_name":"Taman Seratus","place_type":"park","osm_reference":"way/616692367","protection_context":"no protected status confirmed from included OSM tags","resolution_m":50,"raster_coverage":1.0,"interpretation":"Suggested search habitats, not predicted plant locations or probabilities of presence."},"features":[{"type":"Feature","geometry":{"type":"Polygon","coordinates":[[[101.45372169999999,3.049252596625961],[101.45346129999999,3.0501767966249718],[101.45382289999999,3.049623996625582],[101.4545507,3.049501996625699],[101.45372169999999,3.049252596625961]]]},"properties":{"place_id":"8de77a42-8908-5993-b6f9-3a80778f90fe","habitat":"forest_edge_opening","habitat_label":"Forest edge or opening","resolution_m":50}},{"type":"Feature","geometry":{"type":"Polygon","coordinates":[[[101.4533527,3.0501466966249877],[101.4539624,3.0495436966256313],[101.4545507,3.049501996625699],[101.45352889999998,3.0493103966258976],[101.4530364,3.0499915966251456],[101.4533527,3.0501466966249877]]]},"properties":{"place_id":"8de77a42-8908-5993-b6f9-3a80778f90fe","habitat":"disturbed_built_edge","habitat_label":"Disturbed, bare or built edge","resolution_m":50}}]}