{"type":"FeatureCollection","metadata":{"schema_version":1,"place_id":"8e807e73-fd6e-5294-9d42-7230826bdede","place_name":"Pulau Long Duan","place_type":"wood","osm_reference":"way/461875486","protection_context":"no protected status confirmed from included OSM tags","resolution_m":50,"raster_coverage":1.0,"interpretation":"Suggested search habitats, not predicted plant locations or probabilities of presence."},"features":[{"type":"Feature","geometry":{"type":"MultiPolygon","coordinates":[[[[115.32624090248943,4.637164960024603],[115.32680150000002,4.636357794939612],[115.3265092,4.635927394940062],[115.32426598780125,4.635592224492128],[115.3249857,4.637178494938749],[115.32624090248943,4.637164960024603]]],[[[115.32596205486749,4.637558144440248],[115.32606929999997,4.637624994938304],[115.32619718452004,4.637558144440248],[115.32596205486749,4.637558144440248]]]]},"properties":{"place_id":"8e807e73-fd6e-5294-9d42-7230826bdede","habitat":"forest_interior","habitat_label":"Forest interior","resolution_m":50}},{"type":"Feature","geometry":{"type":"MultiPolygon","coordinates":[[[[115.3256634549799,4.635592224492128],[115.3246129,4.6352375949407625],[115.32425610000001,4.635339194940663],[115.32426598780125,4.635592224492128],[115.3256634549799,4.635592224492128]]],[[[115.32675911088,4.63637859183238],[115.32675911088,4.636529444399544],[115.32679657665352,4.63637859183238],[115.32675911088,4.63637859183238]]],[[[115.32572269409887,4.637164960024603],[115.32619718452004,4.637558144440248],[115.32660669377762,4.636771775821987],[115.32624090248943,4.637164960024603],[115.32572269409887,4.637164960024603]]]]},"properties":{"place_id":"8e807e73-fd6e-5294-9d42-7230826bdede","habitat":"forest_edge_opening","habitat_label":"Forest edge or opening","resolution_m":50}},{"type":"Feature","geometry":{"type":"Polygon","coordinates":[[[115.32468627731774,4.635592224492128],[115.3256634549799,4.635592224492128],[115.32468627731774,4.635274212816594],[115.32468627731774,4.635592224492128]]]},"properties":{"place_id":"8e807e73-fd6e-5294-9d42-7230826bdede","habitat":"disturbed_built_edge","habitat_label":"Disturbed, bare or built edge","resolution_m":50}},{"type":"Feature","geometry":{"type":"Polygon","coordinates":[[[115.32624090248943,4.637164960024603],[115.32624090248943,4.637484559484902],[115.32636156974155,4.637164960024603],[115.32624090248943,4.637164960024603]]]},"properties":{"place_id":"8e807e73-fd6e-5294-9d42-7230826bdede","habitat":"permanent_water","habitat_label":"Permanent water","resolution_m":50}},{"type":"Feature","geometry":{"type":"MultiPolygon","coordinates":[[[[115.32675911088,4.636529444399544],[115.32680150000002,4.636357794939612],[115.32675911088,4.636193956295525],[115.32675911088,4.636529444399544]]],[[[115.32624090248943,4.637164960024603],[115.32624090248943,4.637484559484902],[115.32636156974155,4.637164960024603],[115.32624090248943,4.637164960024603]]]]},"properties":{"place_id":"8e807e73-fd6e-5294-9d42-7230826bdede","habitat":"seasonal_water_wetland","habitat_label":"Seasonal water or wetland","resolution_m":50}},{"type":"Feature","geometry":{"type":"MultiPolygon","coordinates":[[[[115.3256634549799,4.635592224492128],[115.3246129,4.6352375949407625],[115.32425610000001,4.635339194940663],[115.32426598780125,4.635592224492128],[115.3256634549799,4.635592224492128]]],[[[115.3256341982588,4.637164960024603],[115.3261471,4.637606294938301],[115.32675911088,4.636529444399544],[115.3265092,4.635927394940062],[115.32572269409887,4.635613808171552],[115.3256341982588,4.637164960024603]]],[[[115.3252044857083,4.637164960024603],[115.3252044857083,4.63718932600843],[115.32526155698565,4.637164960024603],[115.3252044857083,4.637164960024603]]]]},"properties":{"place_id":"8e807e73-fd6e-5294-9d42-7230826bdede","habitat":"water_edge","habitat_label":"Water edge","resolution_m":50}}]}