{"type":"FeatureCollection","metadata":{"schema_version":1,"place_id":"8e8415b2-3cc8-511b-be32-2a1bce0db50e","place_name":"Pulau Tambang","place_type":"wood","osm_reference":"way/337769470","protection_context":"no protected status confirmed from included OSM tags","resolution_m":50,"raster_coverage":1.0,"interpretation":"Suggested search habitats, not predicted plant locations or probabilities of presence."},"features":[{"type":"Feature","geometry":{"type":"MultiPolygon","coordinates":[[[[103.36132737283481,3.526022543044521],[103.36080916444425,3.526022543044521],[103.36080916444425,3.526415198160385],[103.36132737283481,3.526415198160385],[103.36132737283481,3.526022543044521]]],[[[103.35873633088201,3.5256298880900436],[103.3571817057103,3.526415198160385],[103.35769991410088,3.527200508876347],[103.35821812249144,3.527200508876347],[103.35873633088201,3.5256298880900436]]],[[[103.35873633088201,3.527200508876347],[103.35821812249144,3.527200508876347],[103.35821812249144,3.527593164476481],[103.35873633088201,3.527593164476481],[103.35873633088201,3.527200508876347]]]]},"properties":{"place_id":"8e8415b2-3cc8-511b-be32-2a1bce0db50e","habitat":"forest_interior","habitat_label":"Forest interior","resolution_m":50}},{"type":"Feature","geometry":{"type":"Polygon","coordinates":[[[103.35666349731974,3.526415198160385],[103.3575601,3.5276592961103694],[103.3592463,3.527876596110138],[103.35977274766311,3.527593164476481],[103.35977274766311,3.527200508876347],[103.35925453927254,3.527200508876347],[103.35925453927254,3.526415198160385],[103.36029095605367,3.526415198160385],[103.3609276237322,3.527200508876347],[103.36443662317815,3.5257377135229744],[103.35924230000002,3.5250147961131817],[103.35666349731974,3.526415198160385]],[[103.35873633088201,3.527200508876347],[103.35873633088201,3.527593164476481],[103.35821812249144,3.527593164476481],[103.35821812249144,3.527200508876347],[103.35873633088201,3.527200508876347]],[[103.35769991410088,3.527200508876347],[103.3571817057103,3.526415198160385],[103.35873633088201,3.5256298880900436],[103.35873633088201,3.526415198160385],[103.35821812249144,3.526415198160385],[103.35821812249144,3.527200508876347],[103.35769991410088,3.527200508876347]],[[103.36080916444425,3.526022543044521],[103.36132737283481,3.526022543044521],[103.36132737283481,3.526415198160385],[103.36080916444425,3.526415198160385],[103.36080916444425,3.526022543044521]],[[103.35977274766311,3.5256298880900436],[103.36029095605367,3.5256298880900436],[103.36029095605367,3.526022543044521],[103.35977274766311,3.526022543044521],[103.35977274766311,3.5256298880900436]]]},"properties":{"place_id":"8e8415b2-3cc8-511b-be32-2a1bce0db50e","habitat":"forest_edge_opening","habitat_label":"Forest edge or opening","resolution_m":50}},{"type":"Feature","geometry":{"type":"MultiPolygon","coordinates":[[[[103.36288199800649,3.5256298880900436],[103.36132737283481,3.5256298880900436],[103.36132737283481,3.526022543044521],[103.36288199800649,3.526022543044521],[103.36288199800649,3.5256298880900436]]],[[[103.35999745438063,3.527593164476481],[103.36080916444425,3.527200508876347],[103.36080916444425,3.526415198160385],[103.36029095605367,3.526415198160385],[103.36029095605367,3.526022543044521],[103.36080916444425,3.526022543044521],[103.36080916444425,3.5252372332969353],[103.35873633088201,3.5252372332969353],[103.35873633088201,3.5256298880900436],[103.35925453927254,3.5256298880900436],[103.35873633088201,3.527200508876347],[103.35925453927254,3.527200508876347],[103.35925453927254,3.527593164476481],[103.35999745438063,3.527593164476481]]]]},"properties":{"place_id":"8e8415b2-3cc8-511b-be32-2a1bce0db50e","habitat":"open_grassland","habitat_label":"Open grassland or shrubland","resolution_m":50}},{"type":"Feature","geometry":{"type":"Polygon","coordinates":[[[103.35925453927254,3.5278741034595904],[103.35873633088201,3.527593164476481],[103.35873633088201,3.5278990961101178],[103.35925453927254,3.5278741034595904]]]},"properties":{"place_id":"8e8415b2-3cc8-511b-be32-2a1bce0db50e","habitat":"cropland","habitat_label":"Cropland","resolution_m":50}},{"type":"Feature","geometry":{"type":"MultiPolygon","coordinates":[[[[103.35925453927254,3.5252372332969353],[103.35924230000002,3.5250147961131817],[103.35854902293816,3.5252372332969353],[103.35925453927254,3.5252372332969353]]],[[[103.36080916444425,3.5252372332969353],[103.36108870047336,3.5252372332969353],[103.36080916444425,3.5251835525868205],[103.36080916444425,3.5252372332969353]]],[[[103.35821812249144,3.5256298880900436],[103.35821812249144,3.5253939406971986],[103.35771578791987,3.5256298880900436],[103.35821812249144,3.5256298880900436]]],[[[103.36236378961591,3.5256298880900436],[103.3636447388046,3.5256298880900436],[103.36236378961591,3.525451545566174],[103.36236378961591,3.5256298880900436]]],[[[103.3571817057103,3.526022543044521],[103.35769991410088,3.526022543044521],[103.35769991410088,3.52563830255634],[103.35664989999998,3.526377096111756],[103.35666349731974,3.5267010528591527],[103.3571817057103,3.526022543044521]]],[[[103.36391841478762,3.526022543044521],[103.36288199800649,3.526022543044521],[103.36288199800649,3.526415198160385],[103.36080916444425,3.5268078534376546],[103.36029095605367,3.527465746625267],[103.36459589999998,3.52577739611237],[103.36391841478762,3.525665133356365],[103.36391841478762,3.526022543044521]]],[[[103.3571817057103,3.5268078534376546],[103.35671477018818,3.5268078534376546],[103.3571817057103,3.527403025526557],[103.3571817057103,3.5268078534376546]]],[[[103.35821812249144,3.527593164476481],[103.35746133124148,3.527593164476481],[103.35821812249144,3.5278789574047975],[103.35821812249144,3.527593164476481]]],[[[103.35925453927254,3.527593164476481],[103.35925453927254,3.5278741034595904],[103.35999745438063,3.527593164476481],[103.35925453927254,3.527593164476481]]]]},"properties":{"place_id":"8e8415b2-3cc8-511b-be32-2a1bce0db50e","habitat":"permanent_water","habitat_label":"Permanent water","resolution_m":50}},{"type":"Feature","geometry":{"type":"MultiPolygon","coordinates":[[[[103.36029095605367,3.5252372332969353],[103.36108870047336,3.5252372332969353],[103.36029095605367,3.5250781252723282],[103.36029095605367,3.5252372332969353]]],[[[103.36236378961591,3.5256298880900436],[103.3636447388046,3.5256298880900436],[103.36236378961591,3.525451545566174],[103.36236378961591,3.5256298880900436]]],[[[103.35666349731974,3.526415198160385],[103.3571817057103,3.526415198160385],[103.3571817057103,3.526022543044521],[103.356967,3.526102296112044],[103.35666349731974,3.526415198160385]]],[[[103.36391841478762,3.526022543044521],[103.36340020639705,3.5263117709159557],[103.36391841478762,3.526106546088676],[103.36391841478762,3.526022543044521]]],[[[103.35693932475176,3.527200508876347],[103.3571817057103,3.5268078534376546],[103.35671477018818,3.5268078534376546],[103.35693932475176,3.527200508876347]]],[[[103.35769991410088,3.527593164476481],[103.35746133124148,3.527593164476481],[103.35769991410088,3.527715864482448],[103.35769991410088,3.527593164476481]]]]},"properties":{"place_id":"8e8415b2-3cc8-511b-be32-2a1bce0db50e","habitat":"seasonal_water_wetland","habitat_label":"Seasonal water or wetland","resolution_m":50}},{"type":"Feature","geometry":{"type":"Polygon","coordinates":[[[103.35821812249144,3.527593164476481],[103.35821812249144,3.5278789574047975],[103.35925453927254,3.5278741034595904],[103.35925453927254,3.527593164476481],[103.36080916444425,3.527200508876347],[103.36080916444425,3.5268078534376546],[103.36184558122535,3.5268078534376546],[103.36184558122535,3.526415198160385],[103.36391841478762,3.526022543044521],[103.36391841478762,3.525665133356365],[103.36015279999998,3.5250492961131648],[103.35854902293816,3.5252372332969353],[103.35769991410088,3.52563830255634],[103.35769991410088,3.526022543044521],[103.3571817057103,3.526022543044521],[103.3571817057103,3.526415198160385],[103.35666349731974,3.526415198160385],[103.3572145,3.527427896110609],[103.35821812249144,3.527593164476481]],[[103.35821812249144,3.5268078534376546],[103.35769991410088,3.5268078534376546],[103.35769991410088,3.526415198160385],[103.35821812249144,3.526415198160385],[103.35821812249144,3.526022543044521],[103.35925453927254,3.526022543044521],[103.35925453927254,3.5256298880900436],[103.36029095605367,3.5256298880900436],[103.36029095605367,3.526022543044521],[103.36080916444425,3.526022543044521],[103.36080916444425,3.526415198160385],[103.36029095605367,3.526415198160385],[103.36029095605367,3.5268078534376546],[103.35925453927254,3.5268078534376546],[103.35925453927254,3.527200508876347],[103.35821812249144,3.527200508876347],[103.35821812249144,3.5268078534376546]]]},"properties":{"place_id":"8e8415b2-3cc8-511b-be32-2a1bce0db50e","habitat":"water_edge","habitat_label":"Water edge","resolution_m":50}}]}