{"type":"FeatureCollection","metadata":{"schema_version":1,"place_id":"8edfe466-d4d2-5170-97a9-f195701b078c","place_name":"BC Park","place_type":"park","osm_reference":"way/555877058","protection_context":"no protected status confirmed from included OSM tags","resolution_m":50,"raster_coverage":1.0,"interpretation":"Suggested search habitats, not predicted plant locations or probabilities of presence."},"features":[{"type":"Feature","geometry":{"type":"Polygon","coordinates":[[[101.69942741165453,3.2355007795059127],[101.69985719999998,3.235549896424543],[101.69967539999999,3.2351407964249645],[101.69942741165453,3.2355007795059127]]]},"properties":{"place_id":"8edfe466-d4d2-5170-97a9-f195701b078c","habitat":"forest_edge_opening","habitat_label":"Forest edge or opening","resolution_m":50}},{"type":"Feature","geometry":{"type":"Polygon","coordinates":[[[101.69942429999999,3.235505296424591],[101.69985719999998,3.235549896424543],[101.69967539999999,3.2351407964249645],[101.69942429999999,3.235505296424591]]]},"properties":{"place_id":"8edfe466-d4d2-5170-97a9-f195701b078c","habitat":"disturbed_built_edge","habitat_label":"Disturbed, bare or built edge","resolution_m":50}}]}