{"type":"FeatureCollection","metadata":{"schema_version":1,"place_id":"8ee3efc3-384a-5a44-8ad3-d11e927870a6","place_name":"Garden Villa Playground","place_type":"park","osm_reference":"way/666570883","protection_context":"no protected status confirmed from included OSM tags","resolution_m":50,"raster_coverage":1.0,"interpretation":"Suggested search habitats, not predicted plant locations or probabilities of presence."},"features":[{"type":"Feature","geometry":{"type":"Polygon","coordinates":[[[118.05098062005727,5.865407962765196],[118.0507776573259,5.865030272572676],[118.05047192757782,5.865424211616138],[118.05098062005727,5.865407962765196]]]},"properties":{"place_id":"8ee3efc3-384a-5a44-8ad3-d11e927870a6","habitat":"open_grassland","habitat_label":"Open grassland or shrubland","resolution_m":50}},{"type":"Feature","geometry":{"type":"Polygon","coordinates":[[[118.051342,5.865191593690561],[118.05092369999998,5.864842093690933],[118.05016049999999,5.865898993689885],[118.051342,5.865191593690561]]]},"properties":{"place_id":"8ee3efc3-384a-5a44-8ad3-d11e927870a6","habitat":"disturbed_built_edge","habitat_label":"Disturbed, bare or built edge","resolution_m":50}}]}