{"type":"FeatureCollection","metadata":{"schema_version":1,"place_id":"8f0e2a4f-1fe7-5ec5-a894-85303c8efb52","place_name":"Hutan Simpanan Kekal Semangko","place_type":"park","osm_reference":"relation/18220818","protection_context":"mapped protected boundary","resolution_m":50,"raster_coverage":1.0,"interpretation":"Suggested search habitats, not predicted plant locations or probabilities of presence."},"features":[{"type":"Feature","geometry":{"type":"Polygon","coordinates":[[[101.73606399999998,3.6409817959890636],[101.7338597,3.642505695987422],[101.7341323,3.643294795986604],[101.73623679999999,3.6436170959862677],[101.73708299999997,3.64452739598529],[101.73661149999997,3.6480768959815073],[101.73597810000001,3.6494294959800473],[101.7385111,3.6528655959763485],[101.7364128,3.6542218959749286],[101.7373592,3.655409395973657],[101.73777409999998,3.6574404959714943],[101.7388633,3.6580028959708786],[101.7379014,3.6607071959680044],[101.73877889999999,3.6621311959664626],[101.7385865,3.6635974959648907],[101.7395836,3.6637395959647616],[101.739078,3.6654494959629367],[101.7401606,3.6691289959590057],[101.739688,3.670235195957814],[101.74094169999998,3.671269795956713],[101.7421354,3.6713515959566045],[101.74250689999997,3.671912295956012],[101.74232909999998,3.6729850959548687],[101.7431039,3.6740713959537143],[101.7434404,3.6778338959497217],[101.74422299999998,3.678814295948668],[101.744378,3.6805370959468005],[101.7457427,3.684323895942781],[101.7455161,3.686675495940273],[101.7466657,3.688934395937851],[101.7464413,3.690328495936353],[101.74696009999998,3.6914430959351647],[101.7465193,3.693183395933301],[101.7462555,3.693499395932978],[101.7457078,3.693388695933103],[101.74608009999999,3.6921170959344263],[101.745074,3.6922754959343025],[101.74436339999998,3.6906823959359594],[101.7438576,3.6907516959359103],[101.74294749999997,3.6892397959375263],[101.7426802,3.6910523959355714],[101.7421009,3.6914425959351873],[101.74230139999999,3.6926153959339145],[101.74103469999999,3.6926339959339085],[101.73951729999999,3.69178039593481],[101.73935739999999,3.693312995933159],[101.73749259999998,3.6937556959327273],[101.7385801,3.695687695930652],[101.73809999999999,3.6956670959306672],[101.7380537,3.6961075959302017],[101.73688369999999,3.695373395930982],[101.7364506,3.695564995930787],[101.7364355,3.6968679959294004],[101.7369633,3.6973410959288993],[101.7362044,3.698435295927703],[101.73558679999998,3.698436295927714],[101.73597379999998,3.6992676959268223],[101.7352564,3.699297295926812],[101.73469479999999,3.70190029592403],[101.73439029999999,3.7006531959253577],[101.73325609999998,3.700581995925399],[101.73313089999999,3.699292695926817],[101.73140209999998,3.6977821959284176],[101.73104210000001,3.695955995930354],[101.7303899,3.6961583959301403],[101.73074649999998,3.698780495927346],[101.73038950000002,3.700082695925961],[101.73138819999998,3.7016129959243234],[101.7311514,3.7024183959234733],[101.73257169999998,3.703882195921889],[101.73838649999999,3.7028842959229773],[101.73896109999998,3.7003106959257055],[101.7401437,3.698743195927363],[101.7404628,3.697182095929061],[101.74186339999999,3.6960972959302065],[101.7443746,3.696477295929794],[101.74609099999998,3.695151395931211],[101.74714029999997,3.694829995931582],[101.74838259999999,3.693480795933023],[101.7491162,3.6909474959357125],[101.750987,3.6906851959359805],[101.7530683,3.6889663959378254],[101.754138,3.6857219959412584],[101.75497820000001,3.6849299959421327],[101.75679329999998,3.684530195942568],[101.75824620000002,3.684709295942365],[101.75877239999998,3.6835023959436675],[101.76010909999998,3.6822487959449672],[101.7621541,3.682843595944363],[101.7636066,3.6812977959459974],[101.76636760314751,3.682312220018702],[101.7680605,3.6815463959457517],[101.76732199999998,3.678731995948731],[101.76784199999999,3.6760339959516464],[101.7685078,3.6744604959533036],[101.771055,3.671672995956259],[101.76829199999999,3.6665729959617424],[101.76844960000001,3.6648244959636056],[101.7652954,3.6644460959639895],[101.7630963,3.6637657959647405],[101.76166689999997,3.6611468959675273],[101.7595778,3.6591424959696828],[101.7595924,3.656969895971981],[101.7569609,3.6551556959739337],[101.75649169999998,3.6544094959747073],[101.7562132,3.6527123959765264],[101.75537019999997,3.6512784959780875],[101.75244539999998,3.649054695980435],[101.7474425,3.641633095988361],[101.7462404,3.6412673959887725],[101.74416950000001,3.6395372959906243],[101.743136,3.637781495992492],[101.74305529999997,3.6358867959945016],[101.74219039999997,3.6350637959954004],[101.74259349999997,3.633765295996783],[101.7423223,3.6328215959978047],[101.739786,3.6300123960007897],[101.73981540000001,3.6270129960040136],[101.73863519999999,3.6249646960061908],[101.74024049999998,3.6228723960084266],[101.73874509999999,3.620926496010496],[101.7384226,3.6176051960140745],[101.7379975,3.6168442960148934],[101.7336247,3.6148151960170494],[101.7332106,3.6182587960133517],[101.73373259999998,3.619264796012266],[101.73284869999999,3.621066596010378],[101.73288839999998,3.622905196008382],[101.73444740000001,3.6240892960071087],[101.73351299999999,3.6254273960056866],[101.73401839999998,3.627451896003545],[101.7335828,3.628790496002109],[101.73525539999999,3.6294111960014352],[101.7324514,3.6307457960000327],[101.73172059999997,3.6328311959977757],[101.7319189,3.633774595996784],[101.7326725,3.6334512959971033],[101.73319469999998,3.6337551959968124],[101.73354259999999,3.635182795995281],[101.73481299999999,3.6366178959937647],[101.7335825,3.6371925959931195],[101.73364949999998,3.6379452959923344],[101.73457429999999,3.639274095990903],[101.7362142,3.640422195989661],[101.73606399999998,3.6409817959890636]]]},"properties":{"place_id":"8f0e2a4f-1fe7-5ec5-a894-85303c8efb52","habitat":"forest_interior","habitat_label":"Forest interior","resolution_m":50}},{"type":"Feature","geometry":{"type":"MultiPolygon","coordinates":[[[[101.73467123486495,3.6418628784577716],[101.7343216,3.6418052959882026],[101.73424879328539,3.6418628784577716],[101.73467123486495,3.6418628784577716]]],[[[101.76731836347028,3.6819194993973645],[101.76680015507971,3.682188760531572],[101.76731836347028,3.681958912259936],[101.76731836347028,3.6819194993973645]]],[[[101.76636760314751,3.682312220018702],[101.7663833,3.6823140959449225],[101.76638953917296,3.682312220018702],[101.76636760314751,3.682312220018702]]]]},"properties":{"place_id":"8f0e2a4f-1fe7-5ec5-a894-85303c8efb52","habitat":"forest_edge_opening","habitat_label":"Forest edge or opening","resolution_m":50}}]}