{"type":"FeatureCollection","metadata":{"schema_version":1,"place_id":"8f6a56aa-172e-56fd-a342-ba9f8d5e6808","place_name":"Taman Permainan Dataran Pehin Setia Raja","place_type":"park","osm_reference":"way/734031634","protection_context":"no protected status confirmed from included OSM tags","resolution_m":50,"raster_coverage":1.0,"interpretation":"Suggested search habitats, not predicted plant locations or probabilities of presence."},"features":[{"type":"Feature","geometry":{"type":"Polygon","coordinates":[[[112.0888233,2.8895993967992073],[112.0894164,2.8893055967995163],[112.0891945,2.888862496799997],[112.0885921,2.8893521967994844],[112.0888233,2.8895993967992073]]]},"properties":{"place_id":"8f6a56aa-172e-56fd-a342-ba9f8d5e6808","habitat":"forest_edge_opening","habitat_label":"Forest edge or opening","resolution_m":50}},{"type":"Feature","geometry":{"type":"Polygon","coordinates":[[[112.0889930866571,2.889515290705313],[112.0894164,2.8893055967995163],[112.08923484609701,2.8889430617066787],[112.0889930866571,2.88894539687332],[112.0889930866571,2.889515290705313]]]},"properties":{"place_id":"8f6a56aa-172e-56fd-a342-ba9f8d5e6808","habitat":"open_grassland","habitat_label":"Open grassland or shrubland","resolution_m":50}},{"type":"Feature","geometry":{"type":"MultiPolygon","coordinates":[[[[112.08923484609701,2.8889430617066787],[112.0891945,2.888862496799997],[112.08899876015876,2.8889430617066787],[112.08923484609701,2.8889430617066787]]],[[[112.0889930866571,2.88894539687332],[112.0885921,2.8893521967994844],[112.0888233,2.8895993967992073],[112.0889930866571,2.889515290705313],[112.0889930866571,2.88894539687332]]]]},"properties":{"place_id":"8f6a56aa-172e-56fd-a342-ba9f8d5e6808","habitat":"disturbed_built_edge","habitat_label":"Disturbed, bare or built edge","resolution_m":50}}]}