{"type":"FeatureCollection","metadata":{"schema_version":1,"place_id":"8f79b4f1-c239-5c4c-afc2-c43b70d3d3c7","place_name":"Taman Melewar Park","place_type":"park","osm_reference":"way/543837366","protection_context":"no protected status confirmed from included OSM tags","resolution_m":50,"raster_coverage":1.0,"interpretation":"Suggested search habitats, not predicted plant locations or probabilities of presence."},"features":[{"type":"Feature","geometry":{"type":"Polygon","coordinates":[[[101.69967139999997,3.219983196441325],[101.70021919999999,3.2202672964410373],[101.7004355,3.220535896440713],[101.70043419999999,3.219997296441324],[101.69967139999997,3.219983196441325]]]},"properties":{"place_id":"8f79b4f1-c239-5c4c-afc2-c43b70d3d3c7","habitat":"disturbed_built_edge","habitat_label":"Disturbed, bare or built edge","resolution_m":50}}]}