{"type":"FeatureCollection","metadata":{"schema_version":1,"place_id":"901a3823-a497-5984-b79f-9189034a388d","place_name":"taman desa bestari","place_type":"park","osm_reference":"way/745738926","protection_context":"no protected status confirmed from included OSM tags","resolution_m":50,"raster_coverage":1.0,"interpretation":"Suggested search habitats, not predicted plant locations or probabilities of presence."},"features":[{"type":"Feature","geometry":{"type":"Polygon","coordinates":[[[101.7512215,2.803096796893342],[101.7509731634538,2.802614491404725],[101.75100719999999,2.8031451968932823],[101.7512215,2.803096796893342]]]},"properties":{"place_id":"901a3823-a497-5984-b79f-9189034a388d","habitat":"forest_edge_opening","habitat_label":"Forest edge or opening","resolution_m":50}},{"type":"Feature","geometry":{"type":"Polygon","coordinates":[[[101.75097319999999,2.802612696893859],[101.7512215,2.803096796893342],[101.75134799999998,2.802571496893887],[101.75097319999999,2.802612696893859]]]},"properties":{"place_id":"901a3823-a497-5984-b79f-9189034a388d","habitat":"disturbed_built_edge","habitat_label":"Disturbed, bare or built edge","resolution_m":50}}]}