{"type":"FeatureCollection","metadata":{"schema_version":1,"place_id":"9039da38-d76e-5165-9f8e-e46d9449f004","place_name":"Pulau Purun","place_type":"wood","osm_reference":"way/412285786","protection_context":"no protected status confirmed from included OSM tags","resolution_m":50,"raster_coverage":1.0,"interpretation":"Suggested search habitats, not predicted plant locations or probabilities of presence."},"features":[{"type":"Feature","geometry":{"type":"Polygon","coordinates":[[[102.41922451879557,3.557042795922071],[102.4197427271861,3.5562574605649333],[102.41766989362387,3.5566501281621017],[102.41766989362387,3.557042795922071],[102.41922451879557,3.557042795922071]]]},"properties":{"place_id":"9039da38-d76e-5165-9f8e-e46d9449f004","habitat":"forest_interior","habitat_label":"Forest interior","resolution_m":50}},{"type":"Feature","geometry":{"type":"Polygon","coordinates":[[[102.41612797498563,3.557042795922071],[102.4181905,3.5576788960781913],[102.41926880000001,3.557389796078512],[102.42154869999999,3.555950896080041],[102.41883689999997,3.5560619960799453],[102.41612797498563,3.557042795922071]],[[102.41766989362387,3.5566501281621017],[102.418706310405,3.5566501281621017],[102.418706310405,3.5562574605649333],[102.4197427271861,3.5562574605649333],[102.41922451879557,3.557042795922071],[102.41766989362387,3.557042795922071],[102.41766989362387,3.5566501281621017]]]},"properties":{"place_id":"9039da38-d76e-5165-9f8e-e46d9449f004","habitat":"forest_edge_opening","habitat_label":"Forest edge or opening","resolution_m":50}},{"type":"Feature","geometry":{"type":"MultiPolygon","coordinates":[[[[102.42129735235781,3.5562354701529295],[102.42155269999999,3.556021196079973],[102.4215272,3.55593419608007],[102.42129735235781,3.5559068571333965],[102.42129735235781,3.5562354701529295]]],[[[102.4197427271861,3.5566501281621017],[102.4197427271861,3.557042795922071],[102.42026093557668,3.5569118880281847],[102.42026093557668,3.5566501281621017],[102.4197427271861,3.5566501281621017]]],[[[102.41663347684276,3.557042795922071],[102.41663347684276,3.5567390297272743],[102.4161152684522,3.5573319304289814],[102.4171516852333,3.557435463844862],[102.4171516852333,3.557042795922071],[102.41663347684276,3.557042795922071]]],[[[102.41922451879557,3.557042795922071],[102.41922451879557,3.5574034353060853],[102.4197427271861,3.557203857895047],[102.4197427271861,3.557042795922071],[102.41922451879557,3.557042795922071]]]]},"properties":{"place_id":"9039da38-d76e-5165-9f8e-e46d9449f004","habitat":"cropland","habitat_label":"Cropland","resolution_m":50}},{"type":"Feature","geometry":{"type":"MultiPolygon","coordinates":[[[[102.418706310405,3.5562574605649333],[102.418706310405,3.5560912843819916],[102.41826140722274,3.5562574605649333],[102.418706310405,3.5562574605649333]]],[[[102.42129735235781,3.5562354701529295],[102.42155269999999,3.556021196079973],[102.4215272,3.55593419608007],[102.42129735235781,3.5559068571333965],[102.42129735235781,3.5562354701529295]]],[[[102.41766989362387,3.5566501281621017],[102.41766989362387,3.556384835301883],[102.41680809299991,3.5566501281621017],[102.41766989362387,3.5566501281621017]]],[[[102.42077914396724,3.556590250521529],[102.42107389999998,3.5564072960795574],[102.42126968029426,3.5562574605649333],[102.42077914396724,3.5562574605649333],[102.42077914396724,3.556590250521529]]],[[[102.42026093557668,3.5569118880281847],[102.4206555,3.5566669960792727],[102.42068267572445,3.5566501281621017],[102.42026093557668,3.5566501281621017],[102.42026093557668,3.5569118880281847]]],[[[102.4161152684522,3.557052720623828],[102.41601929999997,3.5571876960787225],[102.4161152684522,3.5573319304289814],[102.4161152684522,3.557052720623828]]],[[[102.4197427271861,3.557203857895047],[102.42004028448338,3.557042795922071],[102.4197427271861,3.557042795922071],[102.4197427271861,3.557203857895047]]],[[[102.4168676438584,3.557435463844862],[102.4181905,3.5576788960781913],[102.41912053473692,3.557435463844862],[102.4168676438584,3.557435463844862]]]]},"properties":{"place_id":"9039da38-d76e-5165-9f8e-e46d9449f004","habitat":"permanent_water","habitat_label":"Permanent water","resolution_m":50}},{"type":"Feature","geometry":{"type":"MultiPolygon","coordinates":[[[[102.42129735235781,3.5562354701529295],[102.42155269999999,3.556021196079973],[102.4215272,3.55593419608007],[102.42129735235781,3.5559068571333965],[102.42129735235781,3.5562354701529295]]],[[[102.41766989362387,3.556384835301883],[102.41818810201444,3.5566501281621017],[102.41818810201444,3.556279120567924],[102.41766989362387,3.556384835301883]]],[[[102.42026093557668,3.5569118880281847],[102.4206555,3.5566669960792727],[102.42068267572445,3.5566501281621017],[102.42026093557668,3.5566501281621017],[102.42026093557668,3.5569118880281847]]],[[[102.4161152684522,3.557052720623828],[102.41601929999997,3.5571876960787225],[102.4161152684522,3.5573319304289814],[102.4161152684522,3.557052720623828]]],[[[102.4197427271861,3.557203857895047],[102.42004028448338,3.557042795922071],[102.4197427271861,3.557042795922071],[102.4197427271861,3.557203857895047]]],[[[102.41766989362387,3.557435463844862],[102.4168676438584,3.557435463844862],[102.41766989362387,3.557596612060877],[102.41766989362387,3.557435463844862]]],[[[102.418706310405,3.557435463844862],[102.41898179999998,3.5574781960783946],[102.41912053473692,3.557435463844862],[102.418706310405,3.557435463844862]]]]},"properties":{"place_id":"9039da38-d76e-5165-9f8e-e46d9449f004","habitat":"seasonal_water_wetland","habitat_label":"Seasonal water or wetland","resolution_m":50}},{"type":"Feature","geometry":{"type":"Polygon","coordinates":[[[102.4161152684522,3.5573319304289814],[102.41912053473692,3.557435463844862],[102.42126968029426,3.5562574605649333],[102.42129735235781,3.5559068571333965],[102.418706310405,3.5560912843819916],[102.41818810201444,3.5566501281621017],[102.41680809299991,3.5566501281621017],[102.4161152684522,3.5573319304289814]]]},"properties":{"place_id":"9039da38-d76e-5165-9f8e-e46d9449f004","habitat":"water_edge","habitat_label":"Water edge","resolution_m":50}}]}