{"type":"FeatureCollection","metadata":{"schema_version":1,"place_id":"9158fe17-9974-59e4-b75b-f0f75679b91f","place_name":"Dataran Bukit Pasir","place_type":"park","osm_reference":"way/730851971","protection_context":"no protected status confirmed from included OSM tags","resolution_m":50,"raster_coverage":1.0,"interpretation":"Suggested search habitats, not predicted plant locations or probabilities of presence."},"features":[{"type":"Feature","geometry":{"type":"Polygon","coordinates":[[[102.6386033,2.099501297664088],[102.63879009999998,2.099029997664599],[102.63826239999999,2.0988315976648355],[102.6380802,2.099298297664286],[102.6386033,2.099501297664088]]]},"properties":{"place_id":"9158fe17-9974-59e4-b75b-f0f75679b91f","habitat":"disturbed_built_edge","habitat_label":"Disturbed, bare or built edge","resolution_m":50}}]}