{"type":"FeatureCollection","metadata":{"schema_version":1,"place_id":"938024fa-2bac-57a6-80bd-ec4abf0752d4","place_name":"Pulau Jeram Leban","place_type":"wood","osm_reference":"way/724547211","protection_context":"no protected status confirmed from included OSM tags","resolution_m":50,"raster_coverage":1.0,"interpretation":"Suggested search habitats, not predicted plant locations or probabilities of presence."},"features":[{"type":"Feature","geometry":{"type":"Polygon","coordinates":[[[102.7101255,5.0244258945390925],[102.71056880000002,5.025080494538419],[102.71083159999999,5.024407194539148],[102.7101255,5.0244258945390925]]]},"properties":{"place_id":"938024fa-2bac-57a6-80bd-ec4abf0752d4","habitat":"forest_edge_opening","habitat_label":"Forest edge or opening","resolution_m":50}},{"type":"Feature","geometry":{"type":"Polygon","coordinates":[[[102.71056880000002,5.025080494538419],[102.71045763429062,5.02436777893046],[102.71017040000001,5.024397794539138],[102.71019460000001,5.024735194538774],[102.71056880000002,5.025080494538419]]]},"properties":{"place_id":"938024fa-2bac-57a6-80bd-ec4abf0752d4","habitat":"permanent_water","habitat_label":"Permanent water","resolution_m":50}},{"type":"Feature","geometry":{"type":"Polygon","coordinates":[[[102.7100981083148,5.024557778655494],[102.71045763429062,5.02436777893046],[102.71009669999998,5.024475294539051],[102.7100981083148,5.024557778655494]]]},"properties":{"place_id":"938024fa-2bac-57a6-80bd-ec4abf0752d4","habitat":"seasonal_water_wetland","habitat_label":"Seasonal water or wetland","resolution_m":50}},{"type":"Feature","geometry":{"type":"Polygon","coordinates":[[[102.71045763429062,5.0249511818446875],[102.71079340000001,5.024727794538781],[102.71083159999999,5.024407194539148],[102.71045763429062,5.02436777893046],[102.71045763429062,5.0249511818446875]]]},"properties":{"place_id":"938024fa-2bac-57a6-80bd-ec4abf0752d4","habitat":"water_edge","habitat_label":"Water edge","resolution_m":50}}]}