{"type":"FeatureCollection","metadata":{"schema_version":1,"place_id":"93a58484-d2b6-579c-a56b-c2fe8d4e89fc","place_name":"Taman Firdausi","place_type":"park","osm_reference":"way/1381195216","protection_context":"no protected status confirmed from included OSM tags","resolution_m":50,"raster_coverage":1.0,"interpretation":"Suggested search habitats, not predicted plant locations or probabilities of presence."},"features":[{"type":"Feature","geometry":{"type":"Polygon","coordinates":[[[101.54342849999999,3.1781116964865523],[101.54349879999998,3.1779826964867084],[101.54343299999996,3.177980496486664],[101.54342849999999,3.1781116964865523]]]},"properties":{"place_id":"93a58484-d2b6-579c-a56b-c2fe8d4e89fc","habitat":"disturbed_built_edge","habitat_label":"Disturbed, bare or built edge","resolution_m":50}}]}