{"type":"FeatureCollection","metadata":{"schema_version":1,"place_id":"93f44005-df15-5379-9bf2-446816758781","place_name":"Taman Rimba Alam","place_type":"wood","osm_reference":"relation/14369056","protection_context":"no protected status confirmed from included OSM tags","resolution_m":50,"raster_coverage":1.0,"interpretation":"Suggested search habitats, not predicted plant locations or probabilities of presence."},"features":[{"type":"Feature","geometry":{"type":"MultiPolygon","coordinates":[[[[101.73050949999997,2.949313296734339],[101.73104377613102,2.9501617263396063],[101.73208019291215,2.9501617263396063],[101.73223202016815,2.950554164187498],[101.73224649999997,2.9433161967408705],[101.7316619,2.9437456967404194],[101.7316619,2.943453796740713],[101.73227189999999,2.942116196742167],[101.7315075,2.9424350967418036],[101.73027239999999,2.9417025967426245],[101.72953339999998,2.940050496744415],[101.72793452578766,2.9403508239134184],[101.72574519999999,2.9395603967449384],[101.725701,2.9409811967433823],[101.7271347,2.9411683967431714],[101.72752629999997,2.941801796742509],[101.73043779999999,2.9422477967420497],[101.7311436,2.942792996741417],[101.73117992074651,2.9438827390972317],[101.73208019291215,2.9442751747900937],[101.7319432,2.9466092967372646],[101.730719,2.948107196735643],[101.73050949999997,2.949313296734339]]],[[[101.7300073593499,2.9493768510482794],[101.73036529999999,2.9492934967343585],[101.7304537007384,2.948591976296107],[101.7300073593499,2.948801544386767],[101.7300073593499,2.9493768510482794]]],[[[101.7311712,2.947143496736705],[101.73052556774047,2.9482523819277673],[101.7318266,2.946496196737416],[101.73178955613768,2.945060046579498],[101.7311712,2.947143496736705]]]]},"properties":{"place_id":"93f44005-df15-5379-9bf2-446816758781","habitat":"forest_interior","habitat_label":"Forest interior","resolution_m":50}},{"type":"Feature","geometry":{"type":"MultiPolygon","coordinates":[[[[101.72793452578766,2.940251579954065],[101.72897094256878,2.9403508239134184],[101.72897094256878,2.940135446829766],[101.72793452578766,2.940251579954065]]],[[[101.72897094256878,2.9420929758289205],[101.72921334657326,2.9419205626505978],[101.72897094256878,2.9419205626505978],[101.72897094256878,2.9420929758289205]]],[[[101.72948915095934,2.9419205626505978],[101.72942595201476,2.9419205626505978],[101.72948915095934,2.941941001339748],[101.72948915095934,2.9419205626505978]]],[[[101.73208019291215,2.9442751747900937],[101.73117992074651,2.9438827390972317],[101.73195387110295,2.945060046579498],[101.73208019291215,2.945060046579498],[101.73208019291215,2.9442751747900937]]],[[[101.73093329999999,2.9440648967400302],[101.7317632,2.9449019967391408],[101.73101600000001,2.9439051967402223],[101.73093329999999,2.9440648967400302]]],[[[101.73208019291215,2.945844918907262],[101.73224390764186,2.945452482676076],[101.73208019291215,2.945452482676076],[101.73208019291215,2.945844918907262]]],[[[101.73156198452158,2.9462373552730745],[101.73156198452158,2.945876504594837],[101.73148692962263,2.9462373552730745],[101.73156198452158,2.9462373552730745]]],[[[101.73208019291215,2.9474146651784485],[101.73223866119645,2.948591976296107],[101.73224152656051,2.9474146651784485],[101.73208019291215,2.9474146651784485]]],[[[101.73014974598418,2.948591976296107],[101.73052556774047,2.9482523819277673],[101.73052556774047,2.947807102082945],[101.73014974598418,2.948591976296107]]],[[[101.7301602,2.9496365967339937],[101.7300073593499,2.948801544386767],[101.72965679999999,2.94898539673472],[101.7301602,2.9496365967339937]]],[[[101.73208019291215,2.9493768510482794],[101.73223733197287,2.9489844136048076],[101.73208019291215,2.9489844136048076],[101.73208019291215,2.9493768510482794]]],[[[101.73104377613102,2.9501617263396063],[101.73072770797192,2.949769288626539],[101.7309561,2.9503264967332385],[101.7319983,2.9504201967331523],[101.73222440000002,2.952827796730556],[101.73208019291215,2.9501617263396063],[101.73104377613102,2.9501617263396063]]]]},"properties":{"place_id":"93f44005-df15-5379-9bf2-446816758781","habitat":"forest_edge_opening","habitat_label":"Forest edge or opening","resolution_m":50}},{"type":"Feature","geometry":{"type":"Polygon","coordinates":[[[101.7315572,2.9450122967390095],[101.73156198452158,2.9446676106175103],[101.73146133472619,2.9446676106175103],[101.7315572,2.9450122967390095]]]},"properties":{"place_id":"93f44005-df15-5379-9bf2-446816758781","habitat":"open_grassland","habitat_label":"Open grassland or shrubland","resolution_m":50}},{"type":"Feature","geometry":{"type":"MultiPolygon","coordinates":[[[[101.73158750452254,2.9446676106175103],[101.73104377613102,2.943942251391942],[101.73156142789149,2.945060046579498],[101.73158750452254,2.9446676106175103]]],[[[101.73175655590727,2.9446676106175103],[101.73208019291215,2.9442751747900937],[101.73117992074651,2.9438827390972317],[101.73175655590727,2.9446676106175103]]],[[[101.73208019291215,2.945452482676076],[101.7322434314256,2.945844918907262],[101.73224390764186,2.945452482676076],[101.73208019291215,2.945452482676076]]],[[[101.73208019291215,2.9474146651784485],[101.73223866119645,2.948591976296107],[101.73224152656051,2.9474146651784485],[101.73208019291215,2.9474146651784485]]],[[[101.73014974598418,2.948591976296107],[101.73052556774047,2.9482523819277673],[101.73052556774047,2.947807102082945],[101.73014974598418,2.948591976296107]]],[[[101.7301602,2.9496365967339937],[101.7300073593499,2.948801544386767],[101.72965679999999,2.94898539673472],[101.7301602,2.9496365967339937]]],[[[101.73208019291215,2.9489844136048076],[101.73223600274926,2.9493768510482794],[101.73223733197287,2.9489844136048076],[101.73208019291215,2.9489844136048076]]],[[[101.73208019291215,2.9501617263396063],[101.73104377613102,2.9501617263396063],[101.73072770797192,2.949769288626539],[101.7309561,2.9503264967332385],[101.7319983,2.9504201967331523],[101.73222440000002,2.952827796730556],[101.73208019291215,2.9501617263396063]]]]},"properties":{"place_id":"93f44005-df15-5379-9bf2-446816758781","habitat":"disturbed_built_edge","habitat_label":"Disturbed, bare or built edge","resolution_m":50}}]}