{"type":"FeatureCollection","metadata":{"schema_version":1,"place_id":"944d16bc-96b4-582c-9dc8-5034503507a1","place_name":"Taman Rekreasi Indah · OSM way/962498610","place_type":"park","osm_reference":"way/962498610","protection_context":"no protected status confirmed from included OSM tags","resolution_m":50,"raster_coverage":1.0,"interpretation":"Suggested search habitats, not predicted plant locations or probabilities of presence."},"features":[{"type":"Feature","geometry":{"type":"Polygon","coordinates":[[[102.2445105,2.478602797247686],[102.2447231,2.4792490972469614],[102.245065,2.47909009724712],[102.24504050000002,2.478662297247613],[102.2445105,2.478602797247686]]]},"properties":{"place_id":"944d16bc-96b4-582c-9dc8-5034503507a1","habitat":"disturbed_built_edge","habitat_label":"Disturbed, bare or built edge","resolution_m":50}}]}