{"type":"FeatureCollection","metadata":{"schema_version":1,"place_id":"9452aebe-b87c-5e93-9bec-0565d05a30bb","place_name":"Angsana Park","place_type":"park","osm_reference":"way/750217116","protection_context":"no protected status confirmed from included OSM tags","resolution_m":50,"raster_coverage":1.0,"interpretation":"Suggested search habitats, not predicted plant locations or probabilities of presence."},"features":[{"type":"Feature","geometry":{"type":"Polygon","coordinates":[[[101.7813099900154,3.0571260440267536],[101.78116840000001,3.0567086966178616],[101.78119249999997,3.0571322966174486],[101.7813099900154,3.0571260440267536]]]},"properties":{"place_id":"9452aebe-b87c-5e93-9bec-0565d05a30bb","habitat":"forest_interior","habitat_label":"Forest interior","resolution_m":50}},{"type":"Feature","geometry":{"type":"Polygon","coordinates":[[[101.7813099900154,3.0571260440267536],[101.781713,3.0571045966174624],[101.7816889,3.056691596617894],[101.7813099900154,3.0567040449573954],[101.7813099900154,3.0571260440267536]]]},"properties":{"place_id":"9452aebe-b87c-5e93-9bec-0565d05a30bb","habitat":"forest_edge_opening","habitat_label":"Forest edge or opening","resolution_m":50}},{"type":"Feature","geometry":{"type":"Polygon","coordinates":[[[101.7813099900154,3.0571260440267536],[101.781713,3.0571045966174624],[101.7816889,3.056691596617894],[101.7813099900154,3.0567040449573954],[101.7813099900154,3.0571260440267536]]]},"properties":{"place_id":"9452aebe-b87c-5e93-9bec-0565d05a30bb","habitat":"disturbed_built_edge","habitat_label":"Disturbed, bare or built edge","resolution_m":50}}]}