{"type":"FeatureCollection","metadata":{"schema_version":1,"place_id":"94bf106b-91f5-5ca5-9d72-261808f0e09e","place_name":"Hutan Rizab Lumut","place_type":"forest","osm_reference":"way/261281759","protection_context":"no protected status confirmed from included OSM tags","resolution_m":50,"raster_coverage":1.0,"interpretation":"Suggested search habitats, not predicted plant locations or probabilities of presence."},"features":[{"type":"Feature","geometry":{"type":"MultiPolygon","coordinates":[[[[100.62363244550293,4.211467397162103],[100.62415065389351,4.211188139132901],[100.62363244550293,4.211074432900631],[100.62363244550293,4.211467397162103]]],[[[100.6345264,4.231940095362381],[100.63555123848583,4.231508831053144],[100.6364965186553,4.231901805384032],[100.6370892,4.2313180953630285],[100.6386604888292,4.229486362683665],[100.6386604888292,4.228365043392422],[100.63969690561032,4.227972070807856],[100.63969690561032,4.227186126220539],[100.64021511400087,4.2267931542177495],[100.64125153078199,4.2267931542177495],[100.64125153078199,4.226007210793824],[100.64176973917256,4.226007210793824],[100.64176973917256,4.225614239372649],[100.64125153078199,4.225614239372649],[100.64125153078199,4.224435326272059],[100.64176973917256,4.224435326272059],[100.64228794756312,4.22286344485077],[100.64280615595368,4.22286344485077],[100.6434528,4.221828895372991],[100.644354,4.221925195372905],[100.6442682,4.220116995374794],[100.64343139999998,4.220480795374398],[100.6430773,4.220202595374726],[100.64332436434424,4.217754851630097],[100.64191038890328,4.217361884275607],[100.63917869721975,4.218147819178053],[100.63762407204807,4.218003902818019],[100.6359778,4.218353595376667],[100.63244198814246,4.216968917114569],[100.6304026,4.215579695379577],[100.62985094618966,4.215790016791975],[100.62881452940854,4.2146111182097785],[100.62725990423687,4.215397050404557],[100.62725990423687,4.215790016791975],[100.6260614,4.216125995379024],[100.62613619999999,4.214712395380492],[100.62536169999998,4.214590195380633],[100.62496819999998,4.213391495381862],[100.62468249999999,4.214008095381231],[100.62406430000001,4.213613795381648],[100.62457616784629,4.211860361616755],[100.62363244550293,4.212253326264598],[100.62363244550293,4.212646291105658],[100.6225960287218,4.212646291105658],[100.62207782033126,4.211860361616755],[100.6225960287218,4.211860361616755],[100.6225960287218,4.211467397162103],[100.62363244550293,4.210962778141611],[100.62207782033126,4.2106814688323135],[100.6215596119407,4.211365825908711],[100.6215596119407,4.213039256139946],[100.6210450598526,4.213039256139946],[100.62052319515956,4.2146111182097785],[100.620004986769,4.2146111182097785],[100.62052319515956,4.2161829833727715],[100.620004986769,4.216214756593445],[100.620004986769,4.216575950146963],[100.6189685699879,4.216575950146963],[100.6189685699879,4.2161829833727715],[100.61845036159733,4.2161829833727715],[100.61845036159733,4.216575950146963],[100.61768445807743,4.2161829833727715],[100.61587220224446,4.2161829833727715],[100.61689573642566,4.218540786919498],[100.61639824077533,4.218540786919498],[100.61534111125395,4.219719691304938],[100.6145493,4.219357295375619],[100.61378648608229,4.220069859302556],[100.61494076481921,4.222077505302439],[100.61686148248795,4.221684535818787],[100.6169097,4.220833895374032],[100.6175105,4.220395195374536],[100.6189685699879,4.22089859743242],[100.61845036159733,4.221616282960182],[100.61845036159733,4.224042355626112],[100.61741954670205,4.224435326272059],[100.6174995653282,4.224828297111785],[100.61793215320677,4.224828297111785],[100.61793215320677,4.225614239372649],[100.61875499999998,4.225809195368811],[100.6189685699879,4.226400182408851],[100.62104140355014,4.226400182408851],[100.62104140355014,4.2267931542177495],[100.6215596119407,4.2267931542177495],[100.6215596119407,4.227579098417235],[100.62104140355014,4.227579098417235],[100.62104140355014,4.227972070807856],[100.61948677837846,4.227972070807856],[100.61925727786603,4.227579098417235],[100.61845036159733,4.227972070807856],[100.61845036159733,4.227579098417235],[100.61793215320677,4.227579098417235],[100.61793215320677,4.227972070807856],[100.61689573642566,4.227972070807856],[100.61689573642566,4.228365043392422],[100.61793215320677,4.228365043392422],[100.61845036159733,4.229150989143462],[100.6189685699879,4.229150989143462],[100.6189685699879,4.229543962309971],[100.61845036159733,4.229543962309971],[100.61845036159733,4.23032990922506],[100.61892450186407,4.23032990922506],[100.6189685699879,4.229936935670497],[100.6215596119407,4.23032990922506],[100.6215596119407,4.229936935670497],[100.62207782033126,4.229936935670497],[100.62207782033126,4.227186126220539],[100.62311423711238,4.2267931542177495],[100.62311423711238,4.227186126220539],[100.62363244550293,4.227186126220539],[100.62363244550293,4.229079535788887],[100.6243769,4.22950059536493],[100.62518707067461,4.229543962309971],[100.62518707067461,4.229150989143462],[100.62570527906517,4.229150989143462],[100.62570527906517,4.229543962309971],[100.62622348745575,4.229543962309971],[100.62622348745575,4.229150989143462],[100.6270806,4.22906189536541],[100.62829632101798,4.229543962309971],[100.62842142686607,4.229936935670497],[100.62858669999999,4.229178295365278],[100.63030999999997,4.228858595365592],[100.63088736297078,4.229543962309971],[100.63140557136136,4.229543962309971],[100.63047344970465,4.2307228829736765],[100.63172619999999,4.230773895363596],[100.6319237797519,4.231901805384032],[100.63291751071489,4.231508831053144],[100.6333248,4.230731095363634],[100.63399661331414,4.231901805384032],[100.63410799999998,4.23108409536328],[100.6345264,4.231940095362381]]],[[[100.6225960287218,4.210288504957139],[100.6225960287218,4.21051651556706],[100.62269022614605,4.210288504957139],[100.6225960287218,4.210288504957139]]],[[[100.62829632101798,4.23032990922506],[100.62829632101798,4.230666220727899],[100.628439270557,4.23032990922506],[100.62829632101798,4.23032990922506]]]]},"properties":{"place_id":"94bf106b-91f5-5ca5-9d72-261808f0e09e","habitat":"forest_interior","habitat_label":"Forest interior","resolution_m":50}},{"type":"Feature","geometry":{"type":"MultiPolygon","coordinates":[[[[100.6189685699879,4.216575950146963],[100.620004986769,4.216575950146963],[100.620004986769,4.216214756593445],[100.61938799999999,4.216436295378692],[100.6192056,4.21622229537892],[100.61845459999999,4.215986895379138],[100.61793215320677,4.216374838211188],[100.61845036159733,4.216575950146963],[100.61845036159733,4.2161829833727715],[100.6189685699879,4.2161829833727715],[100.6189685699879,4.216575950146963]]],[[[100.61768445807743,4.2161829833727715],[100.6173388,4.215976195379147],[100.61587220224446,4.2161829833727715],[100.61768445807743,4.2161829833727715]]],[[[100.61585931964453,4.216192324759084],[100.6157617,4.21639349537871],[100.61585931964453,4.216748850654692],[100.61585931964453,4.216192324759084]]],[[[100.61637752803509,4.216968917114569],[100.61600617177766,4.216968917114569],[100.61637752803509,4.217836240919247],[100.61637752803509,4.216968917114569]]],[[[100.61689573642566,4.218147819178053],[100.6164340472662,4.218147819178053],[100.61639824077533,4.218540786919498],[100.61689573642566,4.218540786919498],[100.61689573642566,4.218147819178053]]],[[[100.61637752803509,4.218933754854449],[100.61637752803509,4.218592902212662],[100.61609071518272,4.218933754854449],[100.61637752803509,4.218933754854449]]],[[[100.61585931964453,4.21932672298292],[100.61585931964453,4.219135122747716],[100.6157158664786,4.21932672298292],[100.61585931964453,4.21932672298292]]],[[[100.61534111125395,4.219719691304938],[100.61482290286341,4.219458197943567],[100.61482290286341,4.219719691304938],[100.61534111125395,4.219719691304938]]],[[[100.61378648608229,4.220069859302556],[100.61340130000002,4.220277495374612],[100.61378648608229,4.220624038431216],[100.61378648608229,4.220069859302556]]],[[[100.61845036159733,4.220505628529668],[100.61841169999998,4.220544995374352],[100.61845036159733,4.220653673764473],[100.61845036159733,4.220505628529668]]],[[[100.61430469447285,4.22089859743242],[100.61404546609324,4.22089859743242],[100.61430469447285,4.221254101983071],[100.61430469447285,4.22089859743242]]],[[[100.61852969999997,4.22089859743242],[100.6185232943829,4.221291566528787],[100.6189685699879,4.221291566528787],[100.6189685699879,4.22089859743242],[100.61852969999997,4.22089859743242]]],[[[100.61689573642566,4.22089859743242],[100.61689573642566,4.221646425394564],[100.6170491,4.221475795373396],[100.61689573642566,4.22089859743242]]],[[[100.61433201302916,4.221291566528787],[100.61469949999999,4.221828895372991],[100.61482290286341,4.221956055126034],[100.61482290286341,4.221291566528787],[100.61433201302916,4.221291566528787]]],[[[100.61494076481921,4.222077505302439],[100.6154506,4.222214095372602],[100.61616939999999,4.222074995372761],[100.61686148248795,4.221684535818787],[100.61494076481921,4.222077505302439]]],[[[100.61793215320677,4.224435326272059],[100.61793215320677,4.224060683037808],[100.6172423,4.22366929537104],[100.61741954670205,4.224435326272059],[100.61793215320677,4.224435326272059]]],[[[100.61845036159733,4.224042355626112],[100.61845036159733,4.221616282960182],[100.61810633512319,4.224042355626112],[100.61845036159733,4.224042355626112]]],[[[100.62104140355014,4.2267931542177495],[100.62104140355014,4.226400182408851],[100.6189685699879,4.226400182408851],[100.6189685699879,4.226007210793824],[100.61854049999998,4.226312095368284],[100.6209437,4.227071795367474],[100.62076129999998,4.227638895366882],[100.61948677837846,4.227671926470042],[100.61948677837846,4.227972070807856],[100.62104140355014,4.227972070807856],[100.62104140355014,4.227579098417235],[100.6215596119407,4.227579098417235],[100.6215596119407,4.2267931542177495],[100.62104140355014,4.2267931542177495]]],[[[100.61845036159733,4.225614239372649],[100.61793215320677,4.225614239372649],[100.61793215320677,4.224828297111785],[100.6174995653282,4.224828297111785],[100.61793215320677,4.226493183961925],[100.61845036159733,4.225614239372649]]],[[[100.618283,4.227574695366965],[100.61736546992064,4.227186126220539],[100.6166093,4.227927795366603],[100.61669509999999,4.228644595365833],[100.61793215320677,4.228688974926881],[100.61793215320677,4.228365043392422],[100.61689573642566,4.228365043392422],[100.61689573642566,4.227972070807856],[100.61793215320677,4.227972070807856],[100.61793215320677,4.227579098417235],[100.6189685699879,4.227972070807856],[100.61925727786603,4.227579098417235],[100.618283,4.227574695366965]]],[[[100.61845036159733,4.229150989143462],[100.61845036159733,4.228758016170952],[100.61810552497828,4.228758016170952],[100.61845036159733,4.229955273674097],[100.61845036159733,4.229543962309971],[100.6189685699879,4.229543962309971],[100.6189685699879,4.229150989143462],[100.61845036159733,4.229150989143462]]],[[[100.61892450186407,4.23032990922506],[100.61845036159733,4.23007009767452],[100.6183581,4.23089159536345],[100.61892450186407,4.23032990922506]]],[[[100.62182503462421,4.211074432900631],[100.62207782033126,4.2106814688323135],[100.6225960287218,4.2106814688323135],[100.62249939999998,4.209877295385585],[100.622081,4.2102517953852026],[100.62182503462421,4.211074432900631]]],[[[100.62363244550293,4.211074432900631],[100.62394297681787,4.211074432900631],[100.62363244550293,4.210962778141611],[100.62363244550293,4.211074432900631]]],[[[100.62415065389351,4.211467397162103],[100.62311423711238,4.211074432900631],[100.62207782033126,4.212253326264598],[100.6225960287218,4.212253326264598],[100.6225960287218,4.212646291105658],[100.62363244550293,4.212646291105658],[100.62363244550293,4.212253326264598],[100.62457616784629,4.211860361616755],[100.62415065389351,4.211188139132901],[100.62415065389351,4.211467397162103]]],[[[100.6215596119407,4.213039256139946],[100.6215596119407,4.211365825908711],[100.6210450598526,4.213039256139946],[100.6215596119407,4.213039256139946]]],[[[100.62466886228405,4.212203879420369],[100.6247273,4.212067595383286],[100.62466886228405,4.211987465055968],[100.62466886228405,4.212203879420369]]],[[[100.62104140355014,4.213432221367484],[100.62104140355014,4.213048006732535],[100.62084293542074,4.213432221367484],[100.62104140355014,4.213432221367484]]],[[[100.62532552577056,4.21382518678829],[100.62518707067461,4.214218152402383],[100.62534410756395,4.214218152402383],[100.62532552577056,4.21382518678829]]],[[[100.62570527906517,4.2146111182097785],[100.6260421206225,4.2146111182097785],[100.62570527906517,4.214591541937102],[100.62570527906517,4.2146111182097785]]],[[[100.620004986769,4.2146111182097785],[100.62052319515956,4.2146111182097785],[100.62052319515956,4.214008205542315],[100.61938799999999,4.214713595380497],[100.61937729999998,4.215259295379932],[100.620004986769,4.215331224359016],[100.620004986769,4.2146111182097785]]],[[[100.6284841282545,4.2146111182097785],[100.62881452940854,4.215004084210497],[100.6293327377991,4.215004084210497],[100.62948386161973,4.215397050404557],[100.6291329,4.2144690953807435],[100.6284841282545,4.2146111182097785]]],[[[100.62829632101798,4.215004084210497],[100.62827149999998,4.214820595380385],[100.62806996442148,4.215004084210497],[100.62829632101798,4.215004084210497]]],[[[100.62725990423687,4.215790016791975],[100.62725990423687,4.215397050404557],[100.62777811262741,4.215397050404557],[100.62777811262741,4.215043802972505],[100.6275205,4.214970395380233],[100.6267905784609,4.215790016791975],[100.62725990423687,4.215790016791975]]],[[[100.62985094618966,4.2156804299679544],[100.63036915458022,4.215790016791975],[100.63036915458022,4.215591080900497],[100.62985094618966,4.2156804299679544]]],[[[100.62010380215513,4.215397050404557],[100.62006495239171,4.2161829833727715],[100.62052319515956,4.2161829833727715],[100.62052319515956,4.215397050404557],[100.62010380215513,4.215397050404557]]],[[[100.62363244550293,4.227186126220539],[100.62311423711238,4.227186126220539],[100.62311423711238,4.2267931542177495],[100.62207782033126,4.227186126220539],[100.62207782033126,4.229936935670497],[100.6215596119407,4.229936935670497],[100.6215596119407,4.23032990922506],[100.62055315672794,4.23032990922506],[100.62217749999998,4.230549195363832],[100.62251009999999,4.230303095364068],[100.62252089999998,4.227253695367299],[100.6232826,4.227360695367187],[100.62363244550293,4.229079535788887],[100.62363244550293,4.227186126220539]]],[[[100.62372396960166,4.229150989143462],[100.62404429999998,4.229233095365207],[100.62415065389351,4.229318632536679],[100.62415065389351,4.229150989143462],[100.62372396960166,4.229150989143462]]],[[[100.6189685699879,4.229936935670497],[100.6189685699879,4.2302201236774675],[100.62052319515956,4.2303243506851995],[100.62052319515956,4.229936935670497],[100.6189685699879,4.229936935670497]]],[[[100.6282179,4.230720395363637],[100.62829632101798,4.229543962309971],[100.62766054360429,4.229543962309971],[100.6282179,4.230720395363637]]],[[[100.62622348745575,4.229150989143462],[100.62622348745575,4.229543962309971],[100.62579416147673,4.229543962309971],[100.6260936,4.229703895364718],[100.62706989999998,4.22945779536497],[100.62622348745575,4.229150989143462]]],[[[100.62516129999999,4.231335395363007],[100.62570527906517,4.229150989143462],[100.62452289433826,4.229543962309971],[100.62516129999999,4.231335395363007]]],[[[100.6319237797519,4.216575950146963],[100.6319468985183,4.216575950146963],[100.6319237797519,4.216562225624482],[100.6319237797519,4.216575950146963]]],[[[100.63244198814246,4.216968917114569],[100.63280810150832,4.216968917114569],[100.63244198814246,4.216822370788151],[100.63244198814246,4.216968917114569]]],[[[100.6334784049236,4.217361884275607],[100.63378698157399,4.217361884275607],[100.6334784049236,4.217238430832698],[100.6334784049236,4.217361884275607]]],[[[100.64280615595368,4.217361884275607],[100.64280615595368,4.217754851630097],[100.64352808091942,4.218147819178053],[100.6428085,4.217106095377998],[100.64191038890328,4.217361884275607],[100.64280615595368,4.217361884275607]]],[[[100.63762407204807,4.218003902818019],[100.63814228043863,4.218147819178053],[100.63814228043863,4.217985027828843],[100.63762407204807,4.218003902818019]]],[[[100.63917869721975,4.218147819178053],[100.6386604888292,4.2179963891094445],[100.6386604888292,4.218147819178053],[100.63917869721975,4.218147819178053]]],[[[100.64332436434424,4.218540786919498],[100.64332436434424,4.218671004334999],[100.64337388513941,4.218540786919498],[100.64332436434424,4.218540786919498]]],[[[100.64436078112536,4.22089859743242],[100.64436078112536,4.2218899511681],[100.64442329999999,4.221050695373806],[100.64436078112536,4.22089859743242]]],[[[100.64280615595368,4.22247047497976],[100.64280615595368,4.22286344485077],[100.64228794756312,4.22286344485077],[100.64228794756312,4.223649385173928],[100.64176973917256,4.223649385173928],[100.64176973917256,4.224435326272059],[100.64125153078199,4.224435326272059],[100.64125153078199,4.225614239372649],[100.64176973917256,4.225614239372649],[100.64176973917256,4.226007210793824],[100.64125153078199,4.226007210793824],[100.64125153078199,4.2267931542177495],[100.64021511400087,4.226986195367589],[100.64117829999999,4.227125295367414],[100.6420044,4.2261194953685],[100.6417898,4.225145795369526],[100.64294859999998,4.22321989537152],[100.64280615595368,4.22247047497976]]],[[[100.63969690561032,4.227186126220539],[100.63969690561032,4.227972070807856],[100.63917869721975,4.227972070807856],[100.6386604888292,4.2286115872856085],[100.6399416,4.2280101953665215],[100.6404487,4.228216595366305],[100.63969690561032,4.227186126220539]]],[[[100.6386604888292,4.229486362683665],[100.63881440000002,4.229249295365193],[100.6386604888292,4.229199614879089],[100.6386604888292,4.229486362683665]]],[[[100.63038984599905,4.229150989143462],[100.63056523408196,4.23032990922506],[100.63088736297078,4.23032990922506],[100.63140557136136,4.229543962309971],[100.63038984599905,4.229150989143462]]],[[[100.63047344970465,4.2307228829736765],[100.63052459999999,4.2310412953633305],[100.6307391,4.231019895363322],[100.63088736297078,4.2307228829736765],[100.63047344970465,4.2307228829736765]]],[[[100.63503303009526,4.231901805384032],[100.63503303009526,4.231945141956354],[100.63514729942989,4.231901805384032],[100.63503303009526,4.231901805384032]]],[[[100.63606944687639,4.231901805384032],[100.63606944687639,4.231508831053144],[100.63555123848583,4.231508831053144],[100.636083,4.232286295361977],[100.6364965186553,4.231901805384032],[100.63606944687639,4.231901805384032]]],[[[100.63450619087921,4.231901805384032],[100.63451482170471,4.231918158105161],[100.63451482170471,4.231901805384032],[100.63450619087921,4.231901805384032]]],[[[100.6338827,4.232924495361337],[100.63365176354301,4.231508831053144],[100.63377539999999,4.233020795361237],[100.6338827,4.232924495361337]]],[[[100.63244198814246,4.231508831053144],[100.63244198814246,4.231901805384032],[100.6319237797519,4.231901805384032],[100.63191407554991,4.231508831053144],[100.63185489999998,4.232442995361831],[100.6324665,4.232111295362172],[100.6327025,4.233234795361019],[100.6330566,4.231758195362577],[100.63244198814246,4.231508831053144]]]]},"properties":{"place_id":"94bf106b-91f5-5ca5-9d72-261808f0e09e","habitat":"forest_edge_opening","habitat_label":"Forest edge or opening","resolution_m":50}},{"type":"Feature","geometry":{"type":"MultiPolygon","coordinates":[[[[100.6225960287218,4.211860361616755],[100.6225960287218,4.212253326264598],[100.62363244550293,4.212253326264598],[100.62363244550293,4.211467397162103],[100.6225960287218,4.211860361616755]]],[[[100.62725990423687,4.215397050404557],[100.62725990423687,4.21532930775441],[100.62719459661793,4.215397050404557],[100.62725990423687,4.215397050404557]]],[[[100.61845036159733,4.2161829833727715],[100.61845036159733,4.216002752338727],[100.61839980037887,4.2161829833727715],[100.61845036159733,4.2161829833727715]]],[[[100.61793215320677,4.227186126220539],[100.61738169999998,4.22683639536771],[100.6172557070995,4.227579098417235],[100.6174139448162,4.227186126220539],[100.61793215320677,4.227186126220539]]],[[[100.62079481455666,4.227579098417235],[100.62104140355014,4.2267931542177495],[100.62064632597577,4.2267931542177495],[100.62079481455666,4.227579098417235]]],[[[100.61661459971323,4.227972070807856],[100.61689573642566,4.227847369066816],[100.6166093,4.227927795366603],[100.61661459971323,4.227972070807856]]],[[[100.61845036159733,4.229543962309971],[100.61845036159733,4.229150989143462],[100.61838123727357,4.229150989143462],[100.61842239999999,4.229233095365207],[100.61845036159733,4.229543962309971]]],[[[100.62531601866742,4.23032990922506],[100.62570527906517,4.229594504828054],[100.62570527906517,4.229543962309971],[100.62518707067461,4.229543962309971],[100.62531601866742,4.23032990922506]]],[[[100.62207782033126,4.23032990922506],[100.6225960287218,4.229936935670497],[100.62207782033126,4.229936935670497],[100.62207782033126,4.23032990922506]]],[[[100.62763872575876,4.215004084210497],[100.6275205,4.214970395380233],[100.62749798247084,4.215004084210497],[100.62763872575876,4.215004084210497]]],[[[100.62933523803105,4.215004084210497],[100.6293327377991,4.214997473507622],[100.6293327377991,4.215004084210497],[100.62933523803105,4.215004084210497]]],[[[100.64280615595368,4.22286344485077],[100.64280615595368,4.223432827834578],[100.64294859999998,4.22321989537152],[100.64280615595368,4.22286344485077]]],[[[100.64228794756312,4.223649385173928],[100.64228794756312,4.224112177545605],[100.64264061808512,4.223649385173928],[100.64228794756312,4.223649385173928]]],[[[100.64211299525498,4.224435326272059],[100.64176973917256,4.224828297111785],[100.64188433698438,4.224828297111785],[100.64211299525498,4.224435326272059]]],[[[100.63088736297078,4.229936935670497],[100.63088736297078,4.229543962309971],[100.6303320988832,4.229543962309971],[100.63044922928042,4.229936935670497],[100.63088736297078,4.229936935670497]]],[[[100.62829632101798,4.23032990922506],[100.6280611415482,4.229936935670497],[100.62817672389198,4.23032990922506],[100.62829632101798,4.23032990922506]]],[[[100.62777811262741,4.229936935670497],[100.62778870000001,4.230024895364373],[100.62789892363239,4.229936935670497],[100.62777811262741,4.229936935670497]]],[[[100.63307792526996,4.231901805384032],[100.63296019653302,4.232687754628209],[100.63308192805036,4.232687754628209],[100.63307792526996,4.231901805384032]]]]},"properties":{"place_id":"94bf106b-91f5-5ca5-9d72-261808f0e09e","habitat":"open_grassland","habitat_label":"Open grassland or shrubland","resolution_m":50}},{"type":"Feature","geometry":{"type":"MultiPolygon","coordinates":[[[[100.61637752803509,4.2161829833727715],[100.61768445807743,4.2161829833727715],[100.6173388,4.215976195379147],[100.61637752803509,4.2161829833727715]]],[[[100.61585931964453,4.216192324759084],[100.6157617,4.21639349537871],[100.61585931964453,4.216748850654692],[100.61585931964453,4.216192324759084]]],[[[100.61637752803509,4.216968917114569],[100.61600617177766,4.216968917114569],[100.61637752803509,4.217836240919247],[100.61637752803509,4.216968917114569]]],[[[100.61689573642566,4.218147819178053],[100.6164340472662,4.218147819178053],[100.61639824077533,4.218540786919498],[100.61689573642566,4.218540786919498],[100.61689573642566,4.218147819178053]]],[[[100.61637752803509,4.218933754854449],[100.61637752803509,4.218592902212662],[100.61609071518272,4.218933754854449],[100.61637752803509,4.218933754854449]]],[[[100.61585931964453,4.21932672298292],[100.61585931964453,4.219135122747716],[100.6157158664786,4.21932672298292],[100.61585931964453,4.21932672298292]]],[[[100.61534111125395,4.219719691304938],[100.61482290286341,4.219458197943567],[100.61482290286341,4.219719691304938],[100.61534111125395,4.219719691304938]]],[[[100.61378648608229,4.220505628529668],[100.61378648608229,4.220069859302556],[100.6134228,4.220149095374778],[100.61340130000002,4.220277495374612],[100.61378648608229,4.220505628529668]]],[[[100.61845036159733,4.220505628529668],[100.61841169999998,4.220544995374352],[100.61845036159733,4.220653673764473],[100.61845036159733,4.220505628529668]]],[[[100.61404546609324,4.22089859743242],[100.61430469447285,4.221254101983071],[100.61430469447285,4.22089859743242],[100.61404546609324,4.22089859743242]]],[[[100.61852969999997,4.22089859743242],[100.6185232943829,4.221291566528787],[100.6189685699879,4.221291566528787],[100.6189685699879,4.22089859743242],[100.61852969999997,4.22089859743242]]],[[[100.61689573642566,4.22089859743242],[100.61689573642566,4.221646425394564],[100.6170491,4.221475795373396],[100.61689573642566,4.22089859743242]]],[[[100.61433201302916,4.221291566528787],[100.61469949999999,4.221828895372991],[100.61482290286341,4.221956055126034],[100.61482290286341,4.221291566528787],[100.61433201302916,4.221291566528787]]],[[[100.61585931964453,4.222077505302439],[100.61494076481921,4.222077505302439],[100.6154506,4.222214095372602],[100.61616939999999,4.222074995372761],[100.61686148248795,4.221684535818787],[100.61585931964453,4.221684535818787],[100.61585931964453,4.222077505302439]]],[[[100.61793215320677,4.224435326272059],[100.61793215320677,4.224060683037808],[100.6172423,4.22366929537104],[100.61741954670205,4.224435326272059],[100.61793215320677,4.224435326272059]]],[[[100.61845036159733,4.224042355626112],[100.61845036159733,4.221616282960182],[100.61810633512319,4.224042355626112],[100.61845036159733,4.224042355626112]]],[[[100.61925727786603,4.227579098417235],[100.618283,4.227574695366965],[100.61738169999998,4.22683639536771],[100.6174139448162,4.227972070807856],[100.61793215320677,4.227972070807856],[100.61793215320677,4.227579098417235],[100.6189685699879,4.227972070807856],[100.61925727786603,4.227579098417235]]],[[[100.6189685699879,4.226007210793824],[100.61854049999998,4.226312095368284],[100.6189685699879,4.226654591890935],[100.6189685699879,4.226007210793824]]],[[[100.61845036159733,4.225614239372649],[100.61793215320677,4.225614239372649],[100.61793215320677,4.224828297111785],[100.6174995653282,4.224828297111785],[100.61784309999999,4.226515395368067],[100.61845036159733,4.225614239372649]]],[[[100.61661459971323,4.227972070807856],[100.61689573642566,4.227847369066816],[100.6166093,4.227927795366603],[100.61661459971323,4.227972070807856]]],[[[100.6174139448162,4.228365043392422],[100.61689573642566,4.228624587818932],[100.6174139448162,4.228616999942313],[100.6174139448162,4.228365043392422]]],[[[100.61845036159733,4.2307228829736765],[100.61845036159733,4.23007009767452],[100.6183581,4.23089159536345],[100.61845036159733,4.2307228829736765]]],[[[100.61845036159733,4.229543962309971],[100.61843322362269,4.229543962309971],[100.61845036159733,4.229955273674097],[100.61845036159733,4.229543962309971]]],[[[100.62182503462421,4.211074432900631],[100.62207782033126,4.2106814688323135],[100.6225960287218,4.2106814688323135],[100.62249939999998,4.209877295385585],[100.622081,4.2102517953852026],[100.62182503462421,4.211074432900631]]],[[[100.62363244550293,4.211074432900631],[100.62394297681787,4.211074432900631],[100.62363244550293,4.210962778141611],[100.62363244550293,4.211074432900631]]],[[[100.62415065389351,4.211860361616755],[100.62457616784629,4.211860361616755],[100.62415065389351,4.211188139132901],[100.62415065389351,4.211860361616755]]],[[[100.6215596119407,4.213039256139946],[100.6215596119407,4.211365825908711],[100.6210450598526,4.213039256139946],[100.6215596119407,4.213039256139946]]],[[[100.62466886228405,4.212203879420369],[100.6247273,4.212067595383286],[100.62466886228405,4.211987465055968],[100.62466886228405,4.212203879420369]]],[[[100.62104140355014,4.213432221367484],[100.62104140355014,4.213048006732535],[100.62084293542074,4.213432221367484],[100.62104140355014,4.213432221367484]]],[[[100.62518707067461,4.21382518678829],[100.62534410756395,4.214218152402383],[100.62532552577056,4.21382518678829],[100.62518707067461,4.21382518678829]]],[[[100.62570527906517,4.2146111182097785],[100.6260421206225,4.2146111182097785],[100.62570527906517,4.214591541937102],[100.62570527906517,4.2146111182097785]]],[[[100.620004986769,4.2146111182097785],[100.62052319515956,4.2146111182097785],[100.62052319515956,4.214008205542315],[100.61938799999999,4.214713595380497],[100.61937729999998,4.215259295379932],[100.620004986769,4.215331224359016],[100.620004986769,4.2146111182097785]]],[[[100.62763872575876,4.215004084210497],[100.6275205,4.214970395380233],[100.62749798247084,4.215004084210497],[100.62763872575876,4.215004084210497]]],[[[100.62829632101798,4.215004084210497],[100.62829632101798,4.214795838629668],[100.62806996442148,4.215004084210497],[100.62829632101798,4.215004084210497]]],[[[100.62010380215513,4.215397050404557],[100.62006495239171,4.2161829833727715],[100.62052319515956,4.2161829833727715],[100.62052319515956,4.215397050404557],[100.62010380215513,4.215397050404557]]],[[[100.61845459999999,4.215986895379138],[100.6189685699879,4.216575950146963],[100.620004986769,4.216575950146963],[100.620004986769,4.216214756593445],[100.61938799999999,4.216436295378692],[100.6192056,4.21622229537892],[100.61845459999999,4.215986895379138]]],[[[100.61948677837846,4.226400182408851],[100.61948677837846,4.226754433433289],[100.6198601,4.226782895367777],[100.620004986769,4.226400182408851],[100.61948677837846,4.226400182408851]]],[[[100.62207782033126,4.229543962309971],[100.6225960287218,4.229543962309971],[100.62207782033126,4.23032990922506],[100.62055315672794,4.23032990922506],[100.62217749999998,4.230549195363832],[100.62251009999999,4.230303095364068],[100.6226892,4.230007995364411],[100.62252089999998,4.227253695367299],[100.6232826,4.227360695367187],[100.62363244550293,4.229079535788887],[100.62363244550293,4.227186126220539],[100.62311423711238,4.227186126220539],[100.62311423711238,4.2267931542177495],[100.62207782033126,4.227186126220539],[100.62207782033126,4.229543962309971]]],[[[100.62415065389351,4.229150989143462],[100.62372396960166,4.229150989143462],[100.62415065389351,4.229318632536679],[100.62415065389351,4.229150989143462]]],[[[100.62466886228405,4.229543962309971],[100.62452289433826,4.229543962309971],[100.62466886228405,4.229587321417627],[100.62466886228405,4.229543962309971]]],[[[100.62570527906517,4.229594504828054],[100.62579212582327,4.229543962309971],[100.62570527906517,4.229543962309971],[100.62570527906517,4.229594504828054]]],[[[100.62777811262741,4.229543962309971],[100.6276492,4.229982095364419],[100.62777811262741,4.230021647052135],[100.62777811262741,4.229543962309971]]],[[[100.62622348745575,4.229150989143462],[100.62622348745575,4.229543962309971],[100.62579416147673,4.229543962309971],[100.6260936,4.229703895364718],[100.62706989999998,4.22945779536497],[100.62622348745575,4.229150989143462]]],[[[100.62829632101798,4.23032990922506],[100.6280677,4.230570595363809],[100.6282179,4.230720395363637],[100.62829632101798,4.230666220727899],[100.62829632101798,4.23032990922506]]],[[[100.62485191761385,4.229936935670497],[100.624731,4.230902295363477],[100.62516129999999,4.231335395363007],[100.62552512371096,4.229936935670497],[100.62485191761385,4.229936935670497]]],[[[100.6284841282545,4.2146111182097785],[100.62881452940854,4.214359448695559],[100.6287865,4.214349795380878],[100.6284841282545,4.2146111182097785]]],[[[100.64280615595368,4.217361884275607],[100.64280615595368,4.217754851630097],[100.64352808091942,4.218147819178053],[100.64332409999999,4.217452695377601],[100.6428085,4.217106095377998],[100.64228794756312,4.217254352676562],[100.64280615595368,4.217361884275607]]],[[[100.63762407204807,4.218003902818019],[100.63814228043863,4.218147819178053],[100.63814228043863,4.217985027828843],[100.63762407204807,4.218003902818019]]],[[[100.63917869721975,4.218147819178053],[100.6386604888292,4.2179963891094445],[100.6386604888292,4.218147819178053],[100.63917869721975,4.218147819178053]]],[[[100.64332436434424,4.218540786919498],[100.64332436434424,4.218671004334999],[100.64337388513941,4.218540786919498],[100.64332436434424,4.218540786919498]]],[[[100.64442329999999,4.221050695373806],[100.64436078112536,4.221684535818787],[100.64440013871734,4.221684535818787],[100.64442329999999,4.221050695373806]]],[[[100.64280615595368,4.22286344485077],[100.64280615595368,4.223432827834578],[100.64294859999998,4.22321989537152],[100.64280615595368,4.22286344485077]]],[[[100.64228794756312,4.223649385173928],[100.64228794756312,4.224112177545605],[100.64264061808512,4.223649385173928],[100.64228794756312,4.223649385173928]]],[[[100.64125153078199,4.224828297111785],[100.64125153078199,4.225614239372649],[100.64176973917256,4.225614239372649],[100.64176973917256,4.226007210793824],[100.64125153078199,4.226007210793824],[100.64125153078199,4.2267931542177495],[100.64021511400087,4.2267931542177495],[100.64117829999999,4.227125295367414],[100.64216759999998,4.2257662953688575],[100.6417466,4.225464095369171],[100.64211299525498,4.224435326272059],[100.64125153078199,4.224828297111785]]],[[[100.63969690561032,4.227186126220539],[100.63969690561032,4.227972070807856],[100.63917869721975,4.227972070807856],[100.6386604888292,4.2286115872856085],[100.6399416,4.2280101953665215],[100.6404487,4.228216595366305],[100.63969690561032,4.227186126220539]]],[[[100.6386604888292,4.229486362683665],[100.63881440000002,4.229249295365193],[100.6386604888292,4.229199614879089],[100.6386604888292,4.229486362683665]]],[[[100.63047344970465,4.2307228829736765],[100.63052459999999,4.2310412953633305],[100.6307391,4.231019895363322],[100.63088736297078,4.2307228829736765],[100.63047344970465,4.2307228829736765]]],[[[100.63296019653302,4.231901805384032],[100.6330995,4.232294779909048],[100.63291751071489,4.231508831053144],[100.63244198814246,4.231508831053144],[100.63244198814246,4.231901805384032],[100.63296019653302,4.231901805384032]]],[[[100.63375167623347,4.231901805384032],[100.63399661331414,4.231508831053144],[100.63365176354301,4.231508831053144],[100.63375167623347,4.231901805384032]]],[[[100.63503303009526,4.231901805384032],[100.63503303009526,4.231945141956354],[100.63514729942989,4.231901805384032],[100.63503303009526,4.231901805384032]]],[[[100.63606944687639,4.231901805384032],[100.63606944687639,4.231508831053144],[100.63555123848583,4.231508831053144],[100.636083,4.232286295361977],[100.6364965186553,4.231901805384032],[100.63606944687639,4.231901805384032]]],[[[100.63244198814246,4.231901805384032],[100.6319237797519,4.231901805384032],[100.63191407554991,4.231508831053144],[100.6319086,4.232603495361678],[100.63244198814246,4.231901805384032]]],[[[100.6339149,4.2327104953615695],[100.63373249999998,4.232870995361372],[100.63377539999999,4.233020795361237],[100.6339149,4.2327104953615695]]],[[[100.63296019653302,4.232687754628209],[100.63296019653302,4.233066890866085],[100.63308192805036,4.232687754628209],[100.63296019653302,4.232687754628209]]],[[[100.63268320577917,4.233080729541533],[100.6327025,4.233234795361019],[100.63295186746093,4.233080729541533],[100.63268320577917,4.233080729541533]]]]},"properties":{"place_id":"94bf106b-91f5-5ca5-9d72-261808f0e09e","habitat":"disturbed_built_edge","habitat_label":"Disturbed, bare or built edge","resolution_m":50}},{"type":"Feature","geometry":{"type":"Polygon","coordinates":[[[100.62079481455666,4.227579098417235],[100.62104140355014,4.227186126220539],[100.62095579106483,4.227186126220539],[100.62079481455666,4.227579098417235]]]},"properties":{"place_id":"94bf106b-91f5-5ca5-9d72-261808f0e09e","habitat":"seasonal_water_wetland","habitat_label":"Seasonal water or wetland","resolution_m":50}},{"type":"Feature","geometry":{"type":"MultiPolygon","coordinates":[[[[100.64332436434424,4.217754851630097],[100.64352607540435,4.217754851630097],[100.64332436434424,4.21745309083789],[100.64332436434424,4.217754851630097]]],[[[100.64436078112536,4.22089859743242],[100.64436078112536,4.2218899511681],[100.64442329999999,4.221050695373806],[100.64436078112536,4.22089859743242]]],[[[100.6215596119407,4.227972070807856],[100.62207782033126,4.227186126220539],[100.62052319515956,4.226400182408851],[100.62104140355014,4.227579098417235],[100.620004986769,4.227972070807856],[100.62052319515956,4.227972070807856],[100.62052319515956,4.228365043392422],[100.6215596119407,4.227972070807856]]],[[[100.6251514721774,4.2311158569163645],[100.62494560000002,4.231233895363101],[100.62516129999999,4.231335395363007],[100.6251514721774,4.2311158569163645]]]]},"properties":{"place_id":"94bf106b-91f5-5ca5-9d72-261808f0e09e","habitat":"water_edge","habitat_label":"Water edge","resolution_m":50}}]}