{"type":"FeatureCollection","metadata":{"schema_version":1,"place_id":"9502367a-0e76-59e3-9ffa-6a22bd56677b","place_name":"Recreation Park · OSM way/477390071","place_type":"park","osm_reference":"way/477390071","protection_context":"no protected status confirmed from included OSM tags","resolution_m":50,"raster_coverage":1.0,"interpretation":"Suggested search habitats, not predicted plant locations or probabilities of presence."},"features":[{"type":"Feature","geometry":{"type":"Polygon","coordinates":[[[103.6331722,1.5702000982491873],[103.63338680000001,1.5699372982494801],[103.6331293,1.5696852982497425],[103.6328879,1.569953398249465],[103.6331722,1.5702000982491873]]]},"properties":{"place_id":"9502367a-0e76-59e3-9ffa-6a22bd56677b","habitat":"forest_interior","habitat_label":"Forest interior","resolution_m":50}}]}