{"type":"FeatureCollection","metadata":{"schema_version":1,"place_id":"95663288-7a00-59ea-ad71-878dffd7bd30","place_name":"Hutan Kem Rekreasi MRSM Muar","place_type":"wood","osm_reference":"way/1462756076","protection_context":"no protected status confirmed from included OSM tags","resolution_m":50,"raster_coverage":1.0,"interpretation":"Suggested search habitats, not predicted plant locations or probabilities of presence."},"features":[{"type":"Feature","geometry":{"type":"Polygon","coordinates":[[[102.65397291971954,2.034540971071789],[102.6539786,2.032617197737814],[102.6520245,2.0329529977374414],[102.65233675049576,2.0349331433023288],[102.65241829454784,2.034540971071789],[102.65397291971954,2.034540971071789]]]},"properties":{"place_id":"95663288-7a00-59ea-ad71-878dffd7bd30","habitat":"forest_interior","habitat_label":"Forest interior","resolution_m":50}},{"type":"Feature","geometry":{"type":"MultiPolygon","coordinates":[[[[102.65411189760998,2.033364454936944],[102.65397291971954,2.033756626889114],[102.6541818542006,2.033756626889114],[102.65411189760998,2.033364454936944]]],[[[102.65397291971954,2.0341487989340563],[102.65397291971954,2.034540971071789],[102.65241829454784,2.034540971071789],[102.652358,2.0350678977350953],[102.6543595,2.034752497735452],[102.65397291971954,2.0341487989340563]]]]},"properties":{"place_id":"95663288-7a00-59ea-ad71-878dffd7bd30","habitat":"forest_edge_opening","habitat_label":"Forest edge or opening","resolution_m":50}},{"type":"Feature","geometry":{"type":"MultiPolygon","coordinates":[[[[102.65432176738186,2.034540971071789],[102.65397291971954,2.03481341575242],[102.6543595,2.034752497735452],[102.65432176738186,2.034540971071789]]],[[[102.65293650293842,2.0349767361868003],[102.65241829454784,2.0349331433023288],[102.65241829454784,2.035058396410028],[102.65293650293842,2.0349767361868003]]]]},"properties":{"place_id":"95663288-7a00-59ea-ad71-878dffd7bd30","habitat":"open_grassland","habitat_label":"Open grassland or shrubland","resolution_m":50}},{"type":"Feature","geometry":{"type":"Polygon","coordinates":[[[102.65397291971954,2.034540971071789],[102.65293650293842,2.034540971071789],[102.65293650293842,2.0349331433023288],[102.652358,2.0350678977350953],[102.65397291971954,2.03481341575242],[102.65397291971954,2.034540971071789]]]},"properties":{"place_id":"95663288-7a00-59ea-ad71-878dffd7bd30","habitat":"disturbed_built_edge","habitat_label":"Disturbed, bare or built edge","resolution_m":50}}]}