{"type":"FeatureCollection","metadata":{"schema_version":1,"place_id":"95a71ef0-5a56-5dfd-a08a-010be5859e54","place_name":"Meadow Park","place_type":"park","osm_reference":"way/1234430708","protection_context":"no protected status confirmed from included OSM tags","resolution_m":50,"raster_coverage":1.0,"interpretation":"Suggested search habitats, not predicted plant locations or probabilities of presence."},"features":[{"type":"Feature","geometry":{"type":"MultiPolygon","coordinates":[[[[101.55253952639735,3.3281445155611307],[101.5521737,3.327850196325033],[101.55188880942778,3.3281445155611307],[101.55253952639735,3.3281445155611307]]],[[[101.55174367299705,3.328537091637719],[101.55174367299705,3.3283533783002235],[101.55160639037324,3.328537091637719],[101.55174367299705,3.328537091637719]]],[[[101.55122546460649,3.3289296678665714],[101.55122546460649,3.328853824729131],[101.55112079478928,3.3289296678665714],[101.55122546460649,3.3289296678665714]]],[[[101.55070725621592,3.3290684790293543],[101.55069849999998,3.3290711963237296],[101.55070725621592,3.3290871098643464],[101.55070725621592,3.3290684790293543]]]]},"properties":{"place_id":"95a71ef0-5a56-5dfd-a08a-010be5859e54","habitat":"forest_edge_opening","habitat_label":"Forest edge or opening","resolution_m":50}},{"type":"Feature","geometry":{"type":"Polygon","coordinates":[[[101.5508366357946,3.3293222442477046],[101.55090769999998,3.3294513963233268],[101.55106213784555,3.3293222442477046],[101.5508366357946,3.3293222442477046]]]},"properties":{"place_id":"95a71ef0-5a56-5dfd-a08a-010be5859e54","habitat":"open_grassland","habitat_label":"Open grassland or shrubland","resolution_m":50}},{"type":"Feature","geometry":{"type":"Polygon","coordinates":[[[101.55090769999998,3.3294513963233268],[101.55150319999998,3.328953396323814],[101.5533593,3.3287926963240295],[101.55324659999997,3.328417796324439],[101.5521737,3.327850196325033],[101.55069849999998,3.3290711963237296],[101.55090769999998,3.3294513963233268]]]},"properties":{"place_id":"95a71ef0-5a56-5dfd-a08a-010be5859e54","habitat":"disturbed_built_edge","habitat_label":"Disturbed, bare or built edge","resolution_m":50}},{"type":"Feature","geometry":{"type":"MultiPolygon","coordinates":[[[[101.55278008977815,3.328537091637719],[101.55329527512848,3.328537091637719],[101.55278008977815,3.328326668491685],[101.55278008977815,3.328537091637719]]],[[[101.55174367299705,3.3289296678665714],[101.55174367299705,3.328932576317756],[101.55177726587782,3.3289296678665714],[101.55174367299705,3.3289296678665714]]]]},"properties":{"place_id":"95a71ef0-5a56-5dfd-a08a-010be5859e54","habitat":"cropland","habitat_label":"Cropland","resolution_m":50}},{"type":"Feature","geometry":{"type":"Polygon","coordinates":[[[101.55122546460649,3.3289296678665714],[101.55069849999998,3.3290711963237296],[101.55090769999998,3.3294513963233268],[101.55122546460649,3.3291856586372868],[101.55122546460649,3.3289296678665714]]]},"properties":{"place_id":"95a71ef0-5a56-5dfd-a08a-010be5859e54","habitat":"water_edge","habitat_label":"Water edge","resolution_m":50}}]}