{"type":"FeatureCollection","metadata":{"schema_version":1,"place_id":"95c6a73b-b1d0-5fcc-9808-c9f772b8ff0c","place_name":"Kepong Botanical Garden","place_type":"park","osm_reference":"relation/21202614","protection_context":"no protected status confirmed from included OSM tags","resolution_m":50,"raster_coverage":1.0,"interpretation":"Suggested search habitats, not predicted plant locations or probabilities of presence."},"features":[{"type":"Feature","geometry":{"type":"MultiPolygon","coordinates":[[[[101.62014718055104,3.2249022378592103],[101.61911076376994,3.2249022378592103],[101.61911076376994,3.225294774519249],[101.62014718055104,3.225294774519249],[101.62014718055104,3.2249022378592103]]],[[[101.62895672319058,3.2256873113267894],[101.62947493158113,3.2249022378592103],[101.62895672319058,3.2249022378592103],[101.62895672319058,3.2245097013466526],[101.62843851480002,3.2245097013466526],[101.62688388962833,3.222939556770885],[101.62532926445665,3.223724628763913],[101.62538123282744,3.2245097013466526],[101.62584747284721,3.2245097013466526],[101.626034,3.2250825964358043],[101.62532926445665,3.2256873113267894],[101.62377463928497,3.2254776916426287],[101.62325643089441,3.2260798482818482],[101.62273822250384,3.2260798482818482],[101.62273822250384,3.2256873113267894],[101.6206653889416,3.2256873113267894],[101.6206653889416,3.2260798482818482],[101.62014718055104,3.2260798482818482],[101.62014718055104,3.226472385384443],[101.61911076376994,3.226472385384443],[101.61911076376994,3.226864922634593],[101.6180743469888,3.226864922634593],[101.6180743469888,3.226472385384443],[101.61651972181713,3.226472385384443],[101.61651972181713,3.2260798482818482],[101.61600151342657,3.2260798482818482],[101.61651972181713,3.2245097013466526],[101.61755613859823,3.224117164981559],[101.6161852,3.222639796438436],[101.6144561,3.2246466964362814],[101.61529689999999,3.225570696435287],[101.6148602,3.226697496434074],[101.6151187,3.2278277964328668],[101.6166394,3.2277467964329607],[101.61769559999999,3.2286731964319686],[101.61920380000001,3.228502796432121],[101.6216932,3.227134896433602],[101.623183,3.2272604964334626],[101.6258032,3.2292420964313457],[101.625406,3.2313547964290446],[101.62692599999998,3.232204696428141],[101.62750189999998,3.2315770964288153],[101.62879159999999,3.231839096428527],[101.629358,3.2306697964298157],[101.62839719999998,3.229403496431159],[101.62894023568833,3.2276499975776307],[101.62843851480002,3.2276499975776307],[101.62843851480002,3.2280425352705544],[101.62740209801889,3.2276499975776307],[101.62792030640945,3.226864922634593],[101.62895672319058,3.2272574600323165],[101.62895672319058,3.2256873113267894]]],[[[101.62895672319058,3.2272574600323165],[101.62895672319058,3.227608529011818],[101.62900619999999,3.2273110964334295],[101.62895672319058,3.2272574600323165]]]]},"properties":{"place_id":"95c6a73b-b1d0-5fcc-9808-c9f772b8ff0c","habitat":"forest_interior","habitat_label":"Forest interior","resolution_m":50}},{"type":"Feature","geometry":{"type":"MultiPolygon","coordinates":[[[[101.61703793020769,3.223724628763913],[101.61733686711402,3.223724628763913],[101.61703793020769,3.223609583024393],[101.61703793020769,3.223724628763913]]],[[[101.62636568123779,3.2233320926936946],[101.62636568123779,3.222939556770885],[101.62688388962833,3.222939556770885],[101.62688388962833,3.2233320926936946],[101.62740209801889,3.2233320926936946],[101.62740209801889,3.223724628763913],[101.62947493158113,3.2249022378592103],[101.62947493158113,3.225294774519249],[101.62895672319058,3.225294774519249],[101.62920257779528,3.2256873113267894],[101.6296553,3.2251696964357253],[101.6296863,3.224825096436098],[101.62627749999999,3.2224789964386606],[101.62500029999998,3.2236155964374036],[101.62532926445665,3.2243877239552248],[101.62532926445665,3.223724628763913],[101.62636568123779,3.2233320926936946]]],[[[101.62538123282744,3.2245097013466526],[101.62551189999999,3.2248163964361245],[101.62584747284721,3.2246756127788005],[101.62584747284721,3.2245097013466526],[101.62538123282744,3.2245097013466526]]],[[[101.62584747284721,3.225294774519249],[101.62584747284721,3.225156633070649],[101.6254994407071,3.225294774519249],[101.62584747284721,3.225294774519249]]],[[[101.62014718055104,3.2260798482818482],[101.6206653889416,3.2260798482818482],[101.6206653889416,3.2256873113267894],[101.62273822250384,3.2256873113267894],[101.62273822250384,3.2260798482818482],[101.62325643089441,3.2260798482818482],[101.62325643089441,3.2256873113267894],[101.62377463928497,3.2256873113267894],[101.623376,3.224618896436333],[101.6221202,3.2253946964354987],[101.61755613859823,3.2237398963761543],[101.61703793020769,3.2245097013466526],[101.61651972181713,3.2245097013466526],[101.61651972181713,3.225294774519249],[101.61600151342657,3.225294774519249],[101.61600151342657,3.2260798482818482],[101.61651972181713,3.2260798482818482],[101.61651972181713,3.226472385384443],[101.6180743469888,3.226472385384443],[101.6180743469888,3.226864922634593],[101.61911076376994,3.226864922634593],[101.61911076376994,3.226472385384443],[101.62014718055104,3.226472385384443],[101.62014718055104,3.2260798482818482]],[[101.6180743469888,3.2249022378592103],[101.61859255537937,3.2256873113267894],[101.61703793020769,3.2256873113267894],[101.61703793020769,3.225294774519249],[101.6180743469888,3.2249022378592103]],[[101.61911076376994,3.225294774519249],[101.61911076376994,3.2249022378592103],[101.62014718055104,3.2249022378592103],[101.62014718055104,3.225294774519249],[101.61911076376994,3.225294774519249]]],[[[101.62481105606608,3.225567263002264],[101.62532926445665,3.2256873113267894],[101.62532926445665,3.225362321143135],[101.62481105606608,3.225567263002264]]],[[[101.62895672319058,3.2272574600323165],[101.6290076,3.2270090964337617],[101.62895672319058,3.226988572150882],[101.62895672319058,3.2272574600323165]]],[[[101.62792030640945,3.2272574600323165],[101.62740209801889,3.2272574600323165],[101.62740209801889,3.2276499975776307],[101.62843851480002,3.2280425352705544],[101.62895672319058,3.2272574600323165],[101.62843851480002,3.2272574600323165],[101.62843851480002,3.226864922634593],[101.62792030640945,3.226864922634593],[101.62792030640945,3.2272574600323165]]]]},"properties":{"place_id":"95c6a73b-b1d0-5fcc-9808-c9f772b8ff0c","habitat":"forest_edge_opening","habitat_label":"Forest edge or opening","resolution_m":50}},{"type":"Feature","geometry":{"type":"MultiPolygon","coordinates":[[[[101.61859255537937,3.224117164981559],[101.61859255537937,3.2249022378592103],[101.61911076376994,3.2249022378592103],[101.61911076376994,3.2243035593632827],[101.61859255537937,3.224117164981559]]],[[[101.61651972181713,3.225294774519249],[101.61651972181713,3.2256873113267894],[101.61703793020769,3.2256873113267894],[101.61703793020769,3.225294774519249],[101.61651972181713,3.225294774519249]]],[[[101.62014718055104,3.225294774519249],[101.62014718055104,3.2256873113267894],[101.6206653889416,3.2256873113267894],[101.6206653889416,3.225294774519249],[101.62014718055104,3.225294774519249]]],[[[101.61962897216048,3.2260798482818482],[101.62014718055104,3.2260798482818482],[101.62014718055104,3.2256873113267894],[101.61962897216048,3.2256873113267894],[101.61962897216048,3.2260798482818482]]],[[[101.61859255537937,3.226472385384443],[101.61911076376994,3.226472385384443],[101.61911076376994,3.2260798482818482],[101.61859255537937,3.2260798482818482],[101.61859255537937,3.226472385384443]]]]},"properties":{"place_id":"95c6a73b-b1d0-5fcc-9808-c9f772b8ff0c","habitat":"open_grassland","habitat_label":"Open grassland or shrubland","resolution_m":50}},{"type":"Feature","geometry":{"type":"MultiPolygon","coordinates":[[[[101.61703793020769,3.223724628763913],[101.61733686711402,3.223724628763913],[101.61703793020769,3.223609583024393],[101.61703793020769,3.223724628763913]]],[[[101.62636568123779,3.2233320926936946],[101.62636568123779,3.222939556770885],[101.62688388962833,3.222939556770885],[101.62688388962833,3.2233320926936946],[101.62740209801889,3.2233320926936946],[101.62740209801889,3.223724628763913],[101.62947493158113,3.2249022378592103],[101.62947493158113,3.225294774519249],[101.62895672319058,3.225294774519249],[101.62920257779528,3.2256873113267894],[101.6296553,3.2251696964357253],[101.6296863,3.224825096436098],[101.62627749999999,3.2224789964386606],[101.62500029999998,3.2236155964374036],[101.62532926445665,3.2243877239552248],[101.62532926445665,3.223724628763913],[101.62636568123779,3.2233320926936946]]],[[[101.62538123282744,3.2245097013466526],[101.62551189999999,3.2248163964361245],[101.62584747284721,3.2246756127788005],[101.62584747284721,3.2245097013466526],[101.62538123282744,3.2245097013466526]]],[[[101.62377463928497,3.2254776916426287],[101.623376,3.224618896436333],[101.6221202,3.2253946964354987],[101.61755613859823,3.2237398963761543],[101.6180743469888,3.2245097013466526],[101.6206653889416,3.2249022378592103],[101.62118359733218,3.2256873113267894],[101.62273822250384,3.2256873113267894],[101.62273822250384,3.2260798482818482],[101.62325643089441,3.2260798482818482],[101.62377463928497,3.2254776916426287]]],[[[101.61962897216048,3.225294774519249],[101.61859255537937,3.2249022378592103],[101.6180743469888,3.2256873113267894],[101.61911076376994,3.2260798482818482],[101.61962897216048,3.225294774519249]]],[[[101.62895672319058,3.2272574600323165],[101.6290076,3.2270090964337617],[101.62895672319058,3.226988572150882],[101.62895672319058,3.2272574600323165]]],[[[101.62792030640945,3.2272574600323165],[101.62740209801889,3.2272574600323165],[101.62740209801889,3.2276499975776307],[101.62843851480002,3.2280425352705544],[101.62895672319058,3.2272574600323165],[101.62843851480002,3.2272574600323165],[101.62843851480002,3.226864922634593],[101.62792030640945,3.226864922634593],[101.62792030640945,3.2272574600323165]]]]},"properties":{"place_id":"95c6a73b-b1d0-5fcc-9808-c9f772b8ff0c","habitat":"disturbed_built_edge","habitat_label":"Disturbed, bare or built edge","resolution_m":50}},{"type":"Feature","geometry":{"type":"Polygon","coordinates":[[[101.61859255537937,3.226472385384443],[101.61859255537937,3.2249022378592103],[101.6180743469888,3.2249022378592103],[101.6180743469888,3.224117164981559],[101.61755613859823,3.224117164981559],[101.61651972181713,3.2260798482818482],[101.6180743469888,3.2260798482818482],[101.6180743469888,3.226472385384443],[101.61859255537937,3.226472385384443]]]},"properties":{"place_id":"95c6a73b-b1d0-5fcc-9808-c9f772b8ff0c","habitat":"permanent_water","habitat_label":"Permanent water","resolution_m":50}},{"type":"Feature","geometry":{"type":"Polygon","coordinates":[[[101.6180743469888,3.2260798482818482],[101.6180743469888,3.2256873113267894],[101.61755613859823,3.2256873113267894],[101.61755613859823,3.2260798482818482],[101.6180743469888,3.2260798482818482]]]},"properties":{"place_id":"95c6a73b-b1d0-5fcc-9808-c9f772b8ff0c","habitat":"seasonal_water_wetland","habitat_label":"Seasonal water or wetland","resolution_m":50}},{"type":"Feature","geometry":{"type":"Polygon","coordinates":[[[101.61703793020769,3.223724628763913],[101.61703793020769,3.224117164981559],[101.61600151342657,3.2245097013466526],[101.61600151342657,3.2256873113267894],[101.615483305036,3.2256873113267894],[101.615483305036,3.2260798482818482],[101.61600151342657,3.2260798482818482],[101.61651972181713,3.226864922634593],[101.6180743469888,3.226864922634593],[101.6180743469888,3.2272574600323165],[101.61859255537937,3.2272574600323165],[101.61859255537937,3.226864922634593],[101.61962897216048,3.226472385384443],[101.61962897216048,3.2249022378592103],[101.61911076376994,3.2249022378592103],[101.61911076376994,3.2243035593632827],[101.61703793020769,3.223724628763913]],[[101.6180743469888,3.2260798482818482],[101.61651972181713,3.2260798482818482],[101.61755613859823,3.224117164981559],[101.6180743469888,3.224117164981559],[101.6180743469888,3.2249022378592103],[101.61859255537937,3.2249022378592103],[101.61859255537937,3.226472385384443],[101.6180743469888,3.226472385384443],[101.6180743469888,3.2260798482818482]]]},"properties":{"place_id":"95c6a73b-b1d0-5fcc-9808-c9f772b8ff0c","habitat":"water_edge","habitat_label":"Water edge","resolution_m":50}}]}