{"type":"FeatureCollection","metadata":{"schema_version":1,"place_id":"95e19a3b-2f3e-534e-a9a2-ec263060b14c","place_name":"Merdeka Boulevard At 118","place_type":"park","osm_reference":"way/1137841269","protection_context":"no protected status confirmed from included OSM tags","resolution_m":50,"raster_coverage":1.0,"interpretation":"Suggested search habitats, not predicted plant locations or probabilities of presence."},"features":[{"type":"Feature","geometry":{"type":"MultiPolygon","coordinates":[[[[101.69995127269738,3.1397252402072877],[101.69995127269738,3.1392182607545265],[101.69955019999999,3.1393883965284184],[101.69995127269738,3.1397252402072877]]],[[[101.69995127269738,3.1401177452878133],[101.69988679999999,3.14018099652754],[101.69995127269738,3.140335947209747],[101.69995127269738,3.1401177452878133]]],[[[101.70002379772389,3.140510250511912],[101.7000347779052,3.140902755879602],[101.70046948108795,3.140862817997069],[101.70046948108795,3.140510250511912],[101.70002379772389,3.140510250511912]]],[[[101.69995127269738,3.1411227080757866],[101.6999343,3.141088696526585],[101.69991069999998,3.1411233965265235],[101.69995127269738,3.1411227080757866]]]]},"properties":{"place_id":"95e19a3b-2f3e-534e-a9a2-ec263060b14c","habitat":"forest_edge_opening","habitat_label":"Forest edge or opening","resolution_m":50}},{"type":"Feature","geometry":{"type":"Polygon","coordinates":[[[101.69955019999999,3.1393883965284184],[101.700121,3.1407431965269454],[101.7000261,3.1411442965265244],[101.7009934,3.14045199652726],[101.70042680000002,3.140240896527495],[101.69999809999999,3.139198396528626],[101.69955019999999,3.1393883965284184]]]},"properties":{"place_id":"95e19a3b-2f3e-534e-a9a2-ec263060b14c","habitat":"disturbed_built_edge","habitat_label":"Disturbed, bare or built edge","resolution_m":50}}]}