{"type":"FeatureCollection","metadata":{"schema_version":1,"place_id":"963033e2-2183-5600-b716-8c006ba52754","place_name":"Park Avenue S2 Playground","place_type":"park","osm_reference":"way/630324070","protection_context":"no protected status confirmed from included OSM tags","resolution_m":50,"raster_coverage":1.0,"interpretation":"Suggested search habitats, not predicted plant locations or probabilities of presence."},"features":[{"type":"Feature","geometry":{"type":"Polygon","coordinates":[[[101.90378979999998,2.685165897021854],[101.90438510000001,2.6851704970218737],[101.90397209999999,2.6839062970232326],[101.9037863,2.683908797023239],[101.90378979999998,2.685165897021854]]]},"properties":{"place_id":"963033e2-2183-5600-b716-8c006ba52754","habitat":"forest_edge_opening","habitat_label":"Forest edge or opening","resolution_m":50}},{"type":"Feature","geometry":{"type":"Polygon","coordinates":[[[101.90378979999998,2.685165897021854],[101.90438510000001,2.6851704970218737],[101.90397209999999,2.6839062970232326],[101.9037863,2.683908797023239],[101.90378979999998,2.685165897021854]]]},"properties":{"place_id":"963033e2-2183-5600-b716-8c006ba52754","habitat":"disturbed_built_edge","habitat_label":"Disturbed, bare or built edge","resolution_m":50}}]}