{"type":"FeatureCollection","metadata":{"schema_version":1,"place_id":"964b7fea-072c-5389-a528-3c899545f9e9","place_name":"Skyrides Putrajaya","place_type":"park","osm_reference":"way/608790899","protection_context":"no protected status confirmed from included OSM tags","resolution_m":50,"raster_coverage":1.0,"interpretation":"Suggested search habitats, not predicted plant locations or probabilities of presence."},"features":[{"type":"Feature","geometry":{"type":"Polygon","coordinates":[[[101.6832993,2.924323896761492],[101.6834096,2.924520396761264],[101.683431,2.924339796761456],[101.6832993,2.924323896761492]]]},"properties":{"place_id":"964b7fea-072c-5389-a528-3c899545f9e9","habitat":"forest_edge_opening","habitat_label":"Forest edge or opening","resolution_m":50}},{"type":"Feature","geometry":{"type":"Polygon","coordinates":[[[101.6832993,2.924323896761492],[101.6834096,2.924520396761264],[101.683431,2.924339796761456],[101.6832993,2.924323896761492]]]},"properties":{"place_id":"964b7fea-072c-5389-a528-3c899545f9e9","habitat":"disturbed_built_edge","habitat_label":"Disturbed, bare or built edge","resolution_m":50}},{"type":"Feature","geometry":{"type":"Polygon","coordinates":[[[101.68336860419944,2.924533198724451],[101.6832423,2.9244094967613883],[101.6833571,2.9245348967612674],[101.68336860419944,2.924533198724451]]]},"properties":{"place_id":"964b7fea-072c-5389-a528-3c899545f9e9","habitat":"permanent_water","habitat_label":"Permanent water","resolution_m":50}},{"type":"Feature","geometry":{"type":"Polygon","coordinates":[[[101.68336860419944,2.924533198724451],[101.6832423,2.9244094967613883],[101.6833571,2.9245348967612674],[101.68336860419944,2.924533198724451]]]},"properties":{"place_id":"964b7fea-072c-5389-a528-3c899545f9e9","habitat":"seasonal_water_wetland","habitat_label":"Seasonal water or wetland","resolution_m":50}},{"type":"Feature","geometry":{"type":"Polygon","coordinates":[[[101.68336860419944,2.924533198724451],[101.68346679999999,2.924414496761383],[101.68336860419944,2.9243119842061946],[101.68336860419944,2.924533198724451]]]},"properties":{"place_id":"964b7fea-072c-5389-a528-3c899545f9e9","habitat":"water_edge","habitat_label":"Water edge","resolution_m":50}}]}