{"type":"FeatureCollection","metadata":{"schema_version":1,"place_id":"96735451-8e5c-5d68-8c98-b3826c519f42","place_name":"Hutan Simpanan Kekal Setul","place_type":"park","osm_reference":"relation/16326249","protection_context":"mapped protected boundary","resolution_m":50,"raster_coverage":1.0,"interpretation":"Suggested search habitats, not predicted plant locations or probabilities of presence."},"features":[{"type":"Feature","geometry":{"type":"MultiPolygon","coordinates":[[[[101.95531689999997,2.7768360969219223],[101.9486913001665,2.7718040310927403],[101.9469319,2.7719329969272373],[101.94578239999997,2.769636796929774],[101.94504389999999,2.769359396930065],[101.9423118,2.7698364969295333],[101.9424118,2.7736413969253833],[101.9429893,2.77557149692329],[101.94532149999999,2.7772132969214978],[101.94532149999999,2.7792765969192796],[101.9446552,2.7812067969171395],[101.9446774,2.7823159969159423],[101.945366,2.7830259969151543],[101.94532149999999,2.7869750969108797],[101.94816469999999,2.7879068969098606],[101.9492531,2.7866422969112437],[101.94911979999999,2.7857104969122584],[101.9500527,2.784490296913558],[101.9499638,2.7833143969148577],[101.95531689999997,2.7768360969219223]]],[[[101.92329908902902,2.812181948342476],[101.92513410000001,2.8136817968818035],[101.9243476,2.814626096880755],[101.92433550581015,2.8167405555668017],[101.92355894692203,2.8171329486147876],[101.92396670000001,2.8178743968772375],[101.925273,2.8186780968763396],[101.9275964,2.8186613968763705],[101.94033999999998,2.824760096869746],[101.94610025821369,2.8246840643898885],[101.94506384143256,2.8241960455045856],[101.94506384143256,2.823803650137147],[101.94558204982313,2.823803650137147],[101.94558204982313,2.823018859789288],[101.94610025821369,2.823018859789288],[101.94610025821369,2.822626464808832],[101.94506384143256,2.8222340699573323],[101.94506384143256,2.8214492806411346],[101.94558204982313,2.8214492806411346],[101.94558204982313,2.8206644918405526],[101.94506384143256,2.8206644918405526],[101.94506384143256,2.820272097633571],[101.94558204982313,2.820272097633571],[101.94558204982313,2.8198797035554395],[101.94661846660426,2.820272097633571],[101.94661846660426,2.8210568861764007],[101.9486913001665,2.8210568861764007],[101.9486913001665,2.8214492806411346],[101.95024592533817,2.8222340699573323],[101.95024592533817,2.823018859789288],[101.95076413372874,2.823018859789288],[101.95076413372874,2.8241960455045856],[101.9512823421193,2.8241960455045856],[101.9512823421193,2.8245884410010533],[101.95076413372874,2.8245884410010533],[101.95076413372874,2.8249808366265694],[101.9497277169476,2.8249808366265694],[101.9497277169476,2.8253732323811516],[101.9486913001665,2.8253732323811516],[101.94884209999998,2.82756319686669],[101.95020260000001,2.828383996865782],[101.9656663,2.8473432968451693],[101.96794159999999,2.8471080968454134],[101.96965139999999,2.8453615968473325],[101.972172,2.845071596847629],[101.97313159999999,2.842634796850275],[101.9775439,2.8412464968517894],[101.97865829999999,2.8377253968556437],[101.9775358,2.832413096861398],[101.9799048,2.8286772968654548],[101.97963459999998,2.8277483968664705],[101.9809368,2.8253553968690657],[101.98082022038125,2.8194873096061395],[101.98123376144682,2.8194873096061395],[101.98366230000002,2.8144517968809644],[101.9823268,2.813212196882294],[101.9822685,2.8084672968874864],[101.98377610000001,2.8082342968877128],[101.98363729999998,2.804817796891433],[101.98243779999999,2.800081196896624],[101.98050539999998,2.800574796896056],[101.9772846,2.7944515969027326],[101.97137619999998,2.7960489969010065],[101.97006569999998,2.801562096895008],[101.97012129999999,2.8020279968945],[101.9717094,2.8025271968939434],[101.9722869,2.8033146968930707],[101.9722647,2.8044794968918128],[101.96936599999998,2.804601496891656],[101.9675113,2.8055776968906136],[101.96806659999999,2.807640896888349],[101.9675558,2.8078072968882],[101.9669116,2.807441196888604],[101.9656455,2.8078405968881572],[101.96502359999997,2.8071749968888713],[101.96531240000002,2.80462369689166],[101.964546,2.802194396894288],[101.9653679,2.8007300968958844],[101.9650347,2.79998689689668],[101.9653013,2.7977128968991694],[101.96425729999999,2.796592496900406],[101.9642462,2.795438896901669],[101.96326889999999,2.79471789690245],[101.96153629999999,2.7947954969023305],[101.9603369,2.79369729690356],[101.95992589999999,2.7922441969051373],[101.95882639999999,2.792233096905142],[101.9552392,2.79579389690128],[101.95401749999999,2.7989552968978106],[101.95401749999999,2.8000312968966723],[101.95487269999998,2.8008742968957443],[101.95490599999998,2.8017617968947475],[101.95375100000001,2.8017284968948264],[101.9537288,2.8043463968919466],[101.956372,2.806398496889716],[101.955217,2.807463396888551],[101.9528847,2.8053668968908627],[101.9523405,2.8059547968901977],[101.9523294,2.809548796886315],[101.9535733,2.810436196885336],[101.95262929999997,2.8112348968844696],[101.94679859999997,2.8054223968907834],[101.943067,2.804557096891712],[101.94474399999999,2.801883796894657],[101.9468209,2.802016896894507],[101.9475983,2.801007496895601],[101.9463544,2.799997996896704],[101.9462544,2.7984671968983625],[101.9450772,2.797169396899786],[101.94378889999999,2.7972025968997563],[101.94325579999999,2.796869896900077],[101.9466432,2.7933201969039536],[101.94661846660426,2.7924124372010923],[101.94610025821369,2.7924124372010923],[101.9457769,2.79170059690572],[101.94457327977419,2.791627667376773],[101.9432891,2.7941742969030416],[101.94147889999999,2.795183796901946],[101.93843579999998,2.789204696908459],[101.9374141,2.789204696908459],[101.93645899999999,2.7865590969113287],[101.93561490000002,2.7864647969114515],[101.93470419999998,2.7873022969105237],[101.93405450000002,2.7866200969112698],[101.93511509999999,2.785588396912376],[101.9343488,2.7849339969131095],[101.9344377,2.783979996914117],[101.9306949,2.7825267969157155],[101.92982869999997,2.781428596916922],[101.93035060000001,2.780219496918236],[101.93026179999997,2.7783114969203115],[101.92927339999997,2.7774905969211985],[101.92819609999998,2.7774794969212175],[101.92682999999998,2.7784001969202152],[101.9253085,2.7786331969199494],[101.92529739999999,2.780163996918294],[101.92155469999999,2.7790990969194667],[101.9215436,2.7894376969082133],[101.9320165,2.78931559690831],[101.932433,2.789726096907859],[101.9317472,2.7902889969072646],[101.93173889999998,2.798777796898031],[101.9288958,2.8000645968966094],[101.92589710000001,2.8059686968901962],[101.9264163,2.8065010968896185],[101.92648019999997,2.810224096885576],[101.92329908902902,2.812181948342476]],[[101.94143638269865,2.8214492806411346],[101.94143638269865,2.8206644918405526],[101.94195459108921,2.8206644918405526],[101.94195459108921,2.820272097633571],[101.94299100787032,2.820272097633571],[101.94299100787032,2.8206644918405526],[101.94350921626089,2.8206644918405526],[101.94247279947976,2.821841675234773],[101.94143638269865,2.8214492806411346]],[[101.93988175752695,2.820272097633571],[101.94039996591752,2.8194873096061395],[101.94143638269865,2.8198797035554395],[101.94091817430808,2.8206644918405526],[101.93988175752695,2.820272097633571]]]]},"properties":{"place_id":"96735451-8e5c-5d68-8c98-b3826c519f42","habitat":"forest_interior","habitat_label":"Forest interior","resolution_m":50}},{"type":"Feature","geometry":{"type":"MultiPolygon","coordinates":[[[[101.93887016060604,2.7900581292583775],[101.93884534074584,2.7900093631447342],[101.93884534074584,2.7900581292583775],[101.93887016060604,2.7900581292583775]]],[[[101.94528862141668,2.791627667376773],[101.9445885,2.79152309690591],[101.94457327977419,2.791627667376773],[101.94528862141668,2.791627667376773]]],[[[101.92329908902902,2.8121553685201808],[101.9232801,2.8121668968834377],[101.92329908902902,2.812181948342476],[101.92329908902902,2.8121553685201808]]],[[[101.92381729741959,2.8124242405283386],[101.92358496111592,2.8124242405283386],[101.92381729741959,2.8125971739720335],[101.92381729741959,2.8124242405283386]]],[[[101.92433550581015,2.8128166321617587],[101.92412820818129,2.8128166321617587],[101.92433550581015,2.812955277368984],[101.92433550581015,2.8128166321617587]]],[[[101.9248537142007,2.8132090239236858],[101.92471525929149,2.8132090239236858],[101.9248537142007,2.81330827754174],[101.9248537142007,2.8132090239236858]]],[[[101.92406909518994,2.815955769856874],[101.9234873,2.8164645968787645],[101.92355894692203,2.8171329486147876],[101.92433550581015,2.8167405555668017],[101.92406909518994,2.815955769856874]]],[[[101.94091817430808,2.8198797035554395],[101.94091817430808,2.8194873096061395],[101.94039996591752,2.8194873096061395],[101.93988175752695,2.820272097633571],[101.94091817430808,2.8206644918405526],[101.94091817430808,2.820272097633571],[101.94143638269865,2.820272097633571],[101.94143638269865,2.8198797035554395],[101.94091817430808,2.8198797035554395]]],[[[101.94350921626089,2.8210568861764007],[101.94299100787032,2.820272097633571],[101.94195459108921,2.820272097633571],[101.94195459108921,2.8206644918405526],[101.94143638269865,2.8206644918405526],[101.94143638269865,2.8214492806411346],[101.94195459108921,2.8214492806411346],[101.94195459108921,2.821841675234773],[101.94350921626089,2.8210568861764007]]],[[[101.94901991531509,2.772008587185757],[101.9487477,2.771799896927396],[101.9486913001665,2.7718040310927403],[101.9486913001665,2.772008587185757],[101.94901991531509,2.772008587185757]]],[[[101.94953173321106,2.7724009656796165],[101.94920950855706,2.7721539363494965],[101.94920950855706,2.7724009656796165],[101.94953173321106,2.7724009656796165]]],[[[101.94610025821369,2.7924124372010923],[101.94661846660426,2.7924124372010923],[101.94664052710077,2.793197207535686],[101.94662090000001,2.7922940969050862],[101.94610025821369,2.7919279820603586],[101.94610025821369,2.7924124372010923]]],[[[101.98133842877182,2.8190949157856524],[101.98133842877182,2.819270284141225],[101.98142300566553,2.8190949157856524],[101.98133842877182,2.8190949157856524]]],[[[101.98082022038125,2.8194873096061395],[101.98082022038125,2.8198797035554395],[101.98104451722811,2.8198797035554395],[101.98123376144682,2.8194873096061395],[101.98082022038125,2.8194873096061395]]],[[[101.95076413372874,2.8249808366265694],[101.9512823421193,2.8241960455045856],[101.95076413372874,2.8241960455045856],[101.95024592533817,2.8222340699573323],[101.9497277169476,2.8222340699573323],[101.9486913001665,2.8210568861764007],[101.94661846660426,2.8210568861764007],[101.94661846660426,2.820272097633571],[101.94558204982313,2.8198797035554395],[101.94558204982313,2.820272097633571],[101.94506384143256,2.820272097633571],[101.94506384143256,2.8206644918405526],[101.94558204982313,2.8206644918405526],[101.94506384143256,2.8222340699573323],[101.94558204982313,2.8222340699573323],[101.94610025821369,2.823018859789288],[101.94558204982313,2.823018859789288],[101.94558204982313,2.823803650137147],[101.94506384143256,2.823803650137147],[101.94506384143256,2.8241960455045856],[101.9486913001665,2.8254662563430637],[101.95076413372874,2.8249808366265694]],[[101.94765488338537,2.8241960455045856],[101.94765488338537,2.8245884410010533],[101.94713667499481,2.8245884410010533],[101.94713667499481,2.8241960455045856],[101.94765488338537,2.8241960455045856]],[[101.94661846660426,2.8241960455045856],[101.94661846660426,2.823803650137147],[101.94713667499481,2.823803650137147],[101.94713667499481,2.8241960455045856],[101.94661846660426,2.8241960455045856]],[[101.94713667499481,2.8234112548987205],[101.94765488338537,2.8234112548987205],[101.94765488338537,2.823803650137147],[101.94713667499481,2.823803650137147],[101.94713667499481,2.8234112548987205]],[[101.94765488338537,2.822626464808832],[101.94920950855706,2.822626464808832],[101.94920950855706,2.823018859789288],[101.9486913001665,2.823018859789288],[101.9486913001665,2.8234112548987205],[101.94765488338537,2.8234112548987205],[101.94765488338537,2.822626464808832]],[[101.9497277169476,2.823018859789288],[101.9497277169476,2.8234112548987205],[101.94920950855706,2.8234112548987205],[101.94920950855706,2.823018859789288],[101.9497277169476,2.823018859789288]]],[[[101.96150913946303,2.8422463721806515],[101.9616465099305,2.8424147961473505],[101.9616465099305,2.8422463721806515],[101.96150913946303,2.8422463721806515]]],[[[101.9621492427307,2.843031175213229],[101.96216471832106,2.842638773632001],[101.96182919109688,2.842638773632001],[101.9621492427307,2.843031175213229]]]]},"properties":{"place_id":"96735451-8e5c-5d68-8c98-b3826c519f42","habitat":"forest_edge_opening","habitat_label":"Forest edge or opening","resolution_m":50}},{"type":"Feature","geometry":{"type":"MultiPolygon","coordinates":[[[[101.94039996591752,2.820272097633571],[101.94091817430808,2.820272097633571],[101.94091817430808,2.8198797035554395],[101.94039996591752,2.8198797035554395],[101.94039996591752,2.820272097633571]]],[[[101.94299100787032,2.8206644918405526],[101.94195459108921,2.8206644918405526],[101.94195459108921,2.8214492806411346],[101.94247279947976,2.8214492806411346],[101.94299100787032,2.8206644918405526]]],[[[101.94558204982313,2.821841675234773],[101.94610025821369,2.821841675234773],[101.94610025821369,2.8214492806411346],[101.94558204982313,2.8214492806411346],[101.94558204982313,2.821841675234773]]],[[[101.94817309177593,2.8214492806411346],[101.94713667499481,2.8214492806411346],[101.94661846660426,2.8222340699573323],[101.94765488338537,2.8222340699573323],[101.94817309177593,2.8214492806411346]]],[[[101.94765488338537,2.823018859789288],[101.9486913001665,2.823018859789288],[101.9486913001665,2.8222340699573323],[101.94765488338537,2.8222340699573323],[101.94765488338537,2.823018859789288]]],[[[101.94610025821369,2.8234112548987205],[101.94661846660426,2.8234112548987205],[101.94661846660426,2.823018859789288],[101.94610025821369,2.823018859789288],[101.94610025821369,2.8234112548987205]]],[[[101.9497277169476,2.8234112548987205],[101.94920950855706,2.8234112548987205],[101.94920950855706,2.823803650137147],[101.95024592533817,2.823803650137147],[101.95024592533817,2.823018859789288],[101.9497277169476,2.823018859789288],[101.9497277169476,2.8234112548987205]]],[[[101.94610025821369,2.8241960455045856],[101.94610025821369,2.8245884410010533],[101.94713667499481,2.8245884410010533],[101.94713667499481,2.823803650137147],[101.94558204982313,2.823803650137147],[101.94558204982313,2.8241960455045856],[101.94610025821369,2.8241960455045856]]],[[[101.95024592533817,2.8245884410010533],[101.95024592533817,2.8241960455045856],[101.9497277169476,2.8241960455045856],[101.9497277169476,2.8245884410010533],[101.95024592533817,2.8245884410010533]]]]},"properties":{"place_id":"96735451-8e5c-5d68-8c98-b3826c519f42","habitat":"open_grassland","habitat_label":"Open grassland or shrubland","resolution_m":50}},{"type":"Feature","geometry":{"type":"MultiPolygon","coordinates":[[[[101.93884534074584,2.7900581292583775],[101.93887016060604,2.7900581292583775],[101.93884534074584,2.7900093631447342],[101.93884534074584,2.7900581292583775]]],[[[101.94610025821369,2.7924124372010923],[101.94661846660426,2.7924124372010923],[101.94664052710077,2.793197207535686],[101.94662090000001,2.7922940969050862],[101.94610025821369,2.7919279820603586],[101.94610025821369,2.7924124372010923]]],[[[101.92329908902902,2.8121553685201808],[101.9232801,2.8121668968834377],[101.92329908902902,2.812181948342476],[101.92329908902902,2.8121553685201808]]],[[[101.92381729741959,2.8124242405283386],[101.92368769999999,2.812505696883075],[101.92381729741959,2.8125971739720335],[101.92381729741959,2.8124242405283386]]],[[[101.92433550581015,2.8128166321617587],[101.92412820818129,2.8128166321617587],[101.92433550581015,2.812955277368984],[101.92433550581015,2.8128166321617587]]],[[[101.9248537142007,2.8132090239236858],[101.9247673,2.813243796882264],[101.9248537142007,2.81330827754174],[101.9248537142007,2.8132090239236858]]],[[[101.92433550581015,2.815955769856874],[101.92354159999998,2.8163768968788636],[101.92355894692203,2.8171329486147876],[101.92433550581015,2.8167405555668017],[101.92433550581015,2.815955769856874]]],[[[101.94661846660426,2.823803650137147],[101.94661846660426,2.8247295197707025],[101.94817309177593,2.8252820721573175],[101.94817309177593,2.8249808366265694],[101.9486913001665,2.8249808366265694],[101.9486913001665,2.8253732323811516],[101.9497277169476,2.8253732323811516],[101.9497277169476,2.8249808366265694],[101.95024592533817,2.8249808366265694],[101.95024592533817,2.8245884410010533],[101.9497277169476,2.8245884410010533],[101.9497277169476,2.823803650137147],[101.94920950855706,2.823803650137147],[101.94920950855706,2.823018859789288],[101.94817309177593,2.822626464808832],[101.9486913001665,2.821841675234773],[101.94817309177593,2.821841675234773],[101.94817309177593,2.8214492806411346],[101.94713667499481,2.821841675234773],[101.94661846660426,2.820272097633571],[101.94558204982313,2.8198797035554395],[101.94558204982313,2.820272097633571],[101.94506384143256,2.820272097633571],[101.94506384143256,2.8206644918405526],[101.94558204982313,2.8206644918405526],[101.94558204982313,2.821841675234773],[101.94506384143256,2.821841675234773],[101.94506384143256,2.8222340699573323],[101.94558204982313,2.8222340699573323],[101.94558204982313,2.822626464808832],[101.94661846660426,2.822626464808832],[101.94661846660426,2.8234112548987205],[101.94610025821369,2.8234112548987205],[101.94610025821369,2.823803650137147],[101.94661846660426,2.823803650137147]],[[101.94661846660426,2.8222340699573323],[101.94713667499481,2.8222340699573323],[101.94713667499481,2.822626464808832],[101.94661846660426,2.822626464808832],[101.94661846660426,2.8222340699573323]]]]},"properties":{"place_id":"96735451-8e5c-5d68-8c98-b3826c519f42","habitat":"disturbed_built_edge","habitat_label":"Disturbed, bare or built edge","resolution_m":50}},{"type":"Feature","geometry":{"type":"MultiPolygon","coordinates":[[[[101.94817309177593,2.8214492806411346],[101.94817309177593,2.821841675234773],[101.9486913001665,2.821841675234773],[101.9486913001665,2.8214492806411346],[101.94817309177593,2.8214492806411346]]],[[[101.9486913001665,2.8222340699573323],[101.9486913001665,2.8234112548987205],[101.9497277169476,2.8234112548987205],[101.9497277169476,2.8222340699573323],[101.9486913001665,2.8222340699573323]]],[[[101.95024592533817,2.8241960455045856],[101.95024592533817,2.8245884410010533],[101.95076413372874,2.8245884410010533],[101.95076413372874,2.8241960455045856],[101.95024592533817,2.8241960455045856]]],[[[101.94817309177593,2.8245884410010533],[101.94817309177593,2.8249808366265694],[101.9486913001665,2.8249808366265694],[101.9486913001665,2.8245884410010533],[101.94817309177593,2.8245884410010533]]]]},"properties":{"place_id":"96735451-8e5c-5d68-8c98-b3826c519f42","habitat":"permanent_water","habitat_label":"Permanent water","resolution_m":50}},{"type":"Feature","geometry":{"type":"Polygon","coordinates":[[[101.94920950855706,2.8249808366265694],[101.94920950855706,2.8245884410010533],[101.9486913001665,2.8245884410010533],[101.9486913001665,2.8249808366265694],[101.94920950855706,2.8249808366265694]]]},"properties":{"place_id":"96735451-8e5c-5d68-8c98-b3826c519f42","habitat":"seasonal_water_wetland","habitat_label":"Seasonal water or wetland","resolution_m":50}},{"type":"Feature","geometry":{"type":"Polygon","coordinates":[[[101.94713667499481,2.8245884410010533],[101.94920950855706,2.825765628264817],[101.9497277169476,2.8249808366265694],[101.95076413372874,2.8253732323811516],[101.95076413372874,2.8249808366265694],[101.95180055050986,2.8245884410010533],[101.95180055050986,2.8241960455045856],[101.95076413372874,2.823803650137147],[101.95076413372874,2.8222340699573323],[101.95024592533817,2.8222340699573323],[101.9486913001665,2.8206644918405526],[101.94713667499481,2.8214492806411346],[101.94713667499481,2.821841675234773],[101.94765488338537,2.821841675234773],[101.94765488338537,2.8234112548987205],[101.94817309177593,2.8234112548987205],[101.94817309177593,2.8241960455045856],[101.94713667499481,2.8245884410010533]],[[101.94817309177593,2.8245884410010533],[101.94920950855706,2.8245884410010533],[101.94920950855706,2.8249808366265694],[101.94817309177593,2.8249808366265694],[101.94817309177593,2.8245884410010533]],[[101.95024592533817,2.8241960455045856],[101.95076413372874,2.8241960455045856],[101.95076413372874,2.8245884410010533],[101.95024592533817,2.8245884410010533],[101.95024592533817,2.8241960455045856]],[[101.9486913001665,2.8222340699573323],[101.9497277169476,2.8222340699573323],[101.9497277169476,2.8234112548987205],[101.9486913001665,2.8234112548987205],[101.9486913001665,2.8222340699573323]],[[101.94817309177593,2.8214492806411346],[101.9486913001665,2.8214492806411346],[101.9486913001665,2.821841675234773],[101.94817309177593,2.821841675234773],[101.94817309177593,2.8214492806411346]]]},"properties":{"place_id":"96735451-8e5c-5d68-8c98-b3826c519f42","habitat":"water_edge","habitat_label":"Water edge","resolution_m":50}}]}