{"type":"FeatureCollection","metadata":{"schema_version":1,"place_id":"971ec82f-6e68-59b7-b9fb-96fdef6ebb22","place_name":"Taman Rekreasi Raja Lumu","place_type":"park","osm_reference":"way/34691867","protection_context":"no protected status confirmed from included OSM tags","resolution_m":50,"raster_coverage":1.0,"interpretation":"Suggested search habitats, not predicted plant locations or probabilities of presence."},"features":[{"type":"Feature","geometry":{"type":"MultiPolygon","coordinates":[[[[101.51857833600116,3.075748817788198],[101.51857833600116,3.0761412997079933],[101.51909654439173,3.0761412997079933],[101.51909654439173,3.075748817788198],[101.51857833600116,3.075748817788198]]],[[[101.51857833600116,3.0765337817684135],[101.51857833600116,3.0761412997079933],[101.51811549267264,3.0761412997079933],[101.5180601276106,3.0765337817684135],[101.51857833600116,3.0765337817684135]]],[[[101.52116937795397,3.0768697370739857],[101.52168758634453,3.076926263969477],[101.52158310094077,3.0765337817684135],[101.52116937795397,3.0765337817684135],[101.52116937795397,3.0768697370739857]]],[[[101.52168758634453,3.076926263969477],[101.52220579473509,3.0773187463112044],[101.52220579473509,3.076926263969477],[101.52168758634453,3.076926263969477]]],[[[101.52272400312565,3.0773187463112044],[101.52319679999998,3.07719679659572],[101.52303524209482,3.076926263969477],[101.52272400312565,3.076926263969477],[101.52272400312565,3.0773187463112044]]]]},"properties":{"place_id":"971ec82f-6e68-59b7-b9fb-96fdef6ebb22","habitat":"forest_interior","habitat_label":"Forest interior","resolution_m":50}},{"type":"Feature","geometry":{"type":"MultiPolygon","coordinates":[[[[101.52168758634453,3.076926263969477],[101.52148168978012,3.076926263969477],[101.52168758634453,3.0771992633589274],[101.52168758634453,3.076926263969477]]],[[[101.52042809999999,3.0773079965955885],[101.52158310094077,3.0765337817684135],[101.52052959999999,3.0751781965978813],[101.51961450000002,3.075003196598087],[101.5188455,3.0755527965974663],[101.51830846321138,3.0753563360090106],[101.51811549267264,3.0761412997079933],[101.51857833600116,3.0761412997079933],[101.51857833600116,3.0765337817684135],[101.51800889999998,3.0765748965963597],[101.518941,3.076536396596433],[101.51918610000001,3.077115396595762],[101.52042809999999,3.0773079965955885]],[[101.51857833600116,3.075748817788198],[101.51909654439173,3.075748817788198],[101.51909654439173,3.0761412997079933],[101.51857833600116,3.0761412997079933],[101.51857833600116,3.075748817788198]],[[101.5206511695634,3.0761412997079933],[101.5206511695634,3.0765337817684135],[101.51961475278229,3.0765337817684135],[101.51961475278229,3.0761412997079933],[101.5206511695634,3.0761412997079933]]],[[[101.52238779999999,3.0775392965953214],[101.52303524209482,3.076926263969477],[101.52231119999999,3.0758934965970877],[101.5225275,3.0769666965959632],[101.52215669999998,3.076817496596092],[101.52220579473509,3.0773187463112044],[101.5217487577258,3.0773187463112044],[101.52238779999999,3.0775392965953214]]],[[[101.52168758634453,3.076926263969477],[101.52181181256356,3.076926263969477],[101.52168758634453,3.0767115628967745],[101.52168758634453,3.076926263969477]]]]},"properties":{"place_id":"971ec82f-6e68-59b7-b9fb-96fdef6ebb22","habitat":"forest_edge_opening","habitat_label":"Forest edge or opening","resolution_m":50}},{"type":"Feature","geometry":{"type":"MultiPolygon","coordinates":[[[[101.51857833600116,3.0761412997079933],[101.51857833600116,3.075748817788198],[101.51961475278229,3.075748817788198],[101.51961475278229,3.0753563360090106],[101.52052959999999,3.0751781965978813],[101.51961450000002,3.075003196598087],[101.5188455,3.0755527965974663],[101.51831719999998,3.075320796597748],[101.51811549267264,3.0761412997079933],[101.51857833600116,3.0761412997079933]]],[[[101.5206511695634,3.0761412997079933],[101.52103669999997,3.0760794965968854],[101.5206511695634,3.07539426958768],[101.5206511695634,3.0761412997079933]]],[[[101.52116937795397,3.0762732918742874],[101.52158310094077,3.0765337817684135],[101.521377,3.0761591965968207],[101.52116937795397,3.0762732918742874]]],[[[101.51909654439173,3.0761412997079933],[101.51857833600116,3.0761412997079933],[101.51857833600116,3.0765337817684135],[101.51800889999998,3.0765748965963597],[101.518941,3.076536396596433],[101.51961475278229,3.077236903446633],[101.51961475278229,3.0765337817684135],[101.51909654439173,3.0765337817684135],[101.51909654439173,3.0761412997079933]]],[[[101.52238779999999,3.0775392965953214],[101.52303524209482,3.076926263969477],[101.52231119999999,3.0758934965970877],[101.5225275,3.0769666965959632],[101.52215669999998,3.076817496596092],[101.52220579473509,3.0773187463112044],[101.5217487577258,3.0773187463112044],[101.52238779999999,3.0775392965953214]]],[[[101.52168758634453,3.076926263969477],[101.52181181256356,3.076926263969477],[101.52168758634453,3.0767115628967745],[101.52168758634453,3.076926263969477]]],[[[101.5206511695634,3.076926263969477],[101.52013296117285,3.076926263969477],[101.5199807599255,3.0773187463112044],[101.52116937795397,3.0768697370739857],[101.52116937795397,3.0765337817684135],[101.5206511695634,3.0765337817684135],[101.5206511695634,3.076926263969477]]],[[[101.52168758634453,3.076926263969477],[101.52148168978012,3.076926263969477],[101.52168758634453,3.0771992633589274],[101.52168758634453,3.076926263969477]]]]},"properties":{"place_id":"971ec82f-6e68-59b7-b9fb-96fdef6ebb22","habitat":"disturbed_built_edge","habitat_label":"Disturbed, bare or built edge","resolution_m":50}},{"type":"Feature","geometry":{"type":"Polygon","coordinates":[[[101.51961475278229,3.0753563360090106],[101.51961475278229,3.0761412997079933],[101.51909654439173,3.0761412997079933],[101.51909654439173,3.0765337817684135],[101.51961475278229,3.0765337817684135],[101.51961475278229,3.076926263969477],[101.5206511695634,3.076926263969477],[101.52116937795397,3.0762732918742874],[101.5206511695634,3.0761412997079933],[101.52062982692254,3.0753563360090106],[101.51961475278229,3.0753563360090106]]]},"properties":{"place_id":"971ec82f-6e68-59b7-b9fb-96fdef6ebb22","habitat":"permanent_water","habitat_label":"Permanent water","resolution_m":50}},{"type":"Feature","geometry":{"type":"Polygon","coordinates":[[[101.51961475278229,3.0765337817684135],[101.51961475278229,3.0761412997079933],[101.51909654439173,3.0761412997079933],[101.51909654439173,3.0765337817684135],[101.51961475278229,3.0765337817684135]]]},"properties":{"place_id":"971ec82f-6e68-59b7-b9fb-96fdef6ebb22","habitat":"seasonal_water_wetland","habitat_label":"Seasonal water or wetland","resolution_m":50}},{"type":"Feature","geometry":{"type":"MultiPolygon","coordinates":[[[[101.5206511695634,3.0761412997079933],[101.52103669999997,3.0760794965968854],[101.5206511695634,3.07539426958768],[101.5206511695634,3.0761412997079933]]],[[[101.51961450000002,3.075003196598087],[101.51857833600116,3.075395253679056],[101.51857833600116,3.0761412997079933],[101.51811549267264,3.0761412997079933],[101.51800889999998,3.0765748965963597],[101.518941,3.076536396596433],[101.51918610000001,3.077115396595762],[101.5201421,3.077337796595541],[101.52106560000001,3.076794496596139],[101.52168758634453,3.076926263969477],[101.521377,3.0761591965968207],[101.5206511695634,3.076926263969477],[101.51961475278229,3.076926263969477],[101.51909654439173,3.0761412997079933],[101.51961475278229,3.0761412997079933],[101.51961475278229,3.0753563360090106],[101.52062982692254,3.0753563360090106],[101.51961450000002,3.075003196598087]]]]},"properties":{"place_id":"971ec82f-6e68-59b7-b9fb-96fdef6ebb22","habitat":"water_edge","habitat_label":"Water edge","resolution_m":50}}]}