{"type":"FeatureCollection","metadata":{"schema_version":1,"place_id":"9720151a-8dda-5e51-a855-307e0743a858","place_name":"Pulau Pelung Kecil","place_type":"wood","osm_reference":"way/724613486","protection_context":"no protected status confirmed from included OSM tags","resolution_m":50,"raster_coverage":1.0,"interpretation":"Suggested search habitats, not predicted plant locations or probabilities of presence."},"features":[{"type":"Feature","geometry":{"type":"MultiPolygon","coordinates":[[[[102.66330067074962,5.020668267275629],[102.66278246235906,5.0206237594752965],[102.66278246235906,5.0210171603535425],[102.66330067074962,5.0210171603535425],[102.66330067074962,5.020668267275629]]],[[[102.66278246235906,5.029368442201023],[102.6622642539685,5.029278632188856],[102.6622642539685,5.028558386712338],[102.66174604557793,5.028491820953493],[102.66174604557793,5.027705010643581],[102.66214349396849,5.027705010643581],[102.6622045,5.027219994536262],[102.66371360591394,5.027311605835624],[102.66381887914017,5.026918201258974],[102.66433708753074,5.026918201258974],[102.66330067074962,5.025344585265078],[102.66381887914017,5.0249511818446875],[102.6648552959213,5.0249511818446875],[102.6648552959213,5.024262067281399],[102.66381887914017,5.023770972970621],[102.66381887914017,5.023377570474905],[102.66433708753074,5.0229841682103125],[102.66589171270242,5.0229841682103125],[102.66532554186902,5.022197364374421],[102.66433708753074,5.022590766176823],[102.66381887914017,5.021803962803085],[102.66174604557793,5.022197364374421],[102.66160815623655,5.023377570474905],[102.6622219,5.024117294539417],[102.66122783718737,5.023796817782101],[102.66174604557793,5.024557778655494],[102.66070962879681,5.0249511818446875],[102.66070962879681,5.025737988916683],[102.66174604557793,5.025737988916683],[102.66174604557793,5.026131392799522],[102.6622642539685,5.026131392799522],[102.6622642539685,5.026918201258974],[102.66174604557793,5.026918201258974],[102.66174604557793,5.027311605835624],[102.66070962879681,5.027311605835624],[102.66070962879681,5.029644252340079],[102.6622642539685,5.029672038153627],[102.6622642539685,5.030065444349815],[102.66278246235906,5.030065444349815],[102.66278246235906,5.029368442201023]]]]},"properties":{"place_id":"9720151a-8dda-5e51-a855-307e0743a858","habitat":"forest_interior","habitat_label":"Forest interior","resolution_m":50}},{"type":"Feature","geometry":{"type":"MultiPolygon","coordinates":[[[[102.66174604557793,5.023377570474905],[102.66174604557793,5.022197364374421],[102.66278246235906,5.022197364374421],[102.66278246235906,5.021803962803085],[102.66381887914017,5.021803962803085],[102.66381887914017,5.022197364374421],[102.66394496226211,5.022197364374421],[102.6639681,5.021256294542341],[102.66330067074962,5.020668267275629],[102.66330067074962,5.0210171603535425],[102.66278246235906,5.0210171603535425],[102.66278246235906,5.0206237594752965],[102.66327226922074,5.0206237594752965],[102.6630092,5.0202676945433575],[102.6624244,5.020798094542827],[102.6626363,5.022049894541533],[102.66159160000001,5.022146094541431],[102.661192,5.022521494541059],[102.66174604557793,5.023377570474905]]],[[[102.66330067074962,5.025737988916683],[102.66340630221715,5.025344585265078],[102.66330067074962,5.025344585265078],[102.66330067074962,5.025737988916683]]],[[[102.6622642539685,5.026918201258974],[102.6622642539685,5.026131392799522],[102.66174604557793,5.026131392799522],[102.66174604557793,5.025737988916683],[102.66070962879681,5.025737988916683],[102.66070962879681,5.0249511818446875],[102.66122783718737,5.0249511818446875],[102.66122783718737,5.024791949042828],[102.66002249999998,5.024572194538974],[102.66019142040626,5.02591779800447],[102.66118589999999,5.025843994537639],[102.6617552,5.026433194537031],[102.66158219999998,5.027028994536422],[102.66002390000001,5.0273843945360825],[102.66070962879681,5.0285139919262045],[102.66070962879681,5.027311605835624],[102.66174604557793,5.027311605835624],[102.66174604557793,5.026918201258974],[102.6622642539685,5.026918201258974]]],[[[102.66174604557793,5.024557778655494],[102.66174604557793,5.0241643756974765],[102.66122783718737,5.0241643756974765],[102.660618,5.023488094540053],[102.66130684773576,5.024557778655494],[102.66174604557793,5.024557778655494]]],[[[102.66070962879681,5.028798440051922],[102.66003329999997,5.029084994534301],[102.66070962879681,5.029644252340079],[102.66070962879681,5.028798440051922]]],[[[102.66231076582721,5.027311605835624],[102.66293,5.027409694536052],[102.66348789999999,5.028111094535333],[102.66371360591394,5.027311605835624],[102.66231076582721,5.027311605835624]]],[[[102.66174604557793,5.027705010643581],[102.66174604557793,5.028491820953493],[102.66188982736195,5.028491820953493],[102.66217769999999,5.027839894535605],[102.66174604557793,5.027705010643581]]],[[[102.6622642539685,5.029278632188856],[102.662677519862,5.029278632188856],[102.662348,5.028551994534885],[102.6622642539685,5.028558386712338],[102.6622642539685,5.029278632188856]]],[[[102.66278246235906,5.030065444349815],[102.6622642539685,5.030065444349815],[102.6622642539685,5.029672038153627],[102.6607352875364,5.029672038153627],[102.6625572,5.030310094533078],[102.6628013,5.03025659453312],[102.66306950000002,5.029731594533644],[102.66299039999998,5.029385594533994],[102.66278246235906,5.030065444349815]]],[[[102.66532554186902,5.022197364374421],[102.6652418,5.022063894541521],[102.66498558905006,5.022197364374421],[102.66532554186902,5.022197364374421]]],[[[102.66433708753074,5.022590766176823],[102.6648552959213,5.0223480262800875],[102.66433708753074,5.022395412647266],[102.66433708753074,5.022590766176823]]],[[[102.66589171270242,5.022590766176823],[102.66589171270242,5.0229841682103125],[102.66433708753074,5.0229841682103125],[102.66433708753074,5.023290651098838],[102.66614869999998,5.0231172945404285],[102.66600519999999,5.022537494541028],[102.66537350431187,5.022261922371941],[102.66537350431187,5.022590766176823],[102.66589171270242,5.022590766176823]]],[[[102.6640693880438,5.023377570474905],[102.66381887914017,5.023770972970621],[102.6640538362289,5.023770972970621],[102.6640693880438,5.023377570474905]]],[[[102.66433708753074,5.0241643756974765],[102.66469284970182,5.0241643756974765],[102.66433708753074,5.023951863631601],[102.66433708753074,5.0241643756974765]]],[[[102.6648552959213,5.0249511818446875],[102.66381887914017,5.025172678308694],[102.66510919999999,5.025244694538246],[102.66584559999998,5.025858694537619],[102.6654553,5.024530794538998],[102.6648552959213,5.024262067281399],[102.6648552959213,5.0249511818446875]]],[[[102.66381887914017,5.026918201258974],[102.66381887914017,5.027253771329338],[102.66488757453301,5.026918201258974],[102.66381887914017,5.025828093711488],[102.66381887914017,5.026524796913614],[102.66433708753074,5.026524796913614],[102.66433708753074,5.026918201258974],[102.66381887914017,5.026918201258974]]]]},"properties":{"place_id":"9720151a-8dda-5e51-a855-307e0743a858","habitat":"forest_edge_opening","habitat_label":"Forest edge or opening","resolution_m":50}},{"type":"Feature","geometry":{"type":"MultiPolygon","coordinates":[[[[102.66278246235906,5.021803962803085],[102.66278246235906,5.0210171603535425],[102.66248348754046,5.0210171603535425],[102.6626752,5.021200194542419],[102.66278246235906,5.021803962803085]]],[[[102.66174604557793,5.022197364374421],[102.6616386,5.022134694541477],[102.66152866725767,5.022197364374421],[102.66174604557793,5.022197364374421]]],[[[102.66122783718737,5.0224511567507335],[102.66118789999999,5.022609694540989],[102.66122783718737,5.022748968426858],[102.66122783718737,5.0224511567507335]]],[[[102.66070962879681,5.023536979352052],[102.660618,5.023488094540053],[102.66070962879681,5.02378420498141],[102.66070962879681,5.023536979352052]]],[[[102.66122783718737,5.0241643756974765],[102.66092480187096,5.0241643756974765],[102.66122783718737,5.024451992092441],[102.66122783718737,5.0241643756974765]]],[[[102.66019142040626,5.024571085365202],[102.6599836,5.024657694538877],[102.66019142040626,5.024803038859993],[102.66019142040626,5.024571085365202]]],[[[102.66048109999998,5.0258790945375935],[102.66019142040626,5.02562553080882],[102.66001450000002,5.025886094537591],[102.66048109999998,5.0258790945375935]]],[[[102.66174604557793,5.026918201258974],[102.66174604557793,5.02649223121646],[102.6615661,5.0267550945367105],[102.66174604557793,5.026918201258974]]],[[[102.66174604557793,5.026131392799522],[102.66165035985296,5.026131392799522],[102.66174604557793,5.026398330732248],[102.66174604557793,5.026131392799522]]],[[[102.66070962879681,5.027311605835624],[102.6606435,5.027309494536172],[102.6606320648873,5.027311605835624],[102.66070962879681,5.027311605835624]]],[[[102.66019142040626,5.02732903842092],[102.66001450000002,5.027452494535986],[102.66019142040626,5.0277329033159],[102.66019142040626,5.02732903842092]]],[[[102.66205172971988,5.028098415682867],[102.66174604557793,5.028491820953493],[102.66188982736195,5.028491820953493],[102.66205172971988,5.028098415682867]]],[[[102.66070962879681,5.028885226455484],[102.6606435,5.028863194534558],[102.66054800799299,5.028885226455484],[102.66070962879681,5.028885226455484]]],[[[102.66070962879681,5.028098415682867],[102.6604702282042,5.028098415682867],[102.66070962879681,5.0285139919262045],[102.66070962879681,5.028098415682867]]],[[[102.6622642539685,5.028558386712338],[102.66264020993313,5.028885226455484],[102.662348,5.028551994534885],[102.6622642539685,5.028558386712338]]],[[[102.66019142040626,5.028967498368816],[102.66003329999997,5.029084994534301],[102.66019142040626,5.029280872062115],[102.66019142040626,5.028967498368816]]],[[[102.6622642539685,5.030065444349815],[102.66204146511686,5.030065444349815],[102.6622642539685,5.030244138214238],[102.6622642539685,5.030065444349815]]],[[[102.66278246235906,5.0206237594752965],[102.66270209999999,5.020385294543229],[102.66258140545224,5.0206237594752965],[102.66278246235906,5.0206237594752965]]],[[[102.66330067074962,5.0210171603535425],[102.66358444496369,5.0210171603535425],[102.66330067074962,5.020668267275629],[102.66330067074962,5.0210171603535425]]],[[[102.66381887914017,5.021803962803085],[102.6639962,5.021333794542265],[102.66381887914017,5.021155255174676],[102.66381887914017,5.021803962803085]]],[[[102.66589171270242,5.022590766176823],[102.66604937647875,5.022590766176823],[102.66589171270242,5.022466157060848],[102.66589171270242,5.022590766176823]]],[[[102.6662881469415,5.0229841682103125],[102.66589171270242,5.023189307874413],[102.66628679999998,5.023029194540552],[102.6662881469415,5.0229841682103125]]],[[[102.66433708753074,5.0241643756974765],[102.66469284970182,5.0241643756974765],[102.66433708753074,5.023951863631601],[102.66433708753074,5.0241643756974765]]],[[[102.66537350431187,5.025344585265078],[102.66554525076432,5.025344585265078],[102.66537350431187,5.024478745774094],[102.66537350431187,5.025344585265078]]],[[[102.66537350431187,5.025344585265078],[102.66518813593915,5.025344585265078],[102.66537350431187,5.025553709889019],[102.66537350431187,5.025344585265078]]],[[[102.66579403399045,5.025737988916683],[102.66577989999999,5.025854694537631],[102.66584559999998,5.025858694537619],[102.66579403399045,5.025737988916683]]],[[[102.66433708753074,5.026524796913614],[102.66439836789152,5.026524796913614],[102.66433708753074,5.02607710105416],[102.66433708753074,5.026524796913614]]],[[[102.66433708753074,5.0270764349768085],[102.66478340000002,5.027010294536454],[102.6652495,5.027274094536178],[102.6648552959213,5.026867992904785],[102.66433708753074,5.0270764349768085]]],[[[102.66330067074962,5.027705010643581],[102.66314883352435,5.027705010643581],[102.66330067074962,5.027947281975001],[102.66330067074962,5.027705010643581]]],[[[102.66342203604981,5.028098415682867],[102.66348789999999,5.028111094535333],[102.66350110567437,5.028098415682867],[102.66342203604981,5.028098415682867]]],[[[102.66278246235906,5.029672038153627],[102.66278246235906,5.030261719009912],[102.663096559975,5.029672038153627],[102.66278246235906,5.029672038153627]]]]},"properties":{"place_id":"9720151a-8dda-5e51-a855-307e0743a858","habitat":"permanent_water","habitat_label":"Permanent water","resolution_m":50}},{"type":"Feature","geometry":{"type":"MultiPolygon","coordinates":[[[[102.66019142040626,5.024571085365202],[102.6599836,5.024657694538877],[102.66019142040626,5.024803038859993],[102.66019142040626,5.024571085365202]]],[[[102.66019142040626,5.02591779800447],[102.66010505776273,5.025737988916683],[102.6600279,5.025905494537584],[102.66019142040626,5.02591779800447]]],[[[102.66070962879681,5.027311605835624],[102.66070962879681,5.027277122585777],[102.6606320648873,5.027311605835624],[102.66070962879681,5.027311605835624]]],[[[102.66019142040626,5.027705010643581],[102.66019142040626,5.02732903842092],[102.6601325,5.027329594536124],[102.66001450000002,5.027452494535986],[102.66019142040626,5.027705010643581]]],[[[102.66019142040626,5.029278632188856],[102.66019142040626,5.028967498368816],[102.66003329999997,5.029084994534301],[102.66019142040626,5.029278632188856]]],[[[102.66122783718737,5.029672038153627],[102.6607352875364,5.029672038153627],[102.6609191,5.029859894533539],[102.66122783718737,5.029672038153627]]],[[[102.66278246235906,5.0206237594752965],[102.66278246235906,5.020313317809836],[102.66258140545224,5.0206237594752965],[102.66278246235906,5.0206237594752965]]],[[[102.66381887914017,5.022197364374421],[102.66399401590422,5.021410561462797],[102.66381887914017,5.021410561462797],[102.66381887914017,5.022197364374421]]],[[[102.66174604557793,5.023377570474905],[102.66160815623655,5.023377570474905],[102.66174604557793,5.023566375029133],[102.66174604557793,5.023377570474905]]],[[[102.66433708753074,5.0241643756974765],[102.66469284970182,5.0241643756974765],[102.66433708753074,5.023951863631601],[102.66433708753074,5.0241643756974765]]],[[[102.66122783718737,5.0241643756974765],[102.66092480187096,5.0241643756974765],[102.66122783718737,5.024451992092441],[102.66122783718737,5.0241643756974765]]],[[[102.66579403399045,5.025737988916683],[102.66577989999999,5.025854694537631],[102.66584559999998,5.025858694537619],[102.66579403399045,5.025737988916683]]]]},"properties":{"place_id":"9720151a-8dda-5e51-a855-307e0743a858","habitat":"seasonal_water_wetland","habitat_label":"Seasonal water or wetland","resolution_m":50}},{"type":"Feature","geometry":{"type":"MultiPolygon","coordinates":[[[[102.66070962879681,5.023536979352052],[102.6613314,5.024691094538834],[102.66019142040626,5.024571085365202],[102.66019142040626,5.025737988916683],[102.66174604557793,5.026131392799522],[102.66174604557793,5.026918201258974],[102.66019142040626,5.02732903842092],[102.66075339999999,5.028681594534751],[102.66019142040626,5.029280872062115],[102.6625572,5.030310094533078],[102.66311109999998,5.029464394533959],[102.66174604557793,5.028491820953493],[102.66210389999999,5.027309494536172],[102.66293,5.027409694536052],[102.66350110567437,5.028098415682867],[102.6636663,5.0273375945361325],[102.6648552959213,5.026867992904785],[102.66341309999999,5.025263594538251],[102.66537350431187,5.025344585265078],[102.66537350431187,5.024478745774094],[102.66433708753074,5.0241643756974765],[102.66405929999999,5.023392494540166],[102.6662882,5.0229823945405725],[102.6652418,5.022063894541521],[102.66447899999999,5.022398594541201],[102.66381887914017,5.022197364374421],[102.66381887914017,5.021155255174676],[102.6629327,5.020262394543371],[102.66240839999999,5.020888994542739],[102.66278246235906,5.0210171603535425],[102.6626363,5.022049894541533],[102.66122783718737,5.0224511567507335],[102.6622219,5.024117294539417],[102.66070962879681,5.023536979352052]],[[102.66174604557793,5.028885226455484],[102.66174604557793,5.029278632188856],[102.66122783718737,5.029278632188856],[102.66122783718737,5.028885226455484],[102.66174604557793,5.028885226455484]],[[102.6622642539685,5.026131392799522],[102.66122783718737,5.0249511818446875],[102.6622642539685,5.024557778655494],[102.6622642539685,5.023770972970621],[102.66278246235906,5.023770972970621],[102.66278246235906,5.023377570474905],[102.6622642539685,5.023377570474905],[102.6622642539685,5.022590766176823],[102.66330067074962,5.022197364374421],[102.66330067074962,5.022590766176823],[102.66381887914017,5.022590766176823],[102.66381887914017,5.023377570474905],[102.66330067074962,5.023377570474905],[102.66381887914017,5.0249511818446875],[102.66330067074962,5.0249511818446875],[102.66278246235906,5.025737988916683],[102.66330067074962,5.025737988916683],[102.66330067074962,5.026524796913614],[102.66381887914017,5.026524796913614],[102.66381887914017,5.026918201258974],[102.66278246235906,5.026918201258974],[102.66278246235906,5.026131392799522],[102.6622642539685,5.026131392799522]]],[[[102.66579403399045,5.025737988916683],[102.66554525076432,5.025344585265078],[102.66537350431187,5.025344585265078],[102.66537350431187,5.025553709889019],[102.66579403399045,5.025737988916683]]]]},"properties":{"place_id":"9720151a-8dda-5e51-a855-307e0743a858","habitat":"water_edge","habitat_label":"Water edge","resolution_m":50}}]}