{"type":"FeatureCollection","metadata":{"schema_version":1,"place_id":"97937e7b-d06d-5fe9-8746-e69f17d65cdd","place_name":"Batu Lanchang Bamboo Tunnel","place_type":"park","osm_reference":"way/987910765","protection_context":"no protected status confirmed from included OSM tags","resolution_m":50,"raster_coverage":1.0,"interpretation":"Suggested search habitats, not predicted plant locations or probabilities of presence."},"features":[{"type":"Feature","geometry":{"type":"Polygon","coordinates":[[[100.30648891047983,5.389614838394692],[100.30641947044849,5.389737837981916],[100.30669469999998,5.3900044941667815],[100.30648891047983,5.389614838394692]]]},"properties":{"place_id":"97937e7b-d06d-5fe9-8746-e69f17d65cdd","habitat":"forest_edge_opening","habitat_label":"Forest edge or opening","resolution_m":50}},{"type":"Feature","geometry":{"type":"Polygon","coordinates":[[[100.3063512,5.389671694167125],[100.30679389999999,5.389900194166907],[100.3064506,5.389578994167223],[100.3063512,5.389671694167125]]]},"properties":{"place_id":"97937e7b-d06d-5fe9-8746-e69f17d65cdd","habitat":"disturbed_built_edge","habitat_label":"Disturbed, bare or built edge","resolution_m":50}}]}