{"type":"FeatureCollection","metadata":{"schema_version":1,"place_id":"97fc72f2-0f02-541a-8084-38173e941437","place_name":"Hutan Simpanan Kekal Bukit Jugra Tambahan","place_type":"park","osm_reference":"relation/18167642","protection_context":"mapped protected boundary","resolution_m":50,"raster_coverage":1.0,"interpretation":"Suggested search habitats, not predicted plant locations or probabilities of presence."},"features":[{"type":"Feature","geometry":{"type":"MultiPolygon","coordinates":[[[[101.41960053340408,2.843031175213229],[101.41911382261993,2.843031175213229],[101.41960053340408,2.8434235769243528],[101.41960053340408,2.844993185068168],[101.41977310000001,2.8447507968479995],[101.4221013,2.845294596847404],[101.42219157535689,2.8461703925408233],[101.42322799213801,2.8457779899199225],[101.42322799213801,2.8461703925408233],[101.42426440891913,2.8461703925408233],[101.42478261730969,2.846955198172766],[101.42825959999999,2.8470251968454927],[101.43069509999998,2.8465456968460288],[101.43194229999999,2.845046796847668],[101.43194229999999,2.8445793968481654],[101.4306843,2.8443944968483885],[101.43034599999999,2.8436909968491526],[101.4213509,2.8445458968482114],[101.4203873,2.8425031968504473],[101.41960053340408,2.842620830198915],[101.41960053340408,2.843031175213229]]],[[[101.4176662,2.838199496855102],[101.42133409999998,2.836775696856663],[101.4216004,2.836732496856701],[101.4211169,2.8364193968570546],[101.41878599999998,2.8363336968571566],[101.41769909999998,2.8368459968565967],[101.4176662,2.838199496855102]]],[[[101.42118130000001,2.8360175968575025],[101.42190569999998,2.8365507968569177],[101.42413439999999,2.835736296857792],[101.42118130000001,2.8360175968575025]]]]},"properties":{"place_id":"97fc72f2-0f02-541a-8084-38173e941437","habitat":"forest_interior","habitat_label":"Forest interior","resolution_m":50}},{"type":"Feature","geometry":{"type":"MultiPolygon","coordinates":[[[[101.41597307467016,2.84106916860569],[101.4161893831467,2.8406767676736724],[101.41492229999999,2.8394170968537815],[101.41473809033826,2.839499565656273],[101.41493665788904,2.839891966198982],[101.41441844949847,2.839891966198982],[101.41441844949847,2.840190244606685],[101.41493665788904,2.84106916860569],[101.41597307467016,2.84106916860569]]],[[[101.41960053340408,2.844993185068168],[101.41960053340408,2.8434235769243528],[101.41928229999999,2.843751596849068],[101.4185576412045,2.843031175213229],[101.4180459082324,2.843031175213229],[101.4180459082324,2.8434235769243528],[101.41856411662296,2.8434235769243528],[101.41856411662296,2.844993185068168],[101.41908232501352,2.844993185068168],[101.41908232501352,2.845385587429044],[101.41960053340408,2.844993185068168]]],[[[101.41960053340408,2.843031175213229],[101.41960053340408,2.842620830198915],[101.41881019999998,2.8427389968501897],[101.41911382261993,2.843031175213229],[101.41960053340408,2.843031175213229]]],[[[101.42478261730969,2.846955198172766],[101.42426440891913,2.8461703925408233],[101.42322799213801,2.8461703925408233],[101.42322799213801,2.8457779899199225],[101.42219157535689,2.8461703925408233],[101.42206239334014,2.8457779899199225],[101.4219283,2.846269696846356],[101.4231415,2.8471570968453586],[101.42478261730969,2.846955198172766]]]]},"properties":{"place_id":"97fc72f2-0f02-541a-8084-38173e941437","habitat":"forest_edge_opening","habitat_label":"Forest edge or opening","resolution_m":50}},{"type":"Feature","geometry":{"type":"Polygon","coordinates":[[[101.41493665788904,2.839499565656273],[101.41500525411779,2.839499565656273],[101.41493665788904,2.8394313707429326],[101.41493665788904,2.839499565656273]]]},"properties":{"place_id":"97fc72f2-0f02-541a-8084-38173e941437","habitat":"open_grassland","habitat_label":"Open grassland or shrubland","resolution_m":50}},{"type":"Feature","geometry":{"type":"MultiPolygon","coordinates":[[[[101.41545486627959,2.8402843668714417],[101.41492229999999,2.8394170968537815],[101.4142102,2.839735896853458],[101.41445334004638,2.8402843668714417],[101.41545486627959,2.8402843668714417]]],[[[101.42478261730969,2.846955198172766],[101.42478261730969,2.846562795291766],[101.42426440891913,2.846562795291766],[101.42426440891913,2.8461703925408233],[101.42322799213801,2.8461703925408233],[101.42322799213801,2.8457779899199225],[101.42219157535689,2.8461703925408233],[101.4229475130398,2.846955198172766],[101.42478261730969,2.846955198172766]]]]},"properties":{"place_id":"97fc72f2-0f02-541a-8084-38173e941437","habitat":"disturbed_built_edge","habitat_label":"Disturbed, bare or built edge","resolution_m":50}},{"type":"Feature","geometry":{"type":"MultiPolygon","coordinates":[[[[101.41441844949847,2.8396426656410476],[101.4142102,2.839735896853458],[101.41441844949847,2.840190244606685],[101.41441844949847,2.8396426656410476]]],[[[101.41493665788904,2.8406767676736724],[101.41459880059406,2.8406767676736724],[101.41493665788904,2.841770987406642],[101.41493665788904,2.8406767676736724]]],[[[101.41493665788904,2.843286644569678],[101.414904,2.8454985968471793],[101.41493665788904,2.845574266958615],[101.41493665788904,2.843286644569678]]],[[[101.41700949145128,2.846000961895622],[101.4179037467491,2.8457779899199225],[101.41700949145128,2.8457779899199225],[101.41700949145128,2.846000961895622]]],[[[101.41522775824575,2.8461703925408233],[101.41534079999998,2.8462665968463354],[101.4162741425277,2.8461703925408233],[101.41522775824575,2.8461703925408233]]],[[[101.42219157535689,2.8461703925408233],[101.4219283,2.846269696846356],[101.42219157535689,2.8464022205171],[101.42219157535689,2.8461703925408233]]],[[[101.42270978374745,2.846562795291766],[101.42251057780857,2.846562795291766],[101.42270978374745,2.8467077731942663],[101.42270978374745,2.846562795291766]]],[[[101.42322799213801,2.846955198172766],[101.4231415,2.8471570968453586],[101.42322799213801,2.8471520195649536],[101.42322799213801,2.846955198172766]]]]},"properties":{"place_id":"97fc72f2-0f02-541a-8084-38173e941437","habitat":"permanent_water","habitat_label":"Permanent water","resolution_m":50}},{"type":"Feature","geometry":{"type":"MultiPolygon","coordinates":[[[[101.4147428180059,2.84106916860569],[101.41493665788904,2.841770987406642],[101.41493665788904,2.84106916860569],[101.4147428180059,2.84106916860569]]],[[[101.41752769984184,2.8457779899199225],[101.41752769984184,2.845871752760911],[101.4179037467491,2.8457779899199225],[101.41752769984184,2.8457779899199225]]],[[[101.42219157535689,2.8461703925408233],[101.4219283,2.846269696846356],[101.42219157535689,2.8464022205171],[101.42219157535689,2.8461703925408233]]],[[[101.42270978374745,2.846562795291766],[101.42251057780857,2.846562795291766],[101.42270978374745,2.8467077731942663],[101.42270978374745,2.846562795291766]]]]},"properties":{"place_id":"97fc72f2-0f02-541a-8084-38173e941437","habitat":"seasonal_water_wetland","habitat_label":"Seasonal water or wetland","resolution_m":50}},{"type":"Feature","geometry":{"type":"MultiPolygon","coordinates":[[[[101.42034867553534,2.844993185068168],[101.42081649999997,2.845190196847514],[101.42167336696632,2.845259823956697],[101.42167336696632,2.844993185068168],[101.42034867553534,2.844993185068168]]],[[[101.41700949145128,2.844993185068168],[101.41700949145128,2.845385587429044],[101.41597307467016,2.845385587429044],[101.41597307467016,2.8406767676736724],[101.41545486627959,2.8406767676736724],[101.41492229999999,2.8394170968537815],[101.41441844949847,2.8396426656410476],[101.41441844949847,2.840190244606685],[101.41493665788904,2.8406767676736724],[101.41517429999999,2.846124896846487],[101.419403,2.845645196847003],[101.41967280046394,2.844993185068168],[101.41700949145128,2.844993185068168]]],[[[101.42219157535689,2.8461703925408233],[101.42322799213801,2.8471520195649536],[101.42426440891913,2.8470911796020446],[101.42209397647717,2.845385587429044],[101.42219157535689,2.8461703925408233]]]]},"properties":{"place_id":"97fc72f2-0f02-541a-8084-38173e941437","habitat":"water_edge","habitat_label":"Water edge","resolution_m":50}},{"type":"Feature","geometry":{"type":"MultiPolygon","coordinates":[[[[101.41441844949847,2.839891966198982],[101.41459880059406,2.8406767676736724],[101.41493665788904,2.8406767676736724],[101.41493665788904,2.839891966198982],[101.41441844949847,2.839891966198982]]],[[[101.41522775824575,2.8461703925408233],[101.41700949145128,2.8457779899199225],[101.419403,2.845645196847003],[101.41960053340408,2.844993185068168],[101.41908232501352,2.844993185068168],[101.41908232501352,2.843552791094585],[101.41597307467016,2.840461724488356],[101.41493665788904,2.8406767676736724],[101.41493665788904,2.845574266958615],[101.41522775824575,2.8461703925408233]]],[[[101.41908232501352,2.842698310093865],[101.41881019999998,2.8427389968501897],[101.41908232501352,2.843000864822985],[101.41908232501352,2.842698310093865]]]]},"properties":{"place_id":"97fc72f2-0f02-541a-8084-38173e941437","habitat":"mangrove","habitat_label":"Mangrove","resolution_m":50}}]}