{"type":"FeatureCollection","metadata":{"schema_version":1,"place_id":"99b72784-c48f-5472-b705-893c414a0bad","place_name":"BDC Playground","place_type":"park","osm_reference":"way/700079255","protection_context":"no protected status confirmed from included OSM tags","resolution_m":50,"raster_coverage":1.0,"interpretation":"Suggested search habitats, not predicted plant locations or probabilities of presence."},"features":[{"type":"Feature","geometry":{"type":"Polygon","coordinates":[[[116.1173397,5.970772593586032],[116.11785050000002,5.970578193586246],[116.11773220000002,5.970297293586519],[116.11722569999998,5.97049159358631],[116.1173397,5.970772593586032]]]},"properties":{"place_id":"99b72784-c48f-5472-b705-893c414a0bad","habitat":"disturbed_built_edge","habitat_label":"Disturbed, bare or built edge","resolution_m":50}}]}