{"type":"FeatureCollection","metadata":{"schema_version":1,"place_id":"99f282a4-3060-5ef5-87c8-fa18b98789cd","place_name":"Taman Tasik Maran","place_type":"park","osm_reference":"way/734720543","protection_context":"no protected status confirmed from included OSM tags","resolution_m":50,"raster_coverage":1.0,"interpretation":"Suggested search habitats, not predicted plant locations or probabilities of presence."},"features":[{"type":"Feature","geometry":{"type":"MultiPolygon","coordinates":[[[[102.7793793502352,3.5798178051776577],[102.77988751381969,3.5798178051776577],[102.7794146,3.579523296054794],[102.77834293345407,3.5797887811794844],[102.77886114184464,3.5798178051776577],[102.77886114184464,3.580210482575147],[102.7793793502352,3.580210482575147],[102.7793793502352,3.5798178051776577]]],[[[102.78044647078185,3.5798178051776577],[102.78040249999997,3.579807296054514],[102.78030424940714,3.5798178051776577],[102.78044647078185,3.5798178051776577]]],[[[102.78447874520471,3.5833519076567253],[102.78404322575025,3.5817811938042134],[102.78300680896912,3.5821738720213476],[102.78404322575025,3.5833519076567253],[102.78447874520471,3.5833519076567253]]]]},"properties":{"place_id":"99f282a4-3060-5ef5-87c8-fa18b98789cd","habitat":"forest_interior","habitat_label":"Forest interior","resolution_m":50}},{"type":"Feature","geometry":{"type":"MultiPolygon","coordinates":[[[[102.7793793502352,3.5813885157510446],[102.77989755862575,3.5813885157510446],[102.77989755862575,3.580603160136529],[102.78093397540688,3.580603160136529],[102.78125198536428,3.580210482575147],[102.78044647078185,3.5798178051776577],[102.7793793502352,3.5798178051776577],[102.7793793502352,3.580210482575147],[102.77886114184464,3.580210482575147],[102.77886114184464,3.5798178051776577],[102.7782803,3.5798234960544892],[102.77747079999999,3.580833796053431],[102.77834293345407,3.5809958378618214],[102.77886114184464,3.5817811938042134],[102.7793793502352,3.5817811938042134],[102.7793793502352,3.5813885157510446]]],[[[102.78404322575025,3.5833519076567253],[102.78300680896912,3.5821738720213476],[102.78404322575025,3.5817811938042134],[102.78462629403852,3.5825665504024657],[102.78460929999999,3.5816033960525973],[102.7830857,3.5808459960534007],[102.78267509999998,3.5801237960541656],[102.78197039218801,3.580603160136529],[102.78248860057855,3.580603160136529],[102.78300680896912,3.5813885157510446],[102.78248860057855,3.5813885157510446],[102.78248860057855,3.5817811938042134],[102.78145218379744,3.5813885157510446],[102.78145218379744,3.5817811938042134],[102.78093397540688,3.5817811938042134],[102.78093397540688,3.5825665504024657],[102.78046493034807,3.5825665504024657],[102.7817919,3.5828530960512337],[102.78197039218801,3.5834516263641842],[102.78300680896912,3.5833519076567253],[102.7843735,3.5839120960501276],[102.78447874520471,3.5833519076567253],[102.78404322575025,3.5833519076567253]]]]},"properties":{"place_id":"99f282a4-3060-5ef5-87c8-fa18b98789cd","habitat":"forest_edge_opening","habitat_label":"Forest edge or opening","resolution_m":50}},{"type":"Feature","geometry":{"type":"MultiPolygon","coordinates":[[[[102.7778995483449,3.580210482575147],[102.77782472506351,3.5809958378618214],[102.77834293345407,3.5809958378618214],[102.77886114184464,3.580210482575147],[102.7778995483449,3.580210482575147]]],[[[102.77886114184464,3.5813885157510446],[102.77886114184464,3.5809958378618214],[102.77834293345407,3.5809958378618214],[102.77834293345407,3.5813885157510446],[102.77886114184464,3.5813885157510446]]],[[[102.77989755862575,3.5817811938042134],[102.77989755862575,3.5813885157510446],[102.7793793502352,3.5813885157510446],[102.7793793502352,3.5817811938042134],[102.77989755862575,3.5817811938042134]]],[[[102.78145218379744,3.5817811938042134],[102.78197039218801,3.5817811938042134],[102.78197039218801,3.5813885157510446],[102.78093397540688,3.5813885157510446],[102.78093397540688,3.5809958378618214],[102.78041576701631,3.5809958378618214],[102.78093397540688,3.5825665504024657],[102.78248860057855,3.5825665504024657],[102.78248860057855,3.5821738720213476],[102.78145218379744,3.5821738720213476],[102.78145218379744,3.5817811938042134]]],[[[102.7793793502352,3.5821738720213476],[102.7793793502352,3.5817811938042134],[102.77886114184464,3.5817811938042134],[102.77886114184464,3.5820873886712303],[102.7793793502352,3.5821738720213476]]],[[[102.78093397540688,3.5825665504024657],[102.78046493034807,3.5825665504024657],[102.78093397540688,3.582729420237637],[102.78093397540688,3.5825665504024657]]],[[[102.78248860057855,3.5802179782328087],[102.78169529999998,3.5804929960537852],[102.78093397540688,3.5800191741691716],[102.78093397540688,3.580603160136529],[102.78300680896912,3.5809958378618214],[102.78248860057855,3.5802179782328087]]],[[[102.78404322575025,3.5813885157510446],[102.78435570250548,3.5813885157510446],[102.78404322575025,3.5812978861880915],[102.78404322575025,3.5813885157510446]]],[[[102.78456143414081,3.5817811938042134],[102.78465570029397,3.5817811938042134],[102.78456143414081,3.5815419743629113],[102.78456143414081,3.5817811938042134]]],[[[102.78300680896912,3.5833519076567253],[102.78300680896912,3.582959228947585],[102.78248860057855,3.582959228947585],[102.78248860057855,3.5833519076567253],[102.78300680896912,3.5833519076567253]]],[[[102.78197039218801,3.5833519076567253],[102.78181111019501,3.5833519076567253],[102.78197039218801,3.5834516263641842],[102.78197039218801,3.5833519076567253]]],[[[102.78300680896912,3.5833519076567253],[102.78358889999998,3.583863396050174],[102.7843735,3.5839120960501276],[102.78404322575025,3.5833519076567253],[102.78300680896912,3.5833519076567253]]]]},"properties":{"place_id":"99f282a4-3060-5ef5-87c8-fa18b98789cd","habitat":"open_grassland","habitat_label":"Open grassland or shrubland","resolution_m":50}},{"type":"Feature","geometry":{"type":"MultiPolygon","coordinates":[[[[102.77834293345407,3.5798178051776577],[102.77834293345407,3.5797887811794844],[102.77829056762351,3.5798178051776577],[102.77834293345407,3.5798178051776577]]],[[[102.78435570250548,3.5813885157510446],[102.78281769238906,3.580603160136529],[102.78248860057855,3.580603160136529],[102.78352501735968,3.5817811938042134],[102.78435570250548,3.5813885157510446]]],[[[102.78300680896912,3.582959228947585],[102.78145218379744,3.5821738720213476],[102.78145218379744,3.5813885157510446],[102.78197039218801,3.5813885157510446],[102.78197039218801,3.5809958378618214],[102.78145218379744,3.5809958378618214],[102.78145218379744,3.580338064086239],[102.78069119999999,3.57987629605445],[102.7793793502352,3.5798178051776577],[102.7793793502352,3.580210482575147],[102.77886114184464,3.580210482575147],[102.77886114184464,3.5809958378618214],[102.77834293345407,3.5809958378618214],[102.77782472506351,3.5803146800315258],[102.77747079999999,3.580833796053431],[102.77947750000001,3.5826422960514495],[102.7803022,3.5821406960520035],[102.78041379999999,3.5825487960515576],[102.7817919,3.5828530960512337],[102.7820969,3.5837538960502937],[102.78352501735968,3.5836843518184622],[102.78300680896912,3.582959228947585]]],[[[102.78456143414081,3.5815419743629113],[102.78404322575025,3.5817811938042134],[102.78404322575025,3.5821738720213476],[102.78456143414081,3.5821738720213476],[102.78462629403852,3.5825665504024657],[102.78456143414081,3.5815419743629113]]],[[[102.78359168895578,3.5837445865299014],[102.7843735,3.5839120960501276],[102.78440497078779,3.5837445865299014],[102.78359168895578,3.5837445865299014]]]]},"properties":{"place_id":"99f282a4-3060-5ef5-87c8-fa18b98789cd","habitat":"disturbed_built_edge","habitat_label":"Disturbed, bare or built edge","resolution_m":50}},{"type":"Feature","geometry":{"type":"Polygon","coordinates":[[[102.78248860057855,3.5821738720213476],[102.78248860057855,3.5817811938042134],[102.78197039218801,3.5817811938042134],[102.78197039218801,3.5821738720213476],[102.78248860057855,3.5821738720213476]]]},"properties":{"place_id":"99f282a4-3060-5ef5-87c8-fa18b98789cd","habitat":"cropland","habitat_label":"Cropland","resolution_m":50}},{"type":"Feature","geometry":{"type":"MultiPolygon","coordinates":[[[[102.78300680896912,3.5813885157510446],[102.78352501735968,3.5813885157510446],[102.78352501735968,3.5810723885251456],[102.78093397540688,3.580603160136529],[102.78248860057855,3.5821738720213476],[102.78300680896912,3.5821738720213476],[102.78300680896912,3.5813885157510446]]],[[[102.77886114184464,3.5813885157510446],[102.77886114184464,3.5817811938042134],[102.7793793502352,3.5817811938042134],[102.7793793502352,3.5813885157510446],[102.77886114184464,3.5813885157510446]]],[[[102.78248860057855,3.5825665504024657],[102.78248860057855,3.582959228947585],[102.78300680896912,3.582959228947585],[102.78300680896912,3.5825665504024657],[102.78248860057855,3.5825665504024657]]]]},"properties":{"place_id":"99f282a4-3060-5ef5-87c8-fa18b98789cd","habitat":"permanent_water","habitat_label":"Permanent water","resolution_m":50}},{"type":"Feature","geometry":{"type":"MultiPolygon","coordinates":[[[[102.77886114184464,3.5809958378618214],[102.77834293345407,3.5809958378618214],[102.77834293345407,3.5813885157510446],[102.77886114184464,3.5813885157510446],[102.77886114184464,3.5809958378618214]]],[[[102.78248860057855,3.5813885157510446],[102.78197039218801,3.5813885157510446],[102.78197039218801,3.5817811938042134],[102.78248860057855,3.5817811938042134],[102.78248860057855,3.5813885157510446]]]]},"properties":{"place_id":"99f282a4-3060-5ef5-87c8-fa18b98789cd","habitat":"seasonal_water_wetland","habitat_label":"Seasonal water or wetland","resolution_m":50}},{"type":"Feature","geometry":{"type":"MultiPolygon","coordinates":[[[[102.7793793502352,3.580603160136529],[102.77834293345407,3.580210482575147],[102.77774142023415,3.5809958378618214],[102.7793793502352,3.5825451832340924],[102.77989755862575,3.5817811938042134],[102.78041576701631,3.5817811938042134],[102.7793793502352,3.580603160136529]],[[102.7793793502352,3.5817811938042134],[102.77886114184464,3.5817811938042134],[102.77886114184464,3.5813885157510446],[102.7793793502352,3.5813885157510446],[102.7793793502352,3.5817811938042134]],[[102.77834293345407,3.5813885157510446],[102.77834293345407,3.5809958378618214],[102.77886114184464,3.5809958378618214],[102.77886114184464,3.5813885157510446],[102.77834293345407,3.5813885157510446]]],[[[102.78456143414081,3.5817811938042134],[102.78465570029397,3.5817811938042134],[102.78456143414081,3.5815419743629113],[102.78456143414081,3.5817811938042134]]],[[[102.78250303771298,3.580210482575147],[102.78169529999998,3.5804929960537852],[102.78093397540688,3.5800191741691716],[102.77989755862575,3.580603160136529],[102.77989755862575,3.5809958378618214],[102.78197039218801,3.5821738720213476],[102.78197039218801,3.5825665504024657],[102.78145218379744,3.5825665504024657],[102.78197039218801,3.5833519076567253],[102.78300680896912,3.5836183627335867],[102.78352501735968,3.582959228947585],[102.78404322575025,3.582959228947585],[102.78352501735968,3.5821738720213476],[102.78404322575025,3.5821738720213476],[102.78435570250548,3.5813885157510446],[102.78352501735968,3.5810723885251456],[102.78352501735968,3.5813885157510446],[102.78300680896912,3.5813885157510446],[102.78300680896912,3.5821738720213476],[102.78248860057855,3.5821738720213476],[102.78248860057855,3.5817811938042134],[102.78093397540688,3.5809958378618214],[102.78093397540688,3.580603160136529],[102.78337646987329,3.5809958378618214],[102.78250303771298,3.580210482575147]],[[102.78300680896912,3.582959228947585],[102.78248860057855,3.582959228947585],[102.78248860057855,3.5825665504024657],[102.78300680896912,3.5825665504024657],[102.78300680896912,3.582959228947585]]]]},"properties":{"place_id":"99f282a4-3060-5ef5-87c8-fa18b98789cd","habitat":"water_edge","habitat_label":"Water edge","resolution_m":50}}]}