{"type":"FeatureCollection","metadata":{"schema_version":1,"place_id":"99f8bb3d-04d6-5c04-9308-2f80f7f57fc8","place_name":"Tasik Belat","place_type":"park","osm_reference":"relation/18085277","protection_context":"no protected status confirmed from included OSM tags","resolution_m":50,"raster_coverage":1.0,"interpretation":"Suggested search habitats, not predicted plant locations or probabilities of presence."},"features":[{"type":"Feature","geometry":{"type":"Polygon","coordinates":[[[100.27073253153114,6.536316441421901],[100.27051317511028,6.536316441421901],[100.27073253153114,6.536372504987937],[100.27073253153114,6.536316441421901]]]},"properties":{"place_id":"99f8bb3d-04d6-5c04-9308-2f80f7f57fc8","habitat":"forest_interior","habitat_label":"Forest interior","resolution_m":50}},{"type":"Feature","geometry":{"type":"Polygon","coordinates":[[[100.27030979999999,6.536212693034253],[100.2714443,6.536424493034075],[100.27176894831227,6.535922014175548],[100.27073253153114,6.535922014175548],[100.27073253153114,6.535602178217876],[100.27030979999999,6.536212693034253]]]},"properties":{"place_id":"99f8bb3d-04d6-5c04-9308-2f80f7f57fc8","habitat":"forest_edge_opening","habitat_label":"Forest edge or opening","resolution_m":50}},{"type":"Feature","geometry":{"type":"MultiPolygon","coordinates":[[[[100.2712507399217,6.535133160591421],[100.27202378086858,6.535527587232061],[100.2712512,6.534371293036054],[100.27078417971693,6.535527587232061],[100.2712507399217,6.535527587232061],[100.2712507399217,6.535133160591421]]],[[[100.27073253153114,6.535922014175548],[100.27073253153114,6.535602178217876],[100.27051107125085,6.535922014175548],[100.27073253153114,6.535922014175548]]],[[[100.27176894831227,6.535922014175548],[100.27176894831227,6.536131975905834],[100.27191691970062,6.535922014175548],[100.27176894831227,6.535922014175548]]]]},"properties":{"place_id":"99f8bb3d-04d6-5c04-9308-2f80f7f57fc8","habitat":"cropland","habitat_label":"Cropland","resolution_m":50}},{"type":"Feature","geometry":{"type":"Polygon","coordinates":[[[100.27073253153114,6.536316441421901],[100.27163894553509,6.536316441421901],[100.27206789999997,6.535603793034828],[100.27176894831227,6.535133160591421],[100.27078417971693,6.535527587232061],[100.27073253153114,6.536316441421901]]]},"properties":{"place_id":"99f8bb3d-04d6-5c04-9308-2f80f7f57fc8","habitat":"permanent_water","habitat_label":"Permanent water","resolution_m":50}},{"type":"Feature","geometry":{"type":"MultiPolygon","coordinates":[[[[100.2712507399217,6.535133160591421],[100.27202378086858,6.535527587232061],[100.2712512,6.534371293036054],[100.27078417971693,6.535527587232061],[100.2712507399217,6.535527587232061],[100.2712507399217,6.535133160591421]]],[[[100.27073253153114,6.536316441421901],[100.27073253153114,6.535602178217876],[100.27030979999999,6.536212693034253],[100.27113849999999,6.536416493034067],[100.27163894553509,6.536316441421901],[100.27073253153114,6.536316441421901]]],[[[100.27176894831227,6.535922014175548],[100.27176894831227,6.536131975905834],[100.27191691970062,6.535922014175548],[100.27176894831227,6.535922014175548]]]]},"properties":{"place_id":"99f8bb3d-04d6-5c04-9308-2f80f7f57fc8","habitat":"water_edge","habitat_label":"Water edge","resolution_m":50}}]}