{"type":"FeatureCollection","metadata":{"schema_version":1,"place_id":"9a19b760-9cd8-5c5e-903a-a34f9c884887","place_name":"USJ9 Park · OSM way/219998604","place_type":"park","osm_reference":"way/219998604","protection_context":"no protected status confirmed from included OSM tags","resolution_m":50,"raster_coverage":1.0,"interpretation":"Suggested search habitats, not predicted plant locations or probabilities of presence."},"features":[{"type":"Feature","geometry":{"type":"Polygon","coordinates":[[[101.58490900999293,3.0435657771912425],[101.58490900999293,3.04317330688035],[101.58439080160235,3.04317330688035],[101.58439080160235,3.0435657771912425],[101.58490900999293,3.0435657771912425]]]},"properties":{"place_id":"9a19b760-9cd8-5c5e-903a-a34f9c884887","habitat":"open_grassland","habitat_label":"Open grassland or shrubland","resolution_m":50}},{"type":"Feature","geometry":{"type":"Polygon","coordinates":[[[101.58381429999999,3.0430151966327204],[101.5841844,3.0439338966317275],[101.5849381,3.0439392966317182],[101.58494349999998,3.0430151966327204],[101.58381429999999,3.0430151966327204]]]},"properties":{"place_id":"9a19b760-9cd8-5c5e-903a-a34f9c884887","habitat":"disturbed_built_edge","habitat_label":"Disturbed, bare or built edge","resolution_m":50}}]}