{"type":"FeatureCollection","metadata":{"schema_version":1,"place_id":"9a2066f4-776e-50c7-b449-4bc86fc5b9a7","place_name":"Taman Bunga Raya","place_type":"park","osm_reference":"way/39324360","protection_context":"no protected status confirmed from included OSM tags","resolution_m":50,"raster_coverage":1.0,"interpretation":"Suggested search habitats, not predicted plant locations or probabilities of presence."},"features":[{"type":"Feature","geometry":{"type":"Polygon","coordinates":[[[102.53685782345282,2.268684940517391],[102.53676369999998,2.267865697478849],[102.5356492,2.268554897478113],[102.53597519999998,2.2691430974774303],[102.53685782345282,2.268684940517391]]]},"properties":{"place_id":"9a2066f4-776e-50c7-b449-4bc86fc5b9a7","habitat":"forest_edge_opening","habitat_label":"Forest edge or opening","resolution_m":50}},{"type":"Feature","geometry":{"type":"Polygon","coordinates":[[[102.53685782345282,2.268292709778647],[102.53685782345282,2.268684940517391],[102.53689915932677,2.268684940517391],[102.5371112,2.2685797974780635],[102.53685782345282,2.268292709778647]]]},"properties":{"place_id":"9a2066f4-776e-50c7-b449-4bc86fc5b9a7","habitat":"open_grassland","habitat_label":"Open grassland or shrubland","resolution_m":50}},{"type":"Feature","geometry":{"type":"Polygon","coordinates":[[[102.53597519999998,2.2691430974774303],[102.5371112,2.2685797974780635],[102.53676369999998,2.267865697478849],[102.5356492,2.268554897478113],[102.53597519999998,2.2691430974774303]]]},"properties":{"place_id":"9a2066f4-776e-50c7-b449-4bc86fc5b9a7","habitat":"disturbed_built_edge","habitat_label":"Disturbed, bare or built edge","resolution_m":50}}]}