{"type":"FeatureCollection","metadata":{"schema_version":1,"place_id":"9a344f6f-b616-5bfb-9bea-dd22a721b506","place_name":"Jalan Badam Park","place_type":"park","osm_reference":"way/810394373","protection_context":"no protected status confirmed from included OSM tags","resolution_m":50,"raster_coverage":1.0,"interpretation":"Suggested search habitats, not predicted plant locations or probabilities of presence."},"features":[{"type":"Feature","geometry":{"type":"Polygon","coordinates":[[[101.7438857,3.10449499656616],[101.74481730000001,3.1043998965662465],[101.74475119999998,3.103775596566909],[101.7438142,3.1036632965670474],[101.7438857,3.10449499656616]]]},"properties":{"place_id":"9a344f6f-b616-5bfb-9bea-dd22a721b506","habitat":"disturbed_built_edge","habitat_label":"Disturbed, bare or built edge","resolution_m":50}}]}