{"type":"FeatureCollection","metadata":{"schema_version":1,"place_id":"9a3ebff7-d4de-5959-a004-be1335d0d5e9","place_name":"Pulau Cergur Besar","place_type":"wood","osm_reference":"way/724589297","protection_context":"no protected status confirmed from included OSM tags","resolution_m":50,"raster_coverage":1.0,"interpretation":"Suggested search habitats, not predicted plant locations or probabilities of presence."},"features":[{"type":"Feature","geometry":{"type":"MultiPolygon","coordinates":[[[[102.67573767212306,5.01786995979436],[102.67573767212306,5.018263359056041],[102.67625588051362,5.018263359056041],[102.67625588051362,5.019050158272065],[102.6767740889042,5.019050158272065],[102.67573767212306,5.021137680656302],[102.6767740889042,5.022197364374421],[102.67729229729476,5.022197364374421],[102.67729229729476,5.0210171603535425],[102.679365130857,5.020230358828044],[102.67884692246643,5.018263359056041],[102.67988333924757,5.01786995979436],[102.67996739999998,5.017292494546437],[102.68091975602867,5.0170831619635745],[102.68091975602867,5.01550956907178],[102.68143796441923,5.01550956907178],[102.68143796441923,5.015116171425761],[102.68247438120036,5.015116171425761],[102.68247438120036,5.01550956907178],[102.68299258959091,5.01550956907178],[102.68299258959091,5.014722774010475],[102.68247438120036,5.014722774010475],[102.68247438120036,5.014329376825907],[102.68299258959091,5.014329376825907],[102.68299258959091,5.013149186656315],[102.68351079798147,5.013149186656315],[102.68351079798147,5.011575602992431],[102.68506542315318,5.0107754207534745],[102.68506542315318,5.00960862860023],[102.68402900637204,5.00960862860023],[102.68402900637204,5.009215234413292],[102.68299258959091,5.008821840456811],[102.68247438120036,5.00960862860023],[102.68351079798147,5.010002023017643],[102.68351079798147,5.011182207652927],[102.68305679566546,5.011182207652927],[102.68253299999999,5.011979394551846],[102.6819561728098,5.011968998562502],[102.6819561728098,5.012362394363161],[102.68247438120036,5.012362394363161],[102.68225,5.013097594550741],[102.68143796441923,5.013149186656315],[102.6811717,5.014019394549774],[102.67884692246643,5.014329376825907],[102.67884692246643,5.015116171425761],[102.679365130857,5.015116171425761],[102.679365130857,5.01550956907178],[102.67884692246643,5.01550956907178],[102.67884692246643,5.015902966948553],[102.67729229729476,5.015902966948553],[102.67730374203227,5.016296365056098],[102.67781050568533,5.016296365056098],[102.67786059999997,5.017327294546396],[102.6767740889042,5.017476560763545],[102.67644699999997,5.017096194546611],[102.67521946373252,5.0170831619635745],[102.67521946373252,5.01786995979436],[102.67573767212306,5.01786995979436]]],[[[102.67470125534196,5.016689763394431],[102.67470125534196,5.0170831619635745],[102.67521946373252,5.0170831619635745],[102.67521946373252,5.016805806002513],[102.67470125534196,5.016689763394431]]]]},"properties":{"place_id":"9a3ebff7-d4de-5959-a004-be1335d0d5e9","habitat":"forest_interior","habitat_label":"Forest interior","resolution_m":50}},{"type":"Feature","geometry":{"type":"MultiPolygon","coordinates":[[[[102.679365130857,5.01550956907178],[102.679365130857,5.015116171425761],[102.67884692246643,5.015116171425761],[102.67884692246643,5.014329376825907],[102.67961874752017,5.014329376825907],[102.67870339999999,5.014057494549738],[102.6779772,5.014325394549457],[102.6787457,5.0148837945488935],[102.6788114,5.015553094548197],[102.6768829,5.015991294547747],[102.67729229729476,5.0162861836988],[102.67729229729476,5.015902966948553],[102.67884692246643,5.015902966948553],[102.67884692246643,5.01550956907178],[102.679365130857,5.01550956907178]]],[[[102.67781050568533,5.016296365056098],[102.67730374203227,5.016296365056098],[102.67781050568533,5.0170791520587095],[102.67781050568533,5.016296365056098]]],[[[102.6762047582059,5.0170831619635745],[102.6754425,5.016738094546981],[102.67521946373252,5.016805806002513],[102.67521946373252,5.0170831619635745],[102.6762047582059,5.0170831619635745]]],[[[102.67697269999998,5.017295194546409],[102.67729229729476,5.017476560763545],[102.67729229729476,5.017305957221035],[102.67697269999998,5.017295194546409]]],[[[102.67625588051362,5.019050158272065],[102.67625588051362,5.018263359056041],[102.67521946373252,5.01786995979436],[102.67521946373252,5.0170831619635745],[102.67470125534196,5.0170831619635745],[102.67470899999996,5.016512294547203],[102.67423149999998,5.0165496945471855],[102.6755337,5.018657894545017],[102.6767740889042,5.019443558226447],[102.6767740889042,5.019050158272065],[102.67625588051362,5.019050158272065]]],[[[102.67625588051362,5.0206237594752965],[102.67625588051362,5.019565924542273],[102.67533859999998,5.019536294544134],[102.67619759999998,5.020303794543324],[102.67601664626929,5.0206237594752965],[102.67625588051362,5.0206237594752965]]],[[[102.67988333924757,5.017476560763545],[102.67988333924757,5.01786995979436],[102.67884692246643,5.018263359056041],[102.679365130857,5.020230358828044],[102.67884692246643,5.020230358828044],[102.67884692246643,5.0206237594752965],[102.67781050568533,5.0206237594752965],[102.67781050568533,5.021003123986886],[102.6784238,5.021146794542457],[102.67964149999999,5.020342494543287],[102.67918149999998,5.018800894544881],[102.6800881,5.018245094545451],[102.67988333924757,5.017476560763545]]],[[[102.67729229729476,5.0210171603535425],[102.67729229729476,5.022197364374421],[102.6767740889042,5.022197364374421],[102.67625588051362,5.021410561462797],[102.67588336333931,5.022197364374421],[102.67705589999998,5.02251749454105],[102.6776017,5.0222048945413915],[102.67771562205702,5.0210171603535425],[102.67729229729476,5.0210171603535425]]],[[[102.67573767212306,5.020693545786376],[102.67484039999998,5.020605694542998],[102.6749544,5.021361894542263],[102.67573767212306,5.021137680656302],[102.67573767212306,5.020693545786376]]],[[[102.68299258959091,5.009215234413292],[102.68332419999999,5.008655494555275],[102.68276629999998,5.008129794555822],[102.68248739999997,5.008766394555189],[102.68299258959091,5.009215234413292]]],[[[102.68506542315318,5.0107754207534745],[102.68530639999999,5.00930879455459],[102.68351079798147,5.009043737570278],[102.68402900637204,5.00960862860023],[102.68506542315318,5.00960862860023],[102.68506542315318,5.0107754207534745]]],[[[102.68299258959091,5.010002023017643],[102.68299258959091,5.00960862860023],[102.6821494,5.00937959455453],[102.68211719999998,5.00979239455411],[102.68294469999998,5.010008794553879],[102.68305679566546,5.011182207652927],[102.68351079798147,5.011182207652927],[102.68351079798147,5.010002023017643],[102.68299258959091,5.010002023017643]]],[[[102.68266117450288,5.011575602992431],[102.68299258959091,5.011376289628565],[102.6826671,5.01149579455235],[102.68266117450288,5.011575602992431]]],[[[102.68143796441923,5.013542583148845],[102.68143796441923,5.013149186656315],[102.6819561728098,5.0131205941548345],[102.68138769999999,5.01307359455074],[102.68143796441923,5.013542583148845]]],[[[102.68247438120036,5.012755790394426],[102.68247438120036,5.012362394363161],[102.6819561728098,5.012362394363161],[102.6819561728098,5.011968998562502],[102.68240669695174,5.011968998562502],[102.68163709999999,5.011718894552143],[102.6819818,5.012593894551241],[102.68247438120036,5.012755790394426]]],[[[102.68090518026852,5.013935979872038],[102.68037379999998,5.013618594550188],[102.680127,5.013749594550048],[102.68015284513324,5.013935979872038],[102.68090518026852,5.013935979872038]]],[[[102.68390829999998,5.011907194551949],[102.68504335470028,5.010788812543974],[102.68351079798147,5.011575602992431],[102.68351079798147,5.013149186656315],[102.68299258959091,5.013149186656315],[102.68299258959091,5.014329376825907],[102.68247438120036,5.014329376825907],[102.68247438120036,5.014722774010475],[102.68299258959091,5.014722774010475],[102.68299258959091,5.01550956907178],[102.68247438120036,5.01550956907178],[102.68247438120036,5.015116171425761],[102.68143796441923,5.015116171425761],[102.68143796441923,5.01550956907178],[102.68091975602867,5.01550956907178],[102.68091975602867,5.0170831619635745],[102.68040154763813,5.0172765891923365],[102.6810685,5.01726179454643],[102.6813568,5.016831594546881],[102.6811932,5.015606594548148],[102.68182749999998,5.015431494548307],[102.6821896,5.015816294547948],[102.6825558,5.015562494548201],[102.68293659999999,5.015781594547944],[102.6835106,5.015498294548253],[102.68301709999999,5.014690094549079],[102.6834463,5.014203794549597],[102.68312839999999,5.013668694550135],[102.6837493,5.013054794550761],[102.68390829999998,5.011907194551949]]]]},"properties":{"place_id":"9a3ebff7-d4de-5959-a004-be1335d0d5e9","habitat":"forest_edge_opening","habitat_label":"Forest edge or opening","resolution_m":50}},{"type":"Feature","geometry":{"type":"MultiPolygon","coordinates":[[[[102.67884692246643,5.014329376825907],[102.67961874752017,5.014329376825907],[102.67884692246643,5.014104667705132],[102.67884692246643,5.014329376825907]]],[[[102.67832871407586,5.014209899657457],[102.6779772,5.014325394549457],[102.67832871407586,5.014534058219829],[102.67832871407586,5.014209899657457]]],[[[102.67884692246643,5.01550956907178],[102.67876327779612,5.015116171425761],[102.67883565120093,5.01550956907178],[102.67884692246643,5.01550956907178]]],[[[102.67729229729476,5.015902966948553],[102.67696600000001,5.015842994547901],[102.67687674732147,5.015902966948553],[102.67729229729476,5.015902966948553]]],[[[102.67470125534196,5.016689763394431],[102.6749119616301,5.016689763394431],[102.67470125534196,5.016509054698548],[102.67470125534196,5.016689763394431]]],[[[102.67573767212306,5.0170831619635745],[102.6762047582059,5.0170831619635745],[102.67591459999998,5.016925194546813],[102.67573767212306,5.0170831619635745]]],[[[102.67470125534196,5.0170831619635745],[102.67446890000001,5.017102794546595],[102.67470125534196,5.017427809617242],[102.67470125534196,5.0170831619635745]]],[[[102.67521946373252,5.01786995979436],[102.6752048771156,5.01786995979436],[102.67521946373252,5.017890526018147],[102.67521946373252,5.01786995979436]]],[[[102.67573767212306,5.018263359056041],[102.6755337,5.018657894545017],[102.67573767212306,5.018784838917636],[102.67573767212306,5.018263359056041]]],[[[102.67625588051362,5.019050158272065],[102.6762023,5.019063994544589],[102.67625588051362,5.019128482403622],[102.67625588051362,5.019050158272065]]],[[[102.67573767212306,5.019836958411768],[102.67562441532723,5.019836958411768],[102.67573767212306,5.01990759220939],[102.67573767212306,5.019836958411768]]],[[[102.67505389961329,5.0206237594752965],[102.6749396,5.020582994543048],[102.67482879285869,5.0206237594752965],[102.67505389961329,5.0206237594752965]]],[[[102.6796643,5.0202676945433575],[102.679365130857,5.020508177233171],[102.6793653,5.020508194543126],[102.6796643,5.0202676945433575]]],[[[102.67884692246643,5.0206237594752965],[102.67889319999999,5.0207165945428995],[102.67895167673524,5.0206237594752965],[102.67884692246643,5.0206237594752965]]],[[[102.67796409125489,5.0210171603535425],[102.67835679999999,5.021149494542462],[102.67852227856805,5.0210171603535425],[102.67796409125489,5.0210171603535425]]],[[[102.6766442,5.022338494541247],[102.6760734217658,5.021803962803085],[102.67587569999998,5.0222529945413195],[102.6766442,5.022338494541247]]],[[[102.67729229729476,5.022197364374421],[102.6774931,5.022248994541337],[102.67760585603197,5.022197364374421],[102.67729229729476,5.022197364374421]]],[[[102.6832301130908,5.008428446730769],[102.68276629999998,5.008129794555822],[102.68253043021046,5.008428446730769],[102.6832301130908,5.008428446730769]]],[[[102.68247438120036,5.00853010388446],[102.6824726,5.0085378945554115],[102.68247438120036,5.00857167138881],[102.68247438120036,5.00853010388446]]],[[[102.68402900637204,5.009215234413292],[102.68421248715418,5.009215234413292],[102.6841839,5.009163794554768],[102.68402900637204,5.009215234413292]]],[[[102.6847108712673,5.009215234413292],[102.6846405,5.009150494554749],[102.684550489735,5.009215234413292],[102.6847108712673,5.009215234413292]]],[[[102.68506542315318,5.0107754207534745],[102.6853144,5.010569894553314],[102.6851521,5.009228594554675],[102.68506542315318,5.00924216093849],[102.68506542315318,5.0107754207534745]]],[[[102.68299258959091,5.011575602992431],[102.68270599999998,5.011467694552403],[102.68266117450288,5.011575602992431],[102.68299258959091,5.011575602992431]]],[[[102.68299258959091,5.010002023017643],[102.68278779999999,5.0106887945532135],[102.68299258959091,5.011076014598565],[102.68299258959091,5.010002023017643]]],[[[102.68402900637204,5.011863601037725],[102.6845755,5.011627994552219],[102.6846326700027,5.011182207652927],[102.6845472147626,5.011575602992431],[102.68402900637204,5.011863601037725]]],[[[102.6819561728098,5.012362394363161],[102.68183270616936,5.012362394363161],[102.6819561728098,5.012561798957972],[102.6819561728098,5.012362394363161]]],[[[102.68143796441923,5.013149186656315],[102.68138769999999,5.01307359455074],[102.68134137182052,5.013149186656315],[102.68143796441923,5.013149186656315]]],[[[102.68351079798147,5.013149186656315],[102.68351079798147,5.013150687398487],[102.6835181171091,5.013149186656315],[102.68351079798147,5.013149186656315]]],[[[102.68040154763813,5.013935979872038],[102.6802048,5.013637294550171],[102.68015284513324,5.013935979872038],[102.68040154763813,5.013935979872038]]],[[[102.68330865669076,5.014329376825907],[102.68299258959091,5.015116171425761],[102.6832089667105,5.015116171425761],[102.68330865669076,5.014329376825907]]],[[[102.68351079798147,5.015497478864572],[102.68352809999999,5.0154261945483505],[102.68351079798147,5.015355235882434],[102.68351079798147,5.015497478864572]]],[[[102.68247438120036,5.01550956907178],[102.6819303870189,5.01550956907178],[102.6821896,5.015816294547948],[102.68247438120036,5.01550956907178]]],[[[102.68143796441923,5.01550956907178],[102.68143796441923,5.015514100194327],[102.68144970218457,5.01550956907178],[102.68143796441923,5.01550956907178]]],[[[102.68299258959091,5.01550956907178],[102.68299258959091,5.015747893428032],[102.68350187910765,5.01550956907178],[102.68299258959091,5.01550956907178]]],[[[102.6811600025803,5.0170831619635745],[102.68091975602867,5.017243359670285],[102.6810685,5.01726179454643],[102.6811600025803,5.0170831619635745]]],[[[102.679365130857,5.019443558226447],[102.6794471,5.019443394544228],[102.679365130857,5.01939458488346],[102.679365130857,5.019443558226447]]],[[[102.67994352252464,5.018263359056041],[102.6800425,5.018273094545419],[102.68005835493966,5.018263359056041],[102.67994352252464,5.018263359056041]]],[[[102.679365130857,5.018263359056041],[102.679365130857,5.018720368622455],[102.67961248943733,5.018263359056041],[102.679365130857,5.018263359056041]]]]},"properties":{"place_id":"9a3ebff7-d4de-5959-a004-be1335d0d5e9","habitat":"permanent_water","habitat_label":"Permanent water","resolution_m":50}},{"type":"Feature","geometry":{"type":"MultiPolygon","coordinates":[[[[102.67781050568533,5.015678115622996],[102.67832871407586,5.015902966948553],[102.67832871407586,5.015869078979805],[102.67781050568533,5.015678115622996]]],[[[102.67470125534196,5.016689763394431],[102.67455739999998,5.016456194547271],[102.67419129999999,5.016575094547148],[102.67423302611157,5.016689763394431],[102.67470125534196,5.016689763394431]]],[[[102.67470125534196,5.0170831619635745],[102.67446890000001,5.017102794546595],[102.67470125534196,5.017427809617242],[102.67470125534196,5.0170831619635745]]],[[[102.67562441532723,5.019836958411768],[102.67573767212306,5.019585094544061],[102.6753091,5.01955769454409],[102.67562441532723,5.019836958411768]]],[[[102.67601664626929,5.0206237594752965],[102.67625588051362,5.020230358828044],[102.67614735451234,5.020230358828044],[102.67601664626929,5.0206237594752965]]],[[[102.6760734217658,5.021803962803085],[102.67625588051362,5.021410561462797],[102.67600465786151,5.021410561462797],[102.6760734217658,5.021803962803085]]],[[[102.67625588051362,5.022197364374421],[102.67588336333931,5.022197364374421],[102.67589049999998,5.022298394541294],[102.67596959999999,5.022306394541286],[102.67625588051362,5.022197364374421]]],[[[102.68402900637204,5.009215234413292],[102.6841839,5.009163794554768],[102.68402900637204,5.00920135470334],[102.68402900637204,5.009215234413292]]],[[[102.6845472147626,5.011636942972715],[102.68402900637204,5.011575602992431],[102.68402900637204,5.011863601037725],[102.6845472147626,5.011636942972715]]],[[[102.68132059999999,5.013537094550286],[102.68143796441923,5.013149186656315],[102.68134137182052,5.013149186656315],[102.68132059999999,5.013537094550286]]],[[[102.68015284513324,5.013935979872038],[102.68040154763813,5.013633751194838],[102.6802799,5.013606594550176],[102.68015284513324,5.013935979872038]]],[[[102.68299258959091,5.014329376825907],[102.6830399,5.014553794549212],[102.68330865669076,5.014329376825907],[102.68299258959091,5.014329376825907]]],[[[102.6819561728098,5.01550956907178],[102.6819303870189,5.01550956907178],[102.6819561728098,5.01556647451258],[102.6819561728098,5.01550956907178]]],[[[102.68143796441923,5.01550956907178],[102.68143796441923,5.015514100194327],[102.68144970218457,5.01550956907178],[102.68143796441923,5.01550956907178]]]]},"properties":{"place_id":"9a3ebff7-d4de-5959-a004-be1335d0d5e9","habitat":"seasonal_water_wetland","habitat_label":"Seasonal water or wetland","resolution_m":50}},{"type":"Feature","geometry":{"type":"Polygon","coordinates":[[[102.67625588051362,5.021410561462797],[102.67625588051362,5.022197364374421],[102.67705589999998,5.02251749454105],[102.67760585603197,5.022197364374421],[102.677532,5.021109394542485],[102.67852227856805,5.0210171603535425],[102.6796595694531,5.020230358828044],[102.67918149999998,5.018800894544881],[102.679365130857,5.018263359056041],[102.6800881,5.018245094545451],[102.67996739999998,5.017292494546437],[102.68091975602867,5.017243359670285],[102.6813568,5.016831594546881],[102.6811932,5.015606594548148],[102.68182749999998,5.015431494548307],[102.68293659999999,5.015781594547944],[102.6835106,5.015498294548253],[102.68299258959091,5.015116171425761],[102.68299258959091,5.014329376825907],[102.6834463,5.014203794549597],[102.68312839999999,5.013668694550135],[102.6837493,5.013054794550761],[102.68402900637204,5.011575602992431],[102.6845472147626,5.011575602992431],[102.68506542315318,5.0107754207534745],[102.68506542315318,5.00924216093849],[102.68363400000001,5.009102994554837],[102.6832301130908,5.008428446730769],[102.6825222,5.008432394555505],[102.6826496,5.009205894554723],[102.68206489999999,5.009713594554194],[102.68299258959091,5.010002023017643],[102.68299258959091,5.011575602992431],[102.68253299999999,5.011979394551846],[102.681845,5.011688094552173],[102.6815526,5.011909894551936],[102.68225,5.013097594550741],[102.68143796441923,5.013050654657555],[102.6811717,5.014019394549774],[102.68040154763813,5.013633751194838],[102.67994869999998,5.014345394549463],[102.67832871407586,5.014209899657457],[102.6788114,5.015553094548197],[102.67832871407586,5.015902966948553],[102.6775803,5.0156599945480895],[102.67687674732147,5.015902966948553],[102.67781415198138,5.0170831619635745],[102.67832871407586,5.0170831619635745],[102.67832871407586,5.016296365056098],[102.67988333924757,5.01550956907178],[102.67988333924757,5.014722774010475],[102.68040154763813,5.014722774010475],[102.68040154763813,5.014329376825907],[102.68143796441923,5.014329376825907],[102.68143796441923,5.013935979872038],[102.68247438120036,5.013542583148845],[102.68247438120036,5.014329376825907],[102.68040154763813,5.01550956907178],[102.68040154763813,5.0170831619635745],[102.67988333924757,5.0170831619635745],[102.67988333924757,5.017476560763545],[102.67832871407586,5.018263359056041],[102.67884692246643,5.020230358828044],[102.67781050568533,5.020230358828044],[102.67781050568533,5.0206237594752965],[102.6767740889042,5.020230358828044],[102.6767740889042,5.019443558226447],[102.67729229729476,5.019443558226447],[102.67729229729476,5.019050158272065],[102.6767740889042,5.019050158272065],[102.6767740889042,5.018263359056041],[102.67625588051362,5.018263359056041],[102.67625588051362,5.01786995979436],[102.67729229729476,5.01786995979436],[102.67729229729476,5.017476560763545],[102.67781050568533,5.017476560763545],[102.67781050568533,5.017372708189673],[102.6766951,5.017450194546251],[102.6754425,5.016738094546981],[102.67423302611157,5.016689763394431],[102.6765624,5.019325894544332],[102.67573767212306,5.019585094544061],[102.67625588051362,5.0206237594752965],[102.67482879285869,5.0206237594752965],[102.67482159999999,5.021125394542495],[102.67625588051362,5.021410561462797]],[[102.67729229729476,5.0210171603535425],[102.6767740889042,5.0210171603535425],[102.6767740889042,5.0206237594752965],[102.67729229729476,5.0206237594752965],[102.67729229729476,5.0210171603535425]],[[102.68247438120036,5.012755790394426],[102.68299258959091,5.012755790394426],[102.68299258959091,5.013149186656315],[102.68247438120036,5.013149186656315],[102.68247438120036,5.012755790394426]],[[102.68402900637204,5.00960862860023],[102.68402900637204,5.010002023017643],[102.68351079798147,5.010002023017643],[102.68351079798147,5.00960862860023],[102.68402900637204,5.00960862860023]],[[102.68299258959091,5.00960862860023],[102.68299258959091,5.009215234413292],[102.68351079798147,5.009215234413292],[102.68351079798147,5.00960862860023],[102.68299258959091,5.00960862860023]]]},"properties":{"place_id":"9a3ebff7-d4de-5959-a004-be1335d0d5e9","habitat":"water_edge","habitat_label":"Water edge","resolution_m":50}}]}