{"type":"FeatureCollection","metadata":{"schema_version":1,"place_id":"9abbf840-ce6a-5cdb-89bc-4a202d90b044","place_name":"Taman Milenium Fasa 3","place_type":"park","osm_reference":"way/1291988909","protection_context":"no protected status confirmed from included OSM tags","resolution_m":50,"raster_coverage":1.0,"interpretation":"Suggested search habitats, not predicted plant locations or probabilities of presence."},"features":[{"type":"Feature","geometry":{"type":"Polygon","coordinates":[[[113.0725526119412,3.229132758721302],[113.07358902872232,3.2292201492351595],[113.07358902872232,3.228827611099301],[113.07267828733771,3.228827611099301],[113.0725526119412,3.229132758721302]]]},"properties":{"place_id":"9abbf840-ce6a-5cdb-89bc-4a202d90b044","habitat":"forest_interior","habitat_label":"Forest interior","resolution_m":50}},{"type":"Feature","geometry":{"type":"MultiPolygon","coordinates":[[[[113.0725526119412,3.2290959538278035],[113.07253989999998,3.229123096431454],[113.0725526119412,3.229132758721302],[113.0725526119412,3.2290959538278035]]],[[[113.07307082033176,3.231967920322274],[113.074034,3.2282702964323886],[113.07308869999999,3.2279512964327046],[113.07267828733771,3.228827611099301],[113.07358902872232,3.228827611099301],[113.07358902872232,3.2292201492351595],[113.07266758500056,3.2292201492351595],[113.0732875,3.2296044964309263],[113.07307082033176,3.231967920322274]]],[[[113.07307082033176,3.232961502138331],[113.07310939999999,3.232929796427337],[113.07307082033176,3.232872754985518],[113.07307082033176,3.232961502138331]]],[[[113.07283086350488,3.2331455387192265],[113.0725526119412,3.2333668230383408],[113.07260579999999,3.2333929964268417],[113.07283086350488,3.2331455387192265]]]]},"properties":{"place_id":"9abbf840-ce6a-5cdb-89bc-4a202d90b044","habitat":"forest_edge_opening","habitat_label":"Forest edge or opening","resolution_m":50}},{"type":"Feature","geometry":{"type":"MultiPolygon","coordinates":[[[[113.07358902872232,3.228435073111105],[113.07358902872232,3.228827611099301],[113.07386349350573,3.228827611099301],[113.07398358772704,3.228435073111105],[113.07358902872232,3.228435073111105]]],[[[113.0737433992844,3.2292201492351595],[113.07358902872232,3.229612687518701],[113.07362330506308,3.229612687518701],[113.0737433992844,3.2292201492351595]]],[[[113.07358902872232,3.230005225949942],[113.07310664090805,3.230005225949942],[113.0725526119412,3.2323604596400917],[113.07203440355065,3.232624837802453],[113.07203440355065,3.233108924133116],[113.07260579999999,3.2333929964268417],[113.07310939999999,3.232929796427337],[113.07358902872232,3.230005225949942]]]]},"properties":{"place_id":"9abbf840-ce6a-5cdb-89bc-4a202d90b044","habitat":"open_grassland","habitat_label":"Open grassland or shrubland","resolution_m":50}},{"type":"Feature","geometry":{"type":"MultiPolygon","coordinates":[[[[113.07358902872232,3.228435073111105],[113.07308869999999,3.2279512964327046],[113.07267828733771,3.228827611099301],[113.07307082033176,3.228827611099301],[113.07307082033176,3.228435073111105],[113.07358902872232,3.228435073111105]]],[[[113.0725526119412,3.2290959538278035],[113.07253989999998,3.229123096431454],[113.0725526119412,3.229132758721302],[113.0725526119412,3.2290959538278035]]],[[[113.07307082033176,3.2292201492351595],[113.07266758500056,3.2292201492351595],[113.07307082033176,3.2294904944352187],[113.07307082033176,3.2292201492351595]]],[[[113.07307082033176,3.231967920322274],[113.07307082033176,3.2303977645289006],[113.07358902872232,3.2303977645289006],[113.07358902872232,3.229612687518701],[113.0728899,3.2305124964299488],[113.0724663,3.232457596427845],[113.0717416,3.2325682964277274],[113.07260579999999,3.2333929964268417],[113.0725526119412,3.2323604596400917],[113.07307082033176,3.231967920322274]]],[[[113.07307082033176,3.232961502138331],[113.07310939999999,3.232929796427337],[113.07307082033176,3.232872754985518],[113.07307082033176,3.232961502138331]]]]},"properties":{"place_id":"9abbf840-ce6a-5cdb-89bc-4a202d90b044","habitat":"disturbed_built_edge","habitat_label":"Disturbed, bare or built edge","resolution_m":50}}]}