{"type":"FeatureCollection","metadata":{"schema_version":1,"place_id":"9bd3c2c6-508a-5eaf-a4b8-fdb0a4f01876","place_name":"MAEPS Playground","place_type":"park","osm_reference":"way/628496151","protection_context":"no protected status confirmed from included OSM tags","resolution_m":50,"raster_coverage":1.0,"interpretation":"Suggested search habitats, not predicted plant locations or probabilities of presence."},"features":[{"type":"Feature","geometry":{"type":"Polygon","coordinates":[[[101.69399639999999,2.978243396702945],[101.6943909,2.978452596702748],[101.6943192,2.9780436967031747],[101.69399639999999,2.978243396702945]]]},"properties":{"place_id":"9bd3c2c6-508a-5eaf-a4b8-fdb0a4f01876","habitat":"forest_edge_opening","habitat_label":"Forest edge or opening","resolution_m":50}},{"type":"Feature","geometry":{"type":"Polygon","coordinates":[[[101.69399639999999,2.978243396702945],[101.6943909,2.978452596702748],[101.6943192,2.9780436967031747],[101.69399639999999,2.978243396702945]]]},"properties":{"place_id":"9bd3c2c6-508a-5eaf-a4b8-fdb0a4f01876","habitat":"disturbed_built_edge","habitat_label":"Disturbed, bare or built edge","resolution_m":50}},{"type":"Feature","geometry":{"type":"MultiPolygon","coordinates":[[[[101.69425098040122,2.9780400607595787],[101.69373199999998,2.978131096703076],[101.69425098040122,2.9783783985233208],[101.69425098040122,2.9780400607595787]]],[[[101.6943248993643,2.9784175971234386],[101.6943909,2.978452596702748],[101.69440041846657,2.9784175971234386],[101.6943248993643,2.9784175971234386]]]]},"properties":{"place_id":"9bd3c2c6-508a-5eaf-a4b8-fdb0a4f01876","habitat":"water_edge","habitat_label":"Water edge","resolution_m":50}}]}