{"type":"FeatureCollection","metadata":{"schema_version":1,"place_id":"9c0820fe-7df0-5bc3-9b14-9a37224d492b","place_name":"Taman Kejiranan Jalan Sungai Ara 1","place_type":"park","osm_reference":"way/274731273","protection_context":"no protected status confirmed from included OSM tags","resolution_m":50,"raster_coverage":1.0,"interpretation":"Suggested search habitats, not predicted plant locations or probabilities of presence."},"features":[{"type":"Feature","geometry":{"type":"Polygon","coordinates":[[[100.26602319999999,5.325619294232005],[100.2659322,5.3266220942309745],[100.26666769999997,5.326645394230974],[100.26658686440666,5.325680168509621],[100.26602319999999,5.325619294232005]]]},"properties":{"place_id":"9c0820fe-7df0-5bc3-9b14-9a37224d492b","habitat":"forest_edge_opening","habitat_label":"Forest edge or opening","resolution_m":50}},{"type":"Feature","geometry":{"type":"Polygon","coordinates":[[[100.26658686440666,5.32636732650638],[100.26658686440666,5.325973740800688],[100.26606865601609,5.325973740800688],[100.26606865601609,5.32636732650638],[100.26658686440666,5.32636732650638]]]},"properties":{"place_id":"9c0820fe-7df0-5bc3-9b14-9a37224d492b","habitat":"open_grassland","habitat_label":"Open grassland or shrubland","resolution_m":50}},{"type":"Feature","geometry":{"type":"Polygon","coordinates":[[[100.2659322,5.3266220942309745],[100.26672759999998,5.32659369423101],[100.2666334,5.3256851942319186],[100.2659585,5.32567839423194],[100.2659322,5.3266220942309745]]]},"properties":{"place_id":"9c0820fe-7df0-5bc3-9b14-9a37224d492b","habitat":"disturbed_built_edge","habitat_label":"Disturbed, bare or built edge","resolution_m":50}}]}