{"type":"FeatureCollection","metadata":{"schema_version":1,"place_id":"9c4ee4c1-751d-5138-845e-7f9f0ca0b6bb","place_name":"Riverside Park","place_type":"park","osm_reference":"way/629870222","protection_context":"no protected status confirmed from included OSM tags","resolution_m":50,"raster_coverage":1.0,"interpretation":"Suggested search habitats, not predicted plant locations or probabilities of presence."},"features":[{"type":"Feature","geometry":{"type":"Polygon","coordinates":[[[111.52579843461818,2.1310181810884563],[111.52590643912733,2.131410376695138],[111.52612677703848,2.1310181810884563],[111.52579843461818,2.1310181810884563]]]},"properties":{"place_id":"9c4ee4c1-751d-5138-845e-7f9f0ca0b6bb","habitat":"open_grassland","habitat_label":"Open grassland or shrubland","resolution_m":50}},{"type":"Feature","geometry":{"type":"Polygon","coordinates":[[[111.52603059999998,2.1307798976296413],[111.5253738,2.1325629976276717],[111.52614419999999,2.130988997629421],[111.52603059999998,2.1307798976296413]]]},"properties":{"place_id":"9c4ee4c1-751d-5138-845e-7f9f0ca0b6bb","habitat":"disturbed_built_edge","habitat_label":"Disturbed, bare or built edge","resolution_m":50}},{"type":"Feature","geometry":{"type":"MultiPolygon","coordinates":[[[[111.52570056611769,2.131410376695138],[111.52570056611769,2.131807779533184],[111.52590643912733,2.131410376695138],[111.52570056611769,2.131410376695138]]],[[[111.52522828073836,2.1325869640987114],[111.5252797,2.1326347976275994],[111.52535630894187,2.1325869640987114],[111.52522828073836,2.1325869640987114]]]]},"properties":{"place_id":"9c4ee4c1-751d-5138-845e-7f9f0ca0b6bb","habitat":"permanent_water","habitat_label":"Permanent water","resolution_m":50}},{"type":"Feature","geometry":{"type":"Polygon","coordinates":[[[111.52522828073836,2.1325869640987114],[111.52603059999998,2.1307798976296413],[111.5258648,2.130828397629565],[111.52522828073836,2.1325869640987114]]]},"properties":{"place_id":"9c4ee4c1-751d-5138-845e-7f9f0ca0b6bb","habitat":"water_edge","habitat_label":"Water edge","resolution_m":50}}]}