{"type":"FeatureCollection","metadata":{"schema_version":1,"place_id":"9d592eb8-8974-5eee-8901-eca533fc1cf1","place_name":"Taman Rekreasi Awam Sembilang","place_type":"park","osm_reference":"way/655607701","protection_context":"no protected status confirmed from included OSM tags","resolution_m":50,"raster_coverage":1.0,"interpretation":"Suggested search habitats, not predicted plant locations or probabilities of presence."},"features":[{"type":"Feature","geometry":{"type":"Polygon","coordinates":[[[100.3989302,5.404513394152103],[100.40115910000002,5.4045261941521],[100.40117789999998,5.404222394152405],[100.39891799999998,5.404249994152381],[100.3989302,5.404513394152103]]]},"properties":{"place_id":"9d592eb8-8974-5eee-8901-eca533fc1cf1","habitat":"forest_edge_opening","habitat_label":"Forest edge or opening","resolution_m":50}},{"type":"Feature","geometry":{"type":"Polygon","coordinates":[[[100.40080283756187,5.40452414822844],[100.39976642078074,5.404302154399985],[100.39976642078074,5.404518196353154],[100.40080283756187,5.40452414822844]]]},"properties":{"place_id":"9d592eb8-8974-5eee-8901-eca533fc1cf1","habitat":"open_grassland","habitat_label":"Open grassland or shrubland","resolution_m":50}},{"type":"Feature","geometry":{"type":"Polygon","coordinates":[[[100.3989302,5.404513394152103],[100.4002846291713,5.4045211722907895],[100.40115910000002,5.4045261941521],[100.40117789999998,5.404222394152405],[100.39969649999999,5.404173794152453],[100.3989302,5.404513394152103]]]},"properties":{"place_id":"9d592eb8-8974-5eee-8901-eca533fc1cf1","habitat":"disturbed_built_edge","habitat_label":"Disturbed, bare or built edge","resolution_m":50}},{"type":"Feature","geometry":{"type":"Polygon","coordinates":[[[100.3989302,5.404513394152103],[100.40115910000002,5.4045261941521],[100.40117789999998,5.404222394152405],[100.39891799999998,5.404249994152381],[100.3989302,5.404513394152103]]]},"properties":{"place_id":"9d592eb8-8974-5eee-8901-eca533fc1cf1","habitat":"water_edge","habitat_label":"Water edge","resolution_m":50}}]}