{"type":"FeatureCollection","metadata":{"schema_version":1,"place_id":"9d71ea35-a570-53a6-a1f4-83ea5bffb1c2","place_name":"The Central Park · OSM way/479429102","place_type":"park","osm_reference":"way/479429102","protection_context":"no protected status confirmed from included OSM tags","resolution_m":50,"raster_coverage":1.0,"interpretation":"Suggested search habitats, not predicted plant locations or probabilities of presence."},"features":[{"type":"Feature","geometry":{"type":"Polygon","coordinates":[[[101.66730414409207,3.112369072223942],[101.66696498910122,3.1122502402718264],[101.66696630000001,3.11237199655761],[101.66730414409207,3.112369072223942]]]},"properties":{"place_id":"9d71ea35-a570-53a6-a1f4-83ea5bffb1c2","habitat":"forest_edge_opening","habitat_label":"Forest edge or opening","resolution_m":50}},{"type":"Feature","geometry":{"type":"Polygon","coordinates":[[[101.66696630000001,3.11237199655761],[101.668572,3.112354396557661],[101.6685693,3.1121154965579216],[101.6678758,3.1121230965579185],[101.6677104,3.1117894965582513],[101.6677141,3.112131596557879],[101.66696630000001,3.11237199655761]]]},"properties":{"place_id":"9d71ea35-a570-53a6-a1f4-83ea5bffb1c2","habitat":"disturbed_built_edge","habitat_label":"Disturbed, bare or built edge","resolution_m":50}}]}