{"type":"FeatureCollection","metadata":{"schema_version":1,"place_id":"9d711dee-e677-5398-b531-f10cc177d26d","place_name":"Serene Park Community Park","place_type":"park","osm_reference":"way/364081826","protection_context":"no protected status confirmed from included OSM tags","resolution_m":50,"raster_coverage":1.0,"interpretation":"Suggested search habitats, not predicted plant locations or probabilities of presence."},"features":[{"type":"Feature","geometry":{"type":"Polygon","coordinates":[[[103.77286299999999,1.4716345983585601],[103.7730937,1.4709589983592923],[103.77262029999999,1.4708663983594052],[103.77248209999999,1.4715635983586175],[103.77286299999999,1.4716345983585601]]]},"properties":{"place_id":"9d711dee-e677-5398-b531-f10cc177d26d","habitat":"disturbed_built_edge","habitat_label":"Disturbed, bare or built edge","resolution_m":50}}]}