{"type":"FeatureCollection","metadata":{"schema_version":1,"place_id":"9d7bfd90-b633-58e7-8852-540ea6c5d255","place_name":"Taman Pulau Beram","place_type":"park","osm_reference":"way/655865482","protection_context":"no protected status confirmed from included OSM tags","resolution_m":50,"raster_coverage":1.0,"interpretation":"Suggested search habitats, not predicted plant locations or probabilities of presence."},"features":[{"type":"Feature","geometry":{"type":"Polygon","coordinates":[[[103.39190166787787,3.4935244633387996],[103.39214573504934,3.493825371075003],[103.39195549999998,3.4934815961470114],[103.39190166787787,3.4935244633387996]]]},"properties":{"place_id":"9d7bfd90-b633-58e7-8852-540ea6c5d255","habitat":"forest_interior","habitat_label":"Forest interior","resolution_m":50}},{"type":"Feature","geometry":{"type":"Polygon","coordinates":[[[103.39068004400347,3.4946106551197818],[103.39045779999998,3.4955065961448493],[103.39205689999999,3.4949045961454814],[103.3924086,3.494300396146132],[103.39190166787787,3.4935244633387996],[103.39068004400347,3.4946106551197818]],[[103.39138345948732,3.4946106551197818],[103.39138345948732,3.4950032973820635],[103.39086525109676,3.4950032973820635],[103.39086525109676,3.4946106551197818],[103.39138345948732,3.4946106551197818]]]},"properties":{"place_id":"9d7bfd90-b633-58e7-8852-540ea6c5d255","habitat":"forest_edge_opening","habitat_label":"Forest edge or opening","resolution_m":50}},{"type":"Feature","geometry":{"type":"Polygon","coordinates":[[[103.39086525109676,3.4950032973820635],[103.39045779999998,3.4955065961448493],[103.39190166787787,3.495030260223138],[103.39190166787787,3.494218013017434],[103.39103071657063,3.494218013017434],[103.3904563088033,3.4950032973820635],[103.39086525109676,3.4950032973820635]]]},"properties":{"place_id":"9d7bfd90-b633-58e7-8852-540ea6c5d255","habitat":"open_grassland","habitat_label":"Open grassland or shrubland","resolution_m":50}},{"type":"Feature","geometry":{"type":"Polygon","coordinates":[[[103.39236301160064,3.494218013017434],[103.39190166787787,3.4935244633387996],[103.3904563088033,3.4950032973820635],[103.39086525109676,3.4950032973820635],[103.39086525109676,3.4946106551197818],[103.39190166787787,3.4946106551197818],[103.39190166787787,3.494218013017434],[103.39236301160064,3.494218013017434]]]},"properties":{"place_id":"9d7bfd90-b633-58e7-8852-540ea6c5d255","habitat":"disturbed_built_edge","habitat_label":"Disturbed, bare or built edge","resolution_m":50}},{"type":"Feature","geometry":{"type":"MultiPolygon","coordinates":[[[[103.39190166787787,3.493825371075003],[103.39190166787787,3.4946106551197818],[103.3922280006988,3.4946106551197818],[103.3924086,3.494300396146132],[103.39190166787787,3.493825371075003]]],[[[103.39138345948732,3.495395939804298],[103.39138345948732,3.4950032973820635],[103.39068004400347,3.4946106551197818],[103.39040679999998,3.4954784961448717],[103.39138345948732,3.495395939804298]]]]},"properties":{"place_id":"9d7bfd90-b633-58e7-8852-540ea6c5d255","habitat":"water_edge","habitat_label":"Water edge","resolution_m":50}}]}