{"type":"FeatureCollection","metadata":{"schema_version":1,"place_id":"9d8d9f11-b2ed-578a-9601-b28b760abd8c","place_name":"Stadium Park","place_type":"park","osm_reference":"way/717459538","protection_context":"no protected status confirmed from included OSM tags","resolution_m":50,"raster_coverage":1.0,"interpretation":"Suggested search habitats, not predicted plant locations or probabilities of presence."},"features":[{"type":"Feature","geometry":{"type":"MultiPolygon","coordinates":[[[[102.5700231604487,2.035325315625695],[102.5700231604487,2.035077234293207],[102.56953330000002,2.034481897735746],[102.56899749239882,2.0349331433023288],[102.5700231604487,2.035325315625695]]],[[[102.56898674366758,2.035325315625695],[102.56898674366758,2.0349421956524267],[102.56853182830388,2.035325315625695],[102.56898674366758,2.035325315625695]]],[[[102.56846853527702,2.035717488041905],[102.56846853527702,2.035378619663965],[102.56806616420896,2.035717488041905],[102.56846853527702,2.035717488041905]]],[[[102.56738339999998,2.0362924977337293],[102.56846853527702,2.036894005847776],[102.56916960000001,2.038549397731274],[102.57053279371192,2.037286178635539],[102.56950495205814,2.036894005847776],[102.56950495205814,2.0361096605509763],[102.56898674366758,2.0361096605509763],[102.56898674366758,2.035717488041905],[102.56846853527702,2.035717488041905],[102.56846853527702,2.0361096605509763],[102.56795032688646,2.0361096605509763],[102.56795032688646,2.0358150437904854],[102.56738339999998,2.0362924977337293]],[[102.56950495205814,2.037286178635539],[102.56898674366758,2.037286178635539],[102.56898674366758,2.036894005847776],[102.56950495205814,2.036894005847776],[102.56950495205814,2.037286178635539]]]]},"properties":{"place_id":"9d8d9f11-b2ed-578a-9601-b28b760abd8c","habitat":"forest_edge_opening","habitat_label":"Forest edge or opening","resolution_m":50}},{"type":"Feature","geometry":{"type":"MultiPolygon","coordinates":[[[[102.56950495205814,2.036894005847776],[102.57053279371192,2.037286178635539],[102.57054136883927,2.036501833152927],[102.57105957722983,2.036501833152927],[102.5708726707552,2.0361096605509763],[102.5700231604487,2.0361096605509763],[102.5700231604487,2.035717488041905],[102.57054136883927,2.035707022867023],[102.56950495205814,2.034505771755844],[102.56898674366758,2.0349421956524267],[102.56898674366758,2.035325315625695],[102.56950495205814,2.035325315625695],[102.56950495205814,2.035717488041905],[102.56898674366758,2.035717488041905],[102.56950495205814,2.036501833152927],[102.56846853527702,2.036894005847776],[102.56846853527702,2.0361096605509763],[102.56738339999998,2.0362924977337293],[102.56795032688646,2.036501833152927],[102.56898674366758,2.038070524489885],[102.56950495205814,2.038070524489885],[102.56950495205814,2.036894005847776]]],[[[102.56898674366758,2.038070524489885],[102.56879060096365,2.038070524489885],[102.56898674366758,2.0383183548979824],[102.56898674366758,2.038070524489885]]]]},"properties":{"place_id":"9d8d9f11-b2ed-578a-9601-b28b760abd8c","habitat":"open_grassland","habitat_label":"Open grassland or shrubland","resolution_m":50}},{"type":"Feature","geometry":{"type":"Polygon","coordinates":[[[102.56950495205814,2.037286178635539],[102.56950495205814,2.038070524489885],[102.56879060096365,2.038070524489885],[102.56916960000001,2.038549397731274],[102.5712749,2.0365984977334306],[102.56953330000002,2.034481897735746],[102.5674321184959,2.0362514680320123],[102.56848021983274,2.037678351516236],[102.56950495205814,2.037286178635539]],[[102.56846853527702,2.037286178635539],[102.56846853527702,2.036894005847776],[102.56795032688646,2.036894005847776],[102.56795032688646,2.036501833152927],[102.56898674366758,2.036501833152927],[102.56898674366758,2.037286178635539],[102.56846853527702,2.037286178635539]]]},"properties":{"place_id":"9d8d9f11-b2ed-578a-9601-b28b760abd8c","habitat":"disturbed_built_edge","habitat_label":"Disturbed, bare or built edge","resolution_m":50}}]}