{"type":"FeatureCollection","metadata":{"schema_version":1,"place_id":"9d9e4a96-e358-52f5-89f3-d7f079b86080","place_name":"Ujana Park","place_type":"park","osm_reference":"way/1041210983","protection_context":"no protected status confirmed from included OSM tags","resolution_m":50,"raster_coverage":1.0,"interpretation":"Suggested search habitats, not predicted plant locations or probabilities of presence."},"features":[{"type":"Feature","geometry":{"type":"MultiPolygon","coordinates":[[[[116.12220899039059,6.010412326399486],[116.12220899039059,6.010806366666806],[116.12272719878113,6.010806366666806],[116.12272719878113,6.010412326399486],[116.12220899039059,6.010412326399486]]],[[[116.12220899039059,6.011200407211909],[116.12220899039059,6.011594448034817],[116.12129128723764,6.011594448034817],[116.12150103302791,6.012382530514119],[116.12169078200002,6.011988489135548],[116.1232454071717,6.011988489135548],[116.1232454071717,6.010806366666806],[116.12220899039059,6.011200407211909]]]]},"properties":{"place_id":"9d9e4a96-e358-52f5-89f3-d7f079b86080","habitat":"forest_interior","habitat_label":"Forest interior","resolution_m":50}},{"type":"Feature","geometry":{"type":"Polygon","coordinates":[[[116.1232454071717,6.010806366666806],[116.1232454071717,6.011988489135548],[116.12169078200002,6.011988489135548],[116.12158700000002,6.012545493544798],[116.12339280000002,6.012303993545042],[116.123604,6.0111677935461625],[116.12281420000001,6.010226893547064],[116.12157749999997,6.010545193546787],[116.12129128723764,6.011594448034817],[116.12220899039059,6.011594448034817],[116.12220899039059,6.011200407211909],[116.1232454071717,6.010806366666806]],[[116.12220899039059,6.010806366666806],[116.12220899039059,6.010412326399486],[116.12272719878113,6.010412326399486],[116.12272719878113,6.010806366666806],[116.12220899039059,6.010806366666806]]]},"properties":{"place_id":"9d9e4a96-e358-52f5-89f3-d7f079b86080","habitat":"forest_edge_opening","habitat_label":"Forest edge or opening","resolution_m":50}},{"type":"Feature","geometry":{"type":"MultiPolygon","coordinates":[[[[116.12220899039059,6.010806366666806],[116.12169078200002,6.010806366666806],[116.12169078200002,6.011200407211909],[116.12220899039059,6.011200407211909],[116.12220899039059,6.010806366666806]]],[[[116.12344941418071,6.011988489135548],[116.1232454071717,6.012382530514119],[116.12327230367364,6.012382530514119],[116.12344941418071,6.011988489135548]]]]},"properties":{"place_id":"9d9e4a96-e358-52f5-89f3-d7f079b86080","habitat":"open_grassland","habitat_label":"Open grassland or shrubland","resolution_m":50}},{"type":"Feature","geometry":{"type":"MultiPolygon","coordinates":[[[[116.12169078200002,6.011200407211909],[116.12220899039059,6.011200407211909],[116.12220899039059,6.010412326399486],[116.123604,6.0111677935461625],[116.1232185,6.010467493546822],[116.1224372,6.010175293547131],[116.12147819999997,6.010657493546647],[116.12129128723764,6.011594448034817],[116.12169078200002,6.011594448034817],[116.12169078200002,6.011200407211909]]],[[[116.1232454071717,6.011594448034817],[116.1232454071717,6.012382530514119],[116.12272719878113,6.012382530514119],[116.12272719878113,6.011988489135548],[116.12169078200002,6.011988489135548],[116.12154809999997,6.012510793544809],[116.1232607,6.0123900935449255],[116.1232454071717,6.011594448034817]]]]},"properties":{"place_id":"9d9e4a96-e358-52f5-89f3-d7f079b86080","habitat":"disturbed_built_edge","habitat_label":"Disturbed, bare or built edge","resolution_m":50}}]}