{"type":"FeatureCollection","metadata":{"schema_version":1,"place_id":"9df1c078-8b73-5ee0-962a-987a2dbe3b94","place_name":"Belaga Waterfront","place_type":"park","osm_reference":"way/1291989491","protection_context":"no protected status confirmed from included OSM tags","resolution_m":50,"raster_coverage":1.0,"interpretation":"Suggested search habitats, not predicted plant locations or probabilities of presence."},"features":[{"type":"Feature","geometry":{"type":"Polygon","coordinates":[[[113.78494749999997,2.7055816969995883],[113.78503999999998,2.705630896999533],[113.785003,2.705557096999604],[113.78494749999997,2.7055816969995883]]]},"properties":{"place_id":"9df1c078-8b73-5ee0-962a-987a2dbe3b94","habitat":"disturbed_built_edge","habitat_label":"Disturbed, bare or built edge","resolution_m":50}},{"type":"Feature","geometry":{"type":"Polygon","coordinates":[[[113.78494749999997,2.7055816969995883],[113.78503999999998,2.705630896999533],[113.785003,2.705557096999604],[113.78494749999997,2.7055816969995883]]]},"properties":{"place_id":"9df1c078-8b73-5ee0-962a-987a2dbe3b94","habitat":"water_edge","habitat_label":"Water edge","resolution_m":50}}]}