{"type":"FeatureCollection","metadata":{"schema_version":1,"place_id":"9e27f4ea-9dc1-5a57-b730-0c72acc11016","place_name":"Harmoni Park","place_type":"park","osm_reference":"way/493179580","protection_context":"no protected status confirmed from included OSM tags","resolution_m":50,"raster_coverage":1.0,"interpretation":"Suggested search habitats, not predicted plant locations or probabilities of presence."},"features":[{"type":"Feature","geometry":{"type":"Polygon","coordinates":[[[103.90648259970459,1.502049234591109],[103.90643622575548,1.502049234591109],[103.90648259970459,1.5021485044696932],[103.90648259970459,1.502049234591109]]]},"properties":{"place_id":"9e27f4ea-9dc1-5a57-b730-0c72acc11016","habitat":"forest_edge_opening","habitat_label":"Forest edge or opening","resolution_m":50}},{"type":"Feature","geometry":{"type":"Polygon","coordinates":[[[103.90751901648572,1.5016571719384657],[103.90648259970459,1.5016571719384657],[103.90648259970459,1.502049234591109],[103.90734254735618,1.5024412973122176],[103.90751901648572,1.5016571719384657]]]},"properties":{"place_id":"9e27f4ea-9dc1-5a57-b730-0c72acc11016","habitat":"open_grassland","habitat_label":"Open grassland or shrubland","resolution_m":50}},{"type":"Feature","geometry":{"type":"Polygon","coordinates":[[[103.9062152,1.501576098325302],[103.9069427,1.502806698323949],[103.90786319999997,1.5019654983248847],[103.90723049999998,1.5012521983256453],[103.9062152,1.501576098325302]]]},"properties":{"place_id":"9e27f4ea-9dc1-5a57-b730-0c72acc11016","habitat":"disturbed_built_edge","habitat_label":"Disturbed, bare or built edge","resolution_m":50}}]}