{"type":"FeatureCollection","metadata":{"schema_version":1,"place_id":"9ef43c8e-85b7-580e-90a9-ef169aa5ec1f","place_name":"Taman Kejiranan Gerbang Bukit Kecil 2","place_type":"park","osm_reference":"way/988176407","protection_context":"no protected status confirmed from included OSM tags","resolution_m":50,"raster_coverage":1.0,"interpretation":"Suggested search habitats, not predicted plant locations or probabilities of presence."},"features":[{"type":"Feature","geometry":{"type":"Polygon","coordinates":[[[100.2987601,5.332795294224715],[100.2990252,5.333065694224468],[100.29904799999998,5.332701194224839],[100.2987601,5.332795294224715]]]},"properties":{"place_id":"9ef43c8e-85b7-580e-90a9-ef169aa5ec1f","habitat":"forest_edge_opening","habitat_label":"Forest edge or opening","resolution_m":50}},{"type":"Feature","geometry":{"type":"Polygon","coordinates":[[[100.2987601,5.332795294224715],[100.2990258723736,5.33305832106087],[100.29904799999998,5.332701194224839],[100.2987601,5.332795294224715]]]},"properties":{"place_id":"9ef43c8e-85b7-580e-90a9-ef169aa5ec1f","habitat":"open_grassland","habitat_label":"Open grassland or shrubland","resolution_m":50}},{"type":"Feature","geometry":{"type":"Polygon","coordinates":[[[100.2987601,5.332795294224715],[100.2990252,5.333065694224468],[100.29904799999998,5.332701194224839],[100.2987601,5.332795294224715]]]},"properties":{"place_id":"9ef43c8e-85b7-580e-90a9-ef169aa5ec1f","habitat":"disturbed_built_edge","habitat_label":"Disturbed, bare or built edge","resolution_m":50}}]}