{"type":"FeatureCollection","metadata":{"schema_version":1,"place_id":"9f531aa0-dd93-543a-9a24-4edfe337601b","place_name":"Taman Kejiranan Lilitan Sungai Ara","place_type":"park","osm_reference":"way/1360038741","protection_context":"no protected status confirmed from included OSM tags","resolution_m":50,"raster_coverage":1.0,"interpretation":"Suggested search habitats, not predicted plant locations or probabilities of presence."},"features":[{"type":"Feature","geometry":{"type":"Polygon","coordinates":[[[100.27228715670282,5.332361723970284],[100.27224740000001,5.33241259422512],[100.27228715670282,5.332465360316011],[100.27228715670282,5.332361723970284]]]},"properties":{"place_id":"9f531aa0-dd93-543a-9a24-4edfe337601b","habitat":"forest_interior","habitat_label":"Forest interior","resolution_m":50}},{"type":"Feature","geometry":{"type":"MultiPolygon","coordinates":[[[[100.27332357348394,5.330584804067751],[100.2732838,5.330605294226949],[100.27332357348394,5.330684506557863],[100.27332357348394,5.330584804067751]]],[[[100.27435999026507,5.331205274610474],[100.27516769999998,5.3308465942267045],[100.2751124,5.330754994226793],[100.27435999026507,5.331205274610474]]],[[[100.27384178187451,5.33148396301638],[100.27252279999999,5.332030394225475],[100.272362,5.332564694224959],[100.27257529999999,5.332145994225382],[100.27384178187451,5.33148396301638]]]]},"properties":{"place_id":"9f531aa0-dd93-543a-9a24-4edfe337601b","habitat":"forest_edge_opening","habitat_label":"Forest edge or opening","resolution_m":50}},{"type":"Feature","geometry":{"type":"Polygon","coordinates":[[[100.27332357348394,5.330684506557863],[100.27384178187451,5.33148396301638],[100.2747605341795,5.3310903741193485],[100.2743506,5.331210894226336],[100.2738387,5.330342594227209],[100.27332357348394,5.330684506557863]]]},"properties":{"place_id":"9f531aa0-dd93-543a-9a24-4edfe337601b","habitat":"open_grassland","habitat_label":"Open grassland or shrubland","resolution_m":50}},{"type":"Feature","geometry":{"type":"Polygon","coordinates":[[[100.27375929999998,5.331552294225953],[100.272362,5.332564694224959],[100.2751124,5.330754994226793],[100.2743506,5.331210894226336],[100.2738387,5.330342594227209],[100.2732838,5.330605294226949],[100.27375929999998,5.331552294225953]]]},"properties":{"place_id":"9f531aa0-dd93-543a-9a24-4edfe337601b","habitat":"disturbed_built_edge","habitat_label":"Disturbed, bare or built edge","resolution_m":50}},{"type":"Feature","geometry":{"type":"MultiPolygon","coordinates":[[[[100.27332357348394,5.330584804067751],[100.2732838,5.330605294226949],[100.27332357348394,5.330684506557863],[100.27332357348394,5.330584804067751]]],[[[100.27235794972097,5.332271141547316],[100.27435999026507,5.331330189410773],[100.27384178187451,5.330696785467915],[100.27332973887499,5.330696785467915],[100.27375929999998,5.331552294225953],[100.27252279999999,5.332030394225475],[100.27235794972097,5.332271141547316]]],[[[100.27228715670282,5.332361723970284],[100.27224740000001,5.33241259422512],[100.27228715670282,5.332465360316011],[100.27228715670282,5.332361723970284]]]]},"properties":{"place_id":"9f531aa0-dd93-543a-9a24-4edfe337601b","habitat":"water_edge","habitat_label":"Water edge","resolution_m":50}}]}