{"type":"FeatureCollection","metadata":{"schema_version":1,"place_id":"9f690d7f-b84d-5a5c-8d26-11f99b19e7bf","place_name":"Kinta Riverfront Walk","place_type":"park","osm_reference":"way/1052405496","protection_context":"no protected status confirmed from included OSM tags","resolution_m":50,"raster_coverage":1.0,"interpretation":"Suggested search habitats, not predicted plant locations or probabilities of presence."},"features":[{"type":"Feature","geometry":{"type":"MultiPolygon","coordinates":[[[[101.08017403758686,4.602905833898103],[101.08025343280937,4.602958729322404],[101.08020139999998,4.602884294974404],[101.08017403758686,4.602905833898103]]],[[[101.08069224597742,4.603745061435565],[101.08081649688307,4.603745061435565],[101.08069224597742,4.603573009776865],[101.08069224597742,4.603745061435565]]]]},"properties":{"place_id":"9f690d7f-b84d-5a5c-8d26-11f99b19e7bf","habitat":"forest_interior","habitat_label":"Forest interior","resolution_m":50}},{"type":"Feature","geometry":{"type":"Polygon","coordinates":[[[101.0813514,4.604473394972747],[101.07999559999999,4.603046294974249],[101.0811472,4.604628794972605],[101.0813514,4.604473394972747]]]},"properties":{"place_id":"9f690d7f-b84d-5a5c-8d26-11f99b19e7bf","habitat":"forest_edge_opening","habitat_label":"Forest edge or opening","resolution_m":50}},{"type":"Feature","geometry":{"type":"Polygon","coordinates":[[[101.0813514,4.604473394972747],[101.07999559999999,4.603046294974249],[101.0811472,4.604628794972605],[101.0813514,4.604473394972747]]]},"properties":{"place_id":"9f690d7f-b84d-5a5c-8d26-11f99b19e7bf","habitat":"disturbed_built_edge","habitat_label":"Disturbed, bare or built edge","resolution_m":50}}]}