{"type":"FeatureCollection","metadata":{"schema_version":1,"place_id":"9fa152d0-4bc0-5858-bed6-30663b0e6efc","place_name":"Green Heights Park","place_type":"park","osm_reference":"way/547352139","protection_context":"no protected status confirmed from included OSM tags","resolution_m":50,"raster_coverage":1.0,"interpretation":"Suggested search habitats, not predicted plant locations or probabilities of presence."},"features":[{"type":"Feature","geometry":{"type":"MultiPolygon","coordinates":[[[[110.34574006081112,1.4990913057553306],[110.34647264807,1.499696859701599],[110.34647439999999,1.4988269983283482],[110.34574006081112,1.4990913057553306]]],[[[110.34670107436749,1.5016571719384657],[110.34625826920167,1.5000889220121854],[110.34531813273388,1.5000889220121854],[110.34537959999999,1.5007441983262315],[110.3460099,1.500784498326201],[110.34670107436749,1.5016571719384657]]]]},"properties":{"place_id":"9fa152d0-4bc0-5858-bed6-30663b0e6efc","habitat":"forest_edge_opening","habitat_label":"Forest edge or opening","resolution_m":50}},{"type":"Feature","geometry":{"type":"MultiPolygon","coordinates":[[[[110.34647185844356,1.5000889220121854],[110.34625826920167,1.5008730468385023],[110.34660035851985,1.5008730468385023],[110.34647185844356,1.5000889220121854]]],[[[110.34677647759224,1.5012651093542693],[110.34677647759224,1.5016571719384657],[110.34711105445565,1.5016571719384657],[110.34725449999999,1.5015030983253943],[110.34677647759224,1.5012651093542693]]]]},"properties":{"place_id":"9fa152d0-4bc0-5858-bed6-30663b0e6efc","habitat":"open_grassland","habitat_label":"Open grassland or shrubland","resolution_m":50}},{"type":"Feature","geometry":{"type":"Polygon","coordinates":[[[110.34537959999999,1.5007441983262315],[110.3460099,1.500784498326201],[110.34670729999999,1.501693398325169],[110.34725449999999,1.5015030983253943],[110.3465571,1.500811298326177],[110.34647439999999,1.4988269983283482],[110.3454212,1.499045598328093],[110.34537959999999,1.5007441983262315]]]},"properties":{"place_id":"9fa152d0-4bc0-5858-bed6-30663b0e6efc","habitat":"disturbed_built_edge","habitat_label":"Disturbed, bare or built edge","resolution_m":50}}]}