{"type":"FeatureCollection","metadata":{"schema_version":1,"place_id":"9fc2e885-829d-525e-907c-650abed1ec41","place_name":"Taman Cheng Perdana","place_type":"park","osm_reference":"way/733801444","protection_context":"no protected status confirmed from included OSM tags","resolution_m":50,"raster_coverage":1.0,"interpretation":"Suggested search habitats, not predicted plant locations or probabilities of presence."},"features":[{"type":"Feature","geometry":{"type":"MultiPolygon","coordinates":[[[[102.20727728705626,2.280844144858931],[102.2074909,2.280204097465303],[102.20639639999999,2.280241597465258],[102.20605567321381,2.280844144858931],[102.20727728705626,2.280844144858931]]],[[[102.20727728705626,2.280844144858931],[102.20727728705626,2.28141241760983],[102.20746315403053,2.280844144858931],[102.20727728705626,2.280844144858931]]]]},"properties":{"place_id":"9fc2e885-829d-525e-907c-650abed1ec41","habitat":"forest_edge_opening","habitat_label":"Forest edge or opening","resolution_m":50}},{"type":"Feature","geometry":{"type":"Polygon","coordinates":[[[102.20624087027512,2.280844144858931],[102.20675907866568,2.280844144858931],[102.20675907866568,2.281236378919579],[102.20727728705626,2.281236378919579],[102.20727728705626,2.28045191090237],[102.20627747254005,2.28045191090237],[102.20624087027512,2.280844144858931]]]},"properties":{"place_id":"9fc2e885-829d-525e-907c-650abed1ec41","habitat":"open_grassland","habitat_label":"Open grassland or shrubland","resolution_m":50}},{"type":"Feature","geometry":{"type":"Polygon","coordinates":[[[102.207247,2.2814972974638636],[102.2074909,2.280204097465303],[102.20639639999999,2.280241597465258],[102.20604619999999,2.2808608974645788],[102.207247,2.2814972974638636]]]},"properties":{"place_id":"9fc2e885-829d-525e-907c-650abed1ec41","habitat":"disturbed_built_edge","habitat_label":"Disturbed, bare or built edge","resolution_m":50}}]}