{"type":"FeatureCollection","metadata":{"schema_version":1,"place_id":"a18922f2-140e-56d2-80c6-75847b434928","place_name":"Taman Kejiranan Loh Poh Heng","place_type":"park","osm_reference":"way/988531300","protection_context":"no protected status confirmed from included OSM tags","resolution_m":50,"raster_coverage":1.0,"interpretation":"Suggested search habitats, not predicted plant locations or probabilities of presence."},"features":[{"type":"Feature","geometry":{"type":"Polygon","coordinates":[[[100.28793119999999,5.461880594094165],[100.28821650000002,5.462367094093698],[100.2883051,5.461851594094224],[100.28793119999999,5.461880594094165]]]},"properties":{"place_id":"a18922f2-140e-56d2-80c6-75847b434928","habitat":"forest_edge_opening","habitat_label":"Forest edge or opening","resolution_m":50}},{"type":"Feature","geometry":{"type":"Polygon","coordinates":[[[100.28793119999999,5.461880594094165],[100.28821650000002,5.462367094093698],[100.2883051,5.461851594094224],[100.28793119999999,5.461880594094165]]]},"properties":{"place_id":"a18922f2-140e-56d2-80c6-75847b434928","habitat":"disturbed_built_edge","habitat_label":"Disturbed, bare or built edge","resolution_m":50}}]}