{"type":"FeatureCollection","metadata":{"schema_version":1,"place_id":"a18b1bf4-9715-5ce0-b2a1-829f33eb5a6f","place_name":"P15 Park","place_type":"park","osm_reference":"way/510043572","protection_context":"no protected status confirmed from included OSM tags","resolution_m":50,"raster_coverage":1.0,"interpretation":"Suggested search habitats, not predicted plant locations or probabilities of presence."},"features":[{"type":"Feature","geometry":{"type":"Polygon","coordinates":[[[101.72482527544429,2.9415281277646796],[101.72534348383486,2.9414635048321487],[101.72482527544429,2.940804922455344],[101.72482527544429,2.9415281277646796]]]},"properties":{"place_id":"a18b1bf4-9715-5ce0-b2a1-829f33eb5a6f","habitat":"forest_interior","habitat_label":"Forest interior","resolution_m":50}},{"type":"Feature","geometry":{"type":"MultiPolygon","coordinates":[[[[101.7263019,2.94228859674196],[101.72482527544429,2.9415281277646796],[101.72481179999998,2.9407877967435856],[101.7240477,2.9413908967429383],[101.72370698439858,2.9427054328257887],[101.72417948749097,2.9434903035389057],[101.72534348383486,2.9438241575804702],[101.72534348383486,2.9434903035389057],[101.72586169222542,2.9434903035389057],[101.72586169222542,2.94383387058757],[101.7263019,2.94228859674196]],[[101.72482527544429,2.942312997670962],[101.72482527544429,2.9427054328257887],[101.72430706705373,2.9427054328257887],[101.72430706705373,2.942312997670962],[101.72482527544429,2.942312997670962]]],[[[101.72546532951786,2.9438827390972317],[101.72576079999997,2.9440247967400945],[101.72583586835093,2.9438827390972317],[101.72546532951786,2.9438827390972317]]]]},"properties":{"place_id":"a18b1bf4-9715-5ce0-b2a1-829f33eb5a6f","habitat":"forest_edge_opening","habitat_label":"Forest edge or opening","resolution_m":50}},{"type":"Feature","geometry":{"type":"MultiPolygon","coordinates":[[[[101.72430706705373,2.9415281277646796],[101.72430706705373,2.9419205626505978],[101.72482527544429,2.9419205626505978],[101.72482527544429,2.9415281277646796],[101.72430706705373,2.9415281277646796]]],[[[101.72534348383486,2.9415281277646796],[101.72534348383486,2.9419205626505978],[101.72586169222542,2.9419205626505978],[101.72586169222542,2.941766641181493],[101.72534348383486,2.9415281277646796]]],[[[101.72378885866317,2.9427054328257887],[101.72430706705373,2.9427054328257887],[101.72430706705373,2.942312997670962],[101.72378885866317,2.942312997670962],[101.72378885866317,2.9427054328257887]]],[[[101.72482527544429,2.9427054328257887],[101.72430706705373,2.9427054328257887],[101.72430706705373,2.9434903035389057],[101.72482527544429,2.9434903035389057],[101.72482527544429,2.9427054328257887]]],[[[101.72534348383486,2.9438241575804702],[101.72583586835093,2.9438827390972317],[101.72629981013142,2.942312997670962],[101.72482527544429,2.942312997670962],[101.72482527544429,2.9427054328257887],[101.72586169222542,2.9427054328257887],[101.72586169222542,2.943097868115098],[101.72534348383486,2.943097868115098],[101.72534348383486,2.9438241575804702]]]]},"properties":{"place_id":"a18b1bf4-9715-5ce0-b2a1-829f33eb5a6f","habitat":"open_grassland","habitat_label":"Open grassland or shrubland","resolution_m":50}},{"type":"Feature","geometry":{"type":"Polygon","coordinates":[[[101.72482527544429,2.9415281277646796],[101.72481179999998,2.9407877967435856],[101.7236749,2.9421079967421724],[101.72390529999997,2.943293696740892],[101.72576079999997,2.9440247967400945],[101.7262325882858,2.943097868115098],[101.72534348383486,2.9434903035389057],[101.72482527544429,2.9427054328257887],[101.7263019,2.94228859674196],[101.72544370542099,2.9415281277646796],[101.72482527544429,2.9415281277646796]]]},"properties":{"place_id":"a18b1bf4-9715-5ce0-b2a1-829f33eb5a6f","habitat":"disturbed_built_edge","habitat_label":"Disturbed, bare or built edge","resolution_m":50}}]}