{"type":"FeatureCollection","metadata":{"schema_version":1,"place_id":"a1af69bf-9708-5a65-b072-18745977a5f4","place_name":"Taman Awam · OSM way/1316058966","place_type":"park","osm_reference":"way/1316058966","protection_context":"no protected status confirmed from included OSM tags","resolution_m":50,"raster_coverage":1.0,"interpretation":"Suggested search habitats, not predicted plant locations or probabilities of presence."},"features":[{"type":"Feature","geometry":{"type":"Polygon","coordinates":[[[103.60814339999999,1.564103798255949],[103.60931039999998,1.5637921982562781],[103.60914690000001,1.5633361982567777],[103.60811809999998,1.56338059825674],[103.60814339999999,1.564103798255949]]]},"properties":{"place_id":"a1af69bf-9708-5a65-b072-18745977a5f4","habitat":"forest_edge_opening","habitat_label":"Forest edge or opening","resolution_m":50}},{"type":"Feature","geometry":{"type":"Polygon","coordinates":[[[103.60814339999999,1.564103798255949],[103.60931039999998,1.5637921982562781],[103.60914690000001,1.5633361982567777],[103.60811809999998,1.56338059825674],[103.60814339999999,1.564103798255949]]]},"properties":{"place_id":"a1af69bf-9708-5a65-b072-18745977a5f4","habitat":"disturbed_built_edge","habitat_label":"Disturbed, bare or built edge","resolution_m":50}}]}