{"type":"FeatureCollection","metadata":{"schema_version":1,"place_id":"a2620099-8bbc-511d-a0ed-853e3bf80d35","place_name":"Hutan Simpanan Kekal Bukit Tinggi Tambahan","place_type":"park","osm_reference":"relation/18258462","protection_context":"mapped protected boundary","resolution_m":50,"raster_coverage":1.0,"interpretation":"Suggested search habitats, not predicted plant locations or probabilities of presence."},"features":[{"type":"Feature","geometry":{"type":"MultiPolygon","coordinates":[[[[101.87873316744081,3.491469522777649],[101.87873737987707,3.491469522777649],[101.87873316744081,3.4914404902467435],[101.87873316744081,3.491469522777649]]],[[[101.87769675065968,3.495395939804298],[101.87769675065968,3.495396148765607],[101.87769719067542,3.495395939804298],[101.87769675065968,3.495395939804298]]],[[[101.86422333250512,3.518954778538514],[101.86436359809355,3.518954778538514],[101.86422333250512,3.5186397902597886],[101.86422333250512,3.518954778538514]]],[[[101.86680080000001,3.500570596139398],[101.87717854226912,3.495642243417608],[101.87666033387856,3.495395939804298],[101.87717854226912,3.4946106551197818],[101.87821495905024,3.495150054176449],[101.87920329999999,3.49468069614572],[101.878794349583,3.4918621637609615],[101.87873316744081,3.4922548049040825],[101.87769675065968,3.4918621637609615],[101.87769675065968,3.491469522777649],[101.8786804101711,3.491076881954126],[101.87839556164138,3.4891136802327174],[101.87821495905024,3.4895063202575645],[101.87717854226912,3.4891136802327174],[101.87769675065968,3.488328400662045],[101.87821495905024,3.488328400662045],[101.87833859193545,3.4887210403675497],[101.87514779999998,3.466730096175716],[101.8775135,3.466221396176251],[101.88339704295585,3.463528544569531],[101.88287883456529,3.4628071614109612],[101.88377226530928,3.4624145322030593],[101.8833312,3.4582509961848134],[101.88267409999999,3.457300596185822],[101.87925137583136,3.4557398598962856],[101.87834237351315,3.454954607337135],[101.86408639999999,3.4576378961854695],[101.81974409999998,3.4551640961881094],[101.8158603,3.4773535961643365],[101.80134409999998,3.475618696166189],[101.79152720000002,3.4893047961514942],[101.7876005,3.4814015961599436],[101.767222,3.478825996162751],[101.767514,3.480429996161024],[101.76636299999998,3.4834889961577153],[101.7665167,3.4860291961550076],[101.765552,3.4869839961539935],[101.76458299999999,3.491723996148899],[101.76387230000002,3.4925687961479697],[101.76211600000002,3.4930419961474874],[101.7622216,3.4966443961436373],[101.76267299999999,3.4978139961423653],[101.76197199999999,3.5079599961314893],[101.76408699999999,3.5104439961288016],[101.76526999999999,3.5127239961263657],[101.765986,3.5132349961258407],[101.769458,3.514160996124832],[101.773986,3.5248019961134225],[101.77619910000001,3.527024896111054],[101.77683899999998,3.5338279961037515],[101.779534,3.5376799960996173],[101.781025,3.541778996095229],[101.7828354,3.5423837960945717],[101.78423499999998,3.5433959960935186],[101.7857139,3.5463510960903317],[101.786553,3.546685996089992],[101.7881289,3.545678196091074],[101.78954900000001,3.5455769960911585],[101.79077899999999,3.5460879960906126],[101.79177299999999,3.547324996089287],[101.7931601,3.5475744960890183],[101.7968898,3.546645496090007],[101.7986431,3.5472237960893853],[101.800945,3.549968996086462],[101.801974,3.55027939608614],[101.8046261,3.5495400960869157],[101.805087,3.549819996086611],[101.80520999999999,3.551349996084973],[101.804372,3.553389996082777],[101.8067399,3.561168996074456],[101.808128,3.5667389960685045],[101.80802399999999,3.568729996066344],[101.80890899999999,3.571083996063841],[101.80859399999997,3.5723629960624987],[101.80662600000001,3.574401996060284],[101.8067817,3.576276596058269],[101.80799099999999,3.579693996054616],[101.808043,3.5828919960511896],[101.80758999999998,3.5839299960500934],[101.80806799999999,3.5852849960486504],[101.81014099999999,3.586734996047079],[101.810594,3.587629996046157],[101.811199,3.5913779960421444],[101.8140159,3.593645196039704],[101.81469429999999,3.595308096037923],[101.81433719999998,3.599480696033445],[101.81507429999999,3.603310196029358],[101.81482019999999,3.6038958960287077],[101.8134944,3.6047973960277444],[101.81021939999998,3.605023296027511],[101.8093374,3.605442096027086],[101.8084737,3.608113996024231],[101.809233,3.6093849960228415],[101.80930829999997,3.6108641960212715],[101.8101935,3.6117154960203717],[101.8103512,3.6133365960186032],[101.81091059999999,3.6132645960186918],[101.8123634,3.6140483960178504],[101.812226,3.6156009960162057],[101.814953,3.6190729960124948],[101.81724619999999,3.6197730960117487],[101.82017049999997,3.6186016960130094],[101.82195949999999,3.618708196012892],[101.82419119999999,3.620185696011294],[101.8225326,3.6210053960104114],[101.82095199999999,3.6226879960086276],[101.822117,3.6258919960052034],[101.825507,3.630774995999991],[101.82604189999999,3.5888176960448535],[101.8380582,3.588635696045057],[101.84030050000001,3.5891710960444954],[101.8434763,3.588689196044999],[101.84651249999999,3.5890211960446483],[101.8478,3.58980289604382],[101.85541378986557,3.5903957123471297],[101.85541378986557,3.590027470824721],[101.85800483181838,3.590027470824721],[101.85800483181838,3.590420152489324],[101.85904124859951,3.590420152489324],[101.85904124859951,3.5908128343182897],[101.86007766538063,3.5908128343182897],[101.86021210350108,3.59120551631164],[101.8604493,3.586001596047897],[101.86145528493529,3.5821738720213476],[101.86111408216175,3.5825665504024657],[101.86007766538063,3.5821738720213476],[101.86007766538063,3.580603160136529],[101.86149268948424,3.5798178051776577],[101.86176052792642,3.578639773968363],[101.86163229055231,3.577069067982699],[101.86059587377117,3.576676391895697],[101.86059587377117,3.5751056891847983],[101.86111408216175,3.5751056891847983],[101.86111408216175,3.57471301391626],[101.86163229055231,3.57471301391626],[101.86163229055231,3.5751056891847983],[101.86256404325295,3.5751056891847983],[101.86370512411455,3.5668595428854033],[101.86422333250512,3.5668595428854033],[101.86474154089566,3.5658996279445487],[101.86266870733343,3.5656815278673166],[101.86266870733343,3.566074199376768],[101.86163229055231,3.566074199376768],[101.86163229055231,3.5664668710494563],[101.86215049894287,3.5664668710494563],[101.86215049894287,3.567252214884625],[101.86163229055231,3.567252214884625],[101.86163229055231,3.567644887047139],[101.86059587377117,3.567644887047139],[101.86059587377117,3.567252214884625],[101.86007766538063,3.567252214884625],[101.86007766538063,3.5664668710494563],[101.85955945699007,3.5664668710494563],[101.85955945699007,3.566074199376768],[101.86007766538063,3.566074199376768],[101.86007766538063,3.5656815278673166],[101.86111408216175,3.5656815278673166],[101.86215049894287,3.5645035143182167],[101.8638770581316,3.5641108434615396],[101.8623108,3.562015696073556],[101.8644833,3.5592422960765533],[101.858722,3.552196296084071],[101.86420328557045,3.544870170984765],[101.86318691572399,3.5444775082632436],[101.86318691572399,3.544084845703963],[101.86370512411455,3.544084845703963],[101.86370512411455,3.543692183306903],[101.86422333250512,3.543692183306903],[101.86422333250512,3.544084845703963],[101.864891,3.543950996092922],[101.8645584,3.5380613960992116],[101.86181189999999,3.5384147960988517],[101.8632066,3.537483096099833],[101.86351779999998,3.5357376961017066],[101.86438679999999,3.535394996102085],[101.8639882740188,3.5244519241947505],[101.86318691572399,3.5240592698856394],[101.86318691572399,3.523273961751285],[101.86266870733343,3.523273961751285],[101.86266870733343,3.522881307926007],[101.86370512411455,3.52248865426197],[101.86387731098645,3.5209180412178753],[101.86370512411455,3.520132735662806],[101.86266870733343,3.520132735662806],[101.86215049894287,3.5193474307521937],[101.86266870733343,3.5193474307521937],[101.86318691572399,3.518562126485894],[101.86418874849703,3.518562126485894],[101.86387719999999,3.5178624961208604],[101.86486149999999,3.518047196120676],[101.86383959999999,3.5152414961236755],[101.86522993407768,3.508353229590385],[101.86422333250512,3.508745877461816],[101.86318691572399,3.5075679343292148],[101.86370512411455,3.5075679343292148],[101.86370512411455,3.50717528693944],[101.86474154089566,3.50717528693944],[101.86525974928622,3.508205513761797],[101.86680080000001,3.500570596139398]],[[101.82432128643194,3.622227914786761],[101.82432128643194,3.6218352197497405],[101.82535770321307,3.622227914786761],[101.82535770321307,3.6230133053583287],[101.82483949482251,3.6230133053583287],[101.82483949482251,3.623406000892915],[101.82380307804138,3.6230133053583287],[101.82380307804138,3.622227914786761],[101.82432128643194,3.622227914786761]],[[101.84349499688268,3.5566501281621017],[101.84349499688268,3.5562574605649333],[101.84453141366382,3.5566501281621017],[101.84453141366382,3.557435463844862],[101.84401320527324,3.557435463844862],[101.84401320527324,3.557828131930493],[101.84297678849211,3.557435463844862],[101.84297678849211,3.5566501281621017],[101.84349499688268,3.5566501281621017]],[[101.81602995218296,3.554294125020509],[101.81602995218296,3.553901458399778],[101.81654816057353,3.553901458399778],[101.81706636896409,3.554686791803934],[101.81602995218296,3.5550794587500696],[101.81602995218296,3.554686791803934],[101.81551174379241,3.554686791803934],[101.81551174379241,3.554294125020509],[101.81602995218296,3.554294125020509]],[[101.80670220115287,3.5456554969146],[101.80670220115287,3.545262833868545],[101.807738617934,3.544870170984765],[101.807738617934,3.544084845703963],[101.80877503471511,3.543692183306903],[101.80877503471511,3.544084845703963],[101.80929324310567,3.544084845703963],[101.80929324310567,3.544870170984765],[101.80877503471511,3.544870170984765],[101.80877503471511,3.5456554969146],[101.80929324310567,3.5456554969146],[101.80929324310567,3.546048160122951],[101.80877503471511,3.546048160122951],[101.807738617934,3.5472261507219516],[101.80670220115287,3.5472261507219516],[101.80670220115287,3.5468334870266087],[101.80618399276231,3.5468334870266087],[101.80618399276231,3.5456554969146],[101.80670220115287,3.5456554969146]],[[101.80152011724726,3.5444775082632436],[101.80152011724726,3.544084845703963],[101.80203832563782,3.544084845703963],[101.8025565340284,3.544870170984765],[101.80152011724726,3.545262833868545],[101.80152011724726,3.544870170984765],[101.8010019088567,3.544870170984765],[101.8010019088567,3.5444775082632436],[101.80152011724726,3.5444775082632436]],[[101.80048370046616,3.542906858999378],[101.80048370046616,3.542514197088875],[101.8010019088567,3.542514197088875],[101.80152011724726,3.5432995210720475],[101.80048370046616,3.543692183306903],[101.80048370046616,3.5432995210720475],[101.79996549207559,3.5432995210720475],[101.79996549207559,3.542906858999378],[101.80048370046616,3.542906858999378]],[[101.79271057460774,3.540943551068177],[101.79271057460774,3.5405508899682387],[101.7932287829983,3.5405508899682387],[101.79374699138886,3.5413362123301915],[101.79271057460774,3.5417288737543005],[101.79271057460774,3.5413362123301915],[101.79219236621718,3.5413362123301915],[101.79219236621718,3.540943551068177],[101.79271057460774,3.540943551068177]],[[101.80203832563782,3.5397655682545217],[101.80203832563782,3.5393729076407046],[101.80307474241894,3.5393729076407046],[101.80359295080952,3.54015822903036],[101.80307474241894,3.54015822903036],[101.80307474241894,3.5405508899682387],[101.80203832563782,3.5405508899682387],[101.80203832563782,3.54015822903036],[101.80152011724726,3.54015822903036],[101.80152011724726,3.5397655682545217],[101.80203832563782,3.5397655682545217]],[[101.79063774104549,3.537802266805298],[101.78960132426437,3.536231628560793],[101.79011953265494,3.536231628560793],[101.79011953265494,3.53583896940436],[101.79167415782662,3.53583896940436],[101.79167415782662,3.536231628560793],[101.79219236621718,3.536231628560793],[101.79219236621718,3.5374096070013197],[101.79167415782662,3.5374096070013197],[101.79167415782662,3.538587586899065],[101.79115594943606,3.538587586899065],[101.79115594943606,3.5389802471888925],[101.79011953265494,3.538587586899065],[101.79011953265494,3.537802266805298],[101.79063774104549,3.537802266805298]],[[101.80825682632455,3.535446310409766],[101.80825682632455,3.535053651576995],[101.80877503471511,3.535053651576995],[101.80929324310567,3.53583896940436],[101.80825682632455,3.536231628560793],[101.80825682632455,3.53583896940436],[101.807738617934,3.53583896940436],[101.807738617934,3.535446310409766],[101.80825682632455,3.535446310409766]],[[101.85282274791277,3.535053651576995],[101.85282274791277,3.53466099290603],[101.85334095630333,3.53466099290603],[101.8538591646939,3.535446310409766],[101.85282274791277,3.53583896940436],[101.85282274791277,3.535446310409766],[101.85230453952222,3.535446310409766],[101.85230453952222,3.535053651576995],[101.85282274791277,3.535053651576995]],[[101.85282274791277,3.5295564448994017],[101.85282274791277,3.5291637884917897],[101.85334095630333,3.5291637884917897],[101.8538591646939,3.529949101468564],[101.85282274791277,3.530341758199293],[101.85282274791277,3.529949101468564],[101.85230453952222,3.529949101468564],[101.85230453952222,3.5295564448994017],[101.85282274791277,3.5295564448994017]],[[101.83727649619597,3.513457664450041],[101.83727649619597,3.513065014650356],[101.83831291297707,3.513065014650356],[101.83883112136763,3.513850314410532],[101.83727649619597,3.5146356148140057],[101.83727649619597,3.514242964531848],[101.8367582878054,3.514242964531848],[101.8367582878054,3.513457664450041],[101.83727649619597,3.513457664450041]],[[101.85541378986557,3.509923822039707],[101.85541378986557,3.509531173686458],[101.85593199825614,3.509531173686458],[101.8564502066467,3.5103164705535983],[101.85541378986557,3.5107091192281508],[101.85541378986557,3.5103164705535983],[101.85489558147502,3.5103164705535983],[101.85489558147502,3.509923822039707],[101.85541378986557,3.509923822039707]],[[101.85955945699007,3.509531173686458],[101.85955945699007,3.509138525493833],[101.86007766538063,3.509138525493833],[101.86059587377117,3.509923822039707],[101.85955945699007,3.5103164705535983],[101.85955945699007,3.509923822039707],[101.85904124859951,3.509923822039707],[101.85904124859951,3.509531173686458],[101.85955945699007,3.509531173686458]],[[101.86318691572399,3.505212052397934],[101.86318691572399,3.5048194059709785],[101.86422333250512,3.505212052397934],[101.86422333250512,3.5059973457331344],[101.86370512411455,3.5059973457331344],[101.86370512411455,3.506389992641418],[101.86266870733343,3.5059973457331344],[101.86266870733343,3.505212052397934],[101.86318691572399,3.505212052397934]],[[101.81602995218296,3.502070885472665],[101.81602995218296,3.501678240328455],[101.81706636896409,3.5012855953445063],[101.81810278574521,3.502856176241942],[101.81706636896409,3.5032488218670457],[101.81706636896409,3.502856176241942],[101.81654816057353,3.502856176241942],[101.81654816057353,3.502070885472665],[101.81602995218296,3.502070885472665]],[[101.87510570870688,3.493825371075003],[101.87510570870688,3.4934327292924703],[101.87562391709744,3.4934327292924703],[101.876142125488,3.494218013017434],[101.87510570870688,3.4946106551197818],[101.87510570870688,3.494218013017434],[101.87458750031632,3.494218013017434],[101.87458750031632,3.493825371075003],[101.87510570870688,3.493825371075003]],[[101.87769675065968,3.4934327292924703],[101.87769675065968,3.4930400876698178],[101.87821495905024,3.4930400876698178],[101.87873316744081,3.493825371075003],[101.87769675065968,3.494218013017434],[101.87769675065968,3.493825371075003],[101.87717854226912,3.493825371075003],[101.87717854226912,3.4934327292924703],[101.87769675065968,3.4934327292924703]],[[101.78649207392101,3.491469522777649],[101.78649207392101,3.491076881954126],[101.78701028231157,3.491076881954126],[101.78752849070213,3.4918621637609615],[101.78649207392101,3.4922548049040825],[101.78649207392101,3.4918621637609615],[101.78597386553045,3.4918621637609615],[101.78597386553045,3.491469522777649],[101.78649207392101,3.491469522777649]]],[[[101.86422333250512,3.5444775082632436],[101.86422333250512,3.544843376945204],[101.86449707051511,3.5444775082632436],[101.86422333250512,3.5444775082632436]]]]},"properties":{"place_id":"a2620099-8bbc-511d-a0ed-853e3bf80d35","habitat":"forest_interior","habitat_label":"Forest interior","resolution_m":50}},{"type":"Feature","geometry":{"type":"MultiPolygon","coordinates":[[[[101.78701028231157,3.491076881954126],[101.78597386553045,3.491469522777649],[101.78649207392101,3.4922548049040825],[101.78752849070213,3.4918621637609615],[101.78701028231157,3.491076881954126]]],[[[101.81758457735465,3.501678240328455],[101.81706636896409,3.501678240328455],[101.81706636896409,3.5012855953445063],[101.81602995218296,3.501678240328455],[101.81706636896409,3.5032488218670457],[101.81810278574521,3.502856176241942],[101.81810278574521,3.5024635307771548],[101.81758457735465,3.5024635307771548],[101.81758457735465,3.501678240328455]]],[[[101.86007766538063,3.509138525493833],[101.85904124859951,3.509531173686458],[101.85955945699007,3.5103164705535983],[101.86059587377117,3.509923822039707],[101.86007766538063,3.509138525493833]]],[[[101.85541378986557,3.509531173686458],[101.85489558147502,3.5103164705535983],[101.85593199825614,3.5107091192281508],[101.8564502066467,3.509923822039707],[101.85541378986557,3.509531173686458]]],[[[101.83831291297707,3.513457664450041],[101.83831291297707,3.513065014650356],[101.83727649619597,3.513065014650356],[101.83727649619597,3.513457664450041],[101.8367582878054,3.513457664450041],[101.8367582878054,3.514242964531848],[101.83779470458653,3.5146356148140057],[101.83779470458653,3.514242964531848],[101.83883112136763,3.513850314410532],[101.83883112136763,3.513457664450041],[101.83831291297707,3.513457664450041]]],[[[101.85334095630333,3.5291637884917897],[101.85230453952222,3.5295564448994017],[101.85282274791277,3.530341758199293],[101.8538591646939,3.529949101468564],[101.85334095630333,3.5291637884917897]]],[[[101.85334095630333,3.53466099290603],[101.85230453952222,3.535053651576995],[101.85282274791277,3.53583896940436],[101.8538591646939,3.535446310409766],[101.85334095630333,3.53466099290603]]],[[[101.80877503471511,3.535053651576995],[101.807738617934,3.535446310409766],[101.80825682632455,3.536231628560793],[101.80929324310567,3.53583896940436],[101.80877503471511,3.535053651576995]]],[[[101.79167415782662,3.536231628560793],[101.79167415782662,3.53583896940436],[101.79011953265494,3.53583896940436],[101.79011953265494,3.536231628560793],[101.78960132426437,3.536231628560793],[101.78960132426437,3.5366242878790857],[101.79011953265494,3.5366242878790857],[101.79011953265494,3.5374096070013197],[101.79063774104549,3.5374096070013197],[101.79063774104549,3.537802266805298],[101.79011953265494,3.537802266805298],[101.79011953265494,3.538587586899065],[101.79063774104549,3.538587586899065],[101.79063774104549,3.5389802471888925],[101.79167415782662,3.538587586899065],[101.79167415782662,3.5374096070013197],[101.79219236621718,3.5374096070013197],[101.79219236621718,3.536231628560793],[101.79167415782662,3.536231628560793]]],[[[101.80203832563782,3.5393729076407046],[101.80152011724726,3.54015822903036],[101.80203832563782,3.54015822903036],[101.80203832563782,3.5405508899682387],[101.80307474241894,3.5405508899682387],[101.80359295080952,3.5397655682545217],[101.80307474241894,3.5397655682545217],[101.80307474241894,3.5393729076407046],[101.80203832563782,3.5393729076407046]]],[[[101.7932287829983,3.5405508899682387],[101.79219236621718,3.540943551068177],[101.79271057460774,3.5417288737543005],[101.79374699138886,3.5413362123301915],[101.7932287829983,3.5405508899682387]]],[[[101.8010019088567,3.542514197088875],[101.79996549207559,3.542906858999378],[101.80048370046616,3.543692183306903],[101.80152011724726,3.5432995210720475],[101.8010019088567,3.542514197088875]]],[[[101.80203832563782,3.544084845703963],[101.8010019088567,3.5444775082632436],[101.80152011724726,3.545262833868545],[101.8025565340284,3.544870170984765],[101.80203832563782,3.544084845703963]]],[[[101.80929324310567,3.546048160122951],[101.80929324310567,3.5456554969146],[101.80877503471511,3.5456554969146],[101.80929324310567,3.544084845703963],[101.80825682632455,3.543692183306903],[101.80825682632455,3.544084845703963],[101.807738617934,3.544084845703963],[101.807738617934,3.544870170984765],[101.80618399276231,3.5456554969146],[101.80618399276231,3.5468334870266087],[101.80670220115287,3.5468334870266087],[101.80670220115287,3.5472261507219516],[101.807738617934,3.5472261507219516],[101.807738617934,3.5468334870266087],[101.80929324310567,3.546048160122951]],[[101.80722040954343,3.5456554969146],[101.80825682632455,3.5456554969146],[101.80825682632455,3.546048160122951],[101.80722040954343,3.5464408234936142],[101.80722040954343,3.5456554969146]]],[[[101.81602995218296,3.553901458399778],[101.81551174379241,3.554686791803934],[101.81654816057353,3.5550794587500696],[101.81706636896409,3.554294125020509],[101.81602995218296,3.553901458399778]]],[[[101.84401320527324,3.5562574605649333],[101.84297678849211,3.5566501281621017],[101.84297678849211,3.557435463844862],[101.84349499688268,3.557435463844862],[101.84349499688268,3.557828131930493],[101.84453141366382,3.557435463844862],[101.84453141366382,3.5566501281621017],[101.84401320527324,3.5566501281621017],[101.84401320527324,3.5562574605649333]]],[[[101.86111408216175,3.5809958378618214],[101.86147929999997,3.5809958378618214],[101.86149268948424,3.5798178051776577],[101.86007766538063,3.580603160136529],[101.86007766538063,3.5821738720213476],[101.86059587377117,3.5821738720213476],[101.86059587377117,3.5825665504024657],[101.86145528493529,3.5821738720213476],[101.86111408216175,3.5809958378618214]]],[[[101.85904124859951,3.590420152489324],[101.85800483181838,3.590420152489324],[101.85800483181838,3.590027470824721],[101.85541378986557,3.590027470824721],[101.85541378986557,3.5903957123471297],[101.85838939999998,3.5906273960429274],[101.86023469999999,3.5913768960421124],[101.86007766538063,3.5908128343182897],[101.85904124859951,3.5908128343182897],[101.85904124859951,3.590420152489324]]],[[[101.82121203608857,3.622227914786761],[101.82121203608857,3.6221700352444595],[101.82117886450233,3.622227914786761],[101.82121203608857,3.622227914786761]]],[[[101.82432128643194,3.6218352197497405],[101.82432128643194,3.622227914786761],[101.82380307804138,3.622227914786761],[101.82380307804138,3.6230133053583287],[101.82483949482251,3.623406000892915],[101.82483949482251,3.6230133053583287],[101.82535770321307,3.6230133053583287],[101.82535770321307,3.622227914786761],[101.82432128643194,3.6218352197497405]]],[[[101.87769675065968,3.454954607337135],[101.87834237351315,3.454954607337135],[101.87805259999998,3.454741096188597],[101.87769675065968,3.454954607337135]]],[[[101.87887523860661,3.4553472335376503],[101.87873316744081,3.4552425525011983],[101.87873316744081,3.4553472335376503],[101.87887523860661,3.4553472335376503]]],[[[101.87925137583136,3.4557398598962856],[101.87940810370007,3.4557398598962856],[101.87925137583136,3.455624379445619],[101.87925137583136,3.4557398598962856]]],[[[101.88339704295585,3.4631997907773275],[101.88339704295585,3.463528544569531],[101.88390119999997,3.4632977961793903],[101.88377226530928,3.4624145322030593],[101.88287883456529,3.4628071614109612],[101.88287883456529,3.4631997907773275],[101.88339704295585,3.4631997907773275]]],[[[101.87685737958084,3.4785124598616517],[101.87666033387856,3.4789050955814917],[101.87691434928679,3.4789050955814917],[101.87685737958084,3.4785124598616517]]],[[[101.87821495905024,3.488328400662045],[101.87717854226912,3.4887210403675497],[101.87769675065968,3.4895063202575645],[101.87839556164138,3.4891136802327174],[101.87821495905024,3.488328400662045]]],[[[101.87873316744081,3.4922548049040825],[101.8786804101711,3.491076881954126],[101.87821495905024,3.491076881954126],[101.87821495905024,3.491469522777649],[101.87769675065968,3.491469522777649],[101.87821495905024,3.4922548049040825],[101.87873316744081,3.4922548049040825]]],[[[101.87821495905024,3.4930400876698178],[101.87717854226912,3.4934327292924703],[101.87769675065968,3.494218013017434],[101.87873316744081,3.493825371075003],[101.87821495905024,3.4930400876698178]]],[[[101.87510570870688,3.4934327292924703],[101.87458750031632,3.494218013017434],[101.87562391709744,3.4946106551197818],[101.876142125488,3.493825371075003],[101.87510570870688,3.4934327292924703]]],[[[101.87717854226912,3.4946106551197818],[101.87717854226912,3.4950032973820635],[101.87666033387856,3.4950032973820635],[101.87717854226912,3.495642243417608],[101.87821495905024,3.495150054176449],[101.87717854226912,3.4946106551197818]]],[[[101.87666033387856,3.495788582386505],[101.87666033387856,3.4958883381324557],[101.8768703922728,3.495788582386505],[101.87666033387856,3.495788582386505]]],[[[101.86370512411455,3.5048194059709785],[101.86266870733343,3.505212052397934],[101.86266870733343,3.5059973457331344],[101.86318691572399,3.5059973457331344],[101.86318691572399,3.506389992641418],[101.86422333250512,3.5059973457331344],[101.86422333250512,3.505212052397934],[101.86370512411455,3.505212052397934],[101.86370512411455,3.5048194059709785]]],[[[101.86474154089566,3.50717528693944],[101.86370512411455,3.50717528693944],[101.86370512411455,3.5075679343292148],[101.86318691572399,3.5075679343292148],[101.86422333250512,3.508745877461816],[101.86522993407768,3.508353229590385],[101.86525974928622,3.5075679343292148],[101.86474154089566,3.5075679343292148],[101.86474154089566,3.50717528693944]]],[[[101.86318691572399,3.518562126485894],[101.86215049894287,3.519740083126951],[101.86266870733343,3.519740083126951],[101.86266870733343,3.520132735662806],[101.86370512411455,3.520132735662806],[101.86387731098645,3.5209180412178753],[101.8645102,3.519283996119334],[101.86418874849703,3.518562126485894],[101.86318691572399,3.518562126485894]]],[[[101.86266870733343,3.522881307926007],[101.86266870733343,3.523273961751285],[101.86318691572399,3.523273961751285],[101.86318691572399,3.5240592698856394],[101.8639882740188,3.5244519241947505],[101.86390247514585,3.522096000759156],[101.86318691572399,3.522881307926007],[101.86266870733343,3.522881307926007]]],[[[101.86422333250512,3.543692183306903],[101.86318691572399,3.544084845703963],[101.86370512411455,3.544870170984765],[101.86420328557045,3.544870170984765],[101.86474154089566,3.544150757793654],[101.86422333250512,3.544084845703963],[101.86422333250512,3.543692183306903]]],[[[101.86163229055231,3.566074199376768],[101.86266870733343,3.566074199376768],[101.86266870733343,3.5656815278673166],[101.86474154089566,3.5658996279445487],[101.8648964,3.5654743960698556],[101.8638770581316,3.5641108434615396],[101.86215049894287,3.5645035143182167],[101.86111408216175,3.5656815278673166],[101.86007766538063,3.5656815278673166],[101.86007766538063,3.566074199376768],[101.85955945699007,3.566074199376768],[101.86059587377117,3.567644887047139],[101.86163229055231,3.567644887047139],[101.86163229055231,3.567252214884625],[101.86215049894287,3.567252214884625],[101.86215049894287,3.5664668710494563],[101.86163229055231,3.5664668710494563],[101.86163229055231,3.566074199376768]]],[[[101.86453496486446,3.5664668710494563],[101.86370512411455,3.5668595428854033],[101.86370512411455,3.568977878019852],[101.86453496486446,3.5664668710494563]]],[[[101.86347643570183,3.570000923452403],[101.86318691572399,3.5703935967584792],[101.86338865879098,3.5703935967584792],[101.86347643570183,3.570000923452403]]],[[[101.86111408216175,3.57471301391626],[101.86111408216175,3.5751056891847983],[101.86059587377117,3.5751056891847983],[101.86059587377117,3.576676391895697],[101.86163229055231,3.577069067982699],[101.86176052792642,3.578639773968363],[101.86256404325295,3.5751056891847983],[101.86163229055231,3.5751056891847983],[101.86163229055231,3.57471301391626],[101.86111408216175,3.57471301391626]],[[101.86215049894287,3.576283715972424],[101.86163229055231,3.576283715972424],[101.86163229055231,3.5758910402128614],[101.86215049894287,3.5758910402128614],[101.86215049894287,3.576283715972424]]]]},"properties":{"place_id":"a2620099-8bbc-511d-a0ed-853e3bf80d35","habitat":"forest_edge_opening","habitat_label":"Forest edge or opening","resolution_m":50}},{"type":"Feature","geometry":{"type":"MultiPolygon","coordinates":[[[[101.78701028231157,3.491469522777649],[101.78649207392101,3.491469522777649],[101.78649207392101,3.4918621637609615],[101.78701028231157,3.4918621637609615],[101.78701028231157,3.491469522777649]]],[[[101.81706636896409,3.501678240328455],[101.81654816057353,3.501678240328455],[101.81654816057353,3.502070885472665],[101.81706636896409,3.502070885472665],[101.81706636896409,3.501678240328455]]],[[[101.81758457735465,3.5024635307771548],[101.81706636896409,3.5024635307771548],[101.81706636896409,3.502856176241942],[101.81758457735465,3.502856176241942],[101.81758457735465,3.5024635307771548]]],[[[101.83779470458653,3.514242964531848],[101.83779470458653,3.513850314410532],[101.83831291297707,3.513850314410532],[101.83831291297707,3.513457664450041],[101.83727649619597,3.513457664450041],[101.83727649619597,3.514242964531848],[101.83779470458653,3.514242964531848]]],[[[101.85282274791277,3.5295564448994017],[101.85282274791277,3.529949101468564],[101.85334095630333,3.529949101468564],[101.85334095630333,3.5295564448994017],[101.85282274791277,3.5295564448994017]]],[[[101.85334095630333,3.535053651576995],[101.85282274791277,3.535053651576995],[101.85282274791277,3.535446310409766],[101.85334095630333,3.535446310409766],[101.85334095630333,3.535053651576995]]],[[[101.80877503471511,3.535446310409766],[101.80825682632455,3.535446310409766],[101.80825682632455,3.53583896940436],[101.80877503471511,3.53583896940436],[101.80877503471511,3.535446310409766]]],[[[101.79063774104549,3.5374096070013197],[101.79167415782662,3.5374096070013197],[101.79167415782662,3.536231628560793],[101.79011953265494,3.536231628560793],[101.79011953265494,3.5366242878790857],[101.79063774104549,3.5366242878790857],[101.79063774104549,3.5374096070013197]]],[[[101.79063774104549,3.537802266805298],[101.79063774104549,3.538587586899065],[101.79115594943606,3.538587586899065],[101.79115594943606,3.537802266805298],[101.79063774104549,3.537802266805298]]],[[[101.80203832563782,3.5397655682545217],[101.80203832563782,3.54015822903036],[101.80307474241894,3.54015822903036],[101.80307474241894,3.5397655682545217],[101.80203832563782,3.5397655682545217]]],[[[101.7932287829983,3.540943551068177],[101.79271057460774,3.540943551068177],[101.79271057460774,3.5413362123301915],[101.7932287829983,3.5413362123301915],[101.7932287829983,3.540943551068177]]],[[[101.8010019088567,3.542906858999378],[101.80048370046616,3.542906858999378],[101.80048370046616,3.5432995210720475],[101.8010019088567,3.5432995210720475],[101.8010019088567,3.542906858999378]]],[[[101.80877503471511,3.544084845703963],[101.80825682632455,3.544084845703963],[101.80825682632455,3.544870170984765],[101.80877503471511,3.544870170984765],[101.80877503471511,3.544084845703963]]],[[[101.80152011724726,3.5444775082632436],[101.80152011724726,3.544870170984765],[101.80203832563782,3.544870170984765],[101.80203832563782,3.5444775082632436],[101.80152011724726,3.5444775082632436]]],[[[101.80825682632455,3.5456554969146],[101.80825682632455,3.545262833868545],[101.80722040954343,3.545262833868545],[101.80722040954343,3.5456554969146],[101.80670220115287,3.5456554969146],[101.80670220115287,3.5468334870266087],[101.807738617934,3.5468334870266087],[101.807738617934,3.5464408234936142],[101.80877503471511,3.546048160122951],[101.80877503471511,3.5456554969146],[101.80825682632455,3.5456554969146]]],[[[101.81654816057353,3.554294125020509],[101.81602995218296,3.554294125020509],[101.81602995218296,3.554686791803934],[101.81654816057353,3.554686791803934],[101.81654816057353,3.554294125020509]]],[[[101.84401320527324,3.5566501281621017],[101.84349499688268,3.5566501281621017],[101.84349499688268,3.557435463844862],[101.84401320527324,3.557435463844862],[101.84401320527324,3.5566501281621017]]],[[[101.85800483181838,3.590420152489324],[101.85572768481869,3.590420152489324],[101.85800483181838,3.5905974532133382],[101.85800483181838,3.590420152489324]]],[[[101.85884595684158,3.5908128343182897],[101.85904124859951,3.5908921553766757],[101.85904124859951,3.5908128343182897],[101.85884595684158,3.5908128343182897]]],[[[101.82432128643194,3.622227914786761],[101.82432128643194,3.6230133053583287],[101.82483949482251,3.6230133053583287],[101.82483949482251,3.622227914786761],[101.82432128643194,3.622227914786761]]],[[[101.88339704295585,3.4628071614109612],[101.88339704295585,3.4631997907773275],[101.88388689364146,3.4631997907773275],[101.88382957947537,3.4628071614109612],[101.88339704295585,3.4628071614109612]]],[[[101.87821495905024,3.4887210403675497],[101.87769675065968,3.4887210403675497],[101.87769675065968,3.4891136802327174],[101.87821495905024,3.4891136802327174],[101.87821495905024,3.4887210403675497]]],[[[101.87873316744081,3.491469522777649],[101.87821495905024,3.491469522777649],[101.87821495905024,3.4918621637609615],[101.87873316744081,3.4918621637609615],[101.87873316744081,3.491469522777649]]],[[[101.87769675065968,3.4934327292924703],[101.87769675065968,3.493825371075003],[101.87821495905024,3.493825371075003],[101.87821495905024,3.4934327292924703],[101.87769675065968,3.4934327292924703]]],[[[101.87510570870688,3.493825371075003],[101.87510570870688,3.494218013017434],[101.87562391709744,3.494218013017434],[101.87562391709744,3.493825371075003],[101.87510570870688,3.493825371075003]]],[[[101.87769675065968,3.4950032973820635],[101.87717854226912,3.4950032973820635],[101.87717854226912,3.495395939804298],[101.87769675065968,3.495395939804298],[101.87769675065968,3.4950032973820635]]],[[[101.86370512411455,3.505212052397934],[101.86318691572399,3.505212052397934],[101.86318691572399,3.5059973457331344],[101.86370512411455,3.5059973457331344],[101.86370512411455,3.505212052397934]]],[[[101.86422333250512,3.508353229590385],[101.86474154089566,3.508353229590385],[101.86474154089566,3.5075679343292148],[101.86370512411455,3.5075679343292148],[101.86422333250512,3.508353229590385]]],[[[101.86422333250512,3.519740083126951],[101.86422333250512,3.518954778538514],[101.86318691572399,3.518954778538514],[101.86318691572399,3.5193474307521937],[101.86266870733343,3.5193474307521937],[101.86266870733343,3.519740083126951],[101.86422333250512,3.519740083126951]]],[[[101.86370512411455,3.523273961751285],[101.86370512411455,3.5240592698856394],[101.86397397420666,3.5240592698856394],[101.86391677495801,3.52248865426197],[101.86318691572399,3.522881307926007],[101.86318691572399,3.523273961751285],[101.86370512411455,3.523273961751285]]],[[[101.86422333250512,3.544084845703963],[101.86370512411455,3.544084845703963],[101.86370512411455,3.5444775082632436],[101.86422333250512,3.5444775082632436],[101.86422333250512,3.544084845703963]]],[[[101.86422333250512,3.564574047333438],[101.86318691572399,3.5645035143182167],[101.86318691572399,3.565288856521087],[101.86422333250512,3.565288856521087],[101.86422333250512,3.564574047333438]]],[[[101.86266870733343,3.56489618533806],[101.86215049894287,3.56489618533806],[101.86215049894287,3.5656815278673166],[101.86266870733343,3.5656815278673166],[101.86266870733343,3.56489618533806]]],[[[101.86474154089566,3.5656815278673166],[101.8648964,3.5654743960698556],[101.86474154089566,3.5652672441109203],[101.86474154089566,3.5656815278673166]]],[[[101.86111408216175,3.5656815278673166],[101.86111408216175,3.566074199376768],[101.86163229055231,3.566074199376768],[101.86163229055231,3.5656815278673166],[101.86111408216175,3.5656815278673166]]],[[[101.86007766538063,3.5664668710494563],[101.86059587377117,3.5664668710494563],[101.86059587377117,3.567252214884625],[101.86163229055231,3.567252214884625],[101.86163229055231,3.5664668710494563],[101.86111408216175,3.5664668710494563],[101.86111408216175,3.566074199376768],[101.86007766538063,3.566074199376768],[101.86007766538063,3.5664668710494563]]],[[[101.86422333250512,3.5668595428854033],[101.86422333250512,3.5673225920119545],[101.86439196348194,3.5668595428854033],[101.86422333250512,3.5668595428854033]]],[[[101.86111408216175,3.576676391895697],[101.86215049894287,3.576676391895697],[101.86215049894287,3.5769245708842017],[101.86247476377223,3.575498364616993],[101.86163229055231,3.575498364616993],[101.86163229055231,3.5751056891847983],[101.86111408216175,3.5751056891847983],[101.86111408216175,3.576676391895697]]],[[[101.86111408216175,3.5821738720213476],[101.86147929999997,3.580603160136529],[101.86059587377117,3.580603160136529],[101.86059587377117,3.5821738720213476],[101.86111408216175,3.5821738720213476]]],[[[101.85981275614472,3.59120551631164],[101.86007766538063,3.5913131137356507],[101.86007766538063,3.59120551631164],[101.85981275614472,3.59120551631164]]]]},"properties":{"place_id":"a2620099-8bbc-511d-a0ed-853e3bf80d35","habitat":"open_grassland","habitat_label":"Open grassland or shrubland","resolution_m":50}},{"type":"Feature","geometry":{"type":"MultiPolygon","coordinates":[[[[101.86007766538063,3.509923822039707],[101.86059587377117,3.509923822039707],[101.86059587377117,3.509531173686458],[101.85955945699007,3.509138525493833],[101.85904124859951,3.509923822039707],[101.85955945699007,3.509923822039707],[101.85955945699007,3.5103164705535983],[101.86007766538063,3.5103164705535983],[101.86007766538063,3.509923822039707]]],[[[101.85593199825614,3.5103164705535983],[101.8564502066467,3.5103164705535983],[101.8564502066467,3.509923822039707],[101.85541378986557,3.509531173686458],[101.85489558147502,3.5103164705535983],[101.85541378986557,3.5103164705535983],[101.85541378986557,3.5107091192281508],[101.85593199825614,3.5107091192281508],[101.85593199825614,3.5103164705535983]]]]},"properties":{"place_id":"a2620099-8bbc-511d-a0ed-853e3bf80d35","habitat":"disturbed_built_edge","habitat_label":"Disturbed, bare or built edge","resolution_m":50}}]}