{"type":"FeatureCollection","metadata":{"schema_version":1,"place_id":"a298c344-8363-53d3-9fa1-787b55921918","place_name":"Kingfisher Park","place_type":"park","osm_reference":"way/1041210984","protection_context":"no protected status confirmed from included OSM tags","resolution_m":50,"raster_coverage":1.0,"interpretation":"Suggested search habitats, not predicted plant locations or probabilities of presence."},"features":[{"type":"Feature","geometry":{"type":"Polygon","coordinates":[[[116.1194621,6.020700493536741],[116.1192575,6.023884693533604],[116.11942650000002,6.024066093533414],[116.12043769999998,6.02299649353448],[116.1194621,6.020700493536741]]]},"properties":{"place_id":"a298c344-8363-53d3-9fa1-787b55921918","habitat":"forest_edge_opening","habitat_label":"Forest edge or opening","resolution_m":50}},{"type":"Feature","geometry":{"type":"MultiPolygon","coordinates":[[[[116.12013615682832,6.022627703940636],[116.11961794843778,6.022627703940636],[116.11961794843778,6.023021752828005],[116.12013615682832,6.023021752828005],[116.12013615682832,6.022627703940636]]],[[[116.11961794843778,6.023415801993741],[116.11961794843778,6.023021752828005],[116.11913996457609,6.023021752828005],[116.11919499709984,6.023415801993741],[116.11961794843778,6.023415801993741]]]]},"properties":{"place_id":"a298c344-8363-53d3-9fa1-787b55921918","habitat":"open_grassland","habitat_label":"Open grassland or shrubland","resolution_m":50}},{"type":"Feature","geometry":{"type":"MultiPolygon","coordinates":[[[[116.11909974004722,6.0218396070009215],[116.12013236010175,6.022233655331614],[116.1194621,6.020700493536741],[116.1191204,6.0208717935365685],[116.11909974004722,6.0218396070009215]]],[[[116.12029025245378,6.022627703940636],[116.12013615682832,6.0222422867115215],[116.12013615682832,6.022627703940636],[116.12029025245378,6.022627703940636]]]]},"properties":{"place_id":"a298c344-8363-53d3-9fa1-787b55921918","habitat":"disturbed_built_edge","habitat_label":"Disturbed, bare or built edge","resolution_m":50}},{"type":"Feature","geometry":{"type":"Polygon","coordinates":[[[116.11909974004722,6.021445558948538],[116.11909069174189,6.021445558948538],[116.11909974004722,6.021965497329258],[116.11909974004722,6.021445558948538]]]},"properties":{"place_id":"a298c344-8363-53d3-9fa1-787b55921918","habitat":"permanent_water","habitat_label":"Permanent water","resolution_m":50}},{"type":"Feature","geometry":{"type":"Polygon","coordinates":[[[116.1194621,6.020700493536741],[116.11913679999998,6.022999093534471],[116.11942650000002,6.024066093533414],[116.12043769999998,6.02299649353448],[116.1194621,6.020700493536741]]]},"properties":{"place_id":"a298c344-8363-53d3-9fa1-787b55921918","habitat":"water_edge","habitat_label":"Water edge","resolution_m":50}}]}