{"type":"FeatureCollection","metadata":{"schema_version":1,"place_id":"a31ceff4-46c8-5682-ac7a-21f6a4f549c1","place_name":"SAFODA","place_type":"wood","osm_reference":"way/1389968314","protection_context":"no protected status confirmed from included OSM tags","resolution_m":50,"raster_coverage":1.0,"interpretation":"Suggested search habitats, not predicted plant locations or probabilities of presence."},"features":[{"type":"Feature","geometry":{"type":"Polygon","coordinates":[[[116.01682619999997,5.795246093760091],[116.02239890000001,5.804087093751313],[116.0242676045746,5.804060282456909],[116.02323118779347,5.803185190123952],[116.02359019261364,5.802791293643936],[116.0212649,5.795459493759895],[116.01682619999997,5.795246093760091]]]},"properties":{"place_id":"a31ceff4-46c8-5682-ac7a-21f6a4f549c1","habitat":"forest_interior","habitat_label":"Forest interior","resolution_m":50}},{"type":"Feature","geometry":{"type":"MultiPolygon","coordinates":[[[[116.02108554380905,5.802003501487592],[116.02115835423123,5.8021190152027255],[116.02115835423123,5.802003501487592],[116.02108554380905,5.802003501487592]]],[[[116.02359019261364,5.802791293643936],[116.02323118779347,5.803185190123952],[116.02352168477097,5.803185190123952],[116.02359019261364,5.802791293643936]]],[[[116.0242676045746,5.804060282456909],[116.02444299999999,5.804081993751298],[116.0242676045746,5.803763585107628],[116.0242676045746,5.804060282456909]]],[[[116.02323118779347,5.803972983887771],[116.02271297940293,5.804079115969972],[116.02323118779347,5.804070724088501],[116.02323118779347,5.803972983887771]]]]},"properties":{"place_id":"a31ceff4-46c8-5682-ac7a-21f6a4f549c1","habitat":"forest_edge_opening","habitat_label":"Forest edge or opening","resolution_m":50}},{"type":"Feature","geometry":{"type":"MultiPolygon","coordinates":[[[[116.02115835423123,5.802003501487592],[116.02108554380905,5.802003501487592],[116.02115835423123,5.8021190152027255],[116.02115835423123,5.802003501487592]]],[[[116.02359019261364,5.802791293643936],[116.02323118779347,5.803185190123952],[116.02352168477097,5.803185190123952],[116.02359019261364,5.802791293643936]]]]},"properties":{"place_id":"a31ceff4-46c8-5682-ac7a-21f6a4f549c1","habitat":"disturbed_built_edge","habitat_label":"Disturbed, bare or built edge","resolution_m":50}},{"type":"Feature","geometry":{"type":"MultiPolygon","coordinates":[[[[116.02331229116034,5.802003501487592],[116.02323118779347,5.802397397431822],[116.02343858037234,5.802397397431822],[116.02331229116034,5.802003501487592]]],[[[116.02374939618404,5.803972983887771],[116.0242676045746,5.803972983887771],[116.02444299999999,5.804081993751298],[116.02426479999998,5.803758493751621],[116.02374939618404,5.803972983887771]]]]},"properties":{"place_id":"a31ceff4-46c8-5682-ac7a-21f6a4f549c1","habitat":"water_edge","habitat_label":"Water edge","resolution_m":50}}]}