{"type":"FeatureCollection","metadata":{"schema_version":1,"place_id":"a400b4a6-44fe-519b-b031-101c551867dc","place_name":"Lumut Waterfront Marina Wing","place_type":"park","osm_reference":"way/546287165","protection_context":"no protected status confirmed from included OSM tags","resolution_m":50,"raster_coverage":1.0,"interpretation":"Suggested search habitats, not predicted plant locations or probabilities of presence."},"features":[{"type":"Feature","geometry":{"type":"Polygon","coordinates":[[[100.6391685,4.236494995357584],[100.6415908,4.23348359536074],[100.63947479999999,4.234402395359766],[100.63978279999999,4.235584495358543],[100.63893869999998,4.235973695358135],[100.6391685,4.236494995357584]]]},"properties":{"place_id":"a400b4a6-44fe-519b-b031-101c551867dc","habitat":"forest_edge_opening","habitat_label":"Forest edge or opening","resolution_m":50}},{"type":"Feature","geometry":{"type":"MultiPolygon","coordinates":[[[[100.64073332239144,4.2346526311368375],[100.63969690561032,4.2346526311368375],[100.63969690561032,4.235045607021256],[100.6406551277944,4.235045607021256],[100.64073332239144,4.2346526311368375]]],[[[100.6402024,4.235683195358432],[100.63974478211117,4.235438583099946],[100.63969690561032,4.23583155937293],[100.6402024,4.235683195358432]]]]},"properties":{"place_id":"a400b4a6-44fe-519b-b031-101c551867dc","habitat":"open_grassland","habitat_label":"Open grassland or shrubland","resolution_m":50}},{"type":"Feature","geometry":{"type":"MultiPolygon","coordinates":[[[[100.63969690561032,4.235624099776361],[100.63924696558733,4.23583155937293],[100.63969690561032,4.23583155937293],[100.63969690561032,4.235624099776361]]],[[[100.63974478211117,4.235438583099946],[100.64021511400087,4.235669454193207],[100.64125153078199,4.233866679950747],[100.63947479999999,4.234402395359766],[100.63974478211117,4.235438583099946]]],[[[100.63917869721975,4.236224535840225],[100.63917869721975,4.235863036746356],[100.63893869999998,4.235973695358135],[100.63917869721975,4.236224535840225]]]]},"properties":{"place_id":"a400b4a6-44fe-519b-b031-101c551867dc","habitat":"disturbed_built_edge","habitat_label":"Disturbed, bare or built edge","resolution_m":50}},{"type":"Feature","geometry":{"type":"MultiPolygon","coordinates":[[[[100.64125153078199,4.234081804426892],[100.64154359999999,4.233604695360607],[100.6415908,4.23348359536074],[100.64125153078199,4.233747499956086],[100.64125153078199,4.234081804426892]]],[[[100.64073332239144,4.2346526311368375],[100.64073332239144,4.234917668077841],[100.64089614820614,4.2346526311368375],[100.64073332239144,4.2346526311368375]]],[[[100.64021511400087,4.235438583099946],[100.64021511400087,4.235669454193207],[100.64039731244449,4.235438583099946],[100.64021511400087,4.235438583099946]]],[[[100.63969690561032,4.23583155937293],[100.63974509999998,4.236045595358047],[100.64000644319113,4.23583155937293],[100.63969690561032,4.23583155937293]]],[[[100.63917869721975,4.236224535840225],[100.63917869721975,4.236486571145237],[100.63950402358272,4.236224535840225],[100.63917869721975,4.236224535840225]]]]},"properties":{"place_id":"a400b4a6-44fe-519b-b031-101c551867dc","habitat":"permanent_water","habitat_label":"Permanent water","resolution_m":50}},{"type":"Feature","geometry":{"type":"Polygon","coordinates":[[[100.64125153078199,4.233747499956086],[100.64139160595967,4.233866679950747],[100.6415908,4.23348359536074],[100.64125153078199,4.233747499956086]]]},"properties":{"place_id":"a400b4a6-44fe-519b-b031-101c551867dc","habitat":"seasonal_water_wetland","habitat_label":"Seasonal water or wetland","resolution_m":50}},{"type":"Feature","geometry":{"type":"Polygon","coordinates":[[[100.64021511400087,4.2346526311368375],[100.63969690561032,4.2346526311368375],[100.63978279999999,4.235584495358543],[100.63893869999998,4.235973695358135],[100.6391685,4.236494995357584],[100.64039731244449,4.235438583099946],[100.64125153078199,4.233747499956086],[100.64021511400087,4.234156960199052],[100.64021511400087,4.2346526311368375]]]},"properties":{"place_id":"a400b4a6-44fe-519b-b031-101c551867dc","habitat":"water_edge","habitat_label":"Water edge","resolution_m":50}}]}