{"type":"FeatureCollection","metadata":{"schema_version":1,"place_id":"a40511ac-7001-5a0c-879f-825c1a093c43","place_name":"Pulau Lengkur","place_type":"wood","osm_reference":"way/412279591","protection_context":"no protected status confirmed from included OSM tags","resolution_m":50,"raster_coverage":1.0,"interpretation":"Suggested search habitats, not predicted plant locations or probabilities of presence."},"features":[{"type":"Feature","geometry":{"type":"MultiPolygon","coordinates":[[[[102.93276903384114,3.491076881954126],[102.9322508254506,3.491076881954126],[102.9322508254506,3.491469522777649],[102.93276903384114,3.491469522777649],[102.93276903384114,3.491076881954126]]],[[[102.9281051583261,3.4934327292924703],[102.92862336671666,3.492647446207028],[102.92965978349778,3.492647446207028],[102.93017799188834,3.4918621637609615],[102.93173261706002,3.4918621637609615],[102.93173261706002,3.491469522777649],[102.92914157510722,3.491469522777649],[102.92914157510722,3.4918621637609615],[102.9281051583261,3.4918621637609615],[102.92758694993555,3.492647446207028],[102.92603232476387,3.492647446207028],[102.92655053315441,3.4934327292924703],[102.9281051583261,3.4934327292924703]]],[[[102.92603232476387,3.4934327292924703],[102.92603232476387,3.4930400876698178],[102.92499590798275,3.4930400876698178],[102.92499590798275,3.4934327292924703],[102.92603232476387,3.4934327292924703]]]]},"properties":{"place_id":"a40511ac-7001-5a0c-879f-825c1a093c43","habitat":"forest_interior","habitat_label":"Forest interior","resolution_m":50}},{"type":"Feature","geometry":{"type":"Polygon","coordinates":[[[102.92447769959217,3.492647446207028],[102.92395949120163,3.492647446207028],[102.92395949120163,3.4934327292924703],[102.92344128281105,3.4934327292924703],[102.92344128281105,3.493825371075003],[102.92395949120163,3.493825371075003],[102.92395949120163,3.494218013017434],[102.92577449999999,3.4944075961460417],[102.9280061,3.4936686961468144],[102.93103159999998,3.492139996148464],[102.93392759999999,3.491567996149046],[102.93536007579395,3.490684241290374],[102.93042540000002,3.4909673961497023],[102.9259515,3.4923407961482376],[102.92447769959217,3.492256666601424],[102.92447769959217,3.492647446207028]],[[102.92603232476387,3.4934327292924703],[102.92499590798275,3.4934327292924703],[102.92499590798275,3.4930400876698178],[102.92603232476387,3.4930400876698178],[102.92603232476387,3.4934327292924703]],[[102.92603232476387,3.492647446207028],[102.92758694993555,3.492647446207028],[102.92758694993555,3.4922548049040825],[102.9281051583261,3.4922548049040825],[102.9281051583261,3.4918621637609615],[102.92914157510722,3.4918621637609615],[102.92914157510722,3.491469522777649],[102.93173261706002,3.491469522777649],[102.93173261706002,3.4918621637609615],[102.93017799188834,3.4918621637609615],[102.92965978349778,3.492647446207028],[102.92862336671666,3.492647446207028],[102.9281051583261,3.4934327292924703],[102.92655053315441,3.4934327292924703],[102.92603232476387,3.492647446207028]],[[102.9322508254506,3.491076881954126],[102.93276903384114,3.491076881954126],[102.93276903384114,3.491469522777649],[102.9322508254506,3.491469522777649],[102.9322508254506,3.491076881954126]]]},"properties":{"place_id":"a40511ac-7001-5a0c-879f-825c1a093c43","habitat":"forest_edge_opening","habitat_label":"Forest edge or opening","resolution_m":50}},{"type":"Feature","geometry":{"type":"MultiPolygon","coordinates":[[[[102.93484186740339,3.490684241290374],[102.93484186740339,3.491076881954126],[102.93536007579395,3.490892710523329],[102.93536007579395,3.490684241290374],[102.93484186740339,3.490684241290374]]],[[[102.92862336671666,3.4930400876698178],[102.92862336671666,3.493383634724115],[102.92914157510722,3.4931120847908974],[102.92914157510722,3.4930400876698178],[102.92862336671666,3.4930400876698178]]],[[[102.92706874154499,3.4940379731491094],[102.92655053315441,3.4934327292924703],[102.92603232476387,3.4934327292924703],[102.92603232476387,3.494218013017434],[102.92706874154499,3.4940379731491094]]],[[[102.92447769959217,3.493825371075003],[102.92447769959217,3.494218013017434],[102.9255141163733,3.494218013017434],[102.9255141163733,3.493825371075003],[102.92447769959217,3.493825371075003]]]]},"properties":{"place_id":"a40511ac-7001-5a0c-879f-825c1a093c43","habitat":"cropland","habitat_label":"Cropland","resolution_m":50}},{"type":"Feature","geometry":{"type":"MultiPolygon","coordinates":[[[[102.92914157510722,3.491469522777649],[102.92914157510722,3.4913227146891335],[102.92873399167652,3.491469522777649],[102.92914157510722,3.491469522777649]]],[[[102.9281051583261,3.4918621637609615],[102.9281051583261,3.4917012400927767],[102.92767587825779,3.4918621637609615],[102.9281051583261,3.4918621637609615]]],[[[102.92758694993555,3.4922548049040825],[102.92758694993555,3.4918955002103282],[102.92633164145792,3.4922548049040825],[102.92758694993555,3.4922548049040825]]],[[[102.92395949120163,3.493825371075003],[102.92395949120163,3.4934327292924703],[102.92447769959217,3.4934327292924703],[102.92447769959217,3.492647446207028],[102.92603232476387,3.492647446207028],[102.92603232476387,3.492322665366611],[102.92436899999998,3.4922871961483017],[102.92249639999997,3.493652096146829],[102.92339000000001,3.494300496146107],[102.92651120835163,3.494218013017434],[102.92447769959217,3.494218013017434],[102.92447769959217,3.493825371075003],[102.92395949120163,3.493825371075003]]],[[[102.92914157510722,3.4930400876698178],[102.92914157510722,3.4931120847908974],[102.92926669436474,3.4930400876698178],[102.92914157510722,3.4930400876698178]]],[[[102.9281051583261,3.4934327292924703],[102.9281051583261,3.4936235356322363],[102.92852368674886,3.4934327292924703],[102.9281051583261,3.4934327292924703]]],[[[102.92706874154499,3.493825371075003],[102.92706874154499,3.4940379731491094],[102.92762787298739,3.493825371075003],[102.92706874154499,3.493825371075003]]],[[[102.93536007579395,3.490684241290374],[102.93591989999999,3.490572496150128],[102.93437098059532,3.490684241290374],[102.93536007579395,3.490684241290374]]],[[[102.9322508254506,3.491076881954126],[102.9322508254506,3.490785000476815],[102.93000661462683,3.491076881954126],[102.9322508254506,3.491076881954126]]],[[[102.93484186740339,3.491076881954126],[102.93484186740339,3.4911482246739003],[102.93498940415232,3.491076881954126],[102.93484186740339,3.491076881954126]]],[[[102.93276903384114,3.491469522777649],[102.93276903384114,3.4917877239517323],[102.93415595635082,3.491469522777649],[102.93276903384114,3.491469522777649]]],[[[102.93173261706002,3.4918621637609615],[102.93173261706002,3.491999476320032],[102.93233991023304,3.4918621637609615],[102.93173261706002,3.4918621637609615]]],[[[102.93017799188834,3.4922548049040825],[102.93017799188834,3.4925239391505944],[102.93073927364885,3.4922548049040825],[102.93017799188834,3.4922548049040825]]],[[[102.92965978349778,3.492647446207028],[102.92965978349778,3.492813893220661],[102.92995399982428,3.492647446207028],[102.92965978349778,3.492647446207028]]]]},"properties":{"place_id":"a40511ac-7001-5a0c-879f-825c1a093c43","habitat":"permanent_water","habitat_label":"Permanent water","resolution_m":50}},{"type":"Feature","geometry":{"type":"MultiPolygon","coordinates":[[[[102.92914157510722,3.491469522777649],[102.92914157510722,3.4913227146891335],[102.92873399167652,3.491469522777649],[102.92914157510722,3.491469522777649]]],[[[102.92655053315441,3.4922548049040825],[102.92655053315441,3.4921952668345977],[102.92633164145792,3.4922548049040825],[102.92655053315441,3.4922548049040825]]],[[[102.92499590798275,3.492647446207028],[102.9255141163733,3.492647446207028],[102.9255141163733,3.492320226061816],[102.92499590798275,3.4922548049040825],[102.92499590798275,3.492647446207028]]],[[[102.92732749999999,3.4939497961465036],[102.92706874154499,3.493825371075003],[102.92706874154499,3.4940379731491094],[102.92732749999999,3.4939497961465036]]],[[[102.92292307442051,3.493825371075003],[102.92395949120163,3.4943053747845476],[102.92395949120163,3.493825371075003],[102.92292307442051,3.493825371075003]]],[[[102.92499590798275,3.494218013017434],[102.9255141163733,3.4944061805367683],[102.9255141163733,3.494218013017434],[102.92499590798275,3.494218013017434]]],[[[102.9306962002789,3.491076881954126],[102.93173261706002,3.4908370502910104],[102.9306962002789,3.490949171887132],[102.9306962002789,3.491076881954126]]],[[[102.93536007579395,3.490684241290374],[102.93536007579395,3.490892710523329],[102.93581926545633,3.490684241290374],[102.93536007579395,3.490684241290374]]],[[[102.93380545062227,3.491469522777649],[102.93392759999999,3.491567996149046],[102.93415595635082,3.491469522777649],[102.93380545062227,3.491469522777649]]],[[[102.9306962002789,3.4922548049040825],[102.9306962002789,3.4922717216148857],[102.93073927364885,3.4922548049040825],[102.9306962002789,3.4922548049040825]]],[[[102.92965978349778,3.492813893220661],[102.92914157510722,3.492647446207028],[102.92914157510722,3.4931120847908974],[102.92965978349778,3.492813893220661]]]]},"properties":{"place_id":"a40511ac-7001-5a0c-879f-825c1a093c43","habitat":"seasonal_water_wetland","habitat_label":"Seasonal water or wetland","resolution_m":50}},{"type":"Feature","geometry":{"type":"Polygon","coordinates":[[[102.92603232476387,3.492647446207028],[102.92447769959217,3.492647446207028],[102.92447769959217,3.4934327292924703],[102.92395949120163,3.4934327292924703],[102.92395949120163,3.493825371075003],[102.92447769959217,3.493825371075003],[102.92447769959217,3.494218013017434],[102.92665959999998,3.4941773961462683],[102.92914157510722,3.4931120847908974],[102.92914157510722,3.492647446207028],[102.93276903384114,3.4917877239517323],[102.93276903384114,3.491469522777649],[102.93415595635082,3.491469522777649],[102.93536007579395,3.490684241290374],[102.93000661462683,3.491076881954126],[102.92758694993555,3.4918955002103282],[102.92758694993555,3.4922548049040825],[102.92603232476387,3.492322665366611],[102.92603232476387,3.492647446207028]],[[102.92603232476387,3.4930400876698178],[102.92706874154499,3.4930400876698178],[102.92706874154499,3.4934327292924703],[102.92603232476387,3.4934327292924703],[102.92603232476387,3.4930400876698178]],[[102.9281051583261,3.4930400876698178],[102.92758694993555,3.4930400876698178],[102.92758694993555,3.492647446207028],[102.9281051583261,3.492647446207028],[102.9281051583261,3.4930400876698178]],[[102.9281051583261,3.4922548049040825],[102.92862336671666,3.4922548049040825],[102.92862336671666,3.492647446207028],[102.9281051583261,3.492647446207028],[102.9281051583261,3.4922548049040825]]]},"properties":{"place_id":"a40511ac-7001-5a0c-879f-825c1a093c43","habitat":"water_edge","habitat_label":"Water edge","resolution_m":50}}]}