{"type":"FeatureCollection","metadata":{"schema_version":1,"place_id":"a47282d9-a75a-5b67-a46a-9c2330111ea6","place_name":"Hutan Simpanan Kekal Batang Kali","place_type":"park","osm_reference":"relation/18135314","protection_context":"mapped protected boundary","resolution_m":50,"raster_coverage":1.0,"interpretation":"Suggested search habitats, not predicted plant locations or probabilities of presence."},"features":[{"type":"Feature","geometry":{"type":"Polygon","coordinates":[[[101.74607181945727,3.4298268585640805],[101.74607181945727,3.4302194746826338],[101.74503540267617,3.430612090958146],[101.74503540267617,3.4302194746826338],[101.7445171942856,3.4302194746826338],[101.7443901,3.428802696216456],[101.7488587,3.419640596226282],[101.7529035,3.4128933962335393],[101.75485609999998,3.4143498962319567],[101.75927640000002,3.4094019962373054],[101.76017759999999,3.4030724962440932],[101.7618728,3.3968606962507923],[101.76086429999998,3.3941402962536906],[101.76311729999999,3.393374596254534],[101.7635465,3.389053096259189],[101.76495189999999,3.3886085962596417],[101.765129,3.3869966962613867],[101.76450669999997,3.383687296264938],[101.76182049999998,3.3788556962701537],[101.75927369999997,3.378091196270946],[101.7598839,3.376123196273094],[101.7585844,3.3749638962743305],[101.7584503,3.373223396276166],[101.7560041,3.3729449962764706],[101.7557681,3.3733840962760056],[101.7539817,3.3727521962766827],[101.7521471,3.3714722962780654],[101.75102589999999,3.3718739962776403],[101.75166959999997,3.3727467962766933],[101.75011929999998,3.3729342962764948],[101.7495131,3.3734483962759465],[101.74674779999998,3.373517996275866],[101.74621940000002,3.3763400962728487],[101.74364979999999,3.375611796273606],[101.7431402,3.3750816962742007],[101.7411017,3.3758848962733365],[101.73788839999999,3.3761075962731177],[101.7361296,3.3782624962707724],[101.7334081,3.3792433962697195],[101.731247,3.3791603962698074],[101.72974859999998,3.3797251962691974],[101.7287017,3.382756496265942],[101.72635630000002,3.384743296263814],[101.7239116,3.385867396262587],[101.72207609999997,3.3884068962598612],[101.71795439999998,3.3886026962596647],[101.716528,3.3876862962606413],[101.71593849999996,3.3849072962636377],[101.7136997,3.3836724962649614],[101.7122225,3.3784424962705697],[101.712164,3.375750096273482],[101.70986099999999,3.3739604962754073],[101.7094507,3.370126596279537],[101.70690510000001,3.3661019962838727],[101.7065426,3.3638896962862415],[101.7032122,3.3627697962874197],[101.70444130000001,3.3652924962847277],[101.7027032,3.367193596282678],[101.70149089999998,3.36642779628348],[101.70027849999998,3.366524196283413],[101.6982883,3.3674612962823742],[101.69692039999998,3.3672524962826333],[101.6952199,3.3676165962822115],[101.6930634,3.370936796278661],[101.6934979,3.37605099627315],[101.69232839999998,3.3805598962683168],[101.69048309999997,3.3834944962651665],[101.68868599999998,3.3848171962637297],[101.6887665,3.3873233962610176],[101.68478069999999,3.392705196255256],[101.68387409999998,3.3933316962545876],[101.68323039999999,3.3949006962528965],[101.68359519999997,3.399206196248227],[101.6846681,3.401224996246075],[101.6833699,3.4034820962436676],[101.68329879999999,3.4054446962415645],[101.68465729999998,3.4065156962403926],[101.68481559999998,3.411685896234858],[101.6899842,3.4217636962240174],[101.71272399999998,3.42137019622444],[101.7126918,3.4239886962216266],[101.7140221,3.4240314962215797],[101.7139149,3.4317852962132345],[101.7221761,3.428957996216274],[101.7234582,3.4289525962162815],[101.72314169999999,3.4361547962085575],[101.7137821,3.4394225962050347],[101.71377539999999,3.442564496201663],[101.7215323,3.449908396193793],[101.7137378,3.4613593961814755],[101.7147464,3.4721274961699153],[101.70866310000001,3.4824295961588696],[101.7128205,3.4818406961595114],[101.71504139999999,3.481101696160286],[101.7190861,3.4789331961626067],[101.7255771,3.4797951961616955],[101.73007789999998,3.4795381961619833],[101.7319286,3.4790268961625],[101.73470189999999,3.4790616961624834],[101.7374593,3.4785047961630915],[101.73958900000001,3.4794578961620566],[101.74664319999998,3.479789896161708],[101.7503178,3.48200129615933],[101.7515463,3.482108396159221],[101.75551049999997,3.480900896160505],[101.756047,3.4815327961598297],[101.7578065,3.480180796161273],[101.7590081,3.4784886961631],[101.76116459999999,3.477642696164019],[101.76186739999999,3.4787778961627867],[101.76469710000002,3.478855496162706],[101.7698014,3.472191796169836],[101.773653,3.4666122961758585],[101.7736369,3.46127909618159],[101.77664639999999,3.456449196186768],[101.77666779999998,3.455206896188074],[101.77491369999998,3.45250279619099],[101.77516580000001,3.44929529619445],[101.7769843,3.4475282961963463],[101.77783189999998,3.446039696197937],[101.7806804,3.4437906962003537],[101.7813939,3.4424037962018414],[101.7812169,3.43993259620447],[101.7835236,3.435707696209039],[101.7820108,3.4287223962165334],[101.779747,3.428668796216597],[101.77992940000001,3.426569696218846],[101.7806804,3.4252309962202694],[101.78390103196821,3.425298428766938],[101.78338282357764,3.425115477377661],[101.78390103196821,3.4243302493748993],[101.78545565713989,3.425115477377661],[101.78545565713989,3.4261785126999094],[101.7864096,3.4273836962179876],[101.78908311587382,3.4255550756608564],[101.7865759,3.425348796220178],[101.7843121,3.42301949622267],[101.78381859999999,3.421619196224185],[101.7827082,3.421075696224764],[101.7814046,3.4192067962267605],[101.77942510000001,3.4195494962263884],[101.77622789999998,3.4176217962284405],[101.7730898,3.4168345962293083],[101.771062,3.4146176962316828],[101.76875529999998,3.4134609962329168],[101.7684924,3.4149175962313616],[101.7665934,3.4158171962304005],[101.7639112,3.4155815962306413],[101.7579246,3.422516096223186],[101.7575598,3.422259096223482],[101.75720039999999,3.4227141962229664],[101.75647879999998,3.4245749962209664],[101.7571789,3.4258119962196565],[101.75872119999998,3.426443896218969],[101.7575839,3.4270167962183655],[101.756629,3.426392996219046],[101.75551860000002,3.4267115962187025],[101.7511439,3.4247490962207894],[101.74944339999999,3.424909696220622],[101.74994229999999,3.4259378962195126],[101.74965259999999,3.4265750962188295],[101.7459887,3.429006196216237],[101.74562602176587,3.4298268585640805],[101.74607181945727,3.4298268585640805]],[[101.7300073593499,3.4302194746826338],[101.72948915095934,3.4302194746826338],[101.72948915095934,3.4298268585640805],[101.73052556774047,3.4294342426024684],[101.73104377613102,3.4302194746826338],[101.73052556774047,3.4302194746826338],[101.73052556774047,3.430612090958146],[101.7300073593499,3.430612090958146],[101.7300073593499,3.4302194746826338]],[[101.74140794394224,3.4302194746826338],[101.74088973555169,3.4302194746826338],[101.74088973555169,3.4282563956590963],[101.74140794394224,3.4282563956590963],[101.7419261523328,3.4274711651478884],[101.74296256911393,3.4274711651478884],[101.74348077750447,3.4282563956590963],[101.74244436072337,3.428649011149994],[101.74244436072337,3.4302194746826338],[101.7419261523328,3.4302194746826338],[101.7419261523328,3.430612090958146],[101.74140794394224,3.430612090958146],[101.74140794394224,3.4302194746826338]]]},"properties":{"place_id":"a47282d9-a75a-5b67-a46a-9c2330111ea6","habitat":"forest_interior","habitat_label":"Forest interior","resolution_m":50}},{"type":"Feature","geometry":{"type":"MultiPolygon","coordinates":[[[[101.78493744874933,3.425115477377661],[101.78441924035877,3.4243302493748993],[101.78338282357764,3.424722863297928],[101.78338282357764,3.425115477377661],[101.7847735,3.425316696220163],[101.78545565713989,3.4261785126999094],[101.78545565713989,3.425115477377661],[101.78493744874933,3.425115477377661]]],[[[101.78908311587382,3.425795331313984],[101.78951020000001,3.4255415962199613],[101.78908311587382,3.4255550756608564],[101.78908311587382,3.425795331313984]]],[[[101.74244436072337,3.4302194746826338],[101.74244436072337,3.428649011149994],[101.74348077750447,3.4282563956590963],[101.74296256911393,3.4274711651478884],[101.7419261523328,3.4274711651478884],[101.7419261523328,3.4278637803250667],[101.74088973555169,3.4282563956590963],[101.74088973555169,3.4302194746826338],[101.74140794394224,3.4302194746826338],[101.74140794394224,3.430612090958146],[101.74244436072337,3.4302194746826338]]],[[[101.73104377613102,3.4298268585640805],[101.7300073593499,3.4294342426024684],[101.72948915095934,3.4302194746826338],[101.73052556774047,3.430612090958146],[101.73104377613102,3.4298268585640805]]],[[[101.74607181945727,3.4298268585640805],[101.7454255,3.4302805962148395],[101.7445171942856,3.4298268585640805],[101.7445171942856,3.4302194746826338],[101.74555361106673,3.430612090958146],[101.74607181945727,3.4298268585640805]]]]},"properties":{"place_id":"a47282d9-a75a-5b67-a46a-9c2330111ea6","habitat":"forest_edge_opening","habitat_label":"Forest edge or opening","resolution_m":50}},{"type":"Feature","geometry":{"type":"MultiPolygon","coordinates":[[[[101.78390103196821,3.425115477377661],[101.78441924035877,3.425115477377661],[101.78441924035877,3.424722863297928],[101.78390103196821,3.424722863297928],[101.78390103196821,3.425115477377661]]],[[[101.78493744874933,3.425115477377661],[101.78441924035877,3.425115477377661],[101.78441924035877,3.4253092788464303],[101.78493744874933,3.4255238239898778],[101.78493744874933,3.425115477377661]]],[[[101.7419261523328,3.4278637803250667],[101.7419261523328,3.4282563956590963],[101.74296256911393,3.4282563956590963],[101.74296256911393,3.4278637803250667],[101.7419261523328,3.4278637803250667]]],[[[101.7419261523328,3.4302194746826338],[101.7419261523328,3.4282563956590963],[101.74140794394224,3.4282563956590963],[101.74140794394224,3.4302194746826338],[101.7419261523328,3.4302194746826338]]]]},"properties":{"place_id":"a47282d9-a75a-5b67-a46a-9c2330111ea6","habitat":"open_grassland","habitat_label":"Open grassland or shrubland","resolution_m":50}},{"type":"Feature","geometry":{"type":"MultiPolygon","coordinates":[[[[101.73052556774047,3.4302194746826338],[101.73104377613102,3.4302194746826338],[101.73104377613102,3.4298268585640805],[101.7300073593499,3.4294342426024684],[101.72948915095934,3.4302194746826338],[101.7300073593499,3.4302194746826338],[101.7300073593499,3.430612090958146],[101.73052556774047,3.430612090958146],[101.73052556774047,3.4302194746826338]]],[[[101.74555361106673,3.4302194746826338],[101.74607181945727,3.4302194746826338],[101.74607181945727,3.4298268585640805],[101.7454255,3.4302805962148395],[101.7445171942856,3.4298268585640805],[101.74503540267617,3.430612090958146],[101.74555361106673,3.430612090958146],[101.74555361106673,3.4302194746826338]]]]},"properties":{"place_id":"a47282d9-a75a-5b67-a46a-9c2330111ea6","habitat":"disturbed_built_edge","habitat_label":"Disturbed, bare or built edge","resolution_m":50}}]}