{"type":"FeatureCollection","metadata":{"schema_version":1,"place_id":"a4b13022-e9fd-5b68-b7c6-3169692b7124","place_name":"Bintulu History and Cultural Corridor","place_type":"park","osm_reference":"way/422583466","protection_context":"no protected status confirmed from included OSM tags","resolution_m":50,"raster_coverage":1.0,"interpretation":"Suggested search habitats, not predicted plant locations or probabilities of presence."},"features":[{"type":"Feature","geometry":{"type":"Polygon","coordinates":[[[113.03990548333589,3.1822897138282498],[113.04064447117035,3.182116622165227],[113.0402802,3.1818174964825343],[113.03990548333589,3.1822897138282498]]]},"properties":{"place_id":"a4b13022-e9fd-5b68-b7c6-3169692b7124","habitat":"forest_edge_opening","habitat_label":"Forest edge or opening","resolution_m":50}},{"type":"Feature","geometry":{"type":"Polygon","coordinates":[[[113.03990548333589,3.182888278461374],[113.0402821957445,3.182901663692755],[113.04064447117035,3.182116622165227],[113.04004283602312,3.182116622165227],[113.03990548333589,3.182888278461374]]]},"properties":{"place_id":"a4b13022-e9fd-5b68-b7c6-3169692b7124","habitat":"open_grassland","habitat_label":"Open grassland or shrubland","resolution_m":50}},{"type":"Feature","geometry":{"type":"Polygon","coordinates":[[[113.0397257,3.18273019648157],[113.04011929999999,3.183076196481168],[113.0408542,3.18228879648203],[113.0402802,3.1818174964825343],[113.0397257,3.18273019648157]]]},"properties":{"place_id":"a4b13022-e9fd-5b68-b7c6-3169692b7124","habitat":"disturbed_built_edge","habitat_label":"Disturbed, bare or built edge","resolution_m":50}}]}