{"type":"FeatureCollection","metadata":{"schema_version":1,"place_id":"a4cda510-6066-5af0-9add-daa09c73a5eb","place_name":"Pulau Chopin","place_type":"wood","osm_reference":"way/76397068","protection_context":"no protected status confirmed from included OSM tags","resolution_m":50,"raster_coverage":1.0,"interpretation":"Suggested search habitats, not predicted plant locations or probabilities of presence."},"features":[{"type":"Feature","geometry":{"type":"MultiPolygon","coordinates":[[[[100.93248464627708,4.534551056777268],[100.93196643788652,4.534557862645138],[100.93196643788652,4.534944186215639],[100.93248464627708,4.534944186215639],[100.93248464627708,4.534551056777268]]],[[[100.93144822949596,4.534944186215639],[100.93144822949596,4.535337315862262],[100.93196643788652,4.535337315862262],[100.93196643788652,4.534944186215639],[100.93144822949596,4.534944186215639]]],[[[100.92989360432428,4.53573044571716],[100.92989360432428,4.536123575780347],[100.92885718754316,4.536123575780347],[100.92833897915258,4.536909836531666],[100.92678435398092,4.536909836531666],[100.92626614559035,4.537696098116365],[100.92522972880923,4.537696098116365],[100.92522972880923,4.538089229221281],[100.92419331202811,4.538482360534595],[100.92419331202811,4.5392686237865],[100.92367510363755,4.5392686237865],[100.92367510363755,4.539661755725125],[100.92989360432428,4.5392686237865],[100.92989360432428,4.538482360534595],[100.93041181271484,4.538482360534595],[100.93041181271484,4.536909836531666],[100.9309300211054,4.536909836531666],[100.93144822949596,4.535337315862262],[100.9309300211054,4.535337315862262],[100.9309300211054,4.53573044571716],[100.92989360432428,4.53573044571716]]]]},"properties":{"place_id":"a4cda510-6066-5af0-9add-daa09c73a5eb","habitat":"forest_interior","habitat_label":"Forest interior","resolution_m":50}},{"type":"Feature","geometry":{"type":"MultiPolygon","coordinates":[[[[100.93467142734676,4.532585412708573],[100.93455747983931,4.532590327748854],[100.93455747983931,4.532728100478787],[100.93467142734676,4.532585412708573]]],[[[100.9335210630582,4.533764798525213],[100.9319768012295,4.534551056777268],[100.93248464627708,4.534551056777268],[100.93248464627708,4.534944186215639],[100.93196643788652,4.534944186215639],[100.93196643788652,4.534557862645138],[100.92545269999998,4.537436595042539],[100.9220436,4.540185295039642],[100.9298596,4.5396745950401804],[100.93167809999998,4.536110395043913],[100.9335210630582,4.533764798525213]],[[100.93196643788652,4.535337315862262],[100.93144822949596,4.535337315862262],[100.93144822949596,4.534944186215639],[100.93196643788652,4.534944186215639],[100.93196643788652,4.535337315862262]],[[100.93144822949596,4.536123575780347],[100.9309300211054,4.536123575780347],[100.9309300211054,4.536909836531666],[100.93041181271484,4.536909836531666],[100.93041181271484,4.538482360534595],[100.92989360432428,4.538482360534595],[100.92989360432428,4.5392686237865],[100.92367510363755,4.539661755725125],[100.92367510363755,4.5392686237865],[100.92419331202811,4.5392686237865],[100.92419331202811,4.538482360534595],[100.92471152041867,4.538482360534595],[100.92522972880923,4.537696098116365],[100.92626614559035,4.537696098116365],[100.92678435398092,4.536909836531666],[100.92833897915258,4.536909836531666],[100.92885718754316,4.536123575780347],[100.92989360432428,4.536123575780347],[100.92989360432428,4.53573044571716],[100.9309300211054,4.53573044571716],[100.9309300211054,4.535337315862262],[100.93144822949596,4.535337315862262],[100.93144822949596,4.536123575780347]]]]},"properties":{"place_id":"a4cda510-6066-5af0-9add-daa09c73a5eb","habitat":"forest_edge_opening","habitat_label":"Forest edge or opening","resolution_m":50}},{"type":"Feature","geometry":{"type":"Polygon","coordinates":[[[100.9335210630582,4.533536012598619],[100.93364021595556,4.533764798525213],[100.93400045604106,4.533371669711491],[100.9335210630582,4.533536012598619]]]},"properties":{"place_id":"a4cda510-6066-5af0-9add-daa09c73a5eb","habitat":"cropland","habitat_label":"Cropland","resolution_m":50}},{"type":"Feature","geometry":{"type":"MultiPolygon","coordinates":[[[[100.92989360432428,4.53573044571716],[100.92989360432428,4.535635686640273],[100.92965490872612,4.53573044571716],[100.92989360432428,4.53573044571716]]],[[[100.92885718754316,4.536030167813891],[100.92860057152518,4.536123575780347],[100.92885718754316,4.536123575780347],[100.92885718754316,4.536030167813891]]],[[[100.92833897915258,4.5365167060518425],[100.92833897915258,4.536218795146868],[100.9275906473138,4.5365167060518425],[100.92833897915258,4.5365167060518425]]],[[[100.92678435398092,4.536909836531666],[100.92678435398092,4.536846788564552],[100.92663262219656,4.536909836531666],[100.92678435398092,4.536909836531666]]],[[[100.92626614559035,4.537302967219834],[100.9260857,4.537137095042845],[100.92573512538364,4.537302967219834],[100.92626614559035,4.537302967219834]]],[[[100.92522972880923,4.537696098116365],[100.92522972880923,4.537586365506842],[100.92506636411349,4.537696098116365],[100.92522972880923,4.537696098116365]]],[[[100.92471152041867,4.538089229221281],[100.92471152041867,4.537980196556386],[100.92458608801097,4.538089229221281],[100.92471152041867,4.538089229221281]]],[[[100.92419331202811,4.538454505254868],[100.92416589941101,4.538482360534595],[100.92419331202811,4.538482360534595],[100.92419331202811,4.538454505254868]]],[[[100.92367510363755,4.538925401564814],[100.9234276,4.539123795040764],[100.9231884938948,4.5392686237865],[100.92367510363755,4.5392686237865],[100.92367510363755,4.538925401564814]]],[[[100.92263868685643,4.539661755725125],[100.92263868685643,4.539571890611777],[100.9224496702139,4.539661755725125],[100.92263868685643,4.539661755725125]]],[[[100.92212047846587,4.540054887872226],[100.9220704,4.539939295039944],[100.92203727419755,4.540054887872226],[100.92212047846587,4.540054887872226]]],[[[100.92730256237147,4.539661755725125],[100.92730256237147,4.539867655577255],[100.92987854347437,4.539661755725125],[100.92730256237147,4.539661755725125]]],[[[100.92212047846587,4.540054887872226],[100.9221482,4.540249395039593],[100.92520072734688,4.540054887872226],[100.92212047846587,4.540054887872226]]],[[[100.9337340975875,4.533371669711491],[100.9347023,4.532548895047623],[100.93468079999998,4.532500695047687],[100.9337340975875,4.533371669711491]]],[[[100.9335210630582,4.533764798525213],[100.9335210630582,4.533536012598619],[100.93321435902295,4.533764798525213],[100.9335210630582,4.533764798525213]]],[[[100.93300285466765,4.533897535099175],[100.93258794172684,4.534157927547131],[100.93300285466765,4.534157927547131],[100.93300285466765,4.533897535099175]]],[[[100.9335210630582,4.533764798525213],[100.9335210630582,4.533905176312225],[100.93364021595556,4.533764798525213],[100.9335210630582,4.533764798525213]]],[[[100.93300285466765,4.534515694272536],[100.93330652744953,4.534157927547131],[100.93300285466765,4.534157927547131],[100.93300285466765,4.534515694272536]]],[[[100.93196643788652,4.534944186215639],[100.93196643788652,4.534557862645138],[100.93134148516486,4.534944186215639],[100.93196643788652,4.534944186215639]]],[[[100.9309300211054,4.535337315862262],[100.93090029999999,4.535195995044841],[100.93059510339275,4.535337315862262],[100.9309300211054,4.535337315862262]]],[[[100.93248464627708,4.534944186215639],[100.93248464627708,4.535102786824681],[100.9326259240154,4.534944186215639],[100.93248464627708,4.534944186215639]]],[[[100.93196643788652,4.535337315862262],[100.93196643788652,4.535716746335676],[100.93227573331372,4.535337315862262],[100.93196643788652,4.535337315862262]]],[[[100.93144822949596,4.536123575780347],[100.93144822949596,4.536492304740854],[100.93167016654527,4.536123575780347],[100.93144822949596,4.536123575780347]]],[[[100.9309300211054,4.536909836531666],[100.9309300211054,4.5377057143766235],[100.93124158804605,4.536909836531666],[100.9309300211054,4.536909836531666]]],[[[100.93041181271484,4.538482360534595],[100.93041181271484,4.539077922334685],[100.93066072914188,4.538482360534595],[100.93041181271484,4.538482360534595]]]]},"properties":{"place_id":"a4cda510-6066-5af0-9add-daa09c73a5eb","habitat":"permanent_water","habitat_label":"Permanent water","resolution_m":50}},{"type":"Feature","geometry":{"type":"MultiPolygon","coordinates":[[[[100.92522972880923,4.537696098116365],[100.92522972880923,4.537586365506842],[100.92506636411349,4.537696098116365],[100.92522972880923,4.537696098116365]]],[[[100.92471152041867,4.538089229221281],[100.92471152041867,4.537980196556386],[100.92458608801097,4.538089229221281],[100.92471152041867,4.538089229221281]]],[[[100.92419331202811,4.538482360534595],[100.92419331202811,4.538454505254868],[100.92416589941101,4.538482360534595],[100.92419331202811,4.538482360534595]]],[[[100.92263868685643,4.539571890611777],[100.92315689524699,4.539661755725125],[100.92315689524699,4.539287763377388],[100.92263868685643,4.539571890611777]]],[[[100.92212047846587,4.540054887872226],[100.92212047846587,4.539897691104605],[100.92203727419755,4.540054887872226],[100.92212047846587,4.540054887872226]]],[[[100.92315689524699,4.540162179465911],[100.92263868685643,4.540054887872226],[100.92263868685643,4.540226232960541],[100.92315689524699,4.540162179465911]]],[[[100.93403927144877,4.533101571568752],[100.93455747983931,4.532728100478787],[100.93455747983931,4.532590327748854],[100.93403927144877,4.533101571568752]]],[[[100.93248464627708,4.534551056777268],[100.93248464627708,4.534222754064398],[100.9319768012295,4.534551056777268],[100.93248464627708,4.534551056777268]]],[[[100.9309300211054,4.535337315862262],[100.9309300211054,4.535179031559816],[100.93059510339275,4.535337315862262],[100.9309300211054,4.535337315862262]]],[[[100.92885718754316,4.536123575780347],[100.92885718754316,4.536030167813891],[100.92860057152518,4.536123575780347],[100.92885718754316,4.536123575780347]]],[[[100.92678435398092,4.536909836531666],[100.92730256237147,4.536633285290407],[100.92678435398092,4.536846788564552],[100.92678435398092,4.536909836531666]]],[[[100.93041181271484,4.538875492056328],[100.93041181271484,4.539077922334685],[100.93049641889382,4.538875492056328],[100.93041181271484,4.538875492056328]]]]},"properties":{"place_id":"a4cda510-6066-5af0-9add-daa09c73a5eb","habitat":"seasonal_water_wetland","habitat_label":"Seasonal water or wetland","resolution_m":50}},{"type":"Feature","geometry":{"type":"MultiPolygon","coordinates":[[[[100.93400045604106,4.533371669711491],[100.9335210630582,4.533536012598619],[100.9335210630582,4.533764798525213],[100.93400045604106,4.533371669711491]]],[[[100.93330652744953,4.534157927547131],[100.9335210630582,4.533905176312225],[100.9335210630582,4.533764798525213],[100.93300285466765,4.533897535099175],[100.93330652744953,4.534157927547131]]],[[[100.92987854347437,4.539661755725125],[100.9306776,4.5384419950414765],[100.9309300211054,4.536909836531666],[100.93300285466765,4.534157927547131],[100.93196643788652,4.534557862645138],[100.93196643788652,4.534944186215639],[100.92545269999998,4.537436595042539],[100.92367510363755,4.5392686237865],[100.92212047846587,4.540054887872226],[100.92987854347437,4.539661755725125]],[[100.92522972880923,4.538089229221281],[100.92626614559035,4.538089229221281],[100.92626614559035,4.537696098116365],[100.92730256237147,4.537696098116365],[100.92730256237147,4.537302967219834],[100.92833897915258,4.537302967219834],[100.92885718754316,4.5365167060518425],[100.92989360432428,4.5365167060518425],[100.92989360432428,4.536123575780347],[100.93041181271484,4.536123575780347],[100.93041181271484,4.536909836531666],[100.92989360432428,4.536909836531666],[100.92989360432428,4.538482360534595],[100.92937539593372,4.538482360534595],[100.92937539593372,4.538875492056328],[100.92471152041867,4.5392686237865],[100.92471152041867,4.538482360534595],[100.92522972880923,4.538482360534595],[100.92522972880923,4.538089229221281]]],[[[100.92212047846587,4.540054887872226],[100.92202749999998,4.540088995039749],[100.92212047846587,4.540232406986126],[100.92212047846587,4.540054887872226]]]]},"properties":{"place_id":"a4cda510-6066-5af0-9add-daa09c73a5eb","habitat":"water_edge","habitat_label":"Water edge","resolution_m":50}}]}