{"type":"FeatureCollection","metadata":{"schema_version":1,"place_id":"a5ba6850-3c24-56e0-9103-4d9356a02a7e","place_name":"Running Park","place_type":"park","osm_reference":"way/1204009024","protection_context":"no protected status confirmed from included OSM tags","resolution_m":50,"raster_coverage":1.0,"interpretation":"Suggested search habitats, not predicted plant locations or probabilities of presence."},"features":[{"type":"Feature","geometry":{"type":"Polygon","coordinates":[[[103.82405280000002,1.5059567983204452],[103.82482919999998,1.5057560983206784],[103.82406799999998,1.505304398321162],[103.82405280000002,1.5059567983204452]]]},"properties":{"place_id":"a5ba6850-3c24-56e0-9103-4d9356a02a7e","habitat":"forest_edge_opening","habitat_label":"Forest edge or opening","resolution_m":50}},{"type":"Feature","geometry":{"type":"Polygon","coordinates":[[[103.8248148,1.5060141983203845],[103.8245227,1.5053878983210645],[103.82406799999998,1.505304398321162],[103.82405280000002,1.5059567983204452],[103.8248148,1.5060141983203845]]]},"properties":{"place_id":"a5ba6850-3c24-56e0-9103-4d9356a02a7e","habitat":"disturbed_built_edge","habitat_label":"Disturbed, bare or built edge","resolution_m":50}}]}