{"type":"FeatureCollection","metadata":{"schema_version":1,"place_id":"a5eaa997-59c3-5979-bffd-518a74760949","place_name":"Taman Kejiranan Lorong Sungai Kelian 8","place_type":"park","osm_reference":"way/782020626","protection_context":"no protected status confirmed from included OSM tags","resolution_m":50,"raster_coverage":1.0,"interpretation":"Suggested search habitats, not predicted plant locations or probabilities of presence."},"features":[{"type":"Feature","geometry":{"type":"Polygon","coordinates":[[[100.28420594968573,5.462030566015802],[100.2842197,5.462028994094023],[100.28420594968573,5.4619099556442965],[100.28420594968573,5.462030566015802]]]},"properties":{"place_id":"a5eaa997-59c3-5979-bffd-518a74760949","habitat":"forest_edge_opening","habitat_label":"Forest edge or opening","resolution_m":50}},{"type":"Feature","geometry":{"type":"Polygon","coordinates":[[[100.2842197,5.462028994094023],[100.2836987,5.4618123940942365],[100.28379019999998,5.462078094093982],[100.2842197,5.462028994094023]]]},"properties":{"place_id":"a5eaa997-59c3-5979-bffd-518a74760949","habitat":"open_grassland","habitat_label":"Open grassland or shrubland","resolution_m":50}},{"type":"Feature","geometry":{"type":"Polygon","coordinates":[[[100.28379019999998,5.462078094093982],[100.2841882,5.461756294094301],[100.2836987,5.4618123940942365],[100.28379019999998,5.462078094093982]]]},"properties":{"place_id":"a5eaa997-59c3-5979-bffd-518a74760949","habitat":"disturbed_built_edge","habitat_label":"Disturbed, bare or built edge","resolution_m":50}}]}