{"type":"FeatureCollection","metadata":{"schema_version":1,"place_id":"a668775f-f6d4-5795-9427-1cc519e0a5d8","place_name":"Taman Bukit Dumbar","place_type":"park","osm_reference":"way/262973518","protection_context":"no protected status confirmed from included OSM tags","resolution_m":50,"raster_coverage":1.0,"interpretation":"Suggested search habitats, not predicted plant locations or probabilities of presence."},"features":[{"type":"Feature","geometry":{"type":"MultiPolygon","coordinates":[[[[100.31115278599488,5.383046239089201],[100.31167099438544,5.383046239089201],[100.31167099438544,5.383439860568197],[100.31270741116654,5.383439860568197],[100.31270741116654,5.383833482295259],[100.31322561955712,5.383833482295259],[100.31230039999998,5.382345694174525],[100.31115278599488,5.38244423499687],[100.31115278599488,5.383046239089201]]],[[[100.31322561955712,5.384227104270408],[100.31337153562556,5.383833482295259],[100.31322561955712,5.383833482295259],[100.31322561955712,5.384227104270408]]]]},"properties":{"place_id":"a668775f-f6d4-5795-9427-1cc519e0a5d8","habitat":"forest_interior","habitat_label":"Forest interior","resolution_m":50}},{"type":"Feature","geometry":{"type":"MultiPolygon","coordinates":[[[[100.31270741116654,5.383439860568197],[100.31167099438544,5.383439860568197],[100.31115278599488,5.38244423499687],[100.3107102,5.382536994174334],[100.3112683,5.384963394171879],[100.31342289999998,5.384368194172491],[100.31270741116654,5.383439860568197]]],[[[100.31322561955712,5.383833482295259],[100.31337153562556,5.383833482295259],[100.31322561955712,5.383698961944897],[100.31322561955712,5.383833482295259]]]]},"properties":{"place_id":"a668775f-f6d4-5795-9427-1cc519e0a5d8","habitat":"forest_edge_opening","habitat_label":"Forest edge or opening","resolution_m":50}},{"type":"Feature","geometry":{"type":"MultiPolygon","coordinates":[[[[100.31167099438544,5.383439860568197],[100.31115278599488,5.383439860568197],[100.31117657322768,5.384620726493662],[100.31167099438544,5.384620726493662],[100.31167099438544,5.383439860568197]]],[[[100.31270741116654,5.383833482295259],[100.31218920277598,5.383833482295259],[100.31218920277598,5.384227104270408],[100.31270741116654,5.384227104270408],[100.31270741116654,5.383833482295259]]]]},"properties":{"place_id":"a668775f-f6d4-5795-9427-1cc519e0a5d8","habitat":"open_grassland","habitat_label":"Open grassland or shrubland","resolution_m":50}},{"type":"Feature","geometry":{"type":"MultiPolygon","coordinates":[[[[100.31115278599488,5.383439860568197],[100.31115278599488,5.38244423499687],[100.3107102,5.382536994174334],[100.31115278599488,5.383439860568197]]],[[[100.31322561955712,5.383833482295259],[100.31337153562556,5.383833482295259],[100.31322561955712,5.383698961944897],[100.31322561955712,5.383833482295259]]],[[[100.31115278599488,5.384227104270408],[100.31108179145282,5.384227104270408],[100.31115278599488,5.384531863527934],[100.31115278599488,5.384227104270408]]],[[[100.31218920277598,5.384227104270408],[100.31218920277598,5.384620726493662],[100.31117657322768,5.384620726493662],[100.3112683,5.384963394171879],[100.31342289999998,5.384368194172491],[100.31218920277598,5.384227104270408]]]]},"properties":{"place_id":"a668775f-f6d4-5795-9427-1cc519e0a5d8","habitat":"disturbed_built_edge","habitat_label":"Disturbed, bare or built edge","resolution_m":50}}]}