{"type":"FeatureCollection","metadata":{"schema_version":1,"place_id":"a6958230-f2c6-52e7-9efc-aa4193e32455","place_name":"Taman Muhibbah · OSM way/1307657519","place_type":"park","osm_reference":"way/1307657519","protection_context":"no protected status confirmed from included OSM tags","resolution_m":50,"raster_coverage":1.0,"interpretation":"Suggested search habitats, not predicted plant locations or probabilities of presence."},"features":[{"type":"Feature","geometry":{"type":"Polygon","coordinates":[[[115.2440517,5.278325894279999],[115.2447092,5.2782805942800115],[115.24469939999997,5.278220894280097],[115.2440517,5.278325894279999]]]},"properties":{"place_id":"a6958230-f2c6-52e7-9efc-aa4193e32455","habitat":"disturbed_built_edge","habitat_label":"Disturbed, bare or built edge","resolution_m":50}}]}