{"type":"FeatureCollection","metadata":{"schema_version":1,"place_id":"a6a91621-1686-59cf-9ac6-b1a49c2df82a","place_name":"Pulau Ubi","place_type":"wood","osm_reference":"way/337768812","protection_context":"no protected status confirmed from included OSM tags","resolution_m":50,"raster_coverage":1.0,"interpretation":"Suggested search habitats, not predicted plant locations or probabilities of presence."},"features":[{"type":"Feature","geometry":{"type":"Polygon","coordinates":[[[103.41971116348462,3.50717528693944],[103.42122269999999,3.5077052961317468],[103.42182161742198,3.5075679343292148],[103.42143954613984,3.50717528693944],[103.41971116348462,3.50717528693944]]]},"properties":{"place_id":"a6a91621-1686-59cf-9ac6-b1a49c2df82a","habitat":"forest_interior","habitat_label":"Forest interior","resolution_m":50}},{"type":"Feature","geometry":{"type":"MultiPolygon","coordinates":[[[[103.42182161742198,3.5075679343292148],[103.4209371,3.5065714961329673],[103.4186575,3.5064538961330984],[103.41971116348462,3.50717528693944],[103.42143954613984,3.50717528693944],[103.42182161742198,3.5075679343292148]]],[[[103.42092133774928,3.5075679343292148],[103.42064537520113,3.5075679343292148],[103.42092133774928,3.5076497385220464],[103.42092133774928,3.5075679343292148]]]]},"properties":{"place_id":"a6a91621-1686-59cf-9ac6-b1a49c2df82a","habitat":"forest_edge_opening","habitat_label":"Forest edge or opening","resolution_m":50}},{"type":"Feature","geometry":{"type":"MultiPolygon","coordinates":[[[[103.41988492096814,3.50678263971018],[103.4193667125776,3.50678263971018],[103.4193667125776,3.5064435239695464],[103.41884850418703,3.5064227370991534],[103.41971116348462,3.50717528693944],[103.41988492096814,3.50678263971018]]],[[[103.42092133774928,3.5075679343292148],[103.42064537520113,3.5075679343292148],[103.42092133774928,3.5076497385220464],[103.42092133774928,3.5075679343292148]]]]},"properties":{"place_id":"a6a91621-1686-59cf-9ac6-b1a49c2df82a","habitat":"disturbed_built_edge","habitat_label":"Disturbed, bare or built edge","resolution_m":50}},{"type":"Feature","geometry":{"type":"MultiPolygon","coordinates":[[[[103.4193667125776,3.5064435239695464],[103.4188235,3.506420196133125],[103.4186579,3.506475796133052],[103.4193667125776,3.50678263971018],[103.4193667125776,3.5064435239695464]]],[[[103.41988492096814,3.50678263971018],[103.42143954613984,3.50678263971018],[103.42143954613984,3.50717528693944],[103.42185195655556,3.50717528693944],[103.4215084,3.5068056961327407],[103.4211512,3.506611396132913],[103.41988492096814,3.506502679791608],[103.41988492096814,3.50678263971018]]],[[[103.42195775453038,3.507456447524613],[103.4219634,3.507421096132045],[103.42195775453038,3.5074174213602043],[103.42195775453038,3.507456447524613]]]]},"properties":{"place_id":"a6a91621-1686-59cf-9ac6-b1a49c2df82a","habitat":"permanent_water","habitat_label":"Permanent water","resolution_m":50}},{"type":"Feature","geometry":{"type":"MultiPolygon","coordinates":[[[[103.42143954613984,3.5067638953139824],[103.4211512,3.506611396132913],[103.42092133774928,3.506570281528691],[103.42092133774928,3.50678263971018],[103.42143954613984,3.5067638953139824]]],[[[103.42195775453038,3.507456447524613],[103.4219634,3.507421096132045],[103.42195775453038,3.5074174213602043],[103.42195775453038,3.507456447524613]]]]},"properties":{"place_id":"a6a91621-1686-59cf-9ac6-b1a49c2df82a","habitat":"seasonal_water_wetland","habitat_label":"Seasonal water or wetland","resolution_m":50}},{"type":"Feature","geometry":{"type":"Polygon","coordinates":[[[103.41988492096814,3.5073007197213055],[103.42195775453038,3.507456447524613],[103.42143954613984,3.50678263971018],[103.41988492096814,3.50678263971018],[103.4193667125776,3.5064435239695464],[103.4191460873772,3.50678263971018],[103.41988492096814,3.5073007197213055]]]},"properties":{"place_id":"a6a91621-1686-59cf-9ac6-b1a49c2df82a","habitat":"water_edge","habitat_label":"Water edge","resolution_m":50}}]}