{"type":"FeatureCollection","metadata":{"schema_version":1,"place_id":"a6b9e74b-fd19-5196-9fd9-de9079be1e2f","place_name":"Taman Eko Rimba Lata Kijang","place_type":"park","osm_reference":"way/1206769109","protection_context":"mapped protected boundary","resolution_m":50,"raster_coverage":1.0,"interpretation":"Suggested search habitats, not predicted plant locations or probabilities of presence."},"features":[{"type":"Feature","geometry":{"type":"Polygon","coordinates":[[[101.98483279999999,3.1783553964862903],[101.9864054,3.1767068964880565],[101.9864198,3.1761576964886404],[101.9849948,3.1761294964886693],[101.98494140000001,3.1767753964880088],[101.9835842,3.1773698964873516],[101.98287609999998,3.1787570964858425],[101.98483279999999,3.1783553964862903]]]},"properties":{"place_id":"a6b9e74b-fd19-5196-9fd9-de9079be1e2f","habitat":"forest_interior","habitat_label":"Forest interior","resolution_m":50}}]}