{"type":"FeatureCollection","metadata":{"schema_version":1,"place_id":"a6daf903-0d8d-516b-9995-3926a20018ca","place_name":"Pulau Sungai Tekak","place_type":"wood","osm_reference":"way/724514551","protection_context":"no protected status confirmed from included OSM tags","resolution_m":50,"raster_coverage":1.0,"interpretation":"Suggested search habitats, not predicted plant locations or probabilities of presence."},"features":[{"type":"Feature","geometry":{"type":"Polygon","coordinates":[[[102.74569580484876,5.171706857455863],[102.74725043002044,5.171706857455863],[102.74725043002044,5.1721003484019175],[102.74785679999998,5.172074994388107],[102.74914699999998,5.170667294389563],[102.74982960000001,5.170709994389535],[102.74963649999998,5.171266994388976],[102.75034276568812,5.1713133667479045],[102.74828203716869,5.165804521825957],[102.747768638411,5.165804521825957],[102.74723775176035,5.16501754778621],[102.74673222162988,5.16501754778621],[102.7469234,5.1670222943933],[102.74621401323931,5.167140755648668],[102.74621401323931,5.167795232539967],[102.7468362,5.167989294392288],[102.74621401323931,5.168390360423995],[102.74569580484876,5.171706857455863]]]},"properties":{"place_id":"a6daf903-0d8d-516b-9995-3926a20018ca","habitat":"forest_interior","habitat_label":"Forest interior","resolution_m":50}},{"type":"Feature","geometry":{"type":"MultiPolygon","coordinates":[[[[102.74725043002044,5.163669590977307],[102.7464178,5.16464079439571],[102.74673222162988,5.166725360123647],[102.74673222162988,5.16501754778621],[102.74723775176035,5.16501754778621],[102.74725043002044,5.163669590977307]]],[[[102.74725043002044,5.165411034687184],[102.74770774589176,5.165411034687184],[102.74725043002044,5.165047947592372],[102.74725043002044,5.165411034687184]]],[[[102.74828203716869,5.165804521825957],[102.7481747,5.165478294394869],[102.747768638411,5.1655356039256155],[102.747768638411,5.165804521825957],[102.74828203716869,5.165804521825957]]],[[[102.74828684680156,5.166198009202547],[102.74839665481298,5.166198009202547],[102.74828684680156,5.165816257707533],[102.74828684680156,5.166198009202547]]],[[[102.74621401323931,5.170132896052403],[102.74621401323931,5.168390360423995],[102.74586045056722,5.170132896052403],[102.74621401323931,5.170132896052403]]],[[[102.74621401323931,5.167140755648668],[102.74577269999999,5.167332094392949],[102.74587599999998,5.167998594392265],[102.74621401323931,5.167795232539967],[102.74621401323931,5.167140755648668]]],[[[102.74725043002044,5.171706857455863],[102.74569580484876,5.171706857455863],[102.74569580484876,5.170287863340261],[102.74519740000001,5.171156094389052],[102.7454683,5.172164494388042],[102.74774607033406,5.1721003484019175],[102.74725043002044,5.1721003484019175],[102.74725043002044,5.171706857455863]]],[[[102.75034276568812,5.1713133667479045],[102.74998249999999,5.171536794388702],[102.75034049999998,5.171399194388831],[102.75034276568812,5.1713133667479045]]]]},"properties":{"place_id":"a6daf903-0d8d-516b-9995-3926a20018ca","habitat":"forest_edge_opening","habitat_label":"Forest edge or opening","resolution_m":50}},{"type":"Feature","geometry":{"type":"MultiPolygon","coordinates":[[[[102.74673222162988,5.164230574697579],[102.74673222162988,5.164153585697675],[102.74665716484544,5.164230574697579],[102.74673222162988,5.164230574697579]]],[[[102.74725043002044,5.165411034687184],[102.74760339999999,5.165264594395075],[102.74725043002044,5.165047947592372],[102.74725043002044,5.165411034687184]]],[[[102.74695953247937,5.163837088509885],[102.74725043002044,5.164655059706127],[102.74746390000001,5.163856794396509],[102.74714200000001,5.163634994396755],[102.74695953247937,5.163837088509885]]],[[[102.74621401323931,5.168952427499081],[102.7460896798285,5.169345916778866],[102.74621401323931,5.169345916778866],[102.74621401323931,5.168952427499081]]],[[[102.74725043002044,5.1721003484019175],[102.74719300000001,5.172161894388049],[102.74725043002044,5.172163269324077],[102.74725043002044,5.1721003484019175]]],[[[102.74596002060836,5.1721003484019175],[102.7462435,5.172144494388083],[102.74647889877279,5.1721003484019175],[102.74596002060836,5.1721003484019175]]],[[[102.74542007039055,5.1721003484019175],[102.7456212,5.172201894388005],[102.74592293659055,5.1721003484019175],[102.74542007039055,5.1721003484019175]]]]},"properties":{"place_id":"a6daf903-0d8d-516b-9995-3926a20018ca","habitat":"permanent_water","habitat_label":"Permanent water","resolution_m":50}},{"type":"Feature","geometry":{"type":"MultiPolygon","coordinates":[[[[102.74744919198339,5.163837088509885],[102.74714200000001,5.163634994396755],[102.74695953247937,5.163837088509885],[102.74744919198339,5.163837088509885]]],[[[102.74673222162988,5.164153585697675],[102.74665716484544,5.164230574697579],[102.74673222162988,5.164230574697579],[102.74673222162988,5.164153585697675]]],[[[102.74652306816313,5.165804521825957],[102.74673222162988,5.165411034687184],[102.74644372684453,5.165411034687184],[102.74652306816313,5.165804521825957]]],[[[102.74673222162988,5.166591496816972],[102.74645450249979,5.166591496816972],[102.74673222162988,5.166725360123647],[102.74673222162988,5.166591496816972]]],[[[102.74621401323931,5.167795232539967],[102.74624583644734,5.167771961087437],[102.74621401323931,5.167771961087437],[102.74621401323931,5.167795232539967]]],[[[102.74673222162988,5.168165449653385],[102.74673222162988,5.168163927566744],[102.74673062609811,5.168165449653385],[102.74673222162988,5.168165449653385]]],[[[102.74673222162988,5.167771961087437],[102.74673133218992,5.167771961087437],[102.74673222162988,5.167772317151737],[102.74673222162988,5.167771961087437]]],[[[102.74621401323931,5.168390360423995],[102.74592699999998,5.168606394391673],[102.74614452433505,5.168952427499081],[102.74621401323931,5.168952427499081],[102.74621401323931,5.168390360423995]]],[[[102.74828684680156,5.1713133667479045],[102.7484496,5.171666294388565],[102.7485976423568,5.1713133667479045],[102.74828684680156,5.1713133667479045]]],[[[102.74621401323931,5.1721003484019175],[102.74596002060836,5.1721003484019175],[102.74621401323931,5.172141039485634],[102.74621401323931,5.1721003484019175]]],[[[102.74542007039055,5.1721003484019175],[102.7456212,5.172201894388005],[102.74592293659055,5.1721003484019175],[102.74542007039055,5.1721003484019175]]]]},"properties":{"place_id":"a6daf903-0d8d-516b-9995-3926a20018ca","habitat":"seasonal_water_wetland","habitat_label":"Seasonal water or wetland","resolution_m":50}},{"type":"Feature","geometry":{"type":"MultiPolygon","coordinates":[[[[102.74621401323931,5.168390360423995],[102.74523629999999,5.170991794389224],[102.74542007039055,5.1721003484019175],[102.74785679999998,5.172074994388107],[102.74890690000001,5.170999794389205],[102.74880505519212,5.170526386046193],[102.74828684680156,5.170526386046193],[102.747768638411,5.1713133667479045],[102.74621401323931,5.1713133667479045],[102.74621401323931,5.170132896052403],[102.74673222162988,5.170132896052403],[102.74725043002044,5.168165449653385],[102.747768638411,5.168165449653385],[102.747768638411,5.167771961087437],[102.74725043002044,5.167771961087437],[102.74725043002044,5.1669849846692495],[102.747768638411,5.1669849846692495],[102.74725043002044,5.166198009202547],[102.74828684680156,5.166198009202547],[102.7484375,5.166503994393835],[102.7481747,5.165478294394869],[102.74725043002044,5.165411034687184],[102.74725043002044,5.163837088509885],[102.7464178,5.16464079439571],[102.74673222162988,5.165804521825957],[102.74641649999997,5.1664505943938615],[102.74695159999999,5.166955494393341],[102.74574589999999,5.167408294392907],[102.7458304,5.16798259439231],[102.7468309,5.1679064943923825],[102.74621401323931,5.168390360423995]]],[[[102.74984147197326,5.170411368024351],[102.7499489,5.171496694388711],[102.75020779999997,5.171511394388695],[102.74984147197326,5.170411368024351]]]]},"properties":{"place_id":"a6daf903-0d8d-516b-9995-3926a20018ca","habitat":"water_edge","habitat_label":"Water edge","resolution_m":50}}]}