{"type":"FeatureCollection","metadata":{"schema_version":1,"place_id":"a9810f51-6cee-5b05-bf61-14b409c956e8","place_name":"Forest Heights Park","place_type":"park","osm_reference":"way/483073839","protection_context":"no protected status confirmed from included OSM tags","resolution_m":50,"raster_coverage":1.0,"interpretation":"Suggested search habitats, not predicted plant locations or probabilities of presence."},"features":[{"type":"Feature","geometry":{"type":"MultiPolygon","coordinates":[[[[101.96941963578892,2.703736641370722],[101.9692955,2.7037077970016377],[101.96928491303713,2.703736641370722],[101.96941963578892,2.703736641370722]]],[[[101.97045605257004,2.704128998102288],[101.96993784417947,2.704128998102288],[101.9694365,2.7046752970005814],[101.97045605257004,2.7049137119359714],[101.97045605257004,2.704128998102288]]]]},"properties":{"place_id":"a9810f51-6cee-5b05-bf61-14b409c956e8","habitat":"forest_interior","habitat_label":"Forest interior","resolution_m":50}},{"type":"Feature","geometry":{"type":"Polygon","coordinates":[[[101.96993784417947,2.704521354957365],[101.96993784417947,2.704128998102288],[101.97045605257004,2.704128998102288],[101.97052560000002,2.704968497000267],[101.97047189999998,2.703829397001485],[101.96984499999999,2.7032484970021433],[101.9692536,2.703894797001415],[101.96938198812691,2.704521354957365],[101.96993784417947,2.704521354957365]]]},"properties":{"place_id":"a9810f51-6cee-5b05-bf61-14b409c956e8","habitat":"forest_edge_opening","habitat_label":"Forest edge or opening","resolution_m":50}},{"type":"Feature","geometry":{"type":"Polygon","coordinates":[[[101.96928491303713,2.703736641370722],[101.96941963578892,2.704521354957365],[101.97045605257004,2.704128998102288],[101.97052560000002,2.704968497000267],[101.97047189999998,2.703829397001485],[101.9700542,2.703290297002078],[101.96928491303713,2.703736641370722]]]},"properties":{"place_id":"a9810f51-6cee-5b05-bf61-14b409c956e8","habitat":"disturbed_built_edge","habitat_label":"Disturbed, bare or built edge","resolution_m":50}}]}