{"type":"FeatureCollection","metadata":{"schema_version":1,"place_id":"a9f256f1-7bd9-5a38-9c5d-1dfea1e999ac","place_name":"Taman Eko Ara Damansara","place_type":"park","osm_reference":"way/286015993","protection_context":"no protected status confirmed from included OSM tags","resolution_m":50,"raster_coverage":1.0,"interpretation":"Suggested search habitats, not predicted plant locations or probabilities of presence."},"features":[{"type":"Feature","geometry":{"type":"MultiPolygon","coordinates":[[[[101.56832634149498,3.11892267591855],[101.56824911839911,3.1185301785641313],[101.5681883925263,3.11892267591855],[101.56832634149498,3.11892267591855]]],[[[101.56988096666666,3.1240251545088786],[101.56988096666666,3.124417653861297],[101.5693627582761,3.124417653861297],[101.5693627582761,3.1240251545088786],[101.56832634149498,3.123632655299292],[101.5685913,3.1243816965446567],[101.5700061,3.1244953965445115],[101.56988096666666,3.1240251545088786]]]]},"properties":{"place_id":"a9f256f1-7bd9-5a38-9c5d-1dfea1e999ac","habitat":"forest_interior","habitat_label":"Forest interior","resolution_m":50}},{"type":"Feature","geometry":{"type":"Polygon","coordinates":[[[101.56832634149498,3.123632655299292],[101.56988096666666,3.124417653861297],[101.5700711,3.1163114965533434],[101.56852630000002,3.1162780965533723],[101.5679246,3.121702496547526],[101.56832634149498,3.123632655299292]],[[101.56884454988555,3.11892267591855],[101.5693627582761,3.11892267591855],[101.5693627582761,3.1232401562325185],[101.56884454988555,3.1232401562325185],[101.56884454988555,3.11892267591855]]]},"properties":{"place_id":"a9f256f1-7bd9-5a38-9c5d-1dfea1e999ac","habitat":"forest_edge_opening","habitat_label":"Forest edge or opening","resolution_m":50}},{"type":"Feature","geometry":{"type":"MultiPolygon","coordinates":[[[[101.56884454988555,3.1169601905720623],[101.56884454988555,3.116567693930356],[101.5693627582761,3.116567693930356],[101.57006283039429,3.117352687356275],[101.5700711,3.1163114965533434],[101.56852630000002,3.1162780965533723],[101.5684489891089,3.1169601905720623],[101.56884454988555,3.1169601905720623]]],[[[101.56832634149498,3.1181376813522914],[101.56832634149498,3.1180310527895223],[101.56830984427195,3.1181376813522914],[101.56832634149498,3.1181376813522914]]],[[[101.56988096666666,3.1181376813522914],[101.57003789131373,3.120492666762374],[101.57005659562417,3.1181376813522914],[101.56988096666666,3.1181376813522914]]],[[[101.56988096666666,3.120885164829957],[101.5700191870033,3.1228476573085415],[101.57003477392864,3.120885164829957],[101.56988096666666,3.120885164829957]]],[[[101.567944409996,3.1228476573085415],[101.56832634149498,3.122455158527341],[101.56793532771974,3.122455158527341],[101.567944409996,3.1228476573085415]]],[[[101.56832634149498,3.1232401562325185],[101.56810992321029,3.1232401562325185],[101.56832634149498,3.123753371928799],[101.56832634149498,3.1232401562325185]]],[[[101.56988096666666,3.1232401562325185],[101.57000983484807,3.1240251545088786],[101.5700160696182,3.1232401562325185],[101.56988096666666,3.1232401562325185]]]]},"properties":{"place_id":"a9f256f1-7bd9-5a38-9c5d-1dfea1e999ac","habitat":"disturbed_built_edge","habitat_label":"Disturbed, bare or built edge","resolution_m":50}},{"type":"Feature","geometry":{"type":"Polygon","coordinates":[[[101.56832634149498,3.1181376813522914],[101.56832634149498,3.1180310527895223],[101.56830984427195,3.1181376813522914],[101.56832634149498,3.1181376813522914]]]},"properties":{"place_id":"a9f256f1-7bd9-5a38-9c5d-1dfea1e999ac","habitat":"cropland","habitat_label":"Cropland","resolution_m":50}},{"type":"Feature","geometry":{"type":"Polygon","coordinates":[[[101.56988096666666,3.1240251545088786],[101.56988096666666,3.1169601905720623],[101.56884454988555,3.1169601905720623],[101.56884454988555,3.11892267591855],[101.56832634149498,3.11892267591855],[101.56832634149498,3.1232401562325185],[101.56988096666666,3.1240251545088786]]]},"properties":{"place_id":"a9f256f1-7bd9-5a38-9c5d-1dfea1e999ac","habitat":"permanent_water","habitat_label":"Permanent water","resolution_m":50}},{"type":"Feature","geometry":{"type":"MultiPolygon","coordinates":[[[[101.5693627582761,3.117352687356275],[101.5693627582761,3.1185301785641313],[101.56988096666666,3.1185301785641313],[101.56988096666666,3.117352687356275],[101.5693627582761,3.117352687356275]]],[[[101.5693627582761,3.119315173415566],[101.5693627582761,3.123632655299292],[101.56988096666666,3.123632655299292],[101.56988096666666,3.119315173415566],[101.5693627582761,3.119315173415566]]],[[[101.56832634149498,3.121277663040227],[101.56832634149498,3.122062659888902],[101.56884454988555,3.122062659888902],[101.56884454988555,3.121277663040227],[101.56832634149498,3.121277663040227]]],[[[101.56832634149498,3.1232401562325185],[101.56884454988555,3.1232401562325185],[101.56884454988555,3.1228476573085415],[101.56832634149498,3.1228476573085415],[101.56832634149498,3.1232401562325185]]],[[[101.56884454988555,3.1240251545088786],[101.5693627582761,3.1240251545088786],[101.5693627582761,3.123632655299292],[101.56884454988555,3.123632655299292],[101.56884454988555,3.1240251545088786]]]]},"properties":{"place_id":"a9f256f1-7bd9-5a38-9c5d-1dfea1e999ac","habitat":"seasonal_water_wetland","habitat_label":"Seasonal water or wetland","resolution_m":50}},{"type":"Feature","geometry":{"type":"Polygon","coordinates":[[[101.56884454988555,3.1162849774091703],[101.56849347602747,3.116567693930356],[101.5679408,3.122839096546287],[101.5685913,3.1243816965446567],[101.56988096666666,3.124485340239264],[101.57006906516446,3.116567693930356],[101.56884454988555,3.1162849774091703]],[[101.56884454988555,3.1232401562325185],[101.56832634149498,3.1232401562325185],[101.56832634149498,3.11892267591855],[101.56884454988555,3.11892267591855],[101.56884454988555,3.1169601905720623],[101.56988096666666,3.1169601905720623],[101.56988096666666,3.1240251545088786],[101.56884454988555,3.1240251545088786],[101.56884454988555,3.1232401562325185]]]},"properties":{"place_id":"a9f256f1-7bd9-5a38-9c5d-1dfea1e999ac","habitat":"water_edge","habitat_label":"Water edge","resolution_m":50}}]}