{"type":"FeatureCollection","metadata":{"schema_version":1,"place_id":"a9fb6b8b-23c8-59c7-847b-421d28ae66a1","place_name":"Taman Awam Changkat","place_type":"park","osm_reference":"way/312950612","protection_context":"no protected status confirmed from included OSM tags","resolution_m":50,"raster_coverage":1.0,"interpretation":"Suggested search habitats, not predicted plant locations or probabilities of presence."},"features":[{"type":"Feature","geometry":{"type":"MultiPolygon","coordinates":[[[[101.03716274117033,4.473333895222627],[101.03681121952899,4.474011597385632],[101.03716274117033,4.474011597385632],[101.03716274117033,4.473333895222627]]],[[[101.03664453277976,4.474445527356947],[101.03654049999999,4.47476889510789],[101.03662168055693,4.474797792763719],[101.03664453277976,4.474797792763719],[101.03664453277976,4.474445527356947]]]]},"properties":{"place_id":"a9fb6b8b-23c8-59c7-847b-421d28ae66a1","habitat":"forest_interior","habitat_label":"Forest interior","resolution_m":50}},{"type":"Feature","geometry":{"type":"Polygon","coordinates":[[[101.03664453277976,4.474797792763719],[101.03764949999999,4.474813595107865],[101.03823379999999,4.473196495109528],[101.03765319999998,4.472646095110106],[101.03664453277976,4.474797792763719]]]},"properties":{"place_id":"a9fb6b8b-23c8-59c7-847b-421d28ae66a1","habitat":"forest_edge_opening","habitat_label":"Forest edge or opening","resolution_m":50}},{"type":"Feature","geometry":{"type":"Polygon","coordinates":[[[101.03768094956088,4.474404694971962],[101.03768094956088,4.474011597385632],[101.03716274117033,4.474011597385632],[101.03716274117033,4.474404694971962],[101.03768094956088,4.474404694971962]]]},"properties":{"place_id":"a9fb6b8b-23c8-59c7-847b-421d28ae66a1","habitat":"open_grassland","habitat_label":"Open grassland or shrubland","resolution_m":50}},{"type":"Feature","geometry":{"type":"Polygon","coordinates":[[[101.03664453277976,4.474797792763719],[101.03764949999999,4.474813595107865],[101.03823379999999,4.473196495109528],[101.03765319999998,4.472646095110106],[101.03716274117033,4.4736185000047115],[101.03768094956088,4.4736185000047115],[101.03768094956088,4.474404694971962],[101.03665766923983,4.474404694971962],[101.03664453277976,4.474797792763719]]]},"properties":{"place_id":"a9fb6b8b-23c8-59c7-847b-421d28ae66a1","habitat":"disturbed_built_edge","habitat_label":"Disturbed, bare or built edge","resolution_m":50}}]}