{"type":"FeatureCollection","metadata":{"schema_version":1,"place_id":"aaf12ef0-c22d-5301-8ff3-667b296356a0","place_name":"Sunsuria City Celebration Centre","place_type":"park","osm_reference":"way/793414312","protection_context":"no protected status confirmed from included OSM tags","resolution_m":50,"raster_coverage":1.0,"interpretation":"Suggested search habitats, not predicted plant locations or probabilities of presence."},"features":[{"type":"Feature","geometry":{"type":"Polygon","coordinates":[[[101.70852749999999,2.8273158968669523],[101.7087667,2.8289979968651267],[101.709797,2.828991596865128],[101.70978419999999,2.827882896866332],[101.70852749999999,2.8273158968669523]]]},"properties":{"place_id":"aaf12ef0-c22d-5301-8ff3-667b296356a0","habitat":"forest_edge_opening","habitat_label":"Forest edge or opening","resolution_m":50}},{"type":"Feature","geometry":{"type":"MultiPolygon","coordinates":[[[[101.70927902372748,2.82772760962004],[101.70963506387952,2.82772760962004],[101.70927902372748,2.8275486061458444],[101.70927902372748,2.82772760962004]]],[[[101.70876081533692,2.828512403066348],[101.70852859827883,2.8273352130906826],[101.70859553072914,2.828512403066348],[101.70876081533692,2.828512403066348]]]]},"properties":{"place_id":"aaf12ef0-c22d-5301-8ff3-667b296356a0","habitat":"open_grassland","habitat_label":"Open grassland or shrubland","resolution_m":50}},{"type":"Feature","geometry":{"type":"Polygon","coordinates":[[[101.70852859827883,2.8273352130906826],[101.7087667,2.8289979968651267],[101.709797,2.828991596865128],[101.70978419999999,2.827882896866332],[101.70852859827883,2.8273352130906826]]]},"properties":{"place_id":"aaf12ef0-c22d-5301-8ff3-667b296356a0","habitat":"disturbed_built_edge","habitat_label":"Disturbed, bare or built edge","resolution_m":50}}]}