{"type":"FeatureCollection","metadata":{"schema_version":1,"place_id":"ab32b7a7-0f0a-54d7-be30-1a88db0e9e50","place_name":"Taman Sri Tanjung","place_type":"park","osm_reference":"way/555265400","protection_context":"no protected status confirmed from included OSM tags","resolution_m":50,"raster_coverage":1.0,"interpretation":"Suggested search habitats, not predicted plant locations or probabilities of presence."},"features":[{"type":"Feature","geometry":{"type":"MultiPolygon","coordinates":[[[[101.79841086690391,2.547173436487343],[101.79854850000001,2.5469173971729075],[101.79841086690391,2.5468970615306827],[101.79841086690391,2.547173436487343]]],[[[101.79839875440207,2.547195969417883],[101.7981189,2.5473319971724586],[101.7982887,2.547409697172358],[101.79839875440207,2.547195969417883]]]]},"properties":{"place_id":"ab32b7a7-0f0a-54d7-be30-1a88db0e9e50","habitat":"forest_edge_opening","habitat_label":"Forest edge or opening","resolution_m":50}},{"type":"Feature","geometry":{"type":"Polygon","coordinates":[[[101.79839875440207,2.547195969417883],[101.7981189,2.5473319971724586],[101.7982887,2.547409697172358],[101.79839875440207,2.547195969417883]]]},"properties":{"place_id":"ab32b7a7-0f0a-54d7-be30-1a88db0e9e50","habitat":"open_grassland","habitat_label":"Open grassland or shrubland","resolution_m":50}},{"type":"Feature","geometry":{"type":"Polygon","coordinates":[[[101.79817923521043,2.547195969417883],[101.79854850000001,2.5469173971729075],[101.7983238,2.5468841971729406],[101.79817923521043,2.547195969417883]]]},"properties":{"place_id":"ab32b7a7-0f0a-54d7-be30-1a88db0e9e50","habitat":"disturbed_built_edge","habitat_label":"Disturbed, bare or built edge","resolution_m":50}},{"type":"Feature","geometry":{"type":"Polygon","coordinates":[[[101.79839875440207,2.547195969417883],[101.7983238,2.5468841971729406],[101.79817923521043,2.547195969417883],[101.79839875440207,2.547195969417883]]]},"properties":{"place_id":"ab32b7a7-0f0a-54d7-be30-1a88db0e9e50","habitat":"permanent_water","habitat_label":"Permanent water","resolution_m":50}},{"type":"Feature","geometry":{"type":"MultiPolygon","coordinates":[[[[101.79841086690391,2.547173436487343],[101.79854850000001,2.5469173971729075],[101.79841086690391,2.5468970615306827],[101.79841086690391,2.547173436487343]]],[[[101.79839875440207,2.547195969417883],[101.7981189,2.5473319971724586],[101.7982887,2.547409697172358],[101.79839875440207,2.547195969417883]]]]},"properties":{"place_id":"ab32b7a7-0f0a-54d7-be30-1a88db0e9e50","habitat":"water_edge","habitat_label":"Water edge","resolution_m":50}}]}