{"type":"FeatureCollection","metadata":{"schema_version":1,"place_id":"ab58d7a7-5ed2-5b72-bce4-5958c838033b","place_name":"Pulau Berua Air Deras","place_type":"wood","osm_reference":"way/724591353","protection_context":"no protected status confirmed from included OSM tags","resolution_m":50,"raster_coverage":1.0,"interpretation":"Suggested search habitats, not predicted plant locations or probabilities of presence."},"features":[{"type":"Feature","geometry":{"type":"MultiPolygon","coordinates":[[[[102.679365130857,4.97302395271658],[102.67944457695121,4.97341732577871],[102.67988333924757,4.97341732577871],[102.67988333924757,4.97302395271658],[102.679365130857,4.97302395271658]]],[[[102.679365130857,4.9738106990696185],[102.679365130857,4.974204072589322],[102.67988333924757,4.974204072589322],[102.67988333924757,4.9738106990696185],[102.679365130857,4.9738106990696185]]],[[[102.67884692246643,4.974204072589322],[102.67884692246643,4.974597446337841],[102.679365130857,4.974353765353514],[102.679365130857,4.974204072589322],[102.67884692246643,4.974204072589322]]],[[[102.67832871407586,4.976170943620423],[102.67884692246643,4.976170943620423],[102.67884692246643,4.974597446337841],[102.67832871407586,4.974597446337841],[102.67832871407586,4.976170943620423]]],[[[102.67832871407586,4.977744444565515],[102.679365130857,4.977351068985818],[102.679365130857,4.976564318513291],[102.67781050568533,4.977429123775878],[102.67781050568533,4.978831657314513],[102.67884692246643,4.979317949174291],[102.67832871407586,4.977744444565515]]]]},"properties":{"place_id":"ab58d7a7-5ed2-5b72-bce4-5958c838033b","habitat":"forest_interior","habitat_label":"Forest interior","resolution_m":50}},{"type":"Feature","geometry":{"type":"MultiPolygon","coordinates":[[[[102.67781050568533,4.980498080035881],[102.67852979999999,4.98087579458376],[102.678855,4.980687394583983],[102.67884219999999,4.979880394584798],[102.6795892,4.979113494585592],[102.67901119999999,4.978425494586306],[102.67884692246643,4.979317949174291],[102.6778837561797,4.978924572678562],[102.678397,4.979590494585091],[102.67781050568533,4.980498080035881]]],[[[102.67832871407586,4.977351068985818],[102.67832871407586,4.9770964421785795],[102.67793208932517,4.977351068985818],[102.67832871407586,4.977351068985818]]],[[[102.67884692246643,4.9769576936350814],[102.67884692246643,4.976564318513291],[102.679365130857,4.976564318513291],[102.679365130857,4.977351068985818],[102.67884692246643,4.977351068985818],[102.67832871407586,4.97813782037419],[102.67980519999999,4.977311194587434],[102.67897229999998,4.975838894588979],[102.6795208,4.975201594589594],[102.67889319999999,4.974822194589995],[102.67884692246643,4.974204072589322],[102.6799004,4.974299794590528],[102.6804771,4.973822794591004],[102.6801592,4.973005094591874],[102.6790729,4.973021094591862],[102.679365130857,4.973338865008629],[102.679365130857,4.97302395271658],[102.67988333924757,4.97302395271658],[102.67988333924757,4.97341732577871],[102.67794499999997,4.97482479459001],[102.67814489999999,4.9753191945894795],[102.6776513,4.97594979458884],[102.67884692246643,4.9769576936350814]],[[102.67884692246643,4.976170943620423],[102.67832871407586,4.976170943620423],[102.67832871407586,4.974597446337841],[102.67884692246643,4.974597446337841],[102.67884692246643,4.976170943620423]],[[102.679365130857,4.9738106990696185],[102.67988333924757,4.9738106990696185],[102.67988333924757,4.974204072589322],[102.679365130857,4.974204072589322],[102.679365130857,4.9738106990696185]]],[[[102.67781050568533,4.977429123775878],[102.6770224,4.978473594586272],[102.67731739999999,4.97885569458586],[102.67781050568533,4.978831657314513],[102.67781050568533,4.977429123775878]]]]},"properties":{"place_id":"ab58d7a7-5ed2-5b72-bce4-5958c838033b","habitat":"forest_edge_opening","habitat_label":"Forest edge or opening","resolution_m":50}},{"type":"Feature","geometry":{"type":"MultiPolygon","coordinates":[[[[102.679365130857,4.97302395271658],[102.6792271,4.97296639459193],[102.67907169950212,4.97302395271658],[102.679365130857,4.97302395271658]]],[[[102.67957850000002,4.9790039945857005],[102.679365130857,4.979317949174291],[102.67952074390796,4.979317949174291],[102.67957850000002,4.9790039945857005]]]]},"properties":{"place_id":"ab58d7a7-5ed2-5b72-bce4-5958c838033b","habitat":"cropland","habitat_label":"Cropland","resolution_m":50}},{"type":"Feature","geometry":{"type":"MultiPolygon","coordinates":[[[[102.679365130857,4.9738106990696185],[102.679365130857,4.973574946619664],[102.67917730379402,4.9738106990696185],[102.679365130857,4.9738106990696185]]],[[[102.67832871407586,4.974597446337841],[102.67832871407586,4.9745213886591],[102.67822991197048,4.974597446337841],[102.67832871407586,4.974597446337841]]],[[[102.67781050568533,4.97568336833902],[102.6776513,4.975862894588948],[102.67781050568533,4.976141354062993],[102.67781050568533,4.97568336833902]]],[[[102.67832871407586,4.976170943620423],[102.6778443484385,4.976170943620423],[102.67832871407586,4.976633496651328],[102.67832871407586,4.976170943620423]]],[[[102.67884692246643,4.977744444565515],[102.6789777,4.977858994586871],[102.67921836367495,4.977744444565515],[102.67884692246643,4.977744444565515]]],[[[102.67729229729476,4.9779132440837754],[102.6770183,4.978616494586091],[102.67729229729476,4.978849661615139],[102.67729229729476,4.9779132440837754]]],[[[102.67832871407586,4.979317949174291],[102.6782683673429,4.979317949174291],[102.67832871407586,4.979368348786067],[102.67832871407586,4.979317949174291]]],[[[102.67884692246643,4.979711325899076],[102.67884692246643,4.9798724065075675],[102.6789689675335,4.979711325899076],[102.67884692246643,4.979711325899076]]],[[[102.67884692246643,4.98070079024507],[102.6788798,4.980259894584408],[102.67884692246643,4.980114073152095],[102.67884692246643,4.98070079024507]]],[[[102.67832871407586,4.980498080035881],[102.67781050568533,4.980498080035881],[102.6777962,4.980298594584369],[102.6777533,4.980494994584177],[102.67809259999999,4.980766194583897],[102.67832871407586,4.980498080035881]]],[[[102.67988333924757,4.97302395271658],[102.6801592,4.973005094591874],[102.67988333924757,4.972961984766446],[102.67988333924757,4.97302395271658]]],[[[102.68040154763813,4.973859474029645],[102.68052529999999,4.9736343945912065],[102.68040154763813,4.973469350234655],[102.68040154763813,4.973859474029645]]],[[[102.67988333924757,4.974204072589322],[102.67988333924757,4.974301035372524],[102.67997242200614,4.974204072589322],[102.67988333924757,4.974204072589322]]],[[[102.679365130857,4.975437641045844],[102.6795208,4.975201594589594],[102.679365130857,4.975081690585628],[102.679365130857,4.975437641045844]]],[[[102.679365130857,4.976564318513291],[102.6794793,4.976362594588439],[102.679365130857,4.976210105709065],[102.679365130857,4.976564318513291]]],[[[102.679365130857,4.977351068985818],[102.679365130857,4.977664056110455],[102.67978607325573,4.977351068985818],[102.679365130857,4.977351068985818]]],[[[102.679365130857,4.978924572678562],[102.67952138558445,4.978924572678562],[102.679365130857,4.978842411567572],[102.679365130857,4.978924572678562]]],[[[102.679365130857,4.979317949174291],[102.679365130857,4.979546444461546],[102.67952074390796,4.979317949174291],[102.679365130857,4.979317949174291]]]]},"properties":{"place_id":"ab58d7a7-5ed2-5b72-bce4-5958c838033b","habitat":"permanent_water","habitat_label":"Permanent water","resolution_m":50}},{"type":"Feature","geometry":{"type":"MultiPolygon","coordinates":[[[[102.67884692246643,4.974204072589322],[102.67884692246643,4.974018655022116],[102.67861636230379,4.974204072589322],[102.67884692246643,4.974204072589322]]],[[[102.67812756999436,4.975384194521393],[102.67832871407586,4.974990820315191],[102.67797687386671,4.974990820315191],[102.67812756999436,4.975384194521393]]],[[[102.67781050568533,4.975777568956464],[102.67781050568533,4.97568336833902],[102.67768483147667,4.975777568956464],[102.67781050568533,4.975777568956464]]],[[[102.67729229729476,4.97813782037419],[102.67729229729476,4.9779132440837754],[102.67716915256909,4.97813782037419],[102.67729229729476,4.97813782037419]]],[[[102.67884692246643,4.979711325899076],[102.67884692246643,4.9798724065075675],[102.6789689675335,4.979711325899076],[102.67884692246643,4.979711325899076]]],[[[102.67781050568533,4.980498080035881],[102.67775526881216,4.980498080035881],[102.67781050568533,4.98057387420207],[102.67781050568533,4.980498080035881]]],[[[102.67988333924757,4.97302395271658],[102.6796979,4.972939594591934],[102.67907169950212,4.97302395271658],[102.67988333924757,4.97302395271658]]],[[[102.679365130857,4.9738106990696185],[102.679365130857,4.973574946619664],[102.67917730379402,4.9738106990696185],[102.679365130857,4.9738106990696185]]],[[[102.679365130857,4.977664056110455],[102.67968179999998,4.977464894587264],[102.67978607325573,4.977351068985818],[102.679365130857,4.977351068985818],[102.679365130857,4.977664056110455]]],[[[102.67884692246643,4.977744444565515],[102.6789777,4.977858994586871],[102.67921836367495,4.977744444565515],[102.67884692246643,4.977744444565515]]],[[[102.679365130857,4.979317949174291],[102.67957850000002,4.9790039945857005],[102.679365130857,4.978924572678562],[102.679365130857,4.979317949174291]]]]},"properties":{"place_id":"ab58d7a7-5ed2-5b72-bce4-5958c838033b","habitat":"seasonal_water_wetland","habitat_label":"Seasonal water or wetland","resolution_m":50}},{"type":"Feature","geometry":{"type":"Polygon","coordinates":[[[102.67781050568533,4.980498080035881],[102.67864779999998,4.980855694583796],[102.67884692246643,4.979711325899076],[102.679365130857,4.979546444461546],[102.679365130857,4.978842411567572],[102.6785172,4.978201194586519],[102.67981720000002,4.977241694587545],[102.67897229999998,4.975838894588979],[102.679365130857,4.975081690585628],[102.67885569999999,4.974590994590228],[102.68040154763813,4.973859474029645],[102.68019493118413,4.97302395271658],[102.67907169950212,4.97302395271658],[102.679365130857,4.9738106990696185],[102.67794499999997,4.97482479459001],[102.67832871407586,4.975384194521393],[102.67781050568533,4.976141354062993],[102.67832871407586,4.976170943620423],[102.678511,4.976883694587901],[102.67729229729476,4.9779132440837754],[102.67729229729476,4.978849661615139],[102.6777962,4.978819594585897],[102.6783836,4.979468894585226],[102.67781050568533,4.980498080035881]]]},"properties":{"place_id":"ab58d7a7-5ed2-5b72-bce4-5958c838033b","habitat":"water_edge","habitat_label":"Water edge","resolution_m":50}}]}