{"type":"FeatureCollection","metadata":{"schema_version":1,"place_id":"ab9d1a59-0067-53bd-b60c-9b45229776b5","place_name":"Pinggiran Golf Recreation Park","place_type":"park","osm_reference":"way/652078791","protection_context":"no protected status confirmed from included OSM tags","resolution_m":50,"raster_coverage":1.0,"interpretation":"Suggested search habitats, not predicted plant locations or probabilities of presence."},"features":[{"type":"Feature","geometry":{"type":"Polygon","coordinates":[[[101.97978380360013,2.7296324514101813],[101.97978380360013,2.729275435407486],[101.9794147,2.729464296973549],[101.97978380360013,2.7296324514101813]]]},"properties":{"place_id":"ab9d1a59-0067-53bd-b60c-9b45229776b5","habitat":"forest_edge_opening","habitat_label":"Forest edge or opening","resolution_m":50}},{"type":"Feature","geometry":{"type":"Polygon","coordinates":[[[101.97973589999998,2.729735396973241],[101.98011179999999,2.729254696973794],[101.9800138,2.7291339969739163],[101.9794147,2.729464296973549],[101.97973589999998,2.729735396973241]]]},"properties":{"place_id":"ab9d1a59-0067-53bd-b60c-9b45229776b5","habitat":"disturbed_built_edge","habitat_label":"Disturbed, bare or built edge","resolution_m":50}}]}