{"type":"FeatureCollection","metadata":{"schema_version":1,"place_id":"abfb1b53-f443-5272-8ab7-c2cf7685d829","place_name":"Taman Sepadu Playground","place_type":"park","osm_reference":"way/816825648","protection_context":"no protected status confirmed from included OSM tags","resolution_m":50,"raster_coverage":1.0,"interpretation":"Suggested search habitats, not predicted plant locations or probabilities of presence."},"features":[{"type":"Feature","geometry":{"type":"MultiPolygon","coordinates":[[[[100.49665129999998,5.485211594070675],[100.49667138981557,5.485646670341958],[100.49686519999999,5.485495094070361],[100.49665129999998,5.485211594070675]]],[[[100.4964235102796,5.485396229839661],[100.4964065,5.485371694070491],[100.4963692154694,5.485396229839661],[100.4964235102796,5.485396229839661]]]]},"properties":{"place_id":"abfb1b53-f443-5272-8ab7-c2cf7685d829","habitat":"forest_edge_opening","habitat_label":"Forest edge or opening","resolution_m":50}},{"type":"Feature","geometry":{"type":"Polygon","coordinates":[[[100.49665129999998,5.485211594070675],[100.496499,5.485781494070089],[100.49686519999999,5.485495094070361],[100.49665129999998,5.485211594070675]]]},"properties":{"place_id":"abfb1b53-f443-5272-8ab7-c2cf7685d829","habitat":"disturbed_built_edge","habitat_label":"Disturbed, bare or built edge","resolution_m":50}}]}