{"type":"FeatureCollection","metadata":{"schema_version":1,"place_id":"abfbb220-f5d4-5f59-891c-4d746b96b33d","place_name":"Taman Sri Sinar Park","place_type":"park","osm_reference":"way/721577435","protection_context":"no protected status confirmed from included OSM tags","resolution_m":50,"raster_coverage":1.0,"interpretation":"Suggested search habitats, not predicted plant locations or probabilities of presence."},"features":[{"type":"Feature","geometry":{"type":"Polygon","coordinates":[[[101.6514139,3.1879754964758775],[101.65167389999999,3.1878306964760417],[101.65123639999999,3.1869046964770438],[101.65083819999998,3.1871702964767503],[101.6514139,3.1879754964758775]]]},"properties":{"place_id":"abfbb220-f5d4-5f59-891c-4d746b96b33d","habitat":"forest_edge_opening","habitat_label":"Forest edge or opening","resolution_m":50}},{"type":"Feature","geometry":{"type":"Polygon","coordinates":[[[101.6514139,3.1879754964758775],[101.65167389999999,3.1878306964760417],[101.65123639999999,3.1869046964770438],[101.65083819999998,3.1871702964767503],[101.6514139,3.1879754964758775]]]},"properties":{"place_id":"abfbb220-f5d4-5f59-891c-4d746b96b33d","habitat":"disturbed_built_edge","habitat_label":"Disturbed, bare or built edge","resolution_m":50}}]}