{"type":"FeatureCollection","metadata":{"schema_version":1,"place_id":"ac59fb9f-fa32-5df3-b264-41764941b329","place_name":"Tun Fuad Park","place_type":"park","osm_reference":"relation/14999153","protection_context":"no protected status confirmed from included OSM tags","resolution_m":50,"raster_coverage":1.0,"interpretation":"Suggested search habitats, not predicted plant locations or probabilities of presence."},"features":[{"type":"Feature","geometry":{"type":"MultiPolygon","coordinates":[[[[116.108735572236,5.94697545267384],[116.108735572236,5.9467772040763744],[116.10855630423738,5.94697545267384],[116.108735572236,5.94697545267384]]],[[[116.10925378062656,5.94658145716024],[116.10925378062656,5.94697545267384],[116.10977198901713,5.94697545267384],[116.10977198901713,5.94658145716024],[116.10925378062656,5.94658145716024]]],[[[116.108735572236,5.94697545267384],[116.108735572236,5.947369448462188],[116.10925378062656,5.947369448462188],[116.10925378062656,5.94697545267384],[116.108735572236,5.94697545267384]]],[[[116.10821736384543,5.947763444525305],[116.108735572236,5.947763444525305],[116.108735572236,5.947369448462188],[116.1082879002823,5.947369448462188],[116.10821736384543,5.947763444525305]]],[[[116.11029019740766,5.950915422924138],[116.11080840579824,5.950915422924138],[116.1113266141888,5.9501274266751825],[116.11184482257937,5.950190110737795],[116.1142602,5.948558693607978],[116.11559819788881,5.948157440863207],[116.11547228131327,5.947763444525305],[116.11495407292274,5.947763444525305],[116.11495407292274,5.947369448462188],[116.11547228131327,5.947369448462188],[116.11495407292274,5.945793466957215],[116.11545337450626,5.945793466957215],[116.11334770000002,5.944226093612251],[116.11081659999999,5.943240093613241],[116.1100053,5.943721993612792],[116.10968699999997,5.944520893611998],[116.10977198901713,5.94658145716024],[116.11080840579824,5.94697545267384],[116.11080840579824,5.947369448462188],[116.10977198901713,5.947763444525305],[116.10977198901713,5.948551437475919],[116.11029019740766,5.948551437475919],[116.11029019740766,5.94894543436345],[116.10925378062656,5.949339431525827],[116.10977198901713,5.9501274266751825],[116.10925378062656,5.9501274266751825],[116.10925378062656,5.950521424662202],[116.108735572236,5.950521424662202],[116.108735572236,5.9501274266751825],[116.10769915545487,5.9501274266751825],[116.10769915545487,5.950915422924138],[116.10994049999996,5.950824793605747],[116.11029019740766,5.952085446475136],[116.11068964647724,5.95130942146101],[116.11029019740766,5.95130942146101],[116.11029019740766,5.950915422924138]]]]},"properties":{"place_id":"ac59fb9f-fa32-5df3-b264-41764941b329","habitat":"forest_interior","habitat_label":"Forest interior","resolution_m":50}},{"type":"Feature","geometry":{"type":"MultiPolygon","coordinates":[[[[116.10977198901713,5.94658145716024],[116.10956074577197,5.945793466957215],[116.108735572236,5.94697545267384],[116.10925378062656,5.94697545267384],[116.10925378062656,5.94658145716024],[116.10977198901713,5.94658145716024]]],[[[116.11495407292274,5.94658145716024],[116.11547228131327,5.94658145716024],[116.11547228131327,5.947369448462188],[116.11495407292274,5.947369448462188],[116.11495407292274,5.947763444525305],[116.11547228131327,5.947763444525305],[116.11559819788881,5.948157440863207],[116.11545337450626,5.945793466957215],[116.11495407292274,5.945793466957215],[116.11495407292274,5.94658145716024]]],[[[116.108735572236,5.947369448462188],[116.108735572236,5.94697545267384],[116.10855630423738,5.94697545267384],[116.1082879002823,5.947369448462188],[116.108735572236,5.947369448462188]]],[[[116.10769915545487,5.950915422924138],[116.10769915545487,5.9501274266751825],[116.108735572236,5.9501274266751825],[116.108735572236,5.950521424662202],[116.10977198901713,5.9501274266751825],[116.10925378062656,5.949339431525827],[116.11029019740766,5.94894543436345],[116.11029019740766,5.948551437475919],[116.10977198901713,5.948551437475919],[116.10977198901713,5.947763444525305],[116.11080840579824,5.947369448462188],[116.11029019740766,5.94658145716024],[116.10977198901713,5.94658145716024],[116.10977198901713,5.94697545267384],[116.10925378062656,5.94697545267384],[116.10925378062656,5.947369448462188],[116.108735572236,5.947369448462188],[116.108735572236,5.947763444525305],[116.10821736384543,5.947478825605589],[116.10729320000002,5.948441193608117],[116.10696990000001,5.949282193607261],[116.10718094706432,5.9497281124228225],[116.10718094706432,5.949339431525827],[116.10769915545487,5.949339431525827],[116.10769915545487,5.949733428963064],[116.10718247426941,5.949733428963064],[116.1075845,5.951331993605254],[116.10847952553887,5.950915422924138],[116.10769915545487,5.950915422924138]],[[116.10925378062656,5.94894543436345],[116.108735572236,5.94894543436345],[116.108735572236,5.948551437475919],[116.10925378062656,5.948551437475919],[116.10925378062656,5.94894543436345]]],[[[116.11184482257937,5.9501274266751825],[116.1113266141888,5.9501274266751825],[116.11029019740766,5.95130942146101],[116.11068964647724,5.95130942146101],[116.11184482257937,5.9501274266751825]]],[[[116.11029019740766,5.952085446475136],[116.1099218589959,5.951703420272838],[116.10989749999999,5.952848493603757],[116.11029019740766,5.952085446475136]]]]},"properties":{"place_id":"ac59fb9f-fa32-5df3-b264-41764941b329","habitat":"forest_edge_opening","habitat_label":"Forest edge or opening","resolution_m":50}},{"type":"Feature","geometry":{"type":"MultiPolygon","coordinates":[[[[116.11547228131327,5.94658145716024],[116.11569581356802,5.94658145716024],[116.11547228131327,5.945807540389147],[116.11547228131327,5.94658145716024]]],[[[116.11573995545521,5.947369448462188],[116.11547228131327,5.947763444525305],[116.11576203483513,5.947763444525305],[116.11573995545521,5.947369448462188]]],[[[116.10761426028246,5.948157440863207],[116.10729320000002,5.948441193608117],[116.10723350775277,5.948551437475919],[116.10769915545487,5.948551437475919],[116.10761426028246,5.948157440863207]]],[[[116.1113266141888,5.950685432445291],[116.11149820001494,5.950521424662202],[116.1113266141888,5.950521424662202],[116.1113266141888,5.950685432445291]]],[[[116.11080840579824,5.950915422924138],[116.11080840579824,5.951180754587301],[116.11108599699489,5.950915422924138],[116.11080840579824,5.950915422924138]]]]},"properties":{"place_id":"ac59fb9f-fa32-5df3-b264-41764941b329","habitat":"open_grassland","habitat_label":"Open grassland or shrubland","resolution_m":50}},{"type":"Feature","geometry":{"type":"MultiPolygon","coordinates":[[[[116.10977198901713,5.94658145716024],[116.10977198901713,5.946187461921373],[116.10926885202157,5.946187461921373],[116.108735572236,5.94697545267384],[116.10977198901713,5.94658145716024]]],[[[116.108735572236,5.947369448462188],[116.108735572236,5.94697545267384],[116.10855630423738,5.94697545267384],[116.1082879002823,5.947369448462188],[116.108735572236,5.947369448462188]]],[[[116.108735572236,5.9501274266751825],[116.108735572236,5.950521424662202],[116.10925378062656,5.950521424662202],[116.10977198901713,5.949733428963064],[116.10925378062656,5.949733428963064],[116.10925378062656,5.949339431525827],[116.10821736384543,5.949339431525827],[116.10821736384543,5.948551437475919],[116.108735572236,5.948551437475919],[116.108735572236,5.947763444525305],[116.10821736384543,5.947478825605589],[116.10696990000001,5.949282193607261],[116.1075845,5.951331993605254],[116.10769915545487,5.9501274266751825],[116.108735572236,5.9501274266751825]]],[[[116.10821736384543,5.9510374405001425],[116.10847952553887,5.950915422924138],[116.10821736384543,5.950915422924138],[116.10821736384543,5.9510374405001425]]],[[[116.10991349641367,5.952097419359642],[116.10989749999999,5.952848493603757],[116.11028403452099,5.952097419359642],[116.10991349641367,5.952097419359642]]]]},"properties":{"place_id":"ac59fb9f-fa32-5df3-b264-41764941b329","habitat":"disturbed_built_edge","habitat_label":"Disturbed, bare or built edge","resolution_m":50}},{"type":"Feature","geometry":{"type":"MultiPolygon","coordinates":[[[[116.11029019740766,5.94697545267384],[116.10977198901713,5.94697545267384],[116.10977198901713,5.947369448462188],[116.11029019740766,5.947369448462188],[116.11029019740766,5.94697545267384]]],[[[116.10925378062656,5.947369448462188],[116.10925378062656,5.947763444525305],[116.10977198901713,5.947763444525305],[116.10977198901713,5.947369448462188],[116.10925378062656,5.947369448462188]]],[[[116.10821736384543,5.948157440863207],[116.10821736384543,5.949733428963064],[116.108735572236,5.949733428963064],[116.10977198901713,5.948551437475919],[116.10925378062656,5.948551437475919],[116.10925378062656,5.947763444525305],[116.10821736384543,5.948157440863207]]]]},"properties":{"place_id":"ac59fb9f-fa32-5df3-b264-41764941b329","habitat":"permanent_water","habitat_label":"Permanent water","resolution_m":50}},{"type":"Feature","geometry":{"type":"MultiPolygon","coordinates":[[[[116.10977198901713,5.947369448462188],[116.10925378062656,5.947369448462188],[116.10925378062656,5.947763444525305],[116.10977198901713,5.947763444525305],[116.10977198901713,5.947369448462188]]],[[[116.108735572236,5.948157440863207],[116.108735572236,5.948551437475919],[116.10925378062656,5.948551437475919],[116.10925378062656,5.948157440863207],[116.108735572236,5.948157440863207]]],[[[116.10925378062656,5.949339431525827],[116.10925378062656,5.94894543436345],[116.10821736384543,5.94894543436345],[116.10821736384543,5.949733428963064],[116.10925378062656,5.949339431525827]]]]},"properties":{"place_id":"ac59fb9f-fa32-5df3-b264-41764941b329","habitat":"seasonal_water_wetland","habitat_label":"Seasonal water or wetland","resolution_m":50}},{"type":"Feature","geometry":{"type":"Polygon","coordinates":[[[116.10769915545487,5.949733428963064],[116.10769915545487,5.9501274266751825],[116.108735572236,5.950521424662202],[116.108735572236,5.9501274266751825],[116.11080840579824,5.94894543436345],[116.11080840579824,5.948551437475919],[116.11029019740766,5.948551437475919],[116.11029019740766,5.947763444525305],[116.11080840579824,5.947763444525305],[116.1113266141888,5.94697545267384],[116.11080840579824,5.94697545267384],[116.11029019740766,5.946187461921373],[116.10977198901713,5.946187461921373],[116.10977198901713,5.94658145716024],[116.10925378062656,5.94658145716024],[116.10925378062656,5.94697545267384],[116.108735572236,5.94697545267384],[116.10729320000002,5.948441193608117],[116.10718247426941,5.949733428963064],[116.10769915545487,5.949733428963064]],[[116.10925378062656,5.948551437475919],[116.10977198901713,5.948551437475919],[116.10977198901713,5.94894543436345],[116.10821736384543,5.949733428963064],[116.10821736384543,5.948157440863207],[116.108735572236,5.948157440863207],[116.108735572236,5.947763444525305],[116.10925378062656,5.947763444525305],[116.10925378062656,5.948551437475919]],[[116.10925378062656,5.947369448462188],[116.10977198901713,5.947369448462188],[116.10977198901713,5.947763444525305],[116.10925378062656,5.947763444525305],[116.10925378062656,5.947369448462188]],[[116.10977198901713,5.94697545267384],[116.11029019740766,5.94697545267384],[116.11029019740766,5.947369448462188],[116.10977198901713,5.947369448462188],[116.10977198901713,5.94697545267384]]]},"properties":{"place_id":"ac59fb9f-fa32-5df3-b264-41764941b329","habitat":"water_edge","habitat_label":"Water edge","resolution_m":50}}]}