{"type":"FeatureCollection","metadata":{"schema_version":1,"place_id":"aca580a0-7c43-518a-8815-32f83aeeac50","place_name":"Straits Green Playground By The Sea","place_type":"park","osm_reference":"way/290853911","protection_context":"no protected status confirmed from included OSM tags","resolution_m":50,"raster_coverage":1.0,"interpretation":"Suggested search habitats, not predicted plant locations or probabilities of presence."},"features":[{"type":"Feature","geometry":{"type":"Polygon","coordinates":[[[100.30837839999998,5.4614286940946215],[100.30957829999998,5.461131494094924],[100.3095862,5.460430194095633],[100.3089436,5.46020659409589],[100.3083937,5.460839994095204],[100.30837839999998,5.4614286940946215]]]},"properties":{"place_id":"aca580a0-7c43-518a-8815-32f83aeeac50","habitat":"forest_edge_opening","habitat_label":"Forest edge or opening","resolution_m":50}},{"type":"Feature","geometry":{"type":"MultiPolygon","coordinates":[[[[100.30856174404207,5.460594482946391],[100.30856174404207,5.460528805472278],[100.30850475327621,5.460594482946391],[100.30856174404207,5.460594482946391]]],[[[100.30857999941055,5.461381824611832],[100.30907995243264,5.461288667193828],[100.30907995243264,5.460594482946391],[100.30856174404207,5.460594482946391],[100.30857999941055,5.461381824611832]]]]},"properties":{"place_id":"aca580a0-7c43-518a-8815-32f83aeeac50","habitat":"open_grassland","habitat_label":"Open grassland or shrubland","resolution_m":50}},{"type":"Feature","geometry":{"type":"Polygon","coordinates":[[[100.30837839999998,5.4614286940946215],[100.30957829999998,5.461131494094924],[100.3095862,5.460430194095633],[100.3089436,5.46020659409589],[100.3085345,5.460551794095536],[100.3083937,5.460839994095204],[100.30837839999998,5.4614286940946215]],[[100.30856174404207,5.460594482946391],[100.30907995243264,5.460594482946391],[100.30907995243264,5.460988153653248],[100.30856174404207,5.460988153653248],[100.30856174404207,5.460594482946391]]]},"properties":{"place_id":"aca580a0-7c43-518a-8815-32f83aeeac50","habitat":"disturbed_built_edge","habitat_label":"Disturbed, bare or built edge","resolution_m":50}},{"type":"Feature","geometry":{"type":"MultiPolygon","coordinates":[[[[100.30856174404207,5.460594482946391],[100.30907995243264,5.460594482946391],[100.30907995243264,5.461288667193828],[100.30957829999998,5.461131494094924],[100.3095862,5.460430194095633],[100.3089436,5.46020659409589],[100.30856174404207,5.460594482946391]]],[[[100.30856174404207,5.461386068769332],[100.30857999941055,5.461381824611832],[100.30856174404207,5.461381824611832],[100.30856174404207,5.461386068769332]]]]},"properties":{"place_id":"aca580a0-7c43-518a-8815-32f83aeeac50","habitat":"water_edge","habitat_label":"Water edge","resolution_m":50}}]}