{"type":"FeatureCollection","metadata":{"schema_version":1,"place_id":"acb04541-01c6-55de-b470-a93bd19b2d10","place_name":"Taman Rimba Telok Bahang","place_type":"park","osm_reference":"relation/18184486","protection_context":"mapped protected boundary","resolution_m":50,"raster_coverage":1.0,"interpretation":"Suggested search habitats, not predicted plant locations or probabilities of presence."},"features":[{"type":"Feature","geometry":{"type":"Polygon","coordinates":[[[100.2158024421317,5.4472076406215795],[100.2188208,5.448924994107262],[100.2236466,5.451169894104975],[100.2286293,5.448383794107776],[100.228152,5.444367694111841],[100.22903369999999,5.440685794115565],[100.22426129999998,5.437142694119145],[100.21891169247507,5.445241521527954],[100.21839348408452,5.445635182431952],[100.21735706730338,5.445635182431952],[100.21735706730338,5.446422504992974],[100.21787527569394,5.446422504992974],[100.21787527569394,5.4468161666500325],[100.21683885891284,5.447209828558151],[100.21632065052228,5.446422504992974],[100.21528423374114,5.446422504992974],[100.2158024421317,5.4472076406215795]]]},"properties":{"place_id":"acb04541-01c6-55de-b470-a93bd19b2d10","habitat":"forest_interior","habitat_label":"Forest interior","resolution_m":50}},{"type":"Feature","geometry":{"type":"MultiPolygon","coordinates":[[[[100.21891169247507,5.445241521527954],[100.21891169247507,5.444906002224684],[100.21868049144585,5.445241521527954],[100.21891169247507,5.445241521527954]]],[[[100.21528423374114,5.446422504992974],[100.21632065052228,5.446422504992974],[100.21632065052228,5.4468161666500325],[100.21735706730338,5.447209828558151],[100.21735706730338,5.4468161666500325],[100.21787527569394,5.4468161666500325],[100.21787527569394,5.446422504992974],[100.21735706730338,5.446422504992974],[100.21735706730338,5.445635182431952],[100.21839348408452,5.445635182431952],[100.21839348408452,5.445477552948976],[100.21735549999998,5.445325994110893],[100.2163092,5.446239094109968],[100.2153303,5.446234894109967],[100.21496879999998,5.446760694109437],[100.21528423374114,5.446422504992974]]],[[[100.2158024421317,5.4468161666500325],[100.21530238019034,5.4468161666500325],[100.2158024421317,5.4472076406215795],[100.2158024421317,5.4468161666500325]]],[[[100.21632065052228,5.447209828558151],[100.21580680034586,5.447209828558151],[100.21632065052228,5.447467794732716],[100.21632065052228,5.447209828558151]]]]},"properties":{"place_id":"acb04541-01c6-55de-b470-a93bd19b2d10","habitat":"forest_edge_opening","habitat_label":"Forest edge or opening","resolution_m":50}},{"type":"Feature","geometry":{"type":"MultiPolygon","coordinates":[[[[100.21683885891284,5.4460288435869515],[100.2168044,5.445734194110454],[100.21661805971914,5.4460288435869515],[100.21683885891284,5.4460288435869515]]],[[[100.21528423374114,5.446267891320619],[100.21506838300016,5.446422504992974],[100.21528423374114,5.446422504992974],[100.21528423374114,5.446267891320619]]]]},"properties":{"place_id":"acb04541-01c6-55de-b470-a93bd19b2d10","habitat":"open_grassland","habitat_label":"Open grassland or shrubland","resolution_m":50}},{"type":"Feature","geometry":{"type":"MultiPolygon","coordinates":[[[[100.21735706730338,5.445635182431952],[100.21735549999998,5.445325994110893],[100.21693807300936,5.445635182431952],[100.21735706730338,5.445635182431952]]],[[[100.21528423374114,5.446422504992974],[100.21496879999998,5.446760694109437],[100.21528423374114,5.446813148995773],[100.21528423374114,5.446422504992974]]],[[[100.21787527569394,5.4468161666500325],[100.21735706730338,5.4460288435869515],[100.21632065052228,5.446422504992974],[100.21683885891284,5.447209828558151],[100.21787527569394,5.4468161666500325]]],[[[100.2158024421317,5.4468161666500325],[100.21530238019034,5.4468161666500325],[100.2158024421317,5.4472076406215795],[100.2158024421317,5.4468161666500325]]],[[[100.21580680034586,5.447209828558151],[100.21632065052228,5.447467794732716],[100.21632065052228,5.447209828558151],[100.21580680034586,5.447209828558151]]]]},"properties":{"place_id":"acb04541-01c6-55de-b470-a93bd19b2d10","habitat":"disturbed_built_edge","habitat_label":"Disturbed, bare or built edge","resolution_m":50}}]}