{"type":"FeatureCollection","metadata":{"schema_version":1,"place_id":"ad5e0b44-602c-5572-abbc-56b86048a44b","place_name":"Hutan Simpanan Kekal Bertam","place_type":"park","osm_reference":"way/1395889637","protection_context":"mapped protected boundary","resolution_m":50,"raster_coverage":1.0,"interpretation":"Suggested search habitats, not predicted plant locations or probabilities of presence."},"features":[{"type":"Feature","geometry":{"type":"MultiPolygon","coordinates":[[[[101.40923636559286,4.420159161936223],[101.40923636559286,4.4200788399264805],[101.40897980820914,4.420159161936223],[101.40923636559286,4.420159161936223]]],[[[101.41079099076455,4.420159161936223],[101.41182740754567,4.420159161936223],[101.41182740754567,4.419766092523064],[101.41079099076455,4.419766092523064],[101.41079099076455,4.420159161936223]]],[[[101.40819994881174,4.420552231552277],[101.40819994881174,4.420403317401764],[101.40772430076736,4.420552231552277],[101.40819994881174,4.420552231552277]]],[[[101.41390024110791,4.42212451204584],[101.41390024110791,4.421731441618011],[101.41338203271735,4.421731441618011],[101.41338203271735,4.42212451204584],[101.41390024110791,4.42212451204584]]],[[[101.41960053340408,4.422910653510482],[101.41960053340408,4.422517582676657],[101.41908232501352,4.422517582676657],[101.41908232501352,4.422910653510482],[101.41960053340408,4.422910653510482]]],[[[101.4180459082324,4.42369679578723],[101.41856411662296,4.42369679578723],[101.41856411662296,4.423303724547334],[101.4180459082324,4.423303724547334],[101.4180459082324,4.42369679578723]]],[[[101.41597307467016,4.424089867230186],[101.41649128306071,4.424089867230186],[101.41649128306071,4.42369679578723],[101.41597307467016,4.42369679578723],[101.41597307467016,4.424089867230186]]],[[[101.41390024110791,4.424876010725362],[101.41441844949847,4.424876010725362],[101.41441844949847,4.424482938876226],[101.41390024110791,4.424482938876226],[101.41390024110791,4.424876010725362]]],[[[101.42167336696632,4.4178007485001],[101.42167336696632,4.416590697299601],[101.42011874179465,4.416394814475542],[101.4206369501852,4.417014612310554],[101.42115515857576,4.417014612310554],[101.42115515857576,4.4178007485001],[101.41908232501352,4.418586885500794],[101.41908232501352,4.418193816899044],[101.41856411662296,4.418193816899044],[101.41856411662296,4.417407680303941],[101.41908232501352,4.417407680303941],[101.41908232501352,4.4166215445199155],[101.41960053340408,4.4163295202120425],[101.41700949145128,4.416003048978454],[101.41649128306071,4.4166215445199155],[101.41493665788904,4.4166215445199155],[101.41441844949847,4.415973508163438],[101.41374149999999,4.4161250951692],[101.41410069672789,4.417407680303941],[101.41493665788904,4.417407680303941],[101.41545486627959,4.418193816899044],[101.41493665788904,4.418193816899044],[101.41493665788904,4.418586885500794],[101.41441844949847,4.418586885500794],[101.41441844949847,4.418193816899044],[101.41432085935232,4.418193816899044],[101.41390024110791,4.41861869299853],[101.41390024110791,4.419373023312787],[101.41441844949847,4.419373023312787],[101.41390024110791,4.420159161936223],[101.41234561593623,4.419373023312787],[101.41234561593623,4.420159161936223],[101.41338203271735,4.420552231552277],[101.41338203271735,4.4209453013712485],[101.41286382432679,4.4209453013712485],[101.41286382432679,4.421731441618011],[101.41338203271735,4.421731441618011],[101.41390024110791,4.4209453013712485],[101.41493665788904,4.4209453013712485],[101.41493665788904,4.420552231552277],[101.41545486627959,4.420552231552277],[101.41545486627959,4.4209453013712485],[101.41649128306071,4.4209453013712485],[101.41649128306071,4.421338371393153],[101.41752769984184,4.421731441618011],[101.41752769984184,4.422910653510482],[101.41856411662296,4.422910653510482],[101.41856411662296,4.422517582676657],[101.41908232501352,4.422517582676657],[101.41908232501352,4.421731441618011],[101.41856411662296,4.421731441618011],[101.4180459082324,4.4209453013712485],[101.41856411662296,4.4209453013712485],[101.41908232501352,4.420159161936223],[101.42011874179465,4.420159161936223],[101.42011874179465,4.419766092523064],[101.42115515857576,4.419766092523064],[101.42115515857576,4.419373023312787],[101.42167336696632,4.419373023312787],[101.42167336696632,4.419766092523064],[101.42219157535689,4.419766092523064],[101.42219157535689,4.420552231552277],[101.4206369501852,4.421338371393153],[101.4206369501852,4.422517582676657],[101.41960053340408,4.422910653510482],[101.41960053340408,4.42369679578723],[101.4206369501852,4.42369679578723],[101.4206369501852,4.423303724547334],[101.42115515857576,4.423303724547334],[101.42115515857576,4.422517582676657],[101.42167336696632,4.422517582676657],[101.42167336696632,4.421731441618011],[101.42219157535689,4.421731441618011],[101.42219157535689,4.421338371393153],[101.42270978374745,4.421338371393153],[101.42270978374745,4.421731441618011],[101.42322799213801,4.421731441618011],[101.42322799213801,4.422517582676657],[101.42426440891913,4.422910653510482],[101.42426440891913,4.42369679578723],[101.42219157535689,4.424482938876226],[101.42219157535689,4.425269082777619],[101.42270978374745,4.425269082777619],[101.42270978374745,4.426055227491556],[101.42219157535689,4.426055227491556],[101.42219157535689,4.426448300153272],[101.42115515857576,4.426448300153272],[101.42115515857576,4.426055227491556],[101.41960053340408,4.426055227491556],[101.41960053340408,4.426448300153272],[101.41908232501352,4.426448300153272],[101.41908232501352,4.426055227491556],[101.41856411662296,4.426055227491556],[101.41856411662296,4.425269082777619],[101.41700949145128,4.425269082777619],[101.41700949145128,4.425662155033009],[101.41649128306071,4.425662155033009],[101.41700949145128,4.428020592832236],[101.41649128306071,4.428020592832236],[101.41597307467016,4.428806740391229],[101.41545486627959,4.428806740391229],[101.41390024110791,4.4272344460863],[101.41286382432679,4.4272344460863],[101.41286382432679,4.426841373018181],[101.41234561593623,4.426841373018181],[101.41234561593623,4.425662155033009],[101.41338203271735,4.425269082777619],[101.41338203271735,4.424876010725362],[101.41234561593623,4.424876010725362],[101.41234561593623,4.424482938876226],[101.41182740754567,4.424482938876226],[101.41182740754567,4.423303724547334],[101.41234561593623,4.423303724547334],[101.41234561593623,4.422910653510482],[101.41130919915511,4.422910653510482],[101.41130919915511,4.423303724547334],[101.410272782374,4.423303724547334],[101.410272782374,4.422910653510482],[101.40975457398343,4.422910653510482],[101.40975457398343,4.423303724547334],[101.40871815720232,4.423303724547334],[101.40871815720232,4.422910653510482],[101.40819994881174,4.422910653510482],[101.40819994881174,4.422517582676657],[101.40871815720232,4.422517582676657],[101.40871815720232,4.421731441618011],[101.40819994881174,4.421731441618011],[101.40819994881174,4.4209453013712485],[101.40768174042118,4.4209453013712485],[101.40768174042118,4.420565556191257],[101.40709389999998,4.42074959516433],[101.4086233957376,4.425662155033009],[101.40871815720232,4.425269082777619],[101.40975457398343,4.425269082777619],[101.40975457398343,4.425662155033009],[101.41079099076455,4.426055227491556],[101.410272782374,4.426841373018181],[101.40897135538602,4.426448300153272],[101.41356879999998,4.432630695151907],[101.4128285,4.434247495150217],[101.41305710000002,4.434723395149734],[101.4118076,4.43540019514901],[101.4106165,4.4372861951470615],[101.40959299999999,4.437593295146712],[101.4086767,4.4394682951447475],[101.4057693,4.4399384951442835],[101.40537309768722,4.44099213163464],[101.40560890685894,4.441778292630243],[101.40525415600615,4.441778292630243],[101.40760066036206,4.445316027205907],[101.40871815720232,4.445709109845535],[101.40871815720232,4.446495275737077],[101.40923636559286,4.446495275737077],[101.40923636559286,4.4468952578274745],[101.41140599999997,4.446453995137455],[101.4148991,4.442192395141921],[101.41935829053561,4.4413852120304975],[101.41888269999998,4.439576995144646],[101.42379539999999,4.430601395154034],[101.42476479999999,4.429813095154851],[101.42674099999999,4.430416095154211],[101.43168860000002,4.430343095154296],[101.4324364,4.4311767951534335],[101.4340567,4.431778695152818],[101.4366414,4.433722195150762],[101.43832509999999,4.433859195150644],[101.4398572,4.43152879515305],[101.44272609999999,4.429824095154829],[101.44540519999998,4.429043695155654],[101.4499511,4.426190995158652],[101.4517858,4.426153595158664],[101.45273909999999,4.426529195158292],[101.45373459999999,4.427857395156907],[101.4547204,4.431351695153258],[101.45720455145191,4.4339167193530695],[101.45742974591502,4.4335236428275895],[101.45846616269613,4.4339167193530695],[101.45846616269613,4.434309796082085],[101.45794795430555,4.434309796082085],[101.45794795430555,4.435095950150812],[101.45846616269613,4.435095950150812],[101.45846616269613,4.435489027490556],[101.45794795430555,4.435489027490556],[101.45794795430555,4.435882105033914],[101.45691153752445,4.435489027490556],[101.45795090000001,4.437830395146473],[101.4660076,4.428564795156169],[101.46313003821116,4.423424132995231],[101.4626118298206,4.42369679578723],[101.4626118298206,4.423303724547334],[101.4615754130395,4.422910653510482],[101.4615754130395,4.422517582676657],[101.46240255305506,4.42212451204584],[101.4621605,4.421692095163346],[101.4506930368377,4.420247185926089],[101.45017482844715,4.4209453013712485],[101.4496566200566,4.4209453013712485],[101.44913841166604,4.420051302161833],[101.44810199488491,4.4199207130136555],[101.44758378649436,4.420159161936223],[101.44758378649436,4.420552231552277],[101.44810199488491,4.420552231552277],[101.44758378649436,4.421338371393153],[101.4470655781038,4.421338371393153],[101.4470655781038,4.4209453013712485],[101.44602916132267,4.4209453013712485],[101.44654736971323,4.422517582676657],[101.4455109529321,4.422910653510482],[101.44499274454157,4.42212451204584],[101.44395632776043,4.42212451204584],[101.44395632776043,4.421731441618011],[101.44343811936986,4.421731441618011],[101.44343811936986,4.420552231552277],[101.4429199109793,4.420552231552277],[101.44343811936986,4.419766092523064],[101.44447453615099,4.419766092523064],[101.44447453615099,4.419463651171382],[101.43929245224538,4.418810706158233],[101.43877424385482,4.419373023312787],[101.43670141029259,4.419373023312787],[101.43618320190201,4.418418939419005],[101.43151932638698,4.417831289687926],[101.43151932638698,4.418193816899044],[101.4310011179964,4.418193816899044],[101.4310011179964,4.4178007485001],[101.42685545087193,4.417243640410101],[101.4273736592625,4.417407680303941],[101.4273736592625,4.418193816899044],[101.42633724248137,4.418586885500794],[101.42633724248137,4.418193816899044],[101.42581903409081,4.418193816899044],[101.42581903409081,4.417113051743245],[101.42426440891913,4.416917168784919],[101.42426440891913,4.417407680303941],[101.42374620052856,4.417407680303941],[101.42374620052856,4.4178007485001],[101.42270978374745,4.4178007485001],[101.42270978374745,4.418193816899044],[101.42167336696632,4.4178007485001]],[[101.42426440891913,4.4178007485001],[101.42478261730969,4.418586885500794],[101.42374620052856,4.418979954305369],[101.42322799213801,4.418193816899044],[101.42426440891913,4.4178007485001]]],[[[101.45742974591502,4.435095950150812],[101.45742974591502,4.434309796082085],[101.45710002799625,4.434309796082085],[101.45691153752445,4.435095950150812],[101.45742974591502,4.435095950150812]]]]},"properties":{"place_id":"ad5e0b44-602c-5572-abbc-56b86048a44b","habitat":"forest_interior","habitat_label":"Forest interior","resolution_m":50}},{"type":"Feature","geometry":{"type":"MultiPolygon","coordinates":[[[[101.41441844949847,4.4162284769320115],[101.41493665788904,4.4162284769320115],[101.41493665788904,4.4166215445199155],[101.41649128306071,4.4166215445199155],[101.41700949145128,4.416003048978454],[101.415267,4.415783495169517],[101.41441844949847,4.4162284769320115]]],[[[101.41390024110791,4.4166215445199155],[101.41388053410343,4.4166215445199155],[101.41390024110791,4.416691912386278],[101.41390024110791,4.4166215445199155]]],[[[101.42115515857576,4.4178007485001],[101.42115515857576,4.417014612310554],[101.4206369501852,4.417014612310554],[101.42011874179465,4.416394814475542],[101.41908232501352,4.4166215445199155],[101.41908232501352,4.417407680303941],[101.41856411662296,4.417407680303941],[101.41856411662296,4.418193816899044],[101.41908232501352,4.418193816899044],[101.41908232501352,4.418586885500794],[101.42115515857576,4.4178007485001]]],[[[101.41493665788904,4.417407680303941],[101.41410069672789,4.417407680303941],[101.41441844949847,4.418586885500794],[101.41545486627959,4.418193816899044],[101.41493665788904,4.417407680303941]]],[[[101.41286382432679,4.420159161936223],[101.41234561593623,4.420159161936223],[101.41234561593623,4.419373023312787],[101.41286382432679,4.419373023312787],[101.41338203271735,4.420159161936223],[101.41441844949847,4.419766092523064],[101.41441844949847,4.419373023312787],[101.41390024110791,4.419373023312787],[101.41390024110791,4.41861869299853],[101.40768174042118,4.420565556191257],[101.40768174042118,4.4209453013712485],[101.40819994881174,4.4209453013712485],[101.40819994881174,4.421731441618011],[101.40871815720232,4.421731441618011],[101.40871815720232,4.422517582676657],[101.40819994881174,4.422517582676657],[101.40819994881174,4.422910653510482],[101.40871815720232,4.422910653510482],[101.40871815720232,4.423303724547334],[101.40975457398343,4.423303724547334],[101.40975457398343,4.422910653510482],[101.410272782374,4.422910653510482],[101.410272782374,4.423303724547334],[101.41234561593623,4.422910653510482],[101.41234561593623,4.423303724547334],[101.41182740754567,4.423303724547334],[101.41182740754567,4.424482938876226],[101.41234561593623,4.424482938876226],[101.41234561593623,4.424876010725362],[101.41338203271735,4.424876010725362],[101.41338203271735,4.425269082777619],[101.41234561593623,4.425662155033009],[101.41234561593623,4.426841373018181],[101.41286382432679,4.426841373018181],[101.41286382432679,4.4272344460863],[101.41390024110791,4.4272344460863],[101.41545486627959,4.428806740391229],[101.41700949145128,4.428020592832236],[101.41700949145128,4.426841373018181],[101.41649128306071,4.426841373018181],[101.41649128306071,4.425662155033009],[101.41700949145128,4.425662155033009],[101.41700949145128,4.425269082777619],[101.41856411662296,4.425269082777619],[101.41856411662296,4.426055227491556],[101.41908232501352,4.426055227491556],[101.41908232501352,4.426448300153272],[101.41960053340408,4.426448300153272],[101.41960053340408,4.426055227491556],[101.42115515857576,4.426055227491556],[101.42115515857576,4.426448300153272],[101.42219157535689,4.426448300153272],[101.42219157535689,4.426055227491556],[101.42270978374745,4.426055227491556],[101.42219157535689,4.424482938876226],[101.42426440891913,4.42369679578723],[101.42426440891913,4.422910653510482],[101.42322799213801,4.422517582676657],[101.42322799213801,4.421731441618011],[101.42270978374745,4.421731441618011],[101.42270978374745,4.421338371393153],[101.42167336696632,4.421731441618011],[101.42115515857576,4.423303724547334],[101.4206369501852,4.423303724547334],[101.4206369501852,4.42369679578723],[101.41960053340408,4.42369679578723],[101.41960053340408,4.422910653510482],[101.41908232501352,4.422910653510482],[101.41908232501352,4.422517582676657],[101.41856411662296,4.422517582676657],[101.41856411662296,4.422910653510482],[101.41752769984184,4.422910653510482],[101.41752769984184,4.421731441618011],[101.41700949145128,4.421731441618011],[101.41649128306071,4.4209453013712485],[101.41545486627959,4.4209453013712485],[101.41545486627959,4.420552231552277],[101.41493665788904,4.420552231552277],[101.41493665788904,4.4209453013712485],[101.41390024110791,4.4209453013712485],[101.41390024110791,4.421338371393153],[101.41286382432679,4.421731441618011],[101.41286382432679,4.4209453013712485],[101.41338203271735,4.4209453013712485],[101.41286382432679,4.420159161936223]],[[101.41390024110791,4.421731441618011],[101.41390024110791,4.42212451204584],[101.41338203271735,4.42212451204584],[101.41338203271735,4.421731441618011],[101.41390024110791,4.421731441618011]],[[101.41493665788904,4.426448300153272],[101.41493665788904,4.425662155033009],[101.41545486627959,4.425662155033009],[101.41597307467016,4.428020592832236],[101.41441844949847,4.4272344460863],[101.41441844949847,4.426448300153272],[101.41493665788904,4.426448300153272]],[[101.42167336696632,4.425662155033009],[101.42115515857576,4.425662155033009],[101.42115515857576,4.425269082777619],[101.42167336696632,4.425269082777619],[101.42167336696632,4.425662155033009]],[[101.41960053340408,4.425269082777619],[101.41960053340408,4.424876010725362],[101.4206369501852,4.424876010725362],[101.4206369501852,4.424482938876226],[101.42115515857576,4.424482938876226],[101.42115515857576,4.425269082777619],[101.41960053340408,4.425269082777619]],[[101.41908232501352,4.424876010725362],[101.41908232501352,4.424482938876226],[101.41960053340408,4.424482938876226],[101.41960053340408,4.424876010725362],[101.41908232501352,4.424876010725362]],[[101.42115515857576,4.42369679578723],[101.42167336696632,4.42369679578723],[101.42167336696632,4.424482938876226],[101.42115515857576,4.424482938876226],[101.42115515857576,4.42369679578723]],[[101.41441844949847,4.424482938876226],[101.41441844949847,4.424876010725362],[101.41390024110791,4.424876010725362],[101.41390024110791,4.424482938876226],[101.41441844949847,4.424482938876226]],[[101.4180459082324,4.424089867230186],[101.4180459082324,4.424482938876226],[101.41752769984184,4.424482938876226],[101.41752769984184,4.424089867230186],[101.4180459082324,4.424089867230186]],[[101.41338203271735,4.42369679578723],[101.41338203271735,4.424089867230186],[101.41286382432679,4.424089867230186],[101.41286382432679,4.42369679578723],[101.41338203271735,4.42369679578723]],[[101.41649128306071,4.42369679578723],[101.41649128306071,4.424089867230186],[101.41597307467016,4.424089867230186],[101.41597307467016,4.42369679578723],[101.41649128306071,4.42369679578723]],[[101.41856411662296,4.423303724547334],[101.41856411662296,4.42369679578723],[101.4180459082324,4.42369679578723],[101.4180459082324,4.423303724547334],[101.41856411662296,4.423303724547334]],[[101.41545486627959,4.422910653510482],[101.41545486627959,4.422517582676657],[101.41597307467016,4.422517582676657],[101.41597307467016,4.421731441618011],[101.41649128306071,4.421731441618011],[101.41649128306071,4.422910653510482],[101.41545486627959,4.422910653510482]],[[101.40975457398343,4.421731441618011],[101.40975457398343,4.421338371393153],[101.410272782374,4.421338371393153],[101.40975457398343,4.420552231552277],[101.41182740754567,4.4209453013712485],[101.41182740754567,4.421338371393153],[101.41130919915511,4.421338371393153],[101.41130919915511,4.42212451204584],[101.410272782374,4.42212451204584],[101.410272782374,4.421731441618011],[101.40975457398343,4.421731441618011]],[[101.41182740754567,4.420552231552277],[101.41234561593623,4.420552231552277],[101.41234561593623,4.4209453013712485],[101.41182740754567,4.4209453013712485],[101.41182740754567,4.420552231552277]],[[101.41182740754567,4.419766092523064],[101.41182740754567,4.420159161936223],[101.41079099076455,4.420159161936223],[101.41079099076455,4.419766092523064],[101.41182740754567,4.419766092523064]]],[[[101.410272782374,4.426055227491556],[101.40975457398343,4.425269082777619],[101.40871815720232,4.425269082777619],[101.40897135538602,4.426448300153272],[101.40975457398343,4.426448300153272],[101.40975457398343,4.426841373018181],[101.41079099076455,4.426448300153272],[101.41079099076455,4.426055227491556],[101.410272782374,4.426055227491556]]],[[[101.41182740754567,4.42998596325452],[101.41170471224191,4.42998596325452],[101.41182740754567,4.430128003676287],[101.41182740754567,4.42998596325452]]],[[[101.41908232501352,4.44099213163464],[101.41915785976802,4.440599051442651],[101.41908232501352,4.440599051442651],[101.41908232501352,4.44099213163464]]],[[[101.40560890685894,4.441778292630243],[101.40537309768722,4.44099213163464],[101.40525415600615,4.441778292630243],[101.40560890685894,4.441778292630243]]],[[[101.41935829053561,4.4413852120304975],[101.41908232501352,4.4414714431940325],[101.41936750000002,4.44142229514274],[101.41935829053561,4.4413852120304975]]],[[[101.40819994881174,4.445709109845535],[101.40819994881174,4.445316027205907],[101.40760066036206,4.445316027205907],[101.40886040000001,4.447215295136676],[101.40923636559286,4.446495275737077],[101.40871815720232,4.446495275737077],[101.40871815720232,4.445709109845535],[101.40819994881174,4.445709109845535]]],[[[101.42426440891913,4.417407680303941],[101.42426440891913,4.416917168784919],[101.42270978374745,4.417014612310554],[101.42270978374745,4.416721285876946],[101.42167336696632,4.416590697299601],[101.42167336696632,4.4178007485001],[101.42219157535689,4.4178007485001],[101.42219157535689,4.418193816899044],[101.42426440891913,4.417407680303941]]],[[[101.4273736592625,4.417407680303941],[101.42581903409081,4.417113051743245],[101.42581903409081,4.418193816899044],[101.42633724248137,4.418193816899044],[101.42633724248137,4.418586885500794],[101.4273736592625,4.418193816899044],[101.4273736592625,4.417407680303941]]],[[[101.4310011179964,4.418193816899044],[101.43151932638698,4.418193816899044],[101.43151932638698,4.417831289687926],[101.43048290960586,4.417700700920352],[101.4310011179964,4.4178007485001],[101.4310011179964,4.418193816899044]]],[[[101.42426440891913,4.4178007485001],[101.42322799213801,4.418193816899044],[101.42374620052856,4.418979954305369],[101.42478261730969,4.418586885500794],[101.42426440891913,4.4178007485001]]],[[[101.43618320190201,4.418979954305369],[101.43670141029259,4.418979954305369],[101.43670141029259,4.419373023312787],[101.43877424385482,4.419373023312787],[101.43929245224538,4.418810706158233],[101.43618320190201,4.418418939419005],[101.43618320190201,4.418979954305369]]],[[[101.44913841166604,4.420552231552277],[101.45017482844715,4.4209453013712485],[101.4506930368377,4.420247185926089],[101.44913841166604,4.420051302161833],[101.44913841166604,4.420552231552277]]],[[[101.42115515857576,4.4209453013712485],[101.42219157535689,4.420552231552277],[101.42219157535689,4.419766092523064],[101.42167336696632,4.419766092523064],[101.42167336696632,4.419373023312787],[101.42115515857576,4.419373023312787],[101.42115515857576,4.419766092523064],[101.42011874179465,4.419766092523064],[101.42011874179465,4.420159161936223],[101.41908232501352,4.420159161936223],[101.4180459082324,4.421338371393153],[101.41856411662296,4.421338371393153],[101.41856411662296,4.421731441618011],[101.41908232501352,4.421731441618011],[101.41908232501352,4.422517582676657],[101.42011874179465,4.422910653510482],[101.42115515857576,4.4209453013712485]],[[101.41960053340408,4.4209453013712485],[101.41960053340408,4.421338371393153],[101.41908232501352,4.421338371393153],[101.41908232501352,4.4209453013712485],[101.41960053340408,4.4209453013712485]]],[[[101.44602916132267,4.421731441618011],[101.44602916132267,4.4209453013712485],[101.4470655781038,4.4209453013712485],[101.4470655781038,4.421338371393153],[101.44810199488491,4.4209453013712485],[101.44810199488491,4.420552231552277],[101.44758378649436,4.420552231552277],[101.44810199488491,4.4199207130136555],[101.44654736971323,4.419724829333378],[101.44654736971323,4.420159161936223],[101.4455109529321,4.420552231552277],[101.44499274454157,4.419766092523064],[101.44602916132267,4.419659534784484],[101.44447453615099,4.419463651171382],[101.44447453615099,4.419766092523064],[101.44343811936986,4.419766092523064],[101.44343811936986,4.420159161936223],[101.4429199109793,4.420159161936223],[101.4429199109793,4.420552231552277],[101.44343811936986,4.420552231552277],[101.44343811936986,4.421731441618011],[101.44395632776043,4.421731441618011],[101.44395632776043,4.42212451204584],[101.44499274454157,4.42212451204584],[101.4455109529321,4.422910653510482],[101.44654736971323,4.422517582676657],[101.44654736971323,4.421731441618011],[101.44602916132267,4.421731441618011]]],[[[101.4615754130395,4.422910653510482],[101.46209362143006,4.422910653510482],[101.46209362143006,4.423303724547334],[101.46313003821116,4.42369679578723],[101.46240255305506,4.42212451204584],[101.4615754130395,4.422517582676657],[101.4615754130395,4.422910653510482]]],[[[101.45794795430555,4.435489027490556],[101.45846616269613,4.435489027490556],[101.45846616269613,4.435095950150812],[101.45794795430555,4.435095950150812],[101.45794795430555,4.434309796082085],[101.45846616269613,4.434309796082085],[101.45846616269613,4.4339167193530695],[101.45742974591502,4.4335236428275895],[101.45710002799625,4.434309796082085],[101.45742974591502,4.434309796082085],[101.45742974591502,4.435095950150812],[101.45691153752445,4.435018644363285],[101.45676989999998,4.435551295148862],[101.45794795430555,4.435882105033914],[101.45794795430555,4.435489027490556]]]]},"properties":{"place_id":"ad5e0b44-602c-5572-abbc-56b86048a44b","habitat":"forest_edge_opening","habitat_label":"Forest edge or opening","resolution_m":50}},{"type":"Feature","geometry":{"type":"MultiPolygon","coordinates":[[[[101.41493665788904,4.4162284769320115],[101.41649128306071,4.4162284769320115],[101.41649128306071,4.4159377547485175],[101.415267,4.415783495169517],[101.41493665788904,4.4162284769320115]]],[[[101.41493665788904,4.4178007485001],[101.41441844949847,4.4178007485001],[101.41441844949847,4.418193816899044],[101.41493665788904,4.418193816899044],[101.41493665788904,4.4178007485001]]],[[[101.41338203271735,4.418780931407851],[101.41274633053446,4.418979954305369],[101.41338203271735,4.418979954305369],[101.41338203271735,4.418780931407851]]],[[[101.41234561593623,4.419373023312787],[101.41234561593623,4.419105408330153],[101.41149082309268,4.419373023312787],[101.41234561593623,4.419373023312787]]],[[[101.41079099076455,4.419592123972791],[101.41023531565092,4.419766092523064],[101.41079099076455,4.419766092523064],[101.41079099076455,4.419592123972791]]],[[[101.41390024110791,4.419373023312787],[101.41338203271735,4.419373023312787],[101.41338203271735,4.419766092523064],[101.41390024110791,4.419766092523064],[101.41390024110791,4.419373023312787]]],[[[101.41390024110791,4.421731441618011],[101.41545486627959,4.421731441618011],[101.41545486627959,4.4209453013712485],[101.41493665788904,4.4209453013712485],[101.41493665788904,4.421338371393153],[101.41390024110791,4.421338371393153],[101.41390024110791,4.421731441618011]]],[[[101.41286382432679,4.4209453013712485],[101.41234561593623,4.420159161936223],[101.41182740754567,4.420159161936223],[101.41182740754567,4.420552231552277],[101.41079099076455,4.420552231552277],[101.41079099076455,4.420159161936223],[101.40819994881174,4.420552231552277],[101.40819994881174,4.4209453013712485],[101.40871815720232,4.4209453013712485],[101.40871815720232,4.421731441618011],[101.40923636559286,4.421731441618011],[101.40923636559286,4.42212451204584],[101.410272782374,4.42212451204584],[101.410272782374,4.422910653510482],[101.41130919915511,4.422910653510482],[101.41182740754567,4.421338371393153],[101.41286382432679,4.4209453013712485]],[[101.40975457398343,4.421338371393153],[101.40923636559286,4.421338371393153],[101.40923636559286,4.4209453013712485],[101.40975457398343,4.4209453013712485],[101.40975457398343,4.421338371393153]]],[[[101.41234561593623,4.421731441618011],[101.41234561593623,4.422910653510482],[101.41286382432679,4.422910653510482],[101.41338203271735,4.42212451204584],[101.41234561593623,4.421731441618011]]],[[[101.41649128306071,4.422910653510482],[101.41700949145128,4.422910653510482],[101.41700949145128,4.421731441618011],[101.41649128306071,4.421731441618011],[101.41649128306071,4.421338371393153],[101.41545486627959,4.421731441618011],[101.41545486627959,4.422517582676657],[101.41441844949847,4.422517582676657],[101.41441844949847,4.42212451204584],[101.41390024110791,4.42212451204584],[101.41390024110791,4.423303724547334],[101.41441844949847,4.423303724547334],[101.41441844949847,4.422910653510482],[101.41649128306071,4.423303724547334],[101.41649128306071,4.422910653510482]]],[[[101.40975457398343,4.422517582676657],[101.40871815720232,4.422517582676657],[101.40871815720232,4.422910653510482],[101.40975457398343,4.422910653510482],[101.40975457398343,4.422517582676657]]],[[[101.41908232501352,4.422910653510482],[101.41856411662296,4.422910653510482],[101.41856411662296,4.423303724547334],[101.41908232501352,4.423303724547334],[101.41908232501352,4.422910653510482]]],[[[101.41700949145128,4.42369679578723],[101.41752769984184,4.42369679578723],[101.41752769984184,4.422910653510482],[101.41700949145128,4.422910653510482],[101.41700949145128,4.42369679578723]]],[[[101.41338203271735,4.423303724547334],[101.41234561593623,4.423303724547334],[101.41234561593623,4.424482938876226],[101.41390024110791,4.424482938876226],[101.41390024110791,4.424089867230186],[101.41493665788904,4.424482938876226],[101.41493665788904,4.425662155033009],[101.41441844949847,4.425662155033009],[101.41390024110791,4.4272344460863],[101.41441844949847,4.4272344460863],[101.41545486627959,4.428413666510091],[101.41649128306071,4.428020592832236],[101.41649128306071,4.426841373018181],[101.41597307467016,4.426841373018181],[101.41597307467016,4.425269082777619],[101.41649128306071,4.425269082777619],[101.41649128306071,4.424876010725362],[101.41908232501352,4.424876010725362],[101.41908232501352,4.426055227491556],[101.41960053340408,4.426055227491556],[101.41960053340408,4.425662155033009],[101.42219157535689,4.426055227491556],[101.42167336696632,4.424482938876226],[101.42219157535689,4.424482938876226],[101.42219157535689,4.42369679578723],[101.42374620052856,4.42369679578723],[101.42374620052856,4.422910653510482],[101.42270978374745,4.422910653510482],[101.42270978374745,4.423303724547334],[101.42115515857576,4.423303724547334],[101.42115515857576,4.42369679578723],[101.4206369501852,4.42369679578723],[101.4206369501852,4.424482938876226],[101.41960053340408,4.424482938876226],[101.41960053340408,4.42369679578723],[101.41908232501352,4.42369679578723],[101.41908232501352,4.424089867230186],[101.4180459082324,4.424089867230186],[101.4180459082324,4.42369679578723],[101.41752769984184,4.42369679578723],[101.41700949145128,4.424482938876226],[101.41597307467016,4.424482938876226],[101.41597307467016,4.424089867230186],[101.41493665788904,4.424089867230186],[101.41493665788904,4.423303724547334],[101.41441844949847,4.423303724547334],[101.41441844949847,4.42369679578723],[101.41338203271735,4.42369679578723],[101.41338203271735,4.423303724547334]],[[101.41597307467016,4.424876010725362],[101.41545486627959,4.424876010725362],[101.41545486627959,4.424482938876226],[101.41597307467016,4.424482938876226],[101.41597307467016,4.424876010725362]]],[[[101.40975457398343,4.425662155033009],[101.40871815720232,4.425662155033009],[101.40874577603823,4.426055227491556],[101.40975457398343,4.426055227491556],[101.40975457398343,4.425662155033009]]],[[[101.41441844949847,4.425269082777619],[101.41338203271735,4.425269082777619],[101.41338203271735,4.425662155033009],[101.41286382432679,4.425662155033009],[101.41286382432679,4.426841373018181],[101.41338203271735,4.426841373018181],[101.41338203271735,4.426055227491556],[101.41390024110791,4.426055227491556],[101.41441844949847,4.425269082777619]]],[[[101.410272782374,4.426055227491556],[101.40975457398343,4.426055227491556],[101.40975457398343,4.426448300153272],[101.410272782374,4.426448300153272],[101.410272782374,4.426055227491556]]],[[[101.40819994881174,4.445709109845535],[101.4078613830683,4.445709109845535],[101.40819994881174,4.446219554054545],[101.40819994881174,4.445709109845535]]],[[[101.40871815720232,4.446495275737077],[101.40838282848073,4.446495275737077],[101.40871815720232,4.4470008401202845],[101.40871815720232,4.446495275737077]]],[[[101.42219157535689,4.4178007485001],[101.42270978374745,4.4178007485001],[101.42270978374745,4.417407680303941],[101.42374620052856,4.417407680303941],[101.42374620052856,4.416851874476667],[101.42219157535689,4.416655991585476],[101.42219157535689,4.4178007485001]]],[[[101.42011874179465,4.4166215445199155],[101.41960053340408,4.4166215445199155],[101.41908232501352,4.418193816899044],[101.41960053340408,4.418193816899044],[101.41960053340408,4.4178007485001],[101.4206369501852,4.4178007485001],[101.4206369501852,4.417014612310554],[101.42011874179465,4.417014612310554],[101.42011874179465,4.4166215445199155]]],[[[101.4310011179964,4.4178007485001],[101.43127693649319,4.4178007485001],[101.4310011179964,4.41776599530134],[101.4310011179964,4.4178007485001]]],[[[101.42685545087193,4.417407680303941],[101.42633724248137,4.417407680303941],[101.42633724248137,4.418193816899044],[101.42685545087193,4.418193816899044],[101.42685545087193,4.417407680303941]]],[[[101.42426440891913,4.418193816899044],[101.42374620052856,4.418193816899044],[101.42374620052856,4.418586885500794],[101.42426440891913,4.418586885500794],[101.42426440891913,4.418193816899044]]],[[[101.43670141029259,4.418979954305369],[101.43877424385482,4.418979954305369],[101.43877424385482,4.418745411687703],[101.43670141029259,4.418484233861552],[101.43670141029259,4.418979954305369]]],[[[101.44758378649436,4.420159161936223],[101.4470655781038,4.419790123887871],[101.4470655781038,4.420159161936223],[101.44758378649436,4.420159161936223]]],[[[101.4496566200566,4.420552231552277],[101.45017482844715,4.420552231552277],[101.45017482844715,4.420181891332405],[101.4496566200566,4.420116596744318],[101.4496566200566,4.420552231552277]]],[[[101.44343811936986,4.420159161936223],[101.44343811936986,4.420552231552277],[101.44395632776043,4.420552231552277],[101.44395632776043,4.420159161936223],[101.44343811936986,4.420159161936223]]],[[[101.44654736971323,4.419724829333378],[101.44447453615099,4.419766092523064],[101.44395632776043,4.421731441618011],[101.4455109529321,4.421731441618011],[101.4455109529321,4.421338371393153],[101.44499274454157,4.421338371393153],[101.44499274454157,4.420552231552277],[101.44654736971323,4.420552231552277],[101.44654736971323,4.419724829333378]]],[[[101.44758378649436,4.420552231552277],[101.4470655781038,4.420552231552277],[101.4470655781038,4.4209453013712485],[101.44758378649436,4.4209453013712485],[101.44758378649436,4.420552231552277]]],[[[101.42115515857576,4.420552231552277],[101.42167336696632,4.420552231552277],[101.42167336696632,4.419766092523064],[101.42115515857576,4.419766092523064],[101.42115515857576,4.420159161936223],[101.42011874179465,4.420159161936223],[101.42011874179465,4.4209453013712485],[101.41960053340408,4.4209453013712485],[101.41960053340408,4.420552231552277],[101.41856411662296,4.4209453013712485],[101.41856411662296,4.421338371393153],[101.41960053340408,4.421731441618011],[101.41960053340408,4.422517582676657],[101.42011874179465,4.422517582676657],[101.42011874179465,4.421338371393153],[101.4206369501852,4.421338371393153],[101.42115515857576,4.420552231552277]]],[[[101.42219157535689,4.421731441618011],[101.42219157535689,4.422517582676657],[101.42270978374745,4.422517582676657],[101.42270978374745,4.421731441618011],[101.42219157535689,4.421731441618011]]],[[[101.4455109529321,4.421731441618011],[101.4455109529321,4.422517582676657],[101.44602916132267,4.422517582676657],[101.44602916132267,4.421731441618011],[101.4455109529321,4.421731441618011]]],[[[101.42219157535689,4.422517582676657],[101.42167336696632,4.422517582676657],[101.42167336696632,4.422910653510482],[101.42219157535689,4.422910653510482],[101.42219157535689,4.422517582676657]]],[[[101.4626225812253,4.422517582676657],[101.4626118298206,4.423303724547334],[101.46306263756587,4.423303724547334],[101.4626225812253,4.422517582676657]]],[[[101.45794795430555,4.4339167193530695],[101.45742974591502,4.4339167193530695],[101.45742974591502,4.434309796082085],[101.45794795430555,4.434309796082085],[101.45794795430555,4.4339167193530695]]],[[[101.45689098108492,4.435095950150812],[101.45678645762928,4.435489027490556],[101.45691153752445,4.435489027490556],[101.45689098108492,4.435095950150812]]],[[[101.45742974591502,4.435095950150812],[101.45742974591502,4.435489027490556],[101.45794795430555,4.435489027490556],[101.45794795430555,4.435095950150812],[101.45742974591502,4.435095950150812]]]]},"properties":{"place_id":"ad5e0b44-602c-5572-abbc-56b86048a44b","habitat":"open_grassland","habitat_label":"Open grassland or shrubland","resolution_m":50}},{"type":"Feature","geometry":{"type":"MultiPolygon","coordinates":[[[[101.44654736971323,4.4209453013712485],[101.44602916132267,4.420159161936223],[101.44499274454157,4.420552231552277],[101.4455109529321,4.421338371393153],[101.44654736971323,4.4209453013712485]]],[[[101.41493665788904,4.42369679578723],[101.41441844949847,4.422910653510482],[101.41338203271735,4.423303724547334],[101.41390024110791,4.424089867230186],[101.41493665788904,4.42369679578723]]],[[[101.4180459082324,4.424089867230186],[101.41752769984184,4.423303724547334],[101.41649128306071,4.42369679578723],[101.41700949145128,4.424482938876226],[101.4180459082324,4.424089867230186]]],[[[101.41597307467016,4.424876010725362],[101.41649128306071,4.425662155033009],[101.41752769984184,4.425269082777619],[101.41700949145128,4.424482938876226],[101.41597307467016,4.424876010725362]]]]},"properties":{"place_id":"ad5e0b44-602c-5572-abbc-56b86048a44b","habitat":"disturbed_built_edge","habitat_label":"Disturbed, bare or built edge","resolution_m":50}},{"type":"Feature","geometry":{"type":"MultiPolygon","coordinates":[[[[101.4470655781038,4.419790123887871],[101.44654736971323,4.419724829333378],[101.44654736971323,4.420159161936223],[101.4470655781038,4.420159161936223],[101.4470655781038,4.419790123887871]]],[[[101.4626118298206,4.422517582676657],[101.4626225812253,4.422517582676657],[101.4626118298206,4.422498375761183],[101.4626118298206,4.422517582676657]]],[[[101.4626118298206,4.422910653510482],[101.4626118298206,4.422517582676657],[101.46209362143006,4.422517582676657],[101.46209362143006,4.422910653510482],[101.4626118298206,4.422910653510482]]]]},"properties":{"place_id":"ad5e0b44-602c-5572-abbc-56b86048a44b","habitat":"cropland","habitat_label":"Cropland","resolution_m":50}}]}