{"type":"FeatureCollection","metadata":{"schema_version":1,"place_id":"ad6cdf99-a0fd-54d5-9307-b53eabd606c4","place_name":"Impian Emas Community Park","place_type":"park","osm_reference":"way/266756879","protection_context":"no protected status confirmed from included OSM tags","resolution_m":50,"raster_coverage":1.0,"interpretation":"Suggested search habitats, not predicted plant locations or probabilities of presence."},"features":[{"type":"Feature","geometry":{"type":"MultiPolygon","coordinates":[[[[103.67587986590512,1.5404717094829952],[103.67587986590512,1.540863779000545],[103.67639807429566,1.540863779000545],[103.67635823571634,1.5404717094829952],[103.67587986590512,1.5404717094829952]]],[[[103.67587986590512,1.5412558485883334],[103.67587986590512,1.540863779000545],[103.67536165751454,1.540863779000545],[103.67536165751454,1.5412558485883334],[103.67587986590512,1.5412558485883334]]],[[[103.67639807429566,1.540863779000545],[103.67639807429566,1.5412558485883334],[103.67691628268624,1.5412558485883334],[103.67691628268624,1.540863779000545],[103.67639807429566,1.540863779000545]]],[[[103.67587986590512,1.5420399879746942],[103.67536165751454,1.5420399879746942],[103.67536165751454,1.5412558485883334],[103.67484344912398,1.5412558485883334],[103.67550829999999,1.5424717982799334],[103.67639807429566,1.5424632657606885],[103.67587986590512,1.5424320577733028],[103.67587986590512,1.5420399879746942]]],[[[103.67691628268624,1.542581540929935],[103.67743449107678,1.5427951552182653],[103.67743449107678,1.5424320577733028],[103.67691628268624,1.542581540929935]]]]},"properties":{"place_id":"ad6cdf99-a0fd-54d5-9307-b53eabd606c4","habitat":"forest_interior","habitat_label":"Forest interior","resolution_m":50}},{"type":"Feature","geometry":{"type":"MultiPolygon","coordinates":[[[[103.67587986590512,1.5424320577733028],[103.67743449107678,1.5424320577733028],[103.67757360000002,1.5428524982795098],[103.6786465,1.542825698279532],[103.6792259,1.5424234982799752],[103.6787661,1.5414537982810737],[103.678319,1.5418736982805805],[103.67686299999998,1.540273398282362],[103.67639807429566,1.540863779000545],[103.67587986590512,1.540863779000545],[103.67587986590512,1.5412558485883334],[103.67536165751454,1.5412558485883334],[103.67536165751454,1.5420399879746942],[103.67587986590512,1.5420399879746942],[103.67587986590512,1.5424320577733028]],[[103.67691628268624,1.540863779000545],[103.67691628268624,1.5412558485883334],[103.67639807429566,1.5412558485883334],[103.67639807429566,1.540863779000545],[103.67691628268624,1.540863779000545]]],[[[103.67484344912398,1.5414273336677613],[103.67635823571634,1.5404717094829952],[103.6755377,1.539727498282984],[103.6746299,1.541284398281235],[103.67484344912398,1.5414273336677613]]]]},"properties":{"place_id":"ad6cdf99-a0fd-54d5-9307-b53eabd606c4","habitat":"forest_edge_opening","habitat_label":"Forest edge or opening","resolution_m":50}},{"type":"Feature","geometry":{"type":"MultiPolygon","coordinates":[[[[103.67587986590512,1.5400796400356644],[103.67536165751454,1.5400796400356644],[103.67536165751454,1.5404717094829952],[103.67587986590512,1.5404717094829952],[103.67587986590512,1.5400796400356644]]],[[[103.67847090785791,1.5428241276422212],[103.67750477547806,1.5428241276422212],[103.67757360000002,1.5428524982795098],[103.67847090785791,1.5428241276422212]]]]},"properties":{"place_id":"ad6cdf99-a0fd-54d5-9307-b53eabd606c4","habitat":"open_grassland","habitat_label":"Open grassland or shrubland","resolution_m":50}},{"type":"Feature","geometry":{"type":"MultiPolygon","coordinates":[[[[103.67536165751454,1.5420399879746942],[103.67587986590512,1.5420399879746942],[103.67587986590512,1.5424320577733028],[103.67743449107678,1.5424320577733028],[103.67757360000002,1.5428524982795098],[103.6786465,1.542825698279532],[103.6792259,1.5424234982799752],[103.6787661,1.5414537982810737],[103.678319,1.5418736982805805],[103.67686299999998,1.540273398282362],[103.67639807429566,1.540863779000545],[103.67587986590512,1.540863779000545],[103.67587986590512,1.5412558485883334],[103.67536165751454,1.5412558485883334],[103.67536165751454,1.5420399879746942]],[[103.67691628268624,1.540863779000545],[103.67691628268624,1.5412558485883334],[103.67639807429566,1.5412558485883334],[103.67639807429566,1.540863779000545],[103.67691628268624,1.540863779000545]],[[103.67795269946735,1.5424320577733028],[103.67847090785791,1.5424320577733028],[103.67847090785791,1.5428241276422212],[103.67795269946735,1.5428241276422212],[103.67795269946735,1.5424320577733028]]],[[[103.67484344912398,1.5412558485883334],[103.67536165751454,1.5412558485883334],[103.67536165751454,1.5404717094829952],[103.67635823571634,1.5404717094829952],[103.6755377,1.539727498282984],[103.67484344912398,1.5412558485883334]]]]},"properties":{"place_id":"ad6cdf99-a0fd-54d5-9307-b53eabd606c4","habitat":"disturbed_built_edge","habitat_label":"Disturbed, bare or built edge","resolution_m":50}}]}