{"type":"FeatureCollection","metadata":{"schema_version":1,"place_id":"ada41099-3a9c-5055-b5ea-66c0a811cd6b","place_name":"Ain Arabia","place_type":"park","osm_reference":"way/472093460","protection_context":"no protected status confirmed from included OSM tags","resolution_m":50,"raster_coverage":1.0,"interpretation":"Suggested search habitats, not predicted plant locations or probabilities of presence."},"features":[{"type":"Feature","geometry":{"type":"Polygon","coordinates":[[[101.7102832,3.14732269651981],[101.71013389999999,3.147605996519497],[101.71021399999997,3.147605096519518],[101.7102832,3.14732269651981]]]},"properties":{"place_id":"ada41099-3a9c-5055-b5ea-66c0a811cd6b","habitat":"disturbed_built_edge","habitat_label":"Disturbed, bare or built edge","resolution_m":50}}]}