{"type":"FeatureCollection","metadata":{"schema_version":1,"place_id":"adf0b858-8b83-5c21-8835-2c27ed85e550","place_name":"West City Park · OSM way/556172516","place_type":"park","osm_reference":"way/556172516","protection_context":"no protected status confirmed from included OSM tags","resolution_m":50,"raster_coverage":1.0,"interpretation":"Suggested search habitats, not predicted plant locations or probabilities of presence."},"features":[{"type":"Feature","geometry":{"type":"Polygon","coordinates":[[[101.12836741790899,4.321112037784006],[101.12784920951844,4.321898076113013],[101.12888562629956,4.322291095574984],[101.12888562629956,4.321898076113013],[101.12940383469012,4.321804189509489],[101.12836741790899,4.321112037784006]]]},"properties":{"place_id":"adf0b858-8b83-5c21-8835-2c27ed85e550","habitat":"forest_edge_opening","habitat_label":"Forest edge or opening","resolution_m":50}},{"type":"Feature","geometry":{"type":"Polygon","coordinates":[[[101.12784920951844,4.322128750975289],[101.12918199999999,4.322558695267189],[101.12966249999998,4.321990895267794],[101.1284449154625,4.321112037784006],[101.12807561124625,4.321112037784006],[101.12784920951844,4.322128750975289]],[[101.12888562629956,4.321898076113013],[101.12836741790899,4.321898076113013],[101.12836741790899,4.32150505684936],[101.12888562629956,4.32150505684936],[101.12888562629956,4.321898076113013]]]},"properties":{"place_id":"adf0b858-8b83-5c21-8835-2c27ed85e550","habitat":"open_grassland","habitat_label":"Open grassland or shrubland","resolution_m":50}},{"type":"Feature","geometry":{"type":"Polygon","coordinates":[[[101.12836741790899,4.322413055204409],[101.12918199999999,4.322558695267189],[101.12966249999998,4.321990895267794],[101.12820129999999,4.32093619526888],[101.1275194,4.321890195267864],[101.12836741790899,4.322413055204409]],[[101.12836741790899,4.32150505684936],[101.12888562629956,4.32150505684936],[101.12940383469012,4.322291095574984],[101.12836741790899,4.322291095574984],[101.12836741790899,4.32150505684936]]]},"properties":{"place_id":"adf0b858-8b83-5c21-8835-2c27ed85e550","habitat":"disturbed_built_edge","habitat_label":"Disturbed, bare or built edge","resolution_m":50}}]}