{"type":"FeatureCollection","metadata":{"schema_version":1,"place_id":"af01553a-7e5d-5240-b093-3c1a27f1eb20","place_name":"Hutan Simpan Rasau Kerteh","place_type":"forest","osm_reference":"way/589575202","protection_context":"no protected status confirmed from included OSM tags","resolution_m":50,"raster_coverage":1.0,"interpretation":"Suggested search habitats, not predicted plant locations or probabilities of presence."},"features":[{"type":"Feature","geometry":{"type":"MultiPolygon","coordinates":[[[[103.37428258259881,4.424089867230186],[103.37428258259881,4.424482938876226],[103.37480079098937,4.424482938876226],[103.37480079098937,4.424089867230186],[103.37428258259881,4.424089867230186]]],[[[103.3810192916761,4.431951338760702],[103.3810192916761,4.4323444144722055],[103.38153750006666,4.4323444144722055],[103.38153750006666,4.431951338760702],[103.3810192916761,4.431951338760702]]],[[[103.38982883431564,4.454356979584391],[103.39027008230745,4.454356979584391],[103.39138345948732,4.44673486884448],[103.39138345948732,4.445316027205907],[103.39086525109676,4.445316027205907],[103.39086525109676,4.4433506170684645],[103.39138208912775,4.4433506170684645],[103.3910036,4.436525695147849],[103.38782779999997,4.428182195156555],[103.38516495880059,4.426841373018181],[103.38516495880059,4.427627519357643],[103.38361033362891,4.428413666510091],[103.38361033362891,4.428020592832236],[103.38309212523835,4.428020592832236],[103.38309212523835,4.426448300153272],[103.38257391684779,4.426448300153272],[103.38309212523835,4.425466925041955],[103.3743953,4.420480495164617],[103.36702766513096,4.424502694292709],[103.36702766513096,4.425269082777619],[103.36650945674039,4.425269082777619],[103.36650945674039,4.425662155033009],[103.36599124834986,4.425662155033009],[103.36599124834986,4.426055227491556],[103.36391841478762,4.4272344460863],[103.36391841478762,4.428020592832236],[103.36340020639705,4.428020592832236],[103.36288199800649,4.429592888763428],[103.36132737283481,4.430379037948973],[103.36132737283481,4.431558263252644],[103.36080916444425,4.431558263252644],[103.36080916444425,4.4323444144722055],[103.36029095605367,4.4323444144722055],[103.36029095605367,4.4335236428275895],[103.35925453927254,4.4339167193530695],[103.35925453927254,4.434309796082085],[103.35977274766311,4.434309796082085],[103.35977274766311,4.435095950150812],[103.36029095605367,4.435095950150812],[103.36029095605367,4.435489027490556],[103.35977274766311,4.435489027490556],[103.35977274766311,4.43666826073154],[103.36029095605367,4.43666826073154],[103.36029095605367,4.438633653540107],[103.35906313658386,4.439026732713025],[103.3660268,4.45761929512579],[103.36096279999998,4.47058319511228],[103.3651256,4.477770995104752],[103.38516495880059,4.465711940648338],[103.38516495880059,4.465363502422511],[103.38568316719115,4.465363502422511],[103.38568316719115,4.464970409555961],[103.38516495880059,4.464970409555961],[103.38568316719115,4.464184224437805],[103.3862013755817,4.464184224437805],[103.38671958397227,4.464776424295618],[103.38894359999999,4.463438095119722],[103.38982883431564,4.454356979584391]],[[103.36495483156872,4.470080632816831],[103.36599124834986,4.469687537488997],[103.36650945674039,4.470473728349892],[103.36547303995928,4.470866824088194],[103.36495483156872,4.470080632816831]],[[103.38723779236282,4.459074041145966],[103.3877560007534,4.459074041145966],[103.3877560007534,4.45868095155702],[103.38723779236282,4.45868095155702],[103.38723779236282,4.45789477299319],[103.38827420914396,4.45750168401827],[103.38827420914396,4.45789477299319],[103.38879241753452,4.45789477299319],[103.38879241753452,4.45868095155702],[103.38827420914396,4.45868095155702],[103.38879241753452,4.459467130939625],[103.3877560007534,4.459860220938017],[103.38723779236282,4.459074041145966]],[[103.37013691547433,4.45710859524799],[103.37117333225545,4.456715506682332],[103.371691540646,4.45750168401827],[103.37065512386489,4.45789477299319],[103.37013691547433,4.45710859524799]],[[103.3877560007534,4.453177718796319],[103.38879241753452,4.45278463227586],[103.38879241753452,4.453177718796319],[103.38931062592508,4.453177718796319],[103.38931062592508,4.453963892450565],[103.38827420914396,4.454356979584391],[103.38827420914396,4.453963892450565],[103.3877560007534,4.453963892450565],[103.3877560007534,4.453177718796319]],[[103.37428258259881,4.451998459848183],[103.37531899937994,4.451605373940927],[103.3758372077705,4.45239154595982],[103.37480079098937,4.45278463227586],[103.37428258259881,4.451998459848183]],[[103.38827420914396,4.450426117445273],[103.38879241753452,4.450426117445273],[103.38879241753452,4.449639947469748],[103.38827420914396,4.449639947469748],[103.38827420914396,4.449246862788402],[103.38879241753452,4.449246862788402],[103.38879241753452,4.448853778311311],[103.38827420914396,4.448853778311311],[103.38827420914396,4.447674526105381],[103.38931062592508,4.447281442445123],[103.38931062592508,4.447674526105381],[103.38982883431564,4.447674526105381],[103.38982883431564,4.448853778311311],[103.38931062592508,4.448853778311311],[103.38931062592508,4.449246862788402],[103.38982883431564,4.449246862788402],[103.38982883431564,4.449639947469748],[103.38931062592508,4.449639947469748],[103.38931062592508,4.450426117445273],[103.38982883431564,4.450426117445273],[103.38982883431564,4.45081920273949],[103.38879241753452,4.451212288238038],[103.38827420914396,4.450426117445273]],[[103.38879241753452,4.4433506170684645],[103.38931062592508,4.4433506170684645],[103.38879241753452,4.442564454441468],[103.38982883431564,4.442171373433894],[103.38982883431564,4.442564454441468],[103.3903470427062,4.442564454441468],[103.3903470427062,4.442957535652985],[103.38982883431564,4.442957535652985],[103.38982883431564,4.4433506170684645],[103.3903470427062,4.4433506170684645],[103.3903470427062,4.445316027205907],[103.38982883431564,4.445316027205907],[103.38982883431564,4.445709109845535],[103.38879241753452,4.445316027205907],[103.38879241753452,4.4433506170684645]],[[103.371691540646,4.44374369868792],[103.37272795742713,4.4433506170684645],[103.3732461658177,4.444136780511374],[103.37220974903657,4.444529862538846],[103.371691540646,4.44374369868792]],[[103.38827420914396,4.440599051442651],[103.3877560007534,4.440599051442651],[103.3877560007534,4.4398128916702095],[103.3862013755817,4.439026732713025],[103.3862013755817,4.438240574570948],[103.38671958397227,4.438240574570948],[103.38671958397227,4.437847495805531],[103.3877560007534,4.438240574570948],[103.3877560007534,4.439026732713025],[103.38879241753452,4.439419812089719],[103.38879241753452,4.440205971454515],[103.38982883431564,4.440599051442651],[103.38982883431564,4.4413852120304975],[103.38879241753452,4.441778292630243],[103.38879241753452,4.4413852120304975],[103.38827420914396,4.4413852120304975],[103.38827420914396,4.440599051442651]],[[103.36702766513096,4.440205971454515],[103.3680640819121,4.4398128916702095],[103.36858229030265,4.440599051442651],[103.36754587352152,4.44099213163464],[103.36702766513096,4.440205971454515]],[[103.36961870708376,4.4362751827809035],[103.37065512386489,4.435882105033914],[103.37065512386489,4.4362751827809035],[103.37117333225545,4.4362751827809035],[103.37117333225545,4.437061338885846],[103.37013691547433,4.437454417243837],[103.37013691547433,4.437061338885846],[103.36961870708376,4.437061338885846],[103.36961870708376,4.4362751827809035]],[[103.38412854201947,4.435882105033914],[103.38361033362891,4.435882105033914],[103.38361033362891,4.435489027490556],[103.38464675041003,4.435095950150812],[103.38464675041003,4.435489027490556],[103.38568316719115,4.435882105033914],[103.38568316719115,4.43666826073154],[103.38464675041003,4.437061338885846],[103.38464675041003,4.43666826073154],[103.38412854201947,4.43666826073154],[103.38412854201947,4.435882105033914]],[[103.38257391684779,4.434309796082085],[103.38205570845722,4.434309796082085],[103.38153750006666,4.432737490387177],[103.37998287489498,4.431951338760702],[103.38050108328555,4.4311651879480145],[103.38257391684779,4.4323444144722055],[103.38257391684779,4.433130566505633],[103.38309212523835,4.433130566505633],[103.38309212523835,4.4339167193530695],[103.38361033362891,4.4339167193530695],[103.38412854201947,4.434702873014661],[103.38309212523835,4.435095950150812],[103.38257391684779,4.434309796082085]],[[103.3680640819121,4.4339167193530695],[103.3691004986932,4.4335236428275895],[103.36961870708376,4.434309796082085],[103.36858229030265,4.434702873014661],[103.3680640819121,4.4339167193530695]],[[103.37791004133274,4.428806740391229],[103.37894645811386,4.428413666510091],[103.37946466650442,4.429199814475668],[103.3784282497233,4.429592888763428],[103.37791004133274,4.428806740391229]],[[103.3768736245516,4.427627519357643],[103.37635541616106,4.427627519357643],[103.37635541616106,4.426841373018181],[103.37531899937994,4.426448300153272],[103.37531899937994,4.425662155033009],[103.37428258259881,4.425269082777619],[103.37428258259881,4.424482938876226],[103.3732461658177,4.424089867230186],[103.3732461658177,4.422517582676657],[103.37272795742713,4.422517582676657],[103.37272795742713,4.421731441618011],[103.3732461658177,4.421731441618011],[103.3732461658177,4.421338371393153],[103.37428258259881,4.421731441618011],[103.37480079098937,4.424089867230186],[103.3758372077705,4.424482938876226],[103.3758372077705,4.425269082777619],[103.3768736245516,4.425662155033009],[103.3768736245516,4.426448300153272],[103.37739183294218,4.426448300153272],[103.37739183294218,4.4272344460863],[103.37791004133274,4.4272344460863],[103.3784282497233,4.428020592832236],[103.37739183294218,4.428413666510091],[103.3768736245516,4.427627519357643]]],[[[103.3862013755817,4.465088262950848],[103.3863972224057,4.464970409555961],[103.3862013755817,4.464970409555961],[103.3862013755817,4.465088262950848]]],[[[103.38568316719115,4.465363502422511],[103.38568316719115,4.465400101735085],[103.38574398729553,4.465363502422511],[103.38568316719115,4.465363502422511]]]]},"properties":{"place_id":"af01553a-7e5d-5240-b093-3c1a27f1eb20","habitat":"forest_interior","habitat_label":"Forest interior","resolution_m":50}},{"type":"Feature","geometry":{"type":"MultiPolygon","coordinates":[[[[103.37428258259881,4.421731441618011],[103.37376437420825,4.421731441618011],[103.37376437420825,4.421338371393153],[103.37272795742713,4.421731441618011],[103.37272795742713,4.422517582676657],[103.3732461658177,4.422517582676657],[103.3732461658177,4.424089867230186],[103.37376437420825,4.424089867230186],[103.37376437420825,4.424482938876226],[103.37480079098937,4.424089867230186],[103.37428258259881,4.421731441618011]]],[[[103.3680640819121,4.42393688393235],[103.3677838563962,4.424089867230186],[103.3680640819121,4.424089867230186],[103.3680640819121,4.42393688393235]]],[[[103.36754587352152,4.424219789059929],[103.36706385188054,4.424482938876226],[103.36754587352152,4.424482938876226],[103.36754587352152,4.424219789059929]]],[[[103.37791004133274,4.4272344460863],[103.37739183294218,4.4272344460863],[103.3768736245516,4.425662155033009],[103.3758372077705,4.425269082777619],[103.3758372077705,4.424482938876226],[103.37480079098937,4.424089867230186],[103.37480079098937,4.424482938876226],[103.37428258259881,4.424482938876226],[103.37428258259881,4.425269082777619],[103.37531899937994,4.425662155033009],[103.37531899937994,4.426448300153272],[103.37635541616106,4.426841373018181],[103.37635541616106,4.427627519357643],[103.3768736245516,4.427627519357643],[103.37739183294218,4.428413666510091],[103.3784282497233,4.428020592832236],[103.37791004133274,4.4272344460863]]],[[[103.36132737283481,4.427614658798521],[103.36130381575524,4.427627519357643],[103.36132737283481,4.427627519357643],[103.36132737283481,4.427614658798521]]],[[[103.37894645811386,4.428413666510091],[103.37791004133274,4.428806740391229],[103.3784282497233,4.429592888763428],[103.37946466650442,4.429199814475668],[103.37894645811386,4.428413666510091]]],[[[103.35977274766311,4.435489027490556],[103.36029095605367,4.435489027490556],[103.36029095605367,4.435095950150812],[103.35977274766311,4.435095950150812],[103.35977274766311,4.434309796082085],[103.35925453927254,4.434309796082085],[103.35925453927254,4.4339167193530695],[103.36029095605367,4.4335236428275895],[103.36029095605367,4.4323444144722055],[103.36080916444425,4.4323444144722055],[103.36080916444425,4.431558263252644],[103.36132737283481,4.431558263252644],[103.36132737283481,4.430379037948973],[103.36288199800649,4.429592888763428],[103.36288199800649,4.428806740391229],[103.36340020639705,4.428806740391229],[103.36391841478762,4.4272344460863],[103.36443662317815,4.4272344460863],[103.36443662317815,4.426841373018181],[103.36495483156872,4.426841373018181],[103.36495483156872,4.426448300153272],[103.36702766513096,4.425269082777619],[103.36702766513096,4.424502694292709],[103.36547303995928,4.425662155033009],[103.36391841478762,4.426200127898998],[103.36391841478762,4.426841373018181],[103.36288199800649,4.4272344460863],[103.36288199800649,4.428020592832236],[103.36236378961591,4.428020592832236],[103.36236378961591,4.428806740391229],[103.36080916444425,4.429592888763428],[103.36080916444425,4.430379037948973],[103.36029095605367,4.430379037948973],[103.36029095605367,4.431558263252644],[103.35977274766311,4.431558263252644],[103.35977274766311,4.431951338760702],[103.35925453927254,4.431951338760702],[103.35925453927254,4.431558263252644],[103.35821812249144,4.431951338760702],[103.35769991410088,4.4311651879480145],[103.35666349731974,4.4311651879480145],[103.35666349731974,4.430160821051077],[103.3558988,4.430578295154048],[103.35641307170211,4.431951338760702],[103.3571817057103,4.431951338760702],[103.3571817057103,4.432737490387177],[103.35769991410088,4.432737490387177],[103.35769991410088,4.433130566505633],[103.35821812249144,4.433130566505633],[103.35821812249144,4.432737490387177],[103.35925453927254,4.432737490387177],[103.35925453927254,4.4335236428275895],[103.35821812249144,4.4335236428275895],[103.35744365248945,4.434702873014661],[103.35773810414297,4.435489027490556],[103.35873633088201,4.435882105033914],[103.35873633088201,4.43666826073154],[103.35925453927254,4.43666826073154],[103.35925453927254,4.437847495805531],[103.3584742332768,4.437454417243837],[103.35906313658386,4.439026732713025],[103.36029095605367,4.438633653540107],[103.36029095605367,4.43666826073154],[103.35977274766311,4.43666826073154],[103.35977274766311,4.435489027490556]]],[[[103.3810192916761,4.4311651879480145],[103.37998287489498,4.431558263252644],[103.38050108328555,4.4323444144722055],[103.38153750006666,4.431951338760702],[103.3810192916761,4.4311651879480145]]],[[[103.3571817057103,4.4335236428275895],[103.35685474918238,4.433130566505633],[103.35700197500915,4.4335236428275895],[103.3571817057103,4.4335236428275895]]],[[[103.3691004986932,4.4335236428275895],[103.3680640819121,4.4339167193530695],[103.36858229030265,4.434702873014661],[103.36961870708376,4.434309796082085],[103.3691004986932,4.4335236428275895]]],[[[103.37065512386489,4.435882105033914],[103.36961870708376,4.4362751827809035],[103.36961870708376,4.437061338885846],[103.37013691547433,4.437061338885846],[103.37013691547433,4.437454417243837],[103.37117333225545,4.437061338885846],[103.37117333225545,4.4362751827809035],[103.37065512386489,4.4362751827809035],[103.37065512386489,4.435882105033914]]],[[[103.3680640819121,4.4398128916702095],[103.36702766513096,4.440205971454515],[103.36754587352152,4.44099213163464],[103.36858229030265,4.440599051442651],[103.3680640819121,4.4398128916702095]]],[[[103.35977274766311,4.440205971454515],[103.35950481406412,4.440205971454515],[103.35977274766311,4.440921330713241],[103.35977274766311,4.440205971454515]]],[[[103.37272795742713,4.4433506170684645],[103.371691540646,4.44374369868792],[103.37220974903657,4.444529862538846],[103.3732461658177,4.444136780511374],[103.37272795742713,4.4433506170684645]]],[[[103.37531899937994,4.451605373940927],[103.37428258259881,4.451998459848183],[103.37480079098937,4.45278463227586],[103.3758372077705,4.45239154595982],[103.37531899937994,4.451605373940927]]],[[[103.37065512386489,4.456715506682332],[103.37013691547433,4.45750168401827],[103.37117333225545,4.45789477299319],[103.371691540646,4.45710859524799],[103.37065512386489,4.456715506682332]]],[[[103.36547303995928,4.469687537488997],[103.36495483156872,4.470473728349892],[103.36599124834986,4.470866824088194],[103.36650945674039,4.470080632816831],[103.36547303995928,4.469687537488997]]],[[[103.38257391684779,4.426055227491556],[103.38257391684779,4.426448300153272],[103.38309212523835,4.426448300153272],[103.38309212523835,4.428020592832236],[103.38412854201947,4.428413666510091],[103.3854892879723,4.426841373018181],[103.38412854201947,4.426061169310987],[103.38412854201947,4.426448300153272],[103.38361033362891,4.426448300153272],[103.38361033362891,4.426055227491556],[103.38411817894269,4.426055227491556],[103.38309212523835,4.425466925041955],[103.38309212523835,4.426055227491556],[103.38257391684779,4.426055227491556]],[[103.38464675041003,4.426448300153272],[103.38464675041003,4.426841373018181],[103.38412854201947,4.426841373018181],[103.38412854201947,4.426448300153272],[103.38464675041003,4.426448300153272]]],[[[103.38827420914396,4.42998596325452],[103.38851437414672,4.42998596325452],[103.38827420914396,4.429355001097569],[103.38827420914396,4.42998596325452]]],[[[103.38879241753452,4.4311651879480145],[103.38896322541504,4.4311651879480145],[103.38879241753452,4.430716440263374],[103.38879241753452,4.4311651879480145]]],[[[103.38361033362891,4.4339167193530695],[103.38309212523835,4.4339167193530695],[103.38257391684779,4.4323444144722055],[103.38153750006666,4.431951338760702],[103.3810192916761,4.432737490387177],[103.38153750006666,4.432737490387177],[103.38153750006666,4.4335236428275895],[103.38205570845722,4.4335236428275895],[103.38205570845722,4.434309796082085],[103.38257391684779,4.434309796082085],[103.38309212523835,4.435095950150812],[103.38412854201947,4.434702873014661],[103.38361033362891,4.4339167193530695]]],[[[103.38516495880059,4.435489027490556],[103.38464675041003,4.435489027490556],[103.38464675041003,4.435095950150812],[103.38361033362891,4.435489027490556],[103.38464675041003,4.437061338885846],[103.38568316719115,4.43666826073154],[103.38568316719115,4.435882105033914],[103.38516495880059,4.435882105033914],[103.38516495880059,4.435489027490556]]],[[[103.38931062592508,4.440205971454515],[103.38879241753452,4.440205971454515],[103.38879241753452,4.439419812089719],[103.3877560007534,4.439026732713025],[103.3877560007534,4.438240574570948],[103.38671958397227,4.437847495805531],[103.38671958397227,4.438240574570948],[103.3862013755817,4.438240574570948],[103.3862013755817,4.439026732713025],[103.3877560007534,4.4398128916702095],[103.3877560007534,4.440599051442651],[103.38827420914396,4.440599051442651],[103.38827420914396,4.4413852120304975],[103.38879241753452,4.4413852120304975],[103.38879241753452,4.441778292630243],[103.38982883431564,4.4413852120304975],[103.38982883431564,4.440599051442651],[103.38931062592508,4.440599051442651],[103.38931062592508,4.440205971454515]]],[[[103.38982883431564,4.442957535652985],[103.3903470427062,4.442957535652985],[103.3903470427062,4.442564454441468],[103.38931062592508,4.442171373433894],[103.38931062592508,4.442564454441468],[103.38879241753452,4.442564454441468],[103.38879241753452,4.442957535652985],[103.38931062592508,4.442957535652985],[103.38931062592508,4.4433506170684645],[103.38879241753452,4.4433506170684645],[103.38879241753452,4.445316027205907],[103.38931062592508,4.445316027205907],[103.38931062592508,4.445709109845535],[103.3903470427062,4.445316027205907],[103.3903470427062,4.4433506170684645],[103.38982883431564,4.4433506170684645],[103.38982883431564,4.442957535652985]]],[[[103.39138345948732,4.44673486884448],[103.39151849999999,4.445810395138127],[103.39138208912775,4.4433506170684645],[103.39086525109676,4.4433506170684645],[103.39138345948732,4.44673486884448]]],[[[103.38931062592508,4.449639947469748],[103.38982883431564,4.449639947469748],[103.38982883431564,4.449246862788402],[103.38931062592508,4.449246862788402],[103.38931062592508,4.448853778311311],[103.38982883431564,4.448853778311311],[103.38982883431564,4.447674526105381],[103.38879241753452,4.447281442445123],[103.38879241753452,4.447674526105381],[103.38827420914396,4.447674526105381],[103.38827420914396,4.448853778311311],[103.38879241753452,4.448853778311311],[103.38879241753452,4.449246862788402],[103.38827420914396,4.449246862788402],[103.38827420914396,4.449639947469748],[103.38879241753452,4.449639947469748],[103.38879241753452,4.450426117445273],[103.38827420914396,4.450426117445273],[103.38827420914396,4.45081920273949],[103.38879241753452,4.45081920273949],[103.38879241753452,4.451212288238038],[103.38982883431564,4.45081920273949],[103.38982883431564,4.450426117445273],[103.38931062592508,4.450426117445273],[103.38931062592508,4.449639947469748]]],[[[103.39086525109676,4.448460694038457],[103.39086525109676,4.450282481612817],[103.39113136371722,4.448460694038457],[103.39086525109676,4.448460694038457]]],[[[103.3903470427062,4.45239154595982],[103.3903470427062,4.453830111021987],[103.39055717611072,4.45239154595982],[103.3903470427062,4.45239154595982]]],[[[103.38879241753452,4.45278463227586],[103.3877560007534,4.453177718796319],[103.3877560007534,4.453963892450565],[103.38827420914396,4.453963892450565],[103.38827420914396,4.454356979584391],[103.38931062592508,4.453963892450565],[103.38931062592508,4.453177718796319],[103.38879241753452,4.453177718796319],[103.38879241753452,4.45278463227586]]],[[[103.38982883431564,4.454356979584391],[103.38982883431564,4.457377757085464],[103.39027008230745,4.454356979584391],[103.38982883431564,4.454356979584391]]],[[[103.38827420914396,4.45868095155702],[103.38879241753452,4.45868095155702],[103.38879241753452,4.45789477299319],[103.3877560007534,4.45750168401827],[103.3877560007534,4.45789477299319],[103.38723779236282,4.45789477299319],[103.38723779236282,4.45868095155702],[103.3877560007534,4.45868095155702],[103.38723779236282,4.459467130939625],[103.3877560007534,4.459467130939625],[103.3877560007534,4.459860220938017],[103.38879241753452,4.459467130939625],[103.38827420914396,4.45868095155702]]],[[[103.3862013755817,4.464184224437805],[103.38516495880059,4.464577316894398],[103.38568316719115,4.465363502422511],[103.38671958397227,4.464776424295618],[103.3862013755817,4.464184224437805]]],[[[103.38516495880059,4.465363502422511],[103.38516495880059,4.465711940648338],[103.38568316719115,4.465400101735085],[103.38568316719115,4.465363502422511],[103.38516495880059,4.465363502422511]]],[[[103.38464675041003,4.465756595494066],[103.38464675041003,4.466023779690613],[103.38509075218532,4.465756595494066],[103.38464675041003,4.465756595494066]]]]},"properties":{"place_id":"af01553a-7e5d-5240-b093-3c1a27f1eb20","habitat":"forest_edge_opening","habitat_label":"Forest edge or opening","resolution_m":50}},{"type":"Feature","geometry":{"type":"MultiPolygon","coordinates":[[[[103.37376437420825,4.421731441618011],[103.3732461658177,4.421731441618011],[103.3732461658177,4.422517582676657],[103.37376437420825,4.422517582676657],[103.37376437420825,4.421731441618011]]],[[[103.37428258259881,4.422910653510482],[103.37376437420825,4.422910653510482],[103.37376437420825,4.424089867230186],[103.37428258259881,4.424089867230186],[103.37428258259881,4.422910653510482]]],[[[103.37480079098937,4.424482938876226],[103.37480079098937,4.425269082777619],[103.37531899937994,4.425269082777619],[103.37531899937994,4.424482938876226],[103.37480079098937,4.424482938876226]]],[[[103.37531899937994,4.425662155033009],[103.3758372077705,4.425662155033009],[103.3758372077705,4.425269082777619],[103.37531899937994,4.425269082777619],[103.37531899937994,4.425662155033009]]],[[[103.37635541616106,4.425662155033009],[103.3758372077705,4.425662155033009],[103.3758372077705,4.426448300153272],[103.37635541616106,4.426448300153272],[103.37635541616106,4.425662155033009]]],[[[103.3768736245516,4.426448300153272],[103.37635541616106,4.426448300153272],[103.37635541616106,4.426841373018181],[103.3768736245516,4.426841373018181],[103.3768736245516,4.426448300153272]]],[[[103.37739183294218,4.4272344460863],[103.3768736245516,4.4272344460863],[103.3768736245516,4.427627519357643],[103.37739183294218,4.427627519357643],[103.37739183294218,4.4272344460863]]],[[[103.37791004133274,4.427627519357643],[103.37739183294218,4.427627519357643],[103.37739183294218,4.428020592832236],[103.37791004133274,4.428020592832236],[103.37791004133274,4.427627519357643]]],[[[103.3784282497233,4.428806740391229],[103.3784282497233,4.429199814475668],[103.37894645811386,4.429199814475668],[103.37894645811386,4.428806740391229],[103.3784282497233,4.428806740391229]]],[[[103.35626584587533,4.431558263252644],[103.35891591075706,4.438633653540107],[103.35977274766311,4.438633653540107],[103.35977274766311,4.43666826073154],[103.35925453927254,4.43666826073154],[103.35925453927254,4.435489027490556],[103.35977274766311,4.435489027490556],[103.35977274766311,4.435095950150812],[103.35925453927254,4.435095950150812],[103.35925453927254,4.434309796082085],[103.35873633088201,4.434309796082085],[103.35873633088201,4.435489027490556],[103.35769991410088,4.435095950150812],[103.35769991410088,4.434702873014661],[103.35821812249144,4.434702873014661],[103.35821812249144,4.4335236428275895],[103.35873633088201,4.4335236428275895],[103.35873633088201,4.4339167193530695],[103.35977274766311,4.4335236428275895],[103.35977274766311,4.4323444144722055],[103.36029095605367,4.4323444144722055],[103.36029095605367,4.431558263252644],[103.36080916444425,4.431558263252644],[103.36132737283481,4.429592888763428],[103.36236378961591,4.429592888763428],[103.36236378961591,4.428806740391229],[103.36288199800649,4.428806740391229],[103.36340020639705,4.4272344460863],[103.36443662317815,4.426841373018181],[103.36443662317815,4.426055227491556],[103.36547303995928,4.426055227491556],[103.36547303995928,4.425662155033009],[103.36650945674039,4.425269082777619],[103.36650945674039,4.424785599630697],[103.3561452889292,4.430443728494659],[103.3559713942218,4.430772112846798],[103.3561452889292,4.431236390646509],[103.35666349731974,4.4311651879480145],[103.35666349731974,4.431558263252644],[103.35626584587533,4.431558263252644]],[[103.35821812249144,4.432737490387177],[103.35769991410088,4.432737490387177],[103.35769991410088,4.4323444144722055],[103.35821812249144,4.4323444144722055],[103.35821812249144,4.432737490387177]],[[103.35925453927254,4.4323444144722055],[103.35873633088201,4.4323444144722055],[103.35873633088201,4.431951338760702],[103.35925453927254,4.431951338760702],[103.35925453927254,4.4323444144722055]],[[103.35769991410088,4.431951338760702],[103.3571817057103,4.431951338760702],[103.3571817057103,4.431558263252644],[103.35769991410088,4.431558263252644],[103.35769991410088,4.431951338760702]]],[[[103.3810192916761,4.431558263252644],[103.38050108328555,4.431558263252644],[103.38050108328555,4.431951338760702],[103.3810192916761,4.431951338760702],[103.3810192916761,4.431558263252644]]],[[[103.38205570845722,4.4323444144722055],[103.38153750006666,4.4323444144722055],[103.38153750006666,4.432737490387177],[103.38205570845722,4.432737490387177],[103.38205570845722,4.4323444144722055]]],[[[103.38257391684779,4.433130566505633],[103.38205570845722,4.433130566505633],[103.38205570845722,4.4335236428275895],[103.38257391684779,4.4335236428275895],[103.38257391684779,4.433130566505633]]],[[[103.36858229030265,4.4339167193530695],[103.36858229030265,4.434309796082085],[103.3691004986932,4.434309796082085],[103.3691004986932,4.4339167193530695],[103.36858229030265,4.4339167193530695]]],[[[103.37013691547433,4.4362751827809035],[103.37013691547433,4.437061338885846],[103.37065512386489,4.437061338885846],[103.37065512386489,4.4362751827809035],[103.37013691547433,4.4362751827809035]]],[[[103.3680640819121,4.440205971454515],[103.36754587352152,4.440205971454515],[103.36754587352152,4.440599051442651],[103.3680640819121,4.440599051442651],[103.3680640819121,4.440205971454515]]],[[[103.37272795742713,4.44374369868792],[103.37220974903657,4.44374369868792],[103.37220974903657,4.444136780511374],[103.37272795742713,4.444136780511374],[103.37272795742713,4.44374369868792]]],[[[103.37531899937994,4.451998459848183],[103.37480079098937,4.451998459848183],[103.37480079098937,4.45239154595982],[103.37531899937994,4.45239154595982],[103.37531899937994,4.451998459848183]]],[[[103.37065512386489,4.45710859524799],[103.37065512386489,4.45750168401827],[103.37117333225545,4.45750168401827],[103.37117333225545,4.45710859524799],[103.37065512386489,4.45710859524799]]],[[[103.36547303995928,4.470080632816831],[103.36547303995928,4.470473728349892],[103.36599124834986,4.470473728349892],[103.36599124834986,4.470080632816831],[103.36547303995928,4.470080632816831]]],[[[103.38516495880059,4.426655414044377],[103.38361033362891,4.42576404711843],[103.38309212523835,4.426055227491556],[103.38309212523835,4.426448300153272],[103.38361033362891,4.426448300153272],[103.38361033362891,4.428020592832236],[103.38464675041003,4.427627519357643],[103.38464675041003,4.426841373018181],[103.38516495880059,4.426655414044377]]],[[[103.38309212523835,4.4339167193530695],[103.38257391684779,4.4339167193530695],[103.38257391684779,4.434309796082085],[103.38309212523835,4.434309796082085],[103.38309212523835,4.4339167193530695]]],[[[103.38361033362891,4.434309796082085],[103.38309212523835,4.434309796082085],[103.38309212523835,4.434702873014661],[103.38361033362891,4.434702873014661],[103.38361033362891,4.434309796082085]]],[[[103.38412854201947,4.435882105033914],[103.38464675041003,4.435882105033914],[103.38464675041003,4.435489027490556],[103.38412854201947,4.435489027490556],[103.38412854201947,4.435882105033914]]],[[[103.38516495880059,4.435882105033914],[103.38464675041003,4.435882105033914],[103.38464675041003,4.43666826073154],[103.38516495880059,4.43666826073154],[103.38516495880059,4.435882105033914]]],[[[103.38671958397227,4.438240574570948],[103.38671958397227,4.439026732713025],[103.38723779236282,4.439026732713025],[103.38723779236282,4.438240574570948],[103.38671958397227,4.438240574570948]]],[[[103.3877560007534,4.439419812089719],[103.3877560007534,4.439026732713025],[103.38723779236282,4.439026732713025],[103.38723779236282,4.439419812089719],[103.3877560007534,4.439419812089719]]],[[[103.38827420914396,4.439419812089719],[103.3877560007534,4.439419812089719],[103.3877560007534,4.4398128916702095],[103.38827420914396,4.4398128916702095],[103.38827420914396,4.439419812089719]]],[[[103.38827420914396,4.440599051442651],[103.38879241753452,4.440599051442651],[103.38879241753452,4.440205971454515],[103.38827420914396,4.440205971454515],[103.38827420914396,4.440599051442651]]],[[[103.38931062592508,4.440599051442651],[103.38879241753452,4.440599051442651],[103.38879241753452,4.4413852120304975],[103.38931062592508,4.4413852120304975],[103.38931062592508,4.440599051442651]]],[[[103.38982883431564,4.442564454441468],[103.38931062592508,4.442564454441468],[103.38931062592508,4.442957535652985],[103.38982883431564,4.442957535652985],[103.38982883431564,4.442564454441468]]],[[[103.38982883431564,4.4433506170684645],[103.38931062592508,4.4433506170684645],[103.38931062592508,4.445316027205907],[103.38982883431564,4.445316027205907],[103.38982883431564,4.4433506170684645]]],[[[103.39138345948732,4.445316027205907],[103.39149108408222,4.445316027205907],[103.39138345948732,4.443375327525603],[103.39138345948732,4.445316027205907]]],[[[103.38879241753452,4.447674526105381],[103.38879241753452,4.448853778311311],[103.38931062592508,4.448853778311311],[103.38931062592508,4.447674526105381],[103.38879241753452,4.447674526105381]]],[[[103.38879241753452,4.449246862788402],[103.38879241753452,4.449639947469748],[103.38931062592508,4.449639947469748],[103.38931062592508,4.449246862788402],[103.38879241753452,4.449246862788402]]],[[[103.38931062592508,4.450426117445273],[103.38879241753452,4.450426117445273],[103.38879241753452,4.45081920273949],[103.38931062592508,4.45081920273949],[103.38931062592508,4.450426117445273]]],[[[103.38879241753452,4.453177718796319],[103.38827420914396,4.453177718796319],[103.38827420914396,4.453963892450565],[103.38879241753452,4.453963892450565],[103.38879241753452,4.453177718796319]]],[[[103.38827420914396,4.45789477299319],[103.3877560007534,4.45789477299319],[103.3877560007534,4.45868095155702],[103.38827420914396,4.45868095155702],[103.38827420914396,4.45789477299319]]],[[[103.3877560007534,4.459074041145966],[103.3877560007534,4.459467130939625],[103.38827420914396,4.459467130939625],[103.38827420914396,4.459074041145966],[103.3877560007534,4.459074041145966]]],[[[103.38568316719115,4.464577316894398],[103.38568316719115,4.464970409555961],[103.3862013755817,4.464970409555961],[103.3862013755817,4.464577316894398],[103.38568316719115,4.464577316894398]]]]},"properties":{"place_id":"af01553a-7e5d-5240-b093-3c1a27f1eb20","habitat":"open_grassland","habitat_label":"Open grassland or shrubland","resolution_m":50}},{"type":"Feature","geometry":{"type":"MultiPolygon","coordinates":[[[[103.35925453927254,4.4339167193530695],[103.35873633088201,4.433130566505633],[103.35769991410088,4.4335236428275895],[103.35821812249144,4.434309796082085],[103.35925453927254,4.4339167193530695]]],[[[103.39138345948732,4.4461021926892546],[103.39138345948732,4.44673486884448],[103.3914758762811,4.4461021926892546],[103.39138345948732,4.4461021926892546]]],[[[103.39086525109676,4.449639947469748],[103.39086525109676,4.450282481612817],[103.39095910743525,4.449639947469748],[103.39086525109676,4.449639947469748]]],[[[103.3903470427062,4.45239154595982],[103.39049975735006,4.45278463227586],[103.39055717611072,4.45239154595982],[103.3903470427062,4.45239154595982]]],[[[103.3903470427062,4.453830111021987],[103.39044233858941,4.453177718796319],[103.3903470427062,4.453177718796319],[103.3903470427062,4.453830111021987]]]]},"properties":{"place_id":"af01553a-7e5d-5240-b093-3c1a27f1eb20","habitat":"disturbed_built_edge","habitat_label":"Disturbed, bare or built edge","resolution_m":50}}]}