{"type":"FeatureCollection","metadata":{"schema_version":1,"place_id":"af8fa2a4-742a-52ab-96c4-3f48f7f2852a","place_name":"Dataran Canselori","place_type":"park","osm_reference":"way/753702723","protection_context":"no protected status confirmed from included OSM tags","resolution_m":50,"raster_coverage":1.0,"interpretation":"Suggested search habitats, not predicted plant locations or probabilities of presence."},"features":[{"type":"Feature","geometry":{"type":"Polygon","coordinates":[[[101.78234640679652,2.8438159787653903],[101.7820819158408,2.8442083807363603],[101.7824574,2.8445116968482487],[101.783429,2.8435198968493194],[101.78213019999998,2.8434186968494264],[101.78192422936014,2.8438159787653903],[101.78234640679652,2.8438159787653903]]]},"properties":{"place_id":"af8fa2a4-742a-52ab-96c4-3f48f7f2852a","habitat":"forest_edge_opening","habitat_label":"Forest edge or opening","resolution_m":50}},{"type":"Feature","geometry":{"type":"Polygon","coordinates":[[[101.78194239999998,2.8438995968489023],[101.7825412,2.84450099684824],[101.783429,2.8435198968493194],[101.78213019999998,2.8434186968494264],[101.78194239999998,2.8438995968489023]]]},"properties":{"place_id":"af8fa2a4-742a-52ab-96c4-3f48f7f2852a","habitat":"disturbed_built_edge","habitat_label":"Disturbed, bare or built edge","resolution_m":50}}]}