{"type":"FeatureCollection","metadata":{"schema_version":1,"place_id":"afb72883-f0b7-507a-b810-4894f88a3569","place_name":"Entry Park","place_type":"park","osm_reference":"way/463589179","protection_context":"no protected status confirmed from included OSM tags","resolution_m":50,"raster_coverage":1.0,"interpretation":"Suggested search habitats, not predicted plant locations or probabilities of presence."},"features":[{"type":"Feature","geometry":{"type":"Polygon","coordinates":[[[103.83186059146385,1.4918556278211936],[103.83237879985442,1.4918556278211936],[103.83237879985442,1.4914635669423604],[103.83186059146385,1.4914712108401167],[103.83186059146385,1.4918556278211936]]]},"properties":{"place_id":"afb72883-f0b7-507a-b810-4894f88a3569","habitat":"forest_interior","habitat_label":"Forest interior","resolution_m":50}},{"type":"Feature","geometry":{"type":"Polygon","coordinates":[[[103.8337765647286,1.491071506131509],[103.83189409564496,1.4914635669423604],[103.83237879985442,1.4914635669423604],[103.83237879985442,1.4918556278211936],[103.83186059146385,1.4918556278211936],[103.83186059146385,1.4914712108401167],[103.83099979999999,1.491667598336303],[103.83107119999998,1.4919809983359413],[103.8317418,1.4920712983358644],[103.833546,1.4915932983363978],[103.8337765647286,1.491071506131509]]]},"properties":{"place_id":"afb72883-f0b7-507a-b810-4894f88a3569","habitat":"forest_edge_opening","habitat_label":"Forest edge or opening","resolution_m":50}},{"type":"Feature","geometry":{"type":"Polygon","coordinates":[[[103.833546,1.4915932983363978],[103.8336064,1.490826798337233],[103.83189409564496,1.4914635669423604],[103.83237879985442,1.4914635669423604],[103.83237879985442,1.4918556278211936],[103.83186059146385,1.4918556278211936],[103.83186059146385,1.4914712108401167],[103.83100990000001,1.4918116983361562],[103.8317418,1.4920712983358644],[103.833546,1.4915932983363978]]]},"properties":{"place_id":"afb72883-f0b7-507a-b810-4894f88a3569","habitat":"disturbed_built_edge","habitat_label":"Disturbed, bare or built edge","resolution_m":50}},{"type":"Feature","geometry":{"type":"Polygon","coordinates":[[[103.83341521663556,1.491627947733366],[103.8338116,1.490971498337044],[103.8336064,1.490826798337233],[103.83341521663556,1.4910301862712283],[103.83341521663556,1.491627947733366]]]},"properties":{"place_id":"afb72883-f0b7-507a-b810-4894f88a3569","habitat":"permanent_water","habitat_label":"Permanent water","resolution_m":50}},{"type":"Feature","geometry":{"type":"Polygon","coordinates":[[[103.83341521663556,1.491071506131509],[103.8337765647286,1.491071506131509],[103.8338116,1.490971498337044],[103.8336064,1.490826798337233],[103.83341521663556,1.491071506131509]]]},"properties":{"place_id":"afb72883-f0b7-507a-b810-4894f88a3569","habitat":"seasonal_water_wetland","habitat_label":"Seasonal water or wetland","resolution_m":50}},{"type":"Feature","geometry":{"type":"Polygon","coordinates":[[[103.83237879985442,1.4918556278211936],[103.83341521663556,1.491627947733366],[103.83341521663556,1.4910301862712283],[103.83237879985442,1.4913529828539946],[103.83237879985442,1.4918556278211936]]]},"properties":{"place_id":"afb72883-f0b7-507a-b810-4894f88a3569","habitat":"water_edge","habitat_label":"Water edge","resolution_m":50}}]}