{"type":"FeatureCollection","metadata":{"schema_version":1,"place_id":"afb8904e-d26f-52cc-8714-cf09b853d438","place_name":"Pulau Latak","place_type":"wood","osm_reference":"way/724617268","protection_context":"no protected status confirmed from included OSM tags","resolution_m":50,"raster_coverage":1.0,"interpretation":"Suggested search habitats, not predicted plant locations or probabilities of presence."},"features":[{"type":"Feature","geometry":{"type":"Polygon","coordinates":[[[102.66122783718737,4.975384194521393],[102.66122783718737,4.975777568956464],[102.66174604557793,4.975777568956464],[102.66174604557793,4.975384194521393],[102.66278246235906,4.975384194521393],[102.66278246235906,4.974597446337841],[102.6622642539685,4.974597446337841],[102.6622642539685,4.973812104404391],[102.66174604557793,4.9738106990696185],[102.66164340343,4.97341732577871],[102.66070962879681,4.974204072589322],[102.65863679523457,4.9738106990696185],[102.65967321201569,4.975337252644284],[102.66070962879681,4.974990820315191],[102.66070962879681,4.975382308204651],[102.66122783718737,4.975384194521393]]]},"properties":{"place_id":"afb8904e-d26f-52cc-8714-cf09b853d438","habitat":"forest_interior","habitat_label":"Forest interior","resolution_m":50}},{"type":"Feature","geometry":{"type":"MultiPolygon","coordinates":[[[[102.66122783718737,4.9738106990696185],[102.66122783718737,4.97341732577871],[102.66164340343,4.97341732577871],[102.6610699,4.973142694591716],[102.6607886000982,4.9738106990696185],[102.66122783718737,4.9738106990696185]]],[[[102.66174604557793,4.9738106990696185],[102.66226213425524,4.9738106990696185],[102.66174604557793,4.973487852902229],[102.66174604557793,4.9738106990696185]]],[[[102.66278246235906,4.975384194521393],[102.66174604557793,4.975384194521393],[102.66174604557793,4.975777568956464],[102.66071374552236,4.975384194521393],[102.66050669999997,4.976424094588375],[102.66104579999998,4.976636494588134],[102.6612081,4.97632239458847],[102.6619242,4.976077994588715],[102.66337129999998,4.974934394589899],[102.6622642539685,4.973812104404391],[102.66278246235906,4.975384194521393]]],[[[102.66070962879681,4.974990820315191],[102.66019142040626,4.974990820315191],[102.65988169999999,4.975480794589328],[102.66070962879681,4.975382308204651],[102.66070962879681,4.974990820315191]]],[[[102.65967321201569,4.974990820315191],[102.65915500362513,4.974990820315191],[102.65915500362513,4.974204072589322],[102.65863679523457,4.974204072589322],[102.65863679523457,4.9738106990696185],[102.6594391,4.97368119459118],[102.65832368556973,4.97302395271658],[102.65851649999999,4.974871594589971],[102.6593493,4.975451394589364],[102.65967321201569,4.974990820315191]]],[[[102.65967321201569,4.974204072589322],[102.66070962879681,4.974204072589322],[102.66070962879681,4.973886177161178],[102.6599327,4.973817394591027],[102.65967321201569,4.974204072589322]]]]},"properties":{"place_id":"afb8904e-d26f-52cc-8714-cf09b853d438","habitat":"forest_edge_opening","habitat_label":"Forest edge or opening","resolution_m":50}},{"type":"Feature","geometry":{"type":"MultiPolygon","coordinates":[[[[102.65863679523457,4.9738106990696185],[102.65863679523457,4.97341732577871],[102.65917926280655,4.97341732577871],[102.658377,4.972946294591934],[102.65863679523457,4.9738106990696185]]],[[[102.66164340343,4.97341732577871],[102.66110350000001,4.973145394591728],[102.6610444,4.973160094591723],[102.66100514255652,4.97341732577871],[102.66164340343,4.97341732577871]]],[[[102.65996507872761,4.9738106990696185],[102.65995950000001,4.973809394591037],[102.65995512999675,4.9738106990696185],[102.65996507872761,4.9738106990696185]]],[[[102.65863679523457,4.974204072589322],[102.658412701502,4.974204072589322],[102.65863679523457,4.974928750563122],[102.65863679523457,4.974204072589322]]],[[[102.66070962879681,4.975904396203512],[102.6604758,4.976242394588534],[102.66070962879681,4.976489505084037],[102.66070962879681,4.975904396203512]]],[[[102.65979948383304,4.975384194521393],[102.66006539999998,4.9755195945892705],[102.6602821727048,4.975384194521393],[102.65979948383304,4.975384194521393]]],[[[102.65915500362513,4.975384194521393],[102.65915500362513,4.974990820315191],[102.65886966600794,4.974990820315191],[102.65896839999998,4.975061294589752],[102.6590931,4.9753391945894805],[102.6591843,4.975412694589373],[102.65962153018275,4.975384194521393],[102.65915500362513,4.975384194521393]]],[[[102.66085922825128,4.976564318513291],[102.66100689999999,4.9766484945881055],[102.66109692714362,4.976564318513291],[102.66085922825128,4.976564318513291]]],[[[102.66174604557793,4.9738106990696185],[102.66226213425524,4.9738106990696185],[102.66174604557793,4.973487852902229],[102.66174604557793,4.9738106990696185]]],[[[102.66278246235906,4.974597446337841],[102.66306739384585,4.974597446337841],[102.66278246235906,4.9743640508564075],[102.66278246235906,4.974597446337841]]],[[[102.66330067074962,4.974996927808253],[102.6633766,4.974892994589949],[102.66330067074962,4.974737297720389],[102.66330067074962,4.974996927808253]]],[[[102.66278246235906,4.9754392541548995],[102.66284979939776,4.975384194521393],[102.66278246235906,4.975384194521393],[102.66278246235906,4.9754392541548995]]],[[[102.66217099468163,4.975777568956464],[102.66174604557793,4.976033140693472],[102.6619242,4.976077994588715],[102.66217099468163,4.975777568956464]]],[[[102.66122783718737,4.976170943620423],[102.66122783718737,4.976309408482275],[102.66143828573829,4.976170943620423],[102.66122783718737,4.976170943620423]]]]},"properties":{"place_id":"afb8904e-d26f-52cc-8714-cf09b853d438","habitat":"permanent_water","habitat_label":"Permanent water","resolution_m":50}},{"type":"Feature","geometry":{"type":"MultiPolygon","coordinates":[[[[102.65915500362513,4.973393824523977],[102.6588182,4.9731172945917645],[102.6583461,4.972962394591902],[102.65839722138824,4.97341732577871],[102.65915500362513,4.973393824523977]]],[[[102.66070962879681,4.976170943620423],[102.66050669999997,4.976424094588375],[102.66070962879681,4.976489505084037],[102.66070962879681,4.976170943620423]]],[[[102.66122783718737,4.976170943620423],[102.66122783718737,4.976309408482275],[102.66143828573829,4.976170943620423],[102.66122783718737,4.976170943620423]]]]},"properties":{"place_id":"afb8904e-d26f-52cc-8714-cf09b853d438","habitat":"seasonal_water_wetland","habitat_label":"Seasonal water or wetland","resolution_m":50}},{"type":"Feature","geometry":{"type":"Polygon","coordinates":[[[102.66070962879681,4.976489505084037],[102.66252900000002,4.975653194589151],[102.66330067074962,4.974737297720389],[102.66164340343,4.97341732577871],[102.65977839999998,4.974047194590806],[102.65917926280655,4.97341732577871],[102.65863679523457,4.97341732577871],[102.65863679523457,4.974928750563122],[102.65915500362513,4.974990820315191],[102.65915500362513,4.975384194521393],[102.660846,4.975444794589362],[102.66070962879681,4.976489505084037]],[[102.66122783718737,4.974990820315191],[102.66070962879681,4.974990820315191],[102.66070962879681,4.974204072589322],[102.66174604557793,4.974204072589322],[102.66174604557793,4.974597446337841],[102.6622642539685,4.974597446337841],[102.66174604557793,4.975384194521393],[102.66122783718737,4.975384194521393],[102.66122783718737,4.974990820315191]]]},"properties":{"place_id":"afb8904e-d26f-52cc-8714-cf09b853d438","habitat":"water_edge","habitat_label":"Water edge","resolution_m":50}}]}