{"type":"FeatureCollection","metadata":{"schema_version":1,"place_id":"b009414e-6c95-518d-868a-68d2e989fafc","place_name":"Hutan Simpanan Kekal Bukit Kuantan","place_type":"park","osm_reference":"relation/20242757","protection_context":"mapped protected boundary","resolution_m":50,"raster_coverage":1.0,"interpretation":"Suggested search habitats, not predicted plant locations or probabilities of presence."},"features":[{"type":"Feature","geometry":{"type":"MultiPolygon","coordinates":[[[[103.21001052279108,3.9776871572079835],[103.21022191871783,3.9776871572079835],[103.21001052279108,3.977375316917138],[103.21001052279108,3.9776871572079835]]],[[[103.21467439830614,3.9847585344968897],[103.2147787557818,3.9847585344968897],[103.21467439830614,3.9847274035955524],[103.21467439830614,3.9847585344968897]]],[[[103.21571081508726,3.985151390524808],[103.2161815288577,3.985151390524808],[103.21571081508726,3.985025132838343],[103.21571081508726,3.985151390524808]]],[[[103.22534260010217,3.987115673404623],[103.22503856611735,3.9870608885728753],[103.22503856611735,3.987115673404623],[103.22534260010217,3.987115673404623]]],[[[103.20993095594177,3.9772943046470903],[103.20779959999999,3.9739604956347323],[103.20924709999998,3.972692995636062],[103.2088401,3.971831495636962],[103.2104434,3.970846395638012],[103.21108399999999,3.9716761956371363],[103.21234749999999,3.969783695639142],[103.2123687,3.9683960956406152],[103.21165199999997,3.966794695642278],[103.19996730000001,3.966439995642663],[103.19847919999998,3.967121195641935],[103.1968218,3.966988895642076],[103.196036,3.9663946956427387],[103.19424620000001,3.966867095642214],[103.1936729,3.967409395641667],[103.1909335,3.966526695642572],[103.1906967,3.9693109956396233],[103.18980039555923,3.9691027778856283],[103.18893090093395,3.9698301406049223],[103.1888542,3.972089595636688],[103.18789484448612,3.974544341824009],[103.18824577038754,3.974937193109237],[103.18783308338784,3.974937193109237],[103.1854752,3.983163195624967],[103.18244799999998,3.9963739956109667],[103.1816716,3.9971607956101245],[103.1816593,3.9989556956082333],[103.177506,4.013499595592841],[103.17415380000001,4.027834295577665],[103.16921179999999,4.029161995576273],[103.16518919999999,4.031297895573983],[103.16531609999998,4.031627695573642],[103.16595299999999,4.031631995573639],[103.166993,4.030821995574505],[103.17039,4.029483995575937],[103.17533699999998,4.0291179955763265],[103.17712699999998,4.030100995575279],[103.178822,4.030208995575164],[103.180549,4.0293269955760715],[103.18175099999998,4.029183995576223],[103.184241,4.030451995574911],[103.18551199999999,4.0305159955748415],[103.18672499999997,4.030187995575184],[103.188804,4.028245995577241],[103.190188,4.0276299955778985],[103.191254,4.0316199955736565],[103.193556,4.035144995569959],[103.19451899999999,4.039273995565584],[103.195391,4.0396279955651755],[103.197003,4.038688995566201],[103.19888299999998,4.039405995565437],[103.20027799999998,4.038363995566505],[103.20376699999998,4.036990995567977],[103.20397999999999,4.0356549955694065],[103.202756,4.03244799557278],[103.202559,4.027819995577688],[103.203823,4.025650995580002],[103.203746,4.022945995582834],[103.20508299999999,4.0218579955839875],[103.205126,4.021074995584825],[103.20614199999999,4.0200339955859326],[103.20760999999999,4.013246995593117],[103.20958,4.0132389955931185],[103.210321,4.011991995594422],[103.212084,4.011938995594473],[103.21300999999998,4.011105995595389],[103.21363899999997,4.0109769955955],[103.21514199999999,4.011661995594778],[103.21650299999999,4.011056995595435],[103.21764199999998,4.012871995593519],[103.22270199999998,4.015670995590548],[103.225154,4.019701995586288],[103.227201,4.018714995587319],[103.23010299999999,4.019853995586108],[103.231109,4.019227995586782],[103.2321,4.017704995588372],[103.23464,4.0167609955893715],[103.23690199999999,4.018536995587521],[103.23809400000002,4.018911995587115],[103.24367899999999,4.017321995588803],[103.244031,4.016480995589669],[103.24203500000002,4.015509995590716],[103.241447,4.014337995591957],[103.24204599999999,4.01187199559454],[103.24133599999999,4.008178995598457],[103.24213944300587,4.003222965557415],[103.24258937657197,4.00283010110838],[103.24213944300587,4.00283010110838],[103.24213944300587,4.002437236842822],[103.2426576513964,4.002437236842822],[103.2426576513964,4.001651508862068],[103.24317585978697,4.001651508862068],[103.24317585978697,4.0012586451468355],[103.2442122765681,4.000704407403224],[103.2442122765681,3.9989014667063136],[103.24576690173977,3.99803108868304],[103.24576690173977,3.996937156380012],[103.24628511013034,3.996937156380012],[103.24628511013034,3.9961514335320505],[103.2468033185209,3.9961514335320505],[103.24628511013034,3.994579990034],[103.24576690173977,3.994579990034],[103.24576690173977,3.993401409333026],[103.24731840000001,3.9928968956146713],[103.2452455,3.9918981956156863],[103.24478079999999,3.9905652956170967],[103.24500449999998,3.989324595618433],[103.2436457,3.985838995622113],[103.24153089999999,3.9850914956229095],[103.24027929999998,3.985287095622713],[103.239448,3.9863585956215815],[103.2395508,3.98779349562005],[103.2376734,3.988007795619832],[103.23765479999999,3.9852964956227055],[103.23841129999998,3.983125495624997],[103.2376734,3.9797432956285723],[103.23000389999999,3.9808203956274424],[103.22659319128904,3.9867228164632347],[103.22622400000002,3.9872744956206265],[103.22555677450792,3.987154266160752],[103.22555677450792,3.9879013878356604],[103.22503856611735,3.9879013878356604],[103.22503856611735,3.988294245325348],[103.22400214933623,3.9879013878356604],[103.22400214933623,3.987115673404623],[103.22452035772679,3.9869675109953264],[103.21622902347782,3.985164129819312],[103.21622902347782,3.9855442467353814],[103.21674723186838,3.9855442467353814],[103.21674723186838,3.986329959704578],[103.2177836486495,3.9867228164632347],[103.2177836486495,3.987508530528758],[103.21674723186838,3.9879013878356604],[103.21674723186838,3.987508530528758],[103.21571081508726,3.987115673404623],[103.21571081508726,3.986329959704578],[103.21363798152501,3.985151390524808],[103.21415618991557,3.9845728167544556],[103.21312899999998,3.98426639562381],[103.212768,3.9817877956264236],[103.2119469,3.981286495626964],[103.21042107589993,3.9780800099511877],[103.21001052279108,3.9780800099511877],[103.21001052279108,3.97847286287672],[103.20897410600996,3.9780800099511877],[103.20897410600996,3.9776871572079835],[103.20993095594177,3.9772943046470903]],[[103.24369406817753,3.9989014667063136],[103.24369406817753,3.9992943293213874],[103.2426576513964,3.9992943293213874],[103.24213944300587,3.998508604274534],[103.2426576513964,3.998508604274534],[103.2426576513964,3.9981157420260316],[103.24369406817753,3.9981157420260316],[103.24369406817753,3.998508604274534],[103.2442122765681,3.998508604274534],[103.2442122765681,3.9989014667063136],[103.24369406817753,3.9989014667063136]],[[103.20897410600996,3.97847286287672],[103.20793768922884,3.978865715984601],[103.20741948083828,3.9780800099511877],[103.20845589761942,3.9776871572079835],[103.20897410600996,3.97847286287672]],[[103.19083681234035,4.023652170192771],[103.19083681234035,4.023259296177727],[103.19135502073091,4.023259296177727],[103.19187322912147,4.024045044392258],[103.19083681234035,4.024437918776211],[103.19083681234035,4.024045044392258],[103.19031860394978,4.024045044392258],[103.19031860394978,4.023652170192771],[103.19083681234035,4.023652170192771]],[[103.24006660944362,4.009901689280867],[103.24006660944362,4.009508821709912],[103.24058481783416,4.009508821709912],[103.24110302622474,4.010294557035632],[103.24006660944362,4.010687424974219],[103.24006660944362,4.010294557035632],[103.23954840105306,4.010294557035632],[103.23954840105306,4.009901689280867],[103.24006660944362,4.009901689280867]],[[103.22607498289847,3.988294245325348],[103.22607498289847,3.9879013878356604],[103.22659319128904,3.9879013878356604],[103.2271113996796,3.9886871029978397],[103.22607498289847,3.9890799608531515],[103.22607498289847,3.9886871029978397],[103.22555677450792,3.9886871029978397],[103.22555677450792,3.988294245325348],[103.22607498289847,3.988294245325348]]]]},"properties":{"place_id":"b009414e-6c95-518d-868a-68d2e989fafc","habitat":"forest_interior","habitat_label":"Forest interior","resolution_m":50}},{"type":"Feature","geometry":{"type":"MultiPolygon","coordinates":[[[[103.18893090093395,3.9698301406049223],[103.18980039555923,3.9691027778856283],[103.1890822,3.9689790956399897],[103.18893090093395,3.9698301406049223]]],[[[103.18824577038754,3.974937193109237],[103.18824577038754,3.974544341824009],[103.18789484448612,3.974544341824009],[103.18783308338784,3.974937193109237],[103.18824577038754,3.974937193109237]]],[[[103.21042107589993,3.9780800099511877],[103.20993095594177,3.9772943046470903],[103.20897410600996,3.9776871572079835],[103.20949231440053,3.97847286287672],[103.21042107589993,3.9780800099511877]]],[[[103.20741948083828,3.9780800099511877],[103.20793768922884,3.978865715984601],[103.20897410600996,3.97847286287672],[103.20845589761942,3.9776871572079835],[103.20741948083828,3.9780800099511877]]],[[[103.21726544025894,3.9867228164632347],[103.21622902347782,3.985164129819312],[103.21415618991557,3.9845728167544556],[103.21363798152501,3.9847585344968897],[103.21363798152501,3.985151390524808],[103.21571081508726,3.986329959704578],[103.21571081508726,3.987115673404623],[103.21622902347782,3.987115673404623],[103.21674723186838,3.9879013878356604],[103.2177836486495,3.987508530528758],[103.2177836486495,3.9867228164632347],[103.21726544025894,3.9867228164632347]]],[[[103.22659319128904,3.9867228164632347],[103.22659319128904,3.986622657375395],[103.2265364626833,3.9867228164632347],[103.22659319128904,3.9867228164632347]]],[[[103.22555677450792,3.987154266160752],[103.22400214933623,3.987115673404623],[103.22400214933623,3.9879013878356604],[103.22452035772679,3.9879013878356604],[103.22452035772679,3.988294245325348],[103.22555677450792,3.9879013878356604],[103.22555677450792,3.987154266160752]]],[[[103.22659319128904,3.9879013878356604],[103.22555677450792,3.988294245325348],[103.22607498289847,3.9890799608531515],[103.2271113996796,3.9886871029978397],[103.22659319128904,3.9879013878356604]]],[[[103.19135502073091,4.023259296177727],[103.19031860394978,4.023652170192771],[103.19083681234035,4.024437918776211],[103.19187322912147,4.024045044392258],[103.19135502073091,4.023259296177727]]],[[[103.23592094231913,3.9800442764025092],[103.23643915070969,3.9798724381976216],[103.23592094231913,3.9799266596346006],[103.23592094231913,3.9800442764025092]]],[[[103.24628511013034,3.9930085494654737],[103.24628511013034,3.993401409333026],[103.24576690173977,3.993401409333026],[103.24576690173977,3.994579990034],[103.24628511013034,3.994579990034],[103.24628511013034,3.994972850633826],[103.24641076373199,3.994972850633826],[103.24631899999999,3.9937439956137535],[103.24726106566483,3.9930085494654737],[103.24628511013034,3.9930085494654737]]],[[[103.2468033185209,3.9957585723828313],[103.2468033185209,3.9961514335320505],[103.24628511013034,3.9961514335320505],[103.24628511013034,3.996937156380012],[103.24576690173977,3.996937156380012],[103.24576690173977,3.99803108868304],[103.24689999999998,3.9964359956108786],[103.2468033185209,3.9957585723828313]]],[[[103.24369406817753,3.998508604274534],[103.24369406817753,3.9981157420260316],[103.2426576513964,3.9981157420260316],[103.24213944300587,3.9989014667063136],[103.2426576513964,3.9989014667063136],[103.2426576513964,3.9992943293213874],[103.24369406817753,3.9992943293213874],[103.24369406817753,3.9989014667063136],[103.2442122765681,3.9989014667063136],[103.2442122765681,3.998508604274534],[103.24369406817753,3.998508604274534]]],[[[103.24524869334921,3.9981157420260316],[103.24524869334921,3.998508604274534],[103.2442122765681,3.9989014667063136],[103.2442122765681,4.000080055101497],[103.24567754544151,3.9981157420260316],[103.24524869334921,3.9981157420260316]]],[[[103.2442122765681,4.000472918266568],[103.2442122765681,4.000704407403224],[103.24431637350057,4.000472918266568],[103.2442122765681,4.000472918266568]]],[[[103.24317585978697,4.0012586451468355],[103.24317585978697,4.001651508862068],[103.2426576513964,4.001651508862068],[103.2426576513964,4.002437236842822],[103.24213944300587,4.002437236842822],[103.24213944300587,4.00283010110838],[103.24258937657197,4.00283010110838],[103.2435734163691,4.0012586451468355],[103.24317585978697,4.0012586451468355]]],[[[103.24238931029755,4.003222965557415],[103.24213944300587,4.003615830189948],[103.24228432879474,4.003615830189948],[103.24238931029755,4.003222965557415]]],[[[103.24058481783416,4.009508821709912],[103.23954840105306,4.009901689280867],[103.24006660944362,4.010687424974219],[103.24110302622474,4.010294557035632],[103.24058481783416,4.009508821709912]]]]},"properties":{"place_id":"b009414e-6c95-518d-868a-68d2e989fafc","habitat":"forest_edge_opening","habitat_label":"Forest edge or opening","resolution_m":50}},{"type":"Feature","geometry":{"type":"MultiPolygon","coordinates":[[[[103.20949231440053,3.9780800099511877],[103.21001052279108,3.9780800099511877],[103.21001052279108,3.9776871572079835],[103.20949231440053,3.9776871572079835],[103.20949231440053,3.9780800099511877]]],[[[103.20845589761942,3.97847286287672],[103.20845589761942,3.9780800099511877],[103.20793768922884,3.9780800099511877],[103.20793768922884,3.97847286287672],[103.20845589761942,3.97847286287672]]],[[[103.21467439830614,3.985151390524808],[103.21467439830614,3.9847585344968897],[103.21415618991557,3.9847585344968897],[103.21415618991557,3.985151390524808],[103.21467439830614,3.985151390524808]]],[[[103.21519260669669,3.985937103128634],[103.21571081508726,3.985937103128634],[103.21571081508726,3.986329959704578],[103.21622902347782,3.986329959704578],[103.21622902347782,3.9855442467353814],[103.21571081508726,3.9855442467353814],[103.21571081508726,3.985151390524808],[103.21519260669669,3.985151390524808],[103.21519260669669,3.985937103128634]]],[[[103.21726544025894,3.9867228164632347],[103.21674723186838,3.9867228164632347],[103.21674723186838,3.986329959704578],[103.21622902347782,3.986329959704578],[103.21622902347782,3.987115673404623],[103.21674723186838,3.987115673404623],[103.21674723186838,3.987508530528758],[103.21726544025894,3.987508530528758],[103.21726544025894,3.9867228164632347]]],[[[103.22503856611735,3.9879013878356604],[103.22503856611735,3.987115673404623],[103.22452035772679,3.987115673404623],[103.22452035772679,3.9879013878356604],[103.22503856611735,3.9879013878356604]]],[[[103.22659319128904,3.9886871029978397],[103.22659319128904,3.988294245325348],[103.22607498289847,3.988294245325348],[103.22607498289847,3.9886871029978397],[103.22659319128904,3.9886871029978397]]],[[[103.19135502073091,4.024045044392258],[103.19135502073091,4.023652170192771],[103.19083681234035,4.023652170192771],[103.19083681234035,4.024045044392258],[103.19135502073091,4.024045044392258]]],[[[103.24630465405859,3.994579990034],[103.24628511013034,3.9944312574244507],[103.24628511013034,3.994579990034],[103.24630465405859,3.994579990034]]],[[[103.24628511013034,3.993401409333026],[103.24628511013034,3.994058082045762],[103.24656224553995,3.993401409333026],[103.24628511013034,3.993401409333026]]],[[[103.2468033185209,3.9961514335320505],[103.2468033185209,3.996625305962839],[103.24689999999998,3.9964359956108786],[103.2468033185209,3.9961514335320505]]],[[[103.24628511013034,3.996937156380012],[103.24628511013034,3.9975290007568605],[103.24664405543618,3.996937156380012],[103.24628511013034,3.996937156380012]]],[[[103.24369406817753,3.9989014667063136],[103.24369406817753,3.998508604274534],[103.2426576513964,3.998508604274534],[103.2426576513964,3.9989014667063136],[103.24369406817753,3.9989014667063136]]],[[[103.24473048495865,3.9989014667063136],[103.24473048495865,3.999341716577529],[103.24498135556267,3.9989014667063136],[103.24473048495865,3.9989014667063136]]],[[[103.24317585978697,4.001651508862068],[103.24317585978697,4.001705506365689],[103.24320453846822,4.001651508862068],[103.24317585978697,4.001651508862068]]],[[[103.2426576513964,4.002437236842822],[103.2426576513964,4.002696031820764],[103.24278944284637,4.002437236842822],[103.2426576513964,4.002437236842822]]]]},"properties":{"place_id":"b009414e-6c95-518d-868a-68d2e989fafc","habitat":"open_grassland","habitat_label":"Open grassland or shrubland","resolution_m":50}},{"type":"Feature","geometry":{"type":"MultiPolygon","coordinates":[[[[103.18893090093395,3.9698301406049223],[103.18980039555923,3.9694372916864147],[103.18980039555923,3.9691027778856283],[103.1890822,3.9689790956399897],[103.18893090093395,3.9698301406049223]]],[[[103.24058481783416,4.010294557035632],[103.24110302622474,4.010294557035632],[103.24110302622474,4.009901689280867],[103.24006660944362,4.009508821709912],[103.23954840105306,4.010294557035632],[103.24006660944362,4.010294557035632],[103.24006660944362,4.010687424974219],[103.24058481783416,4.010687424974219],[103.24058481783416,4.010294557035632]]]]},"properties":{"place_id":"b009414e-6c95-518d-868a-68d2e989fafc","habitat":"disturbed_built_edge","habitat_label":"Disturbed, bare or built edge","resolution_m":50}}]}