{"type":"FeatureCollection","metadata":{"schema_version":1,"place_id":"b09fa9a9-9a53-5afc-80d0-8813a21cce4e","place_name":"Taman Rekreasi Bukit Panau","place_type":"wood","osm_reference":"way/823102064","protection_context":"mapped protected boundary","resolution_m":50,"raster_coverage":1.0,"interpretation":"Suggested search habitats, not predicted plant locations or probabilities of presence."},"features":[{"type":"Feature","geometry":{"type":"Polygon","coordinates":[[[102.1694529,5.888726093667225],[102.16996628293589,5.889455006199948],[102.17203911649813,5.890636874635383],[102.17203911649813,5.891030831324647],[102.17100269971701,5.891424788286004],[102.17152090810757,5.892212703025067],[102.17009730439513,5.89260666080281],[102.16963189999998,5.8936493936623675],[102.1698602,5.894799093661226],[102.17039959999998,5.894687493661341],[102.17071009999998,5.8954450936605935],[102.1770256,5.895592393660433],[102.1775416,5.893922693662059],[102.17956189999998,5.893457193662551],[102.1796343,5.891859993664128],[102.17775260000002,5.88922409366672],[102.17735049999999,5.889413893666568],[102.1768064,5.8884548936675065],[102.1765117,5.888594993667383],[102.1760611,5.887612293668343],[102.17594219999997,5.8879186936680314],[102.17475939999999,5.888084393667865],[102.17423679999999,5.887779993668157],[102.1737518,5.8886347936673245],[102.1731538,5.8880375936679235],[102.17243299999998,5.888937893667015],[102.1719596,5.888690393667269],[102.1716318,5.889076793666877],[102.1708428,5.889022493666934],[102.17100669999999,5.888364393667586],[102.17066079999996,5.888539493667422],[102.17055759999998,5.888026293667926],[102.17097639999999,5.88821949366773],[102.1713648,5.887917693668055],[102.17048449132645,5.88787918542751],[102.170404,5.887501293668466],[102.1694529,5.888726093667225]]]},"properties":{"place_id":"b09fa9a9-9a53-5afc-80d0-8813a21cce4e","habitat":"forest_interior","habitat_label":"Forest interior","resolution_m":50}},{"type":"Feature","geometry":{"type":"MultiPolygon","coordinates":[[[[102.17048449132645,5.88787918542751],[102.1709415576954,5.88787918542751],[102.17048449132645,5.887552671839456],[102.17048449132645,5.88787918542751]]],[[[102.17100269971701,5.892212703025067],[102.17152090810757,5.892212703025067],[102.17100269971701,5.891424788286004],[102.17152090810757,5.891424788286004],[102.17203911649813,5.890636874635383],[102.17152090810757,5.890636874635383],[102.17152090810757,5.890242918218189],[102.17100269971701,5.890242918218189],[102.17100269971701,5.889848962073052],[102.16958970244436,5.88906105059886],[102.1708459,5.890547993665412],[102.16999399999999,5.891422493664547],[102.1700725,5.891712893664265],[102.17063839999999,5.891629593664333],[102.17009730439513,5.89260666080281],[102.17100269971701,5.89260666080281],[102.17100269971701,5.892212703025067]]]]},"properties":{"place_id":"b09fa9a9-9a53-5afc-80d0-8813a21cce4e","habitat":"forest_edge_opening","habitat_label":"Forest edge or opening","resolution_m":50}},{"type":"Feature","geometry":{"type":"MultiPolygon","coordinates":[[[[102.17048449132645,5.889848962073052],[102.17004838204616,5.889848962073052],[102.17048449132645,5.890155089335634],[102.17048449132645,5.889848962073052]]],[[[102.17048449132645,5.891424788286004],[102.17048449132645,5.891065455701897],[102.16999399999999,5.891422493664547],[102.16999462027489,5.891424788286004],[102.17048449132645,5.891424788286004]]],[[[102.17100269971701,5.891818745519471],[102.17028228596824,5.892212703025067],[102.17100269971701,5.892212703025067],[102.17100269971701,5.891818745519471]]]]},"properties":{"place_id":"b09fa9a9-9a53-5afc-80d0-8813a21cce4e","habitat":"open_grassland","habitat_label":"Open grassland or shrubland","resolution_m":50}},{"type":"Feature","geometry":{"type":"Polygon","coordinates":[[[102.17152090810757,5.891030831324647],[102.17152090810757,5.890636874635383],[102.17100269971701,5.890636874635383],[102.17100269971701,5.891030831324647],[102.17152090810757,5.891030831324647]]]},"properties":{"place_id":"b09fa9a9-9a53-5afc-80d0-8813a21cce4e","habitat":"cropland","habitat_label":"Cropland","resolution_m":50}}]}