{"type":"FeatureCollection","metadata":{"schema_version":1,"place_id":"b0c407ab-2e9f-554d-a134-0fef4ec2ea75","place_name":"Vista Point","place_type":"park","osm_reference":"way/1016821228","protection_context":"no protected status confirmed from included OSM tags","resolution_m":50,"raster_coverage":1.0,"interpretation":"Suggested search habitats, not predicted plant locations or probabilities of presence."},"features":[{"type":"Feature","geometry":{"type":"Polygon","coordinates":[[[100.26451403084441,5.341717360605247],[100.26451403084441,5.3416194734575875],[100.26444969999999,5.341690794215715],[100.26451403084441,5.341717360605247]]]},"properties":{"place_id":"b0c407ab-2e9f-554d-a134-0fef4ec2ea75","habitat":"forest_interior","habitat_label":"Forest interior","resolution_m":50}},{"type":"Feature","geometry":{"type":"Polygon","coordinates":[[[100.26485549999998,5.341506194215873],[100.2646736,5.341901794215488],[100.26446799999998,5.342025894215348],[100.26451403084441,5.342121533066898],[100.26489074006126,5.3421109561404645],[100.26485549999998,5.341506194215873]]]},"properties":{"place_id":"b0c407ab-2e9f-554d-a134-0fef4ec2ea75","habitat":"forest_edge_opening","habitat_label":"Forest edge or opening","resolution_m":50}},{"type":"Feature","geometry":{"type":"Polygon","coordinates":[[[100.26451403084441,5.341717360605247],[100.26489074006126,5.3421109561404645],[100.26486832804667,5.341717360605247],[100.26451403084441,5.341717360605247]]]},"properties":{"place_id":"b0c407ab-2e9f-554d-a134-0fef4ec2ea75","habitat":"open_grassland","habitat_label":"Open grassland or shrubland","resolution_m":50}},{"type":"Feature","geometry":{"type":"Polygon","coordinates":[[[100.26485549999998,5.341506194215873],[100.2646954,5.342636094214754],[100.2649465,5.3428014942145925],[100.26485549999998,5.341506194215873]]]},"properties":{"place_id":"b0c407ab-2e9f-554d-a134-0fef4ec2ea75","habitat":"disturbed_built_edge","habitat_label":"Disturbed, bare or built edge","resolution_m":50}}]}