{"type":"FeatureCollection","metadata":{"schema_version":1,"place_id":"b0db6691-3ae9-5525-b672-6ecd5ffd635a","place_name":"Taman Bandar Arkeologi Sia Boey","place_type":"park","osm_reference":"way/712720603","protection_context":"no protected status confirmed from included OSM tags","resolution_m":50,"raster_coverage":1.0,"interpretation":"Suggested search habitats, not predicted plant locations or probabilities of presence."},"features":[{"type":"Feature","geometry":{"type":"Polygon","coordinates":[[[100.33331749999998,5.413064994143457],[100.33325134011318,5.412568539654776],[100.3327327,5.413567794142959],[100.33331749999998,5.413064994143457]]]},"properties":{"place_id":"b0db6691-3ae9-5525-b672-6ecd5ffd635a","habitat":"forest_edge_opening","habitat_label":"Forest edge or opening","resolution_m":50}},{"type":"Feature","geometry":{"type":"Polygon","coordinates":[[[100.33343574678898,5.412174899768636],[100.33343574678898,5.412568539654776],[100.33365043138038,5.412568539654776],[100.33390884364698,5.412174899768636],[100.33343574678898,5.412174899768636]]]},"properties":{"place_id":"b0db6691-3ae9-5525-b672-6ecd5ffd635a","habitat":"open_grassland","habitat_label":"Open grassland or shrubland","resolution_m":50}},{"type":"Feature","geometry":{"type":"Polygon","coordinates":[[[100.3327526,5.41357509414295],[100.3339686,5.412076094144463],[100.3336027,5.411759094144792],[100.33315459999999,5.4119399941446025],[100.3327526,5.41357509414295]]]},"properties":{"place_id":"b0db6691-3ae9-5525-b672-6ecd5ffd635a","habitat":"disturbed_built_edge","habitat_label":"Disturbed, bare or built edge","resolution_m":50}}]}