{"type":"FeatureCollection","metadata":{"schema_version":1,"place_id":"b0dd91a5-de13-505b-9df8-3eb311492d9c","place_name":"Pulau Tok Hud","place_type":"wood","osm_reference":"way/724434455","protection_context":"no protected status confirmed from included OSM tags","resolution_m":50,"raster_coverage":1.0,"interpretation":"Suggested search habitats, not predicted plant locations or probabilities of presence."},"features":[{"type":"Feature","geometry":{"type":"Polygon","coordinates":[[[102.83845510675911,5.14062182357353],[102.84000973193079,5.14062182357353],[102.84052794032135,5.138654466154325],[102.84104614871191,5.138581413058942],[102.84104614871191,5.136687114648603],[102.84031365024788,5.137080584476781],[102.84028439999997,5.13785359442305],[102.83949152354025,5.137687602032203],[102.83949152354025,5.138260995380177],[102.83845510675911,5.138654466154325],[102.83845510675911,5.13944140841226],[102.83897331514967,5.13944140841226],[102.83845510675911,5.14062182357353]]]},"properties":{"place_id":"b0dd91a5-de13-505b-9df8-3eb311492d9c","habitat":"forest_interior","habitat_label":"Forest interior","resolution_m":50}},{"type":"Feature","geometry":{"type":"MultiPolygon","coordinates":[[[[102.84052794032135,5.137080584476781],[102.84052794032135,5.136766981976131],[102.84031365024788,5.137080584476781],[102.84052794032135,5.137080584476781]]],[[[102.84104614871191,5.136687114648603],[102.84104614871191,5.138581413058942],[102.84157859999999,5.137742694423183],[102.84133449999999,5.136360194424577],[102.84064411558946,5.136687114648603],[102.84104614871191,5.136687114648603]]],[[[102.83949152354025,5.138260995380177],[102.83949152354025,5.137687602032203],[102.8390493925733,5.138260995380177],[102.83949152354025,5.138260995380177]]],[[[102.84052794032135,5.138654466154325],[102.84000973193079,5.14062182357353],[102.83845510675911,5.14062182357353],[102.83845510675911,5.140177975897789],[102.8379723,5.140224494420623],[102.83842300000002,5.141109994419702],[102.83936439999998,5.140725394420114],[102.84011009999999,5.140944394419913],[102.84094965278157,5.138654466154325],[102.84052794032135,5.138654466154325]]],[[[102.83866901784894,5.139834879896081],[102.83897331514967,5.13944140841226],[102.83845510675911,5.13944140841226],[102.83845510675911,5.138654466154325],[102.83897331514967,5.138654466154325],[102.83897331514967,5.138363231263915],[102.83790529999999,5.138800594422071],[102.83866901784894,5.139834879896081]]]]},"properties":{"place_id":"b0dd91a5-de13-505b-9df8-3eb311492d9c","habitat":"forest_edge_opening","habitat_label":"Forest edge or opening","resolution_m":50}},{"type":"Feature","geometry":{"type":"MultiPolygon","coordinates":[[[[102.83949152354025,5.137867524842549],[102.83949152354025,5.137687602032203],[102.83931189815426,5.137867524842549],[102.83949152354025,5.137867524842549]]],[[[102.84156435710248,5.137770634271476],[102.84157859999999,5.137742694423183],[102.84156435710248,5.137694593706383],[102.84156435710248,5.137770634271476]]],[[[102.83845510675911,5.138654466154325],[102.83845510675911,5.138578562158345],[102.83799658971547,5.138654466154325],[102.83845510675911,5.138654466154325]]],[[[102.83793689836855,5.138711111426267],[102.83790529999999,5.138800594422071],[102.83793689836855,5.138887715176762],[102.83793689836855,5.138711111426267]]],[[[102.83845510675911,5.13944140841226],[102.83840992542899,5.13944140841226],[102.83845510675911,5.139516189228152],[102.83845510675911,5.13944140841226]]],[[[102.84052794032135,5.139834879896081],[102.84054989999998,5.139886494421003],[102.84060172153416,5.139834879896081],[102.84052794032135,5.139834879896081]]],[[[102.83793689836855,5.140293049124106],[102.83790660000001,5.140408794420437],[102.83793689836855,5.140497470463791],[102.83793689836855,5.140293049124106]]],[[[102.8397257263939,5.1410152957671915],[102.8397399,5.141019194419817],[102.8397744895494,5.1410152957671915],[102.8397257263939,5.1410152957671915]]],[[[102.8390183819286,5.1410152957671915],[102.83902109999997,5.141016494419798],[102.83903235235132,5.1410152957671915],[102.8390183819286,5.1410152957671915]]],[[[102.83829499063197,5.1410152957671915],[102.83849810000001,5.141134094419713],[102.83875217745626,5.1410152957671915],[102.83829499063197,5.1410152957671915]]]]},"properties":{"place_id":"b0dd91a5-de13-505b-9df8-3eb311492d9c","habitat":"permanent_water","habitat_label":"Permanent water","resolution_m":50}},{"type":"Feature","geometry":{"type":"MultiPolygon","coordinates":[[[[102.84132506263684,5.136687114648603],[102.84133449999999,5.136360194424577],[102.84064411558946,5.136687114648603],[102.84132506263684,5.136687114648603]]],[[[102.84052794032135,5.137080584476781],[102.84052794032135,5.136766981976131],[102.84031365024788,5.137080584476781],[102.84052794032135,5.137080584476781]]],[[[102.83949152354025,5.137867524842549],[102.83949152354025,5.137687602032203],[102.83931189815426,5.137867524842549],[102.83949152354025,5.137867524842549]]],[[[102.83845510675911,5.138654466154325],[102.83845510675911,5.138578562158345],[102.83799658971547,5.138654466154325],[102.83845510675911,5.138654466154325]]],[[[102.83829499063197,5.1410152957671915],[102.83845510675911,5.14062182357353],[102.83799321630552,5.14062182357353],[102.83829499063197,5.1410152957671915]]]]},"properties":{"place_id":"b0dd91a5-de13-505b-9df8-3eb311492d9c","habitat":"seasonal_water_wetland","habitat_label":"Seasonal water or wetland","resolution_m":50}},{"type":"Feature","geometry":{"type":"Polygon","coordinates":[[[102.83845510675911,5.14062182357353],[102.83845510675911,5.1410152957671915],[102.8401718,5.140866894419978],[102.84156435710248,5.137770634271476],[102.84132506263684,5.136687114648603],[102.84064411558946,5.136687114648603],[102.84013819999997,5.137361994423577],[102.84052794032135,5.138654466154325],[102.84000973193079,5.138654466154325],[102.84000973193079,5.139834879896081],[102.83897331514967,5.13944140841226],[102.83897331514967,5.138654466154325],[102.84000973193079,5.138260995380177],[102.839992,5.137738694423156],[102.83949152354025,5.137687602032203],[102.8388682,5.138465294422435],[102.8379375,5.138709794422165],[102.83868309999998,5.140040094420818],[102.83793689836855,5.140497470463791],[102.83845510675911,5.14062182357353]],[[102.83949152354025,5.1402283516165],[102.83897331514967,5.1402283516165],[102.83897331514967,5.139834879896081],[102.83949152354025,5.139834879896081],[102.83949152354025,5.1402283516165]]]},"properties":{"place_id":"b0dd91a5-de13-505b-9df8-3eb311492d9c","habitat":"water_edge","habitat_label":"Water edge","resolution_m":50}}]}