{"type":"FeatureCollection","metadata":{"schema_version":1,"place_id":"b2538322-0801-549b-86ee-6a5ade8665c6","place_name":"padang sundar","place_type":"park","osm_reference":"way/461364390","protection_context":"no protected status confirmed from included OSM tags","resolution_m":50,"raster_coverage":1.0,"interpretation":"Suggested search habitats, not predicted plant locations or probabilities of presence."},"features":[{"type":"Feature","geometry":{"type":"Polygon","coordinates":[[[115.21382189999999,4.895975894671072],[115.21389900000001,4.896133094670908],[115.2139625,4.896133494670902],[115.21396359999999,4.895976794671072],[115.21382189999999,4.895975894671072]]]},"properties":{"place_id":"b2538322-0801-549b-86ee-6a5ade8665c6","habitat":"forest_edge_opening","habitat_label":"Forest edge or opening","resolution_m":50}},{"type":"Feature","geometry":{"type":"Polygon","coordinates":[[[115.21382189999999,4.895975894671072],[115.21389900000001,4.896133094670908],[115.2139625,4.896133494670902],[115.21396359999999,4.895976794671072],[115.21382189999999,4.895975894671072]]]},"properties":{"place_id":"b2538322-0801-549b-86ee-6a5ade8665c6","habitat":"open_grassland","habitat_label":"Open grassland or shrubland","resolution_m":50}}]}