{"type":"FeatureCollection","metadata":{"schema_version":1,"place_id":"b2540a53-cebb-55f2-ba73-e8c06ab5fc57","place_name":"Taman Rekreasi Medan Idaman","place_type":"park","osm_reference":"way/579371809","protection_context":"no protected status confirmed from included OSM tags","resolution_m":50,"raster_coverage":1.0,"interpretation":"Suggested search habitats, not predicted plant locations or probabilities of presence."},"features":[{"type":"Feature","geometry":{"type":"MultiPolygon","coordinates":[[[[101.71187006568027,3.209985953896732],[101.71135185728971,3.209985953896732],[101.71135185728971,3.2103784849651658],[101.71187006568027,3.2103784849651658],[101.71187006568027,3.209985953896732]]],[[[101.71083364889917,3.210771016180413],[101.71135185728971,3.210771016180413],[101.71135185728971,3.2103784849651658],[101.71083364889917,3.2103784849651658],[101.71083364889917,3.210771016180413]]]]},"properties":{"place_id":"b2540a53-cebb-55f2-ba73-e8c06ab5fc57","habitat":"forest_interior","habitat_label":"Forest interior","resolution_m":50}},{"type":"Feature","geometry":{"type":"Polygon","coordinates":[[[101.71170099999998,3.2089261964532514],[101.71056229999999,3.21004439645204],[101.71038599999999,3.2110285964509933],[101.71114289999998,3.2111869964508215],[101.71223519999998,3.2101088964520095],[101.7124767,3.209595796452529],[101.71170099999998,3.2089261964532514]],[[101.71135185728971,3.210771016180413],[101.71083364889917,3.210771016180413],[101.71083364889917,3.2103784849651658],[101.71135185728971,3.2103784849651658],[101.71135185728971,3.210771016180413]],[[101.71135185728971,3.209985953896732],[101.71187006568027,3.209985953896732],[101.71187006568027,3.2103784849651658],[101.71135185728971,3.2103784849651658],[101.71135185728971,3.209985953896732]]]},"properties":{"place_id":"b2540a53-cebb-55f2-ba73-e8c06ab5fc57","habitat":"forest_edge_opening","habitat_label":"Forest edge or opening","resolution_m":50}},{"type":"Feature","geometry":{"type":"Polygon","coordinates":[[[101.71114289999998,3.2111869964508215],[101.71223519999998,3.2101088964520095],[101.7124767,3.209595796452529],[101.71170099999998,3.2089261964532514],[101.71056229999999,3.21004439645204],[101.71038599999999,3.2110285964509933],[101.71114289999998,3.2111869964508215]],[[101.71135185728971,3.210771016180413],[101.71083364889917,3.210771016180413],[101.71083364889917,3.2103784849651658],[101.71135185728971,3.2103784849651658],[101.71135185728971,3.210771016180413]],[[101.71135185728971,3.209985953896732],[101.71187006568027,3.209985953896732],[101.71187006568027,3.2103784849651658],[101.71135185728971,3.2103784849651658],[101.71135185728971,3.209985953896732]]]},"properties":{"place_id":"b2540a53-cebb-55f2-ba73-e8c06ab5fc57","habitat":"disturbed_built_edge","habitat_label":"Disturbed, bare or built edge","resolution_m":50}}]}