{"type":"FeatureCollection","metadata":{"schema_version":1,"place_id":"b2c5fcbb-81c2-5691-9126-9ce4cbb42431","place_name":"Taman Eko Rimba Gunung Arong","place_type":"park","osm_reference":"way/1388820771","protection_context":"mapped protected boundary","resolution_m":50,"raster_coverage":1.0,"interpretation":"Suggested search habitats, not predicted plant locations or probabilities of presence."},"features":[{"type":"Feature","geometry":{"type":"MultiPolygon","coordinates":[[[[103.75516574966089,2.552688304451796],[103.75559493645818,2.552688304451796],[103.7553763,2.55242519716689],[103.75516574966089,2.552688304451796]]],[[[103.75568395805145,2.5527954331218137],[103.75485603765412,2.5534729256061017],[103.75468699999998,2.5545366971645747],[103.75515099999998,2.5545098971645883],[103.7558806,2.553459497165752],[103.75568395805145,2.5527954331218137]]]]},"properties":{"place_id":"b2c5fcbb-81c2-5691-9126-9ce4cbb42431","habitat":"forest_interior","habitat_label":"Forest interior","resolution_m":50}},{"type":"Feature","geometry":{"type":"Polygon","coordinates":[[[103.75516574966089,2.552688304451796],[103.75475409999999,2.5530093971662295],[103.75485603765412,2.5534729256061017],[103.75568395805145,2.553080614970662],[103.75516574966089,2.552688304451796]]]},"properties":{"place_id":"b2c5fcbb-81c2-5691-9126-9ce4cbb42431","habitat":"forest_edge_opening","habitat_label":"Forest edge or opening","resolution_m":50}},{"type":"Feature","geometry":{"type":"Polygon","coordinates":[[[103.75516574966089,2.552688304451796],[103.75475409999999,2.5530093971662295],[103.75485603765412,2.5534729256061017],[103.75568395805145,2.553080614970662],[103.75516574966089,2.552688304451796]]]},"properties":{"place_id":"b2c5fcbb-81c2-5691-9126-9ce4cbb42431","habitat":"disturbed_built_edge","habitat_label":"Disturbed, bare or built edge","resolution_m":50}}]}