{"type":"FeatureCollection","metadata":{"schema_version":1,"place_id":"b2ce1f9d-ff80-5515-9b2b-2930a63fd8c9","place_name":"Central Park · OSM relation/17828126","place_type":"park","osm_reference":"relation/17828126","protection_context":"no protected status confirmed from included OSM tags","resolution_m":50,"raster_coverage":1.0,"interpretation":"Suggested search habitats, not predicted plant locations or probabilities of presence."},"features":[{"type":"Feature","geometry":{"type":"MultiPolygon","coordinates":[[[[100.43940609999999,5.235236694323782],[100.43552279972943,5.234245169505521],[100.43552279972943,5.235677765247481],[100.43778153574388,5.2362425685814555],[100.43811384168222,5.235849038578623],[100.43907954307053,5.235849038578623],[100.43940609999999,5.235236694323782]],[[100.4370774249011,5.235849038578623],[100.43655921651055,5.235061979296275],[100.43811384168222,5.235061979296275],[100.43811384168222,5.235849038578623],[100.4370774249011,5.235849038578623]]],[[[100.4387893322121,5.236636098825421],[100.43916556592052,5.2362425685814555],[100.43811384168222,5.2362425685814555],[100.4387893322121,5.236636098825421]]]]},"properties":{"place_id":"b2ce1f9d-ff80-5515-9b2b-2930a63fd8c9","habitat":"open_grassland","habitat_label":"Open grassland or shrubland","resolution_m":50}},{"type":"Feature","geometry":{"type":"MultiPolygon","coordinates":[[[[100.43534408803065,5.234668450016725],[100.43552279972943,5.234245169505521],[100.4354524,5.234227194324819],[100.43534408803065,5.234668450016725]]],[[[100.43718057573297,5.234668450016725],[100.43604100811997,5.234377483800292],[100.43655921651055,5.235061979296275],[100.4370774249011,5.235061979296275],[100.43718057573297,5.234668450016725]]],[[[100.43552279972943,5.235061979296275],[100.43518179999998,5.235592494323433],[100.43552279972943,5.235677765247481],[100.43552279972943,5.235061979296275]]],[[[100.43915025846334,5.235455508816902],[100.43915025846334,5.235654083831162],[100.43935179415419,5.235455508816902],[100.43915025846334,5.235455508816902]]],[[[100.43863205007278,5.235849038578623],[100.43863205007278,5.2362425685814555],[100.43811384168222,5.2362425685814555],[100.43811384168222,5.235849038578623],[100.43655921651055,5.235849038578623],[100.43655921651055,5.235455508816902],[100.43604100811997,5.235455508816902],[100.43604100811997,5.235807349267314],[100.438822,5.236504494322514],[100.43902269999998,5.236844894322147],[100.43907954307053,5.235849038578623],[100.43863205007278,5.235849038578623]]]]},"properties":{"place_id":"b2ce1f9d-ff80-5515-9b2b-2930a63fd8c9","habitat":"disturbed_built_edge","habitat_label":"Disturbed, bare or built edge","resolution_m":50}},{"type":"Feature","geometry":{"type":"MultiPolygon","coordinates":[[[[100.43534408803065,5.234668450016725],[100.43552279972943,5.234245169505521],[100.4354524,5.234227194324819],[100.43534408803065,5.234668450016725]]],[[[100.43552279972943,5.235061979296275],[100.43518179999998,5.235592494323433],[100.43552279972943,5.235677765247481],[100.43552279972943,5.235061979296275]]],[[[100.43759563329168,5.235455508816902],[100.43759563329168,5.235849038578623],[100.43811384168222,5.235849038578623],[100.43811384168222,5.235455508816902],[100.43759563329168,5.235455508816902]]],[[[100.43863205007278,5.235849038578623],[100.43863205007278,5.2362425685814555],[100.43915025846334,5.2362425685814555],[100.43907954307053,5.235849038578623],[100.43863205007278,5.235849038578623]]]]},"properties":{"place_id":"b2ce1f9d-ff80-5515-9b2b-2930a63fd8c9","habitat":"cropland","habitat_label":"Cropland","resolution_m":50}},{"type":"Feature","geometry":{"type":"Polygon","coordinates":[[[100.43759563329168,5.235455508816902],[100.43759563329168,5.235061979296275],[100.4370774249011,5.235061979296275],[100.4370774249011,5.235455508816902],[100.43759563329168,5.235455508816902]]]},"properties":{"place_id":"b2ce1f9d-ff80-5515-9b2b-2930a63fd8c9","habitat":"permanent_water","habitat_label":"Permanent water","resolution_m":50}},{"type":"Feature","geometry":{"type":"MultiPolygon","coordinates":[[[[100.43655921651055,5.235061979296275],[100.4370774249011,5.235849038578623],[100.43811384168222,5.235849038578623],[100.43811384168222,5.235061979296275],[100.43655921651055,5.235061979296275]]],[[[100.43863205007278,5.2362425685814555],[100.43863205007278,5.235849038578623],[100.43811384168222,5.235849038578623],[100.43811384168222,5.2362425685814555],[100.43863205007278,5.2362425685814555]]]]},"properties":{"place_id":"b2ce1f9d-ff80-5515-9b2b-2930a63fd8c9","habitat":"seasonal_water_wetland","habitat_label":"Seasonal water or wetland","resolution_m":50}},{"type":"Feature","geometry":{"type":"Polygon","coordinates":[[[100.43552279972943,5.235455508816902],[100.4390722242851,5.236636098825421],[100.43915025846334,5.235171370141176],[100.43655921651055,5.234509798122311],[100.43552279972943,5.235061979296275],[100.43552279972943,5.235455508816902]],[[100.43863205007278,5.235849038578623],[100.43863205007278,5.2362425685814555],[100.43811384168222,5.2362425685814555],[100.43811384168222,5.235849038578623],[100.43863205007278,5.235849038578623]],[[100.4370774249011,5.235849038578623],[100.43655921651055,5.235061979296275],[100.43811384168222,5.235061979296275],[100.43811384168222,5.235849038578623],[100.4370774249011,5.235849038578623]]]},"properties":{"place_id":"b2ce1f9d-ff80-5515-9b2b-2930a63fd8c9","habitat":"water_edge","habitat_label":"Water edge","resolution_m":50}}]}