{"type":"FeatureCollection","metadata":{"schema_version":1,"place_id":"b2d1d3d1-2ca7-52a9-a398-14b4ec968655","place_name":"Hutan Simpan Bukit Gong","place_type":"forest","osm_reference":"way/343230464","protection_context":"no protected status confirmed from included OSM tags","resolution_m":50,"raster_coverage":1.0,"interpretation":"Suggested search habitats, not predicted plant locations or probabilities of presence."},"features":[{"type":"Feature","geometry":{"type":"Polygon","coordinates":[[[103.35562708053864,4.619865056374267],[103.35421869999998,4.624091294952366],[103.3564928,4.628054894948228],[103.35857209999999,4.628477194947807],[103.3602939,4.6263654949500115],[103.36136599999999,4.621882194954672],[103.36113859999999,4.618243494958443],[103.35931929999998,4.616229194960507],[103.3556806,4.618373394958305],[103.35562708053864,4.619865056374267]]]},"properties":{"place_id":"b2d1d3d1-2ca7-52a9-a398-14b4ec968655","habitat":"forest_interior","habitat_label":"Forest interior","resolution_m":50}},{"type":"Feature","geometry":{"type":"MultiPolygon","coordinates":[[[[103.35562708053864,4.619078706891414],[103.35562708053864,4.618582723756848],[103.3555002717214,4.619078706891414],[103.35562708053864,4.619078706891414]]],[[[103.35562708053864,4.6194718815267395],[103.35529922464305,4.619865056374267],[103.35562708053864,4.619865056374267],[103.35562708053864,4.6194718815267395]]],[[[103.35510887214807,4.620651406706003],[103.35510887214807,4.620609577232317],[103.35509817756471,4.620651406706003],[103.35510887214807,4.620651406706003]]],[[[103.35977274766311,4.6269422399372875],[103.35977274766311,4.6270046610985025],[103.35982364353929,4.6269422399372875],[103.35977274766311,4.6269422399372875]]]]},"properties":{"place_id":"b2d1d3d1-2ca7-52a9-a398-14b4ec968655","habitat":"forest_edge_opening","habitat_label":"Forest edge or opening","resolution_m":50}}]}