{"type":"FeatureCollection","metadata":{"schema_version":1,"place_id":"b2f61b54-2d95-5141-9e98-b29385facb73","place_name":"People's Park","place_type":"park","osm_reference":"way/300886387","protection_context":"no protected status confirmed from included OSM tags","resolution_m":50,"raster_coverage":1.0,"interpretation":"Suggested search habitats, not predicted plant locations or probabilities of presence."},"features":[{"type":"Feature","geometry":{"type":"Polygon","coordinates":[[[101.07965582919631,4.5943091318629765],[101.0794879,4.593490794984157],[101.0787405,4.593685794983955],[101.07893933915597,4.5943091318629765],[101.07965582919631,4.5943091318629765]]]},"properties":{"place_id":"b2f61b54-2d95-5141-9e98-b29385facb73","habitat":"forest_edge_opening","habitat_label":"Forest edge or opening","resolution_m":50}},{"type":"Feature","geometry":{"type":"Polygon","coordinates":[[[101.07913762080574,4.593915970770375],[101.07913762080574,4.5943091318629765],[101.07965582919631,4.5943091318629765],[101.07960613802018,4.593915970770375],[101.07913762080574,4.593915970770375]]]},"properties":{"place_id":"b2f61b54-2d95-5141-9e98-b29385facb73","habitat":"open_grassland","habitat_label":"Open grassland or shrubland","resolution_m":50}},{"type":"Feature","geometry":{"type":"Polygon","coordinates":[[[101.0790378,4.594617794982978],[101.0797485,4.594427894983187],[101.0794879,4.593490794984157],[101.0787405,4.593685794983955],[101.0790378,4.594617794982978]]]},"properties":{"place_id":"b2f61b54-2d95-5141-9e98-b29385facb73","habitat":"disturbed_built_edge","habitat_label":"Disturbed, bare or built edge","resolution_m":50}}]}