{"type":"FeatureCollection","metadata":{"schema_version":1,"place_id":"b3bed266-7316-5f48-8d74-e60349a78a50","place_name":"Taman Tasik Ketitir","place_type":"park","osm_reference":"way/535183344","protection_context":"no protected status confirmed from included OSM tags","resolution_m":50,"raster_coverage":1.0,"interpretation":"Suggested search habitats, not predicted plant locations or probabilities of presence."},"features":[{"type":"Feature","geometry":{"type":"MultiPolygon","coordinates":[[[[101.95698263441547,4.865641599993587],[101.95646442602491,4.865641599993587],[101.95646442602491,4.866034911289569],[101.95698263441547,4.866034911289569],[101.95698263441547,4.865641599993587]]],[[[101.95594621763435,4.866034911289569],[101.95646442602491,4.866228000682612],[101.95646442602491,4.866034911289569],[101.95594621763435,4.866034911289569]]]]},"properties":{"place_id":"b3bed266-7316-5f48-8d74-e60349a78a50","habitat":"forest_interior","habitat_label":"Forest interior","resolution_m":50}},{"type":"Feature","geometry":{"type":"Polygon","coordinates":[[[101.95490980085322,4.864487980969976],[101.9547568,4.866278794701693],[101.957137,4.866207994701748],[101.95698263441547,4.864479185230532],[101.95594621763435,4.86448358310024],[101.95594621763435,4.864854978072771],[101.95490980085322,4.864487980969976]],[[101.95646442602491,4.865641599993587],[101.95698263441547,4.865641599993587],[101.95698263441547,4.866034911289569],[101.95646442602491,4.866034911289569],[101.95646442602491,4.865641599993587]]]},"properties":{"place_id":"b3bed266-7316-5f48-8d74-e60349a78a50","habitat":"forest_edge_opening","habitat_label":"Forest edge or opening","resolution_m":50}},{"type":"Feature","geometry":{"type":"Polygon","coordinates":[[[101.95646442602491,4.864854978072771],[101.95698263441547,4.864854978072771],[101.95698263441547,4.864479185230532],[101.95646442602491,4.864481384165382],[101.95646442602491,4.864854978072771]]]},"properties":{"place_id":"b3bed266-7316-5f48-8d74-e60349a78a50","habitat":"open_grassland","habitat_label":"Open grassland or shrubland","resolution_m":50}},{"type":"Feature","geometry":{"type":"Polygon","coordinates":[[[101.95542800924378,4.865248288921326],[101.95646442602491,4.865248288921326],[101.95646442602491,4.865641599993587],[101.95698263441547,4.865641599993587],[101.95646442602491,4.866228000682612],[101.957137,4.866207994701748],[101.95712179999997,4.864478594703518],[101.95474159999999,4.8644886947035415],[101.9547568,4.866278794701693],[101.95542800924378,4.86625882931384],[101.95542800924378,4.865248288921326]]]},"properties":{"place_id":"b3bed266-7316-5f48-8d74-e60349a78a50","habitat":"disturbed_built_edge","habitat_label":"Disturbed, bare or built edge","resolution_m":50}},{"type":"Feature","geometry":{"type":"Polygon","coordinates":[[[101.95594621763435,4.866034911289569],[101.95594621763435,4.865641599993587],[101.95646442602491,4.865641599993587],[101.95646442602491,4.864854978072771],[101.95542800924378,4.864854978072771],[101.95542800924378,4.866034911289569],[101.95594621763435,4.866034911289569]]]},"properties":{"place_id":"b3bed266-7316-5f48-8d74-e60349a78a50","habitat":"permanent_water","habitat_label":"Permanent water","resolution_m":50}},{"type":"Feature","geometry":{"type":"Polygon","coordinates":[[[101.95594621763435,4.865248288921326],[101.95594621763435,4.864854978072771],[101.95542800924378,4.864854978072771],[101.95542800924378,4.865248288921326],[101.95594621763435,4.865248288921326]]]},"properties":{"place_id":"b3bed266-7316-5f48-8d74-e60349a78a50","habitat":"seasonal_water_wetland","habitat_label":"Seasonal water or wetland","resolution_m":50}},{"type":"Feature","geometry":{"type":"Polygon","coordinates":[[[101.95490980085322,4.864487980969976],[101.95490980085322,4.866274243629968],[101.95698263441547,4.866034911289569],[101.95698263441547,4.864479185230532],[101.95490980085322,4.864487980969976]],[[101.95542800924378,4.864854978072771],[101.95646442602491,4.864854978072771],[101.95646442602491,4.865641599993587],[101.95594621763435,4.865641599993587],[101.95594621763435,4.866034911289569],[101.95542800924378,4.866034911289569],[101.95542800924378,4.864854978072771]]]},"properties":{"place_id":"b3bed266-7316-5f48-8d74-e60349a78a50","habitat":"water_edge","habitat_label":"Water edge","resolution_m":50}}]}