{"type":"FeatureCollection","metadata":{"schema_version":1,"place_id":"b45adde5-1edd-52c4-aa3a-f0b7b09ec18c","place_name":"Taman Kejiranan Lorong Zoo 7","place_type":"park","osm_reference":"way/987302215","protection_context":"no protected status confirmed from included OSM tags","resolution_m":50,"raster_coverage":1.0,"interpretation":"Suggested search habitats, not predicted plant locations or probabilities of presence."},"features":[{"type":"Feature","geometry":{"type":"Polygon","coordinates":[[[100.28368774129515,5.401546717063937],[100.28368774129515,5.401153084154623],[100.28355651544331,5.401153084154623],[100.2835161,5.401171294155506],[100.28368774129515,5.401546717063937]]]},"properties":{"place_id":"b45adde5-1edd-52c4-aa3a-f0b7b09ec18c","habitat":"forest_interior","habitat_label":"Forest interior","resolution_m":50}},{"type":"Feature","geometry":{"type":"Polygon","coordinates":[[[100.28368774129515,5.401153084154623],[100.2836832343686,5.401546717063937],[100.2840016,5.4022617941543825],[100.284147,5.4022019941544315],[100.28368774129515,5.401153084154623]]]},"properties":{"place_id":"b45adde5-1edd-52c4-aa3a-f0b7b09ec18c","habitat":"forest_edge_opening","habitat_label":"Forest edge or opening","resolution_m":50}},{"type":"Feature","geometry":{"type":"Polygon","coordinates":[[[100.28368774129515,5.401153084154623],[100.2836832343686,5.401546717063937],[100.2840016,5.4022617941543825],[100.284147,5.4022019941544315],[100.28368774129515,5.401153084154623]]]},"properties":{"place_id":"b45adde5-1edd-52c4-aa3a-f0b7b09ec18c","habitat":"disturbed_built_edge","habitat_label":"Disturbed, bare or built edge","resolution_m":50}}]}