{"type":"FeatureCollection","metadata":{"schema_version":1,"place_id":"b4a78ed1-2a3b-554c-bb31-22dc55402351","place_name":"Pulau Limau Purut","place_type":"wood","osm_reference":"way/724708943","protection_context":"no protected status confirmed from included OSM tags","resolution_m":50,"raster_coverage":1.0,"interpretation":"Suggested search habitats, not predicted plant locations or probabilities of presence."},"features":[{"type":"Feature","geometry":{"type":"MultiPolygon","coordinates":[[[[102.60577953939739,5.012362394363161],[102.60527477082374,5.012362394363161],[102.60526133100683,5.012755790394426],[102.60577953939739,5.012755790394426],[102.60577953939739,5.012362394363161]]],[[[102.60370670583514,5.013149186656315],[102.60474312261627,5.013149186656315],[102.60471589345353,5.012362394363161],[102.60230437503155,5.012755790394426],[102.60229538903265,5.013149186656315],[102.60318849744459,5.013149186656315],[102.60318849744459,5.013542583148845],[102.60370670583514,5.013149186656315]]]]},"properties":{"place_id":"b4a78ed1-2a3b-554c-bb31-22dc55402351","habitat":"forest_interior","habitat_label":"Forest interior","resolution_m":50}},{"type":"Feature","geometry":{"type":"MultiPolygon","coordinates":[[[[102.60629774778793,5.013542583148845],[102.60593979999999,5.012958694550886],[102.60678069999999,5.012394894551458],[102.60583650000001,5.011909894551936],[102.60527477082374,5.012362394363161],[102.60577953939739,5.012362394363161],[102.60577953939739,5.012755790394426],[102.60526133100683,5.012755790394426],[102.60526133100683,5.012377934019825],[102.60474312261627,5.012500237717488],[102.60474312261627,5.013149186656315],[102.60370670583514,5.013149186656315],[102.6039268,5.013440894550359],[102.60519280000001,5.013056194550741],[102.60539129999997,5.0134368945503605],[102.60629774778793,5.013542583148845]]],[[[102.60477299443775,5.011968998562502],[102.6039603,5.012020794551836],[102.60331789999998,5.012528494551285],[102.6027292,5.012354794551479],[102.60230437503155,5.012755790394426],[102.60370670583514,5.012755790394426],[102.60370670583514,5.012362394363161],[102.60471589345353,5.012362394363161],[102.60477299443775,5.011968998562502]]],[[[102.60318849744459,5.013149186656315],[102.60229538903265,5.013149186656315],[102.60342659999999,5.013887194549891],[102.60352407427362,5.013542583148845],[102.60318849744459,5.013149186656315]]]]},"properties":{"place_id":"b4a78ed1-2a3b-554c-bb31-22dc55402351","habitat":"forest_edge_opening","habitat_label":"Forest edge or opening","resolution_m":50}},{"type":"Feature","geometry":{"type":"MultiPolygon","coordinates":[[[[102.60606813513847,5.011968998562502],[102.6057386,5.0119045945519405],[102.6056258965796,5.011968998562502],[102.60606813513847,5.011968998562502]]],[[[102.60474312261627,5.012323580314667],[102.6049809,5.012052894551769],[102.6049715,5.011928594551934],[102.60474312261627,5.011986796755023],[102.60474312261627,5.012323580314667]]],[[[102.60284875169991,5.012362394363161],[102.60283110000002,5.012354794551479],[102.60271448806455,5.012362394363161],[102.60284875169991,5.012362394363161]]],[[[102.60370670583514,5.012362394363161],[102.60370670583514,5.012280719122427],[102.60363028060992,5.012362394363161],[102.60370670583514,5.012362394363161]]],[[[102.60629774778793,5.012362394363161],[102.60673369999999,5.01246839455137],[102.60678069999999,5.012394894551458],[102.60629774778793,5.012362394363161]]],[[[102.60474312261627,5.013149186656315],[102.6047629,5.013188894550628],[102.60478841542407,5.013149186656315],[102.60474312261627,5.013149186656315]]],[[[102.60577953939739,5.013149186656315],[102.60526363136808,5.013149186656315],[102.60533499999997,5.0134101945503975],[102.60577953939739,5.013463821221694],[102.60577953939739,5.013149186656315]]],[[[102.60629774778793,5.013542583148845],[102.6058732858541,5.013542583148845],[102.60629774778793,5.0133746347016706],[102.60629774778793,5.013542583148845]]],[[[102.60318849744459,5.013542583148845],[102.60305857523015,5.013542583148845],[102.60318849744459,5.0137257798413595],[102.60318849744459,5.013542583148845]]]]},"properties":{"place_id":"b4a78ed1-2a3b-554c-bb31-22dc55402351","habitat":"permanent_water","habitat_label":"Permanent water","resolution_m":50}},{"type":"Feature","geometry":{"type":"MultiPolygon","coordinates":[[[[102.60577953939739,5.011968998562502],[102.6057386,5.0119045945519405],[102.6056258965796,5.011968998562502],[102.60577953939739,5.011968998562502]]],[[[102.60499700000001,5.011980694551853],[102.60474312261627,5.011986796755023],[102.60474312261627,5.012323580314667],[102.60499700000001,5.011980694551853]]],[[[102.60676520925627,5.012362394363161],[102.60629774778793,5.012493622347412],[102.60677259999999,5.0124415945513805],[102.60676520925627,5.012362394363161]]],[[[102.60577953939739,5.012755790394426],[102.60596149215695,5.013149186656315],[102.60602577299521,5.012755790394426],[102.60577953939739,5.012755790394426]]],[[[102.60474312261627,5.013149186656315],[102.6047629,5.013188894550628],[102.60478841542407,5.013149186656315],[102.60474312261627,5.013149186656315]]]]},"properties":{"place_id":"b4a78ed1-2a3b-554c-bb31-22dc55402351","habitat":"seasonal_water_wetland","habitat_label":"Seasonal water or wetland","resolution_m":50}},{"type":"Feature","geometry":{"type":"MultiPolygon","coordinates":[[[[102.60577953939739,5.013149186656315],[102.60676520925627,5.012362394363161],[102.6062241,5.0120087945518454],[102.6056258965796,5.011968998562502],[102.60488569999997,5.01255119455129],[102.60474312261627,5.011986796755023],[102.6040797,5.011996794551852],[102.60342659999999,5.012503094551344],[102.6026206,5.0124108945514365],[102.60228129999999,5.013088194550737],[102.60342659999999,5.013887194549891],[102.60362910000002,5.013244594550585],[102.60577953939739,5.013149186656315]]],[[[102.60629774778793,5.013542583148845],[102.60621879999998,5.013308694550505],[102.60596149215695,5.013149186656315],[102.60577953939739,5.013149186656315],[102.60629774778793,5.013542583148845]]]]},"properties":{"place_id":"b4a78ed1-2a3b-554c-bb31-22dc55402351","habitat":"water_edge","habitat_label":"Water edge","resolution_m":50}}]}