{"type":"FeatureCollection","metadata":{"schema_version":1,"place_id":"b4da5d1b-a3e1-5932-be5b-86453aa9bfcd","place_name":"City of Digital Lights","place_type":"park","osm_reference":"way/506887350","protection_context":"no protected status confirmed from included OSM tags","resolution_m":50,"raster_coverage":1.0,"interpretation":"Suggested search habitats, not predicted plant locations or probabilities of presence."},"features":[{"type":"Feature","geometry":{"type":"Polygon","coordinates":[[[101.48187269999998,3.065312396608588],[101.48322706465454,3.0651518590441413],[101.4830773,3.0644462966094994],[101.4821931,3.0644539966095015],[101.48187269999998,3.065312396608588]]]},"properties":{"place_id":"b4da5d1b-a3e1-5932-be5b-86453aa9bfcd","habitat":"forest_edge_opening","habitat_label":"Forest edge or opening","resolution_m":50}},{"type":"Feature","geometry":{"type":"Polygon","coordinates":[[[101.48187269999998,3.065312396608588],[101.4832006,3.0657184966081172],[101.4830773,3.0644462966094994],[101.4821931,3.0644539966095015],[101.48187269999998,3.065312396608588]]]},"properties":{"place_id":"b4da5d1b-a3e1-5932-be5b-86453aa9bfcd","habitat":"disturbed_built_edge","habitat_label":"Disturbed, bare or built edge","resolution_m":50}},{"type":"Feature","geometry":{"type":"Polygon","coordinates":[[[101.48230374866192,3.0651518590441413],[101.48230374866192,3.0647593810545226],[101.48197855475871,3.0647593810545226],[101.48187368877524,3.0651518590441413],[101.48230374866192,3.0651518590441413]]]},"properties":{"place_id":"b4da5d1b-a3e1-5932-be5b-86453aa9bfcd","habitat":"water_edge","habitat_label":"Water edge","resolution_m":50}}]}