{"type":"FeatureCollection","metadata":{"schema_version":1,"place_id":"b542146b-a0e3-5bea-b624-786676a3273b","place_name":"Papar River Front","place_type":"park","osm_reference":"way/492705609","protection_context":"no protected status confirmed from included OSM tags","resolution_m":50,"raster_coverage":1.0,"interpretation":"Suggested search habitats, not predicted plant locations or probabilities of presence."},"features":[{"type":"Feature","geometry":{"type":"Polygon","coordinates":[[[115.93377908181114,5.736620473389556],[115.9336066,5.736900493818236],[115.93363250000002,5.736910093818252],[115.93377908181114,5.736620473389556]]]},"properties":{"place_id":"b542146b-a0e3-5bea-b624-786676a3273b","habitat":"forest_edge_opening","habitat_label":"Forest edge or opening","resolution_m":50}},{"type":"Feature","geometry":{"type":"Polygon","coordinates":[[[115.93377908181114,5.736620473389556],[115.93428959999997,5.735270493819871],[115.9343294,5.734729793820422],[115.9338203,5.736113293819038],[115.93377908181114,5.736620473389556]]]},"properties":{"place_id":"b542146b-a0e3-5bea-b624-786676a3273b","habitat":"disturbed_built_edge","habitat_label":"Disturbed, bare or built edge","resolution_m":50}},{"type":"Feature","geometry":{"type":"MultiPolygon","coordinates":[[[[115.93409934461705,5.735752040767223],[115.93440229999999,5.734801693820338],[115.9343294,5.734729793820422],[115.93414310000001,5.7350479938201016],[115.93409934461705,5.735752040767223]]],[[[115.9339215506806,5.736226621919979],[115.9336066,5.736900493818236],[115.93363250000002,5.736910093818252],[115.9339215506806,5.736226621919979]]]]},"properties":{"place_id":"b542146b-a0e3-5bea-b624-786676a3273b","habitat":"permanent_water","habitat_label":"Permanent water","resolution_m":50}},{"type":"Feature","geometry":{"type":"Polygon","coordinates":[[[115.93409934461705,5.735360259982698],[115.93389709999998,5.735866293819305],[115.93378916062863,5.736226621919979],[115.93409934461705,5.735752040767223],[115.93409934461705,5.735360259982698]]]},"properties":{"place_id":"b542146b-a0e3-5bea-b624-786676a3273b","habitat":"water_edge","habitat_label":"Water edge","resolution_m":50}}]}