{"type":"FeatureCollection","metadata":{"schema_version":1,"place_id":"b5c92212-dc5c-5473-9a78-3108321f1bee","place_name":"Taman Bandar Pandan Indah","place_type":"park","osm_reference":"way/234777645","protection_context":"no protected status confirmed from included OSM tags","resolution_m":50,"raster_coverage":1.0,"interpretation":"Suggested search habitats, not predicted plant locations or probabilities of presence."},"features":[{"type":"Feature","geometry":{"type":"Polygon","coordinates":[[[101.75539957048738,3.133445178430119],[101.75539957048738,3.132267670932214],[101.75436315370625,3.132267670932214],[101.75436315370625,3.1326601732882797],[101.75488136209682,3.1326601732882797],[101.75436315370625,3.133445178430119],[101.75539957048738,3.133445178430119]]]},"properties":{"place_id":"b5c92212-dc5c-5473-9a78-3108321f1bee","habitat":"forest_interior","habitat_label":"Forest interior","resolution_m":50}},{"type":"Feature","geometry":{"type":"Polygon","coordinates":[[[101.75420169999998,3.133854996534384],[101.7556047,3.133740496534496],[101.75555,3.1318812965365317],[101.75395889999999,3.1319404965364703],[101.75420169999998,3.133854996534384]],[[101.75436315370625,3.1330526757875754],[101.75488136209682,3.1330526757875754],[101.75436315370625,3.132267670932214],[101.75539957048738,3.132267670932214],[101.75539957048738,3.133445178430119],[101.75436315370625,3.133445178430119],[101.75436315370625,3.1330526757875754]]]},"properties":{"place_id":"b5c92212-dc5c-5473-9a78-3108321f1bee","habitat":"forest_edge_opening","habitat_label":"Forest edge or opening","resolution_m":50}},{"type":"Feature","geometry":{"type":"Polygon","coordinates":[[[101.75420169999998,3.133854996534384],[101.7556047,3.133740496534496],[101.75555,3.1318812965365317],[101.75395889999999,3.1319404965364703],[101.75420169999998,3.133854996534384]],[[101.75436315370625,3.1330526757875754],[101.75488136209682,3.1330526757875754],[101.75436315370625,3.132267670932214],[101.75539957048738,3.132267670932214],[101.75539957048738,3.133445178430119],[101.75436315370625,3.133445178430119],[101.75436315370625,3.1330526757875754]]]},"properties":{"place_id":"b5c92212-dc5c-5473-9a78-3108321f1bee","habitat":"disturbed_built_edge","habitat_label":"Disturbed, bare or built edge","resolution_m":50}}]}