{"type":"FeatureCollection","metadata":{"schema_version":1,"place_id":"b5e0fc56-b19c-51c5-aab6-1aee1c0c515a","place_name":"Pinggiran Senawang 4 Park","place_type":"park","osm_reference":"way/665405743","protection_context":"no protected status confirmed from included OSM tags","resolution_m":50,"raster_coverage":1.0,"interpretation":"Suggested search habitats, not predicted plant locations or probabilities of presence."},"features":[{"type":"Feature","geometry":{"type":"Polygon","coordinates":[[[102.00129785523684,2.653123652038486],[102.00009379999999,2.6528870970570937],[102.00014680000001,2.6544545970553926],[102.001372,2.6546284970551945],[102.00129785523684,2.653123652038486]]]},"properties":{"place_id":"b5e0fc56-b19c-51c5-aab6-1aee1c0c515a","habitat":"forest_edge_opening","habitat_label":"Forest edge or opening","resolution_m":50}},{"type":"Feature","geometry":{"type":"Polygon","coordinates":[[[102.00103034761312,2.654300675251423],[102.00103034761312,2.653123652038486],[102.00051213922255,2.653123652038486],[102.00005280000002,2.654280097055558],[102.00103034761312,2.654300675251423]]]},"properties":{"place_id":"b5e0fc56-b19c-51c5-aab6-1aee1c0c515a","habitat":"open_grassland","habitat_label":"Open grassland or shrubland","resolution_m":50}},{"type":"Feature","geometry":{"type":"MultiPolygon","coordinates":[[[[102.00018442359386,2.653908334059245],[102.00051213922255,2.6535159929882726],[102.00103034761312,2.6535159929882726],[102.00103034761312,2.6545885433095995],[102.001372,2.6546284970551945],[102.00128619999998,2.6528870970570937],[102.00009379999999,2.6528870970570937],[102.00018442359386,2.653908334059245]]],[[[102.00051213922255,2.654300675251423],[102.00006388510334,2.654300675251423],[102.00051213922255,2.6545279426342456],[102.00051213922255,2.654300675251423]]]]},"properties":{"place_id":"b5e0fc56-b19c-51c5-aab6-1aee1c0c515a","habitat":"disturbed_built_edge","habitat_label":"Disturbed, bare or built edge","resolution_m":50}}]}