{"type":"FeatureCollection","metadata":{"schema_version":1,"place_id":"b635bfef-ad34-5178-ac3b-5ab033917efe","place_name":"Dataran Sungai Perak","place_type":"park","osm_reference":"way/491880616","protection_context":"no protected status confirmed from included OSM tags","resolution_m":50,"raster_coverage":1.0,"interpretation":"Suggested search habitats, not predicted plant locations or probabilities of presence."},"features":[{"type":"Feature","geometry":{"type":"MultiPolygon","coordinates":[[[[100.94433590810085,4.772433091622335],[100.94425659999999,4.772423394798599],[100.94425511419549,4.772433091622335],[100.94433590810085,4.772433091622335]]],[[[100.9441345993684,4.773219609419546],[100.94388523086941,4.775185907752291],[100.9429815,4.774741794796215],[100.94309359999998,4.7754258947954815],[100.94394350000002,4.7752024947957405],[100.9442424,4.776486894794393],[100.9447188,4.776384594794498],[100.9441345993684,4.773219609419546]]]]},"properties":{"place_id":"b635bfef-ad34-5178-ac3b-5ab033917efe","habitat":"forest_edge_opening","habitat_label":"Forest edge or opening","resolution_m":50}},{"type":"Feature","geometry":{"type":"MultiPolygon","coordinates":[[[[100.94298983300266,4.774792647646843],[100.94305427455183,4.775185907752291],[100.94336702247885,4.775185907752291],[100.94336702247885,4.774792647646843],[100.94298983300266,4.774792647646843]]],[[[100.94336702247885,4.775185907752291],[100.94388523086941,4.775217811093937],[100.94388523086941,4.775185907752291],[100.94336702247885,4.775185907752291]]],[[[100.94440343925997,4.775579168077221],[100.94403115782971,4.775579168077221],[100.94421419362597,4.776365689385619],[100.94440343925997,4.776365689385619],[100.94440343925997,4.775579168077221]]]]},"properties":{"place_id":"b635bfef-ad34-5178-ac3b-5ab033917efe","habitat":"open_grassland","habitat_label":"Open grassland or shrubland","resolution_m":50}},{"type":"Feature","geometry":{"type":"MultiPolygon","coordinates":[[[[100.94466700206974,4.77597242862166],[100.94440299999998,4.77244129479857],[100.94425659999999,4.772423394798599],[100.9438968,4.774709194796221],[100.9429815,4.774741794796215],[100.94309359999998,4.7754258947954815],[100.94394350000002,4.7752024947957405],[100.94466700206974,4.77597242862166]]],[[[100.94440343925997,4.776452313944119],[100.94421419362597,4.776365689385619],[100.9442424,4.776486894794393],[100.94440343925997,4.776452313944119]]]]},"properties":{"place_id":"b635bfef-ad34-5178-ac3b-5ab033917efe","habitat":"disturbed_built_edge","habitat_label":"Disturbed, bare or built edge","resolution_m":50}},{"type":"Feature","geometry":{"type":"Polygon","coordinates":[[[100.94440343925997,4.774399387760864],[100.94446931390176,4.774399387760864],[100.94440343925997,4.773875211983874],[100.94440343925997,4.774399387760864]]]},"properties":{"place_id":"b635bfef-ad34-5178-ac3b-5ab033917efe","habitat":"permanent_water","habitat_label":"Permanent water","resolution_m":50}},{"type":"Feature","geometry":{"type":"Polygon","coordinates":[[[100.94440343925997,4.774399387760864],[100.94446931390176,4.774399387760864],[100.94440343925997,4.773875211983874],[100.94440343925997,4.774399387760864]]]},"properties":{"place_id":"b635bfef-ad34-5178-ac3b-5ab033917efe","habitat":"seasonal_water_wetland","habitat_label":"Seasonal water or wetland","resolution_m":50}},{"type":"Feature","geometry":{"type":"Polygon","coordinates":[[[100.94388523086941,4.775217811093937],[100.9442424,4.776486894794393],[100.9447188,4.776384594794498],[100.94425659999999,4.772423394798599],[100.94388523086941,4.775217811093937]]]},"properties":{"place_id":"b635bfef-ad34-5178-ac3b-5ab033917efe","habitat":"water_edge","habitat_label":"Water edge","resolution_m":50}}]}