{"type":"FeatureCollection","metadata":{"schema_version":1,"place_id":"b63ddd08-1f79-5a30-8801-7824ca23a6be","place_name":"椰甲富士山（副部长山）","place_type":"park","osm_reference":"way/1255779234","protection_context":"no protected status confirmed from included OSM tags","resolution_m":50,"raster_coverage":1.0,"interpretation":"Suggested search habitats, not predicted plant locations or probabilities of presence."},"features":[{"type":"Feature","geometry":{"type":"Polygon","coordinates":[[[111.49284010000001,2.0436517977256448],[111.49346659999999,2.0437047977255665],[111.4933675,2.0427215977266653],[111.49296759999997,2.042809997726569],[111.49284010000001,2.0436517977256448]]]},"properties":{"place_id":"b63ddd08-1f79-5a30-8801-7824ca23a6be","habitat":"forest_edge_opening","habitat_label":"Forest edge or opening","resolution_m":50}},{"type":"Feature","geometry":{"type":"Polygon","coordinates":[[[111.49280983365935,2.0435609558909147],[111.49305343751237,2.0431687816140616],[111.49285465372867,2.0431687816140616],[111.49280983365935,2.0435609558909147]]]},"properties":{"place_id":"b63ddd08-1f79-5a30-8801-7824ca23a6be","habitat":"open_grassland","habitat_label":"Open grassland or shrubland","resolution_m":50}},{"type":"Feature","geometry":{"type":"Polygon","coordinates":[[[111.49284010000001,2.0436517977256448],[111.49346659999999,2.0437047977255665],[111.4933675,2.0427215977266653],[111.49296759999997,2.042809997726569],[111.49284010000001,2.0436517977256448]]]},"properties":{"place_id":"b63ddd08-1f79-5a30-8801-7824ca23a6be","habitat":"disturbed_built_edge","habitat_label":"Disturbed, bare or built edge","resolution_m":50}}]}