{"type":"FeatureCollection","metadata":{"schema_version":1,"place_id":"b6497066-0fbf-5451-8c3a-ac8e654afae7","place_name":"Taman Kluang Indah · OSM way/675443188","place_type":"park","osm_reference":"way/675443188","protection_context":"no protected status confirmed from included OSM tags","resolution_m":50,"raster_coverage":1.0,"interpretation":"Suggested search habitats, not predicted plant locations or probabilities of presence."},"features":[{"type":"Feature","geometry":{"type":"Polygon","coordinates":[[[103.32660741066725,2.0102264733191473],[103.32608920227668,2.0102264733191473],[103.32608920227668,2.0098343069004443],[103.32660741066725,2.0098343069004443],[103.3261947,2.0096473977631555],[103.3260209,2.009800397762973],[103.32593349999999,2.0102987977624074],[103.32660741066725,2.0102264733191473]]]},"properties":{"place_id":"b6497066-0fbf-5451-8c3a-ac8e654afae7","habitat":"forest_edge_opening","habitat_label":"Forest edge or opening","resolution_m":50}},{"type":"Feature","geometry":{"type":"Polygon","coordinates":[[[103.3271256190578,2.0098343069004443],[103.32601495365364,2.0098343069004443],[103.32594618289635,2.0102264733191473],[103.32711464404527,2.0102264733191473],[103.3271256190578,2.0098343069004443]]]},"properties":{"place_id":"b6497066-0fbf-5451-8c3a-ac8e654afae7","habitat":"open_grassland","habitat_label":"Open grassland or shrubland","resolution_m":50}},{"type":"Feature","geometry":{"type":"Polygon","coordinates":[[[103.32608920227668,2.0098343069004443],[103.32593349999999,2.0102987977624074],[103.32706679999998,2.010499597762175],[103.32718589999998,2.0098278977629227],[103.32608920227668,2.0098343069004443]]]},"properties":{"place_id":"b6497066-0fbf-5451-8c3a-ac8e654afae7","habitat":"disturbed_built_edge","habitat_label":"Disturbed, bare or built edge","resolution_m":50}},{"type":"Feature","geometry":{"type":"Polygon","coordinates":[[[103.32660741066725,2.009722553405813],[103.3261947,2.0096473977631555],[103.32593349999999,2.0102987977624074],[103.32660741066725,2.010418202384787],[103.32660741066725,2.009722553405813]]]},"properties":{"place_id":"b6497066-0fbf-5451-8c3a-ac8e654afae7","habitat":"water_edge","habitat_label":"Water edge","resolution_m":50}}]}