{"type":"FeatureCollection","metadata":{"schema_version":1,"place_id":"b69fc9a7-2d72-5334-8264-465fc46f1574","place_name":"Dataran Banting","place_type":"park","osm_reference":"way/556623368","protection_context":"no protected status confirmed from included OSM tags","resolution_m":50,"raster_coverage":1.0,"interpretation":"Suggested search habitats, not predicted plant locations or probabilities of presence."},"features":[{"type":"Feature","geometry":{"type":"Polygon","coordinates":[[[101.49422254164482,2.802614491404725],[101.49474075003538,2.802614491404725],[101.49474075003538,2.8030068798313432],[101.49525895842594,2.8030068798313432],[101.49516229999999,2.802254296894236],[101.49422254164482,2.802614491404725]]]},"properties":{"place_id":"b69fc9a7-2d72-5334-8264-465fc46f1574","habitat":"forest_edge_opening","habitat_label":"Forest edge or opening","resolution_m":50}},{"type":"Feature","geometry":{"type":"Polygon","coordinates":[[[101.49525895842594,2.8030068798313432],[101.49474075003538,2.8030068798313432],[101.49474075003538,2.8037916570687633],[101.49525895842594,2.8037625154913965],[101.49525895842594,2.8030068798313432]]]},"properties":{"place_id":"b69fc9a7-2d72-5334-8264-465fc46f1574","habitat":"open_grassland","habitat_label":"Open grassland or shrubland","resolution_m":50}},{"type":"Feature","geometry":{"type":"Polygon","coordinates":[[[101.4945605,2.803893796892459],[101.49563809999998,2.8036211968927565],[101.49516229999999,2.802254296894236],[101.4941188,2.8027871968936746],[101.4945605,2.803893796892459]]]},"properties":{"place_id":"b69fc9a7-2d72-5334-8264-465fc46f1574","habitat":"disturbed_built_edge","habitat_label":"Disturbed, bare or built edge","resolution_m":50}}]}