{"type":"FeatureCollection","metadata":{"schema_version":1,"place_id":"b6dfdf35-1064-537c-a906-65502211f7e1","place_name":"Pulau Lubuk Laut","place_type":"wood","osm_reference":"way/724764591","protection_context":"no protected status confirmed from included OSM tags","resolution_m":50,"raster_coverage":1.0,"interpretation":"Suggested search habitats, not predicted plant locations or probabilities of presence."},"features":[{"type":"Feature","geometry":{"type":"MultiPolygon","coordinates":[[[[102.58867866250887,5.0591781463521714],[102.58816045411834,5.0591781463521714],[102.58816045411834,5.059571569957383],[102.58867866250887,5.059571569957383],[102.58867866250887,5.0591781463521714]]],[[[102.58764224572776,5.060358417866292],[102.58816045411834,5.060358417866292],[102.58816045411834,5.059571569957383],[102.58764224572776,5.059571569957383],[102.58764224572776,5.060358417866292]]],[[[102.58867866250887,5.060391068562693],[102.58816045411834,5.060358417866292],[102.58816045411834,5.060751842170028],[102.58867866250887,5.060751842170028],[102.58867866250887,5.060391068562693]]]]},"properties":{"place_id":"b6dfdf35-1064-537c-a906-65502211f7e1","habitat":"forest_interior","habitat_label":"Forest interior","resolution_m":50}},{"type":"Feature","geometry":{"type":"Polygon","coordinates":[[[102.58867866250887,5.060751842170028],[102.58816045411834,5.060751842170028],[102.58816045411834,5.060358417866292],[102.5886581624871,5.060358417866292],[102.58939059999999,5.058012794504692],[102.58726799999998,5.059523294503151],[102.5872207,5.0605857945020505],[102.58840889999998,5.060915694501716],[102.5884759,5.061568994501071],[102.5889561,5.061595694501018],[102.5891384,5.060860894501759],[102.58867866250887,5.060391068562693],[102.58867866250887,5.060751842170028]],[[102.58764224572776,5.060358417866292],[102.58764224572776,5.059571569957383],[102.58816045411834,5.059571569957383],[102.58816045411834,5.060358417866292],[102.58764224572776,5.060358417866292]],[[102.58816045411834,5.0591781463521714],[102.58867866250887,5.0591781463521714],[102.58867866250887,5.059571569957383],[102.58816045411834,5.059571569957383],[102.58816045411834,5.0591781463521714]]]},"properties":{"place_id":"b6dfdf35-1064-537c-a906-65502211f7e1","habitat":"forest_edge_opening","habitat_label":"Forest edge or opening","resolution_m":50}},{"type":"Feature","geometry":{"type":"MultiPolygon","coordinates":[[[[102.58919687089944,5.0583912998401415],[102.58919687089944,5.0580775653163075],[102.58885452070008,5.0583912998401415],[102.58919687089944,5.0583912998401415]]],[[[102.58919687089944,5.0583912998401415],[102.58951659999997,5.058458994504223],[102.58957946507647,5.0583912998401415],[102.58919687089944,5.0583912998401415]]],[[[102.58816045411834,5.0591781463521714],[102.58816045411834,5.0591642675133945],[102.58814471736386,5.0591781463521714],[102.58816045411834,5.0591781463521714]]],[[[102.58867866250887,5.059571569957383],[102.58872939999999,5.059618594503038],[102.58876469506492,5.059571569957383],[102.58867866250887,5.059571569957383]]],[[[102.5871240373372,5.060248867322828],[102.58711339999999,5.060371994502263],[102.5871240373372,5.06040035220953],[102.5871240373372,5.060248867322828]]],[[[102.58816045411834,5.060751842170028],[102.58759122525173,5.060751842170028],[102.58816045411834,5.060936018962095],[102.58816045411834,5.060751842170028]]],[[[102.58846020286525,5.061538691476149],[102.5887468,5.06161299450099],[102.58907363078657,5.061538691476149],[102.58846020286525,5.061538691476149]]]]},"properties":{"place_id":"b6dfdf35-1064-537c-a906-65502211f7e1","habitat":"permanent_water","habitat_label":"Permanent water","resolution_m":50}},{"type":"Feature","geometry":{"type":"MultiPolygon","coordinates":[[[[102.58764224572776,5.060751842170028],[102.58759122525173,5.060751842170028],[102.58764224572776,5.060780359694682],[102.58764224572776,5.060751842170028]]],[[[102.58867866250887,5.061538691476149],[102.58846020286525,5.061538691476149],[102.58867866250887,5.061611815023781],[102.58867866250887,5.061538691476149]]]]},"properties":{"place_id":"b6dfdf35-1064-537c-a906-65502211f7e1","habitat":"seasonal_water_wetland","habitat_label":"Seasonal water or wetland","resolution_m":50}},{"type":"Feature","geometry":{"type":"MultiPolygon","coordinates":[[[[102.58919687089944,5.0580775653163075],[102.58957946507647,5.0583912998401415],[102.58939059999999,5.058012794504692],[102.58919687089944,5.0580775653163075]]],[[[102.58919687089944,5.0583912998401415],[102.5873065,5.059451594503236],[102.587155,5.060482894502161],[102.58840889999998,5.060915694501716],[102.58846020286525,5.061538691476149],[102.58907363078657,5.061538691476149],[102.58860599999998,5.059842994502813],[102.58919687089944,5.0583912998401415]]]]},"properties":{"place_id":"b6dfdf35-1064-537c-a906-65502211f7e1","habitat":"water_edge","habitat_label":"Water edge","resolution_m":50}}]}