{"type":"FeatureCollection","metadata":{"schema_version":1,"place_id":"b6ecef91-902d-52de-bfb2-53d72d0a1690","place_name":"Tanah Lapang Persiaran Bukit Jambul","place_type":"park","osm_reference":"way/693026998","protection_context":"no protected status confirmed from included OSM tags","resolution_m":50,"raster_coverage":1.0,"interpretation":"Suggested search habitats, not predicted plant locations or probabilities of presence."},"features":[{"type":"Feature","geometry":{"type":"Polygon","coordinates":[[[100.27591461543675,5.346670809328824],[100.27537941193411,5.346440523275773],[100.2755492,5.346751294210561],[100.27591461543675,5.346670809328824]]]},"properties":{"place_id":"b6ecef91-902d-52de-bfb2-53d72d0a1690","habitat":"forest_interior","habitat_label":"Forest interior","resolution_m":50}},{"type":"Feature","geometry":{"type":"Polygon","coordinates":[[[100.27537941193411,5.346440523275773],[100.27611989999998,5.346625594210683],[100.27623079999998,5.345667094211671],[100.27487819865563,5.345432590844032],[100.27537941193411,5.346440523275773]]]},"properties":{"place_id":"b6ecef91-902d-52de-bfb2-53d72d0a1690","habitat":"forest_edge_opening","habitat_label":"Forest edge or opening","resolution_m":50}},{"type":"Feature","geometry":{"type":"Polygon","coordinates":[[[100.27539640704619,5.346440523275773],[100.27539640704619,5.34604692503223],[100.27591461543675,5.34604692503223],[100.27611989999998,5.346625594210683],[100.27636489999999,5.345908794211411],[100.275233,5.34531999421201],[100.2748009,5.345463494211878],[100.27539640704619,5.346440523275773]]]},"properties":{"place_id":"b6ecef91-902d-52de-bfb2-53d72d0a1690","habitat":"disturbed_built_edge","habitat_label":"Disturbed, bare or built edge","resolution_m":50}},{"type":"Feature","geometry":{"type":"Polygon","coordinates":[[[100.27591461543675,5.34604692503223],[100.27591461543675,5.3456533270349915],[100.27539640704619,5.3456533270349915],[100.27539640704619,5.34604692503223],[100.27591461543675,5.34604692503223]]]},"properties":{"place_id":"b6ecef91-902d-52de-bfb2-53d72d0a1690","habitat":"permanent_water","habitat_label":"Permanent water","resolution_m":50}},{"type":"Feature","geometry":{"type":"Polygon","coordinates":[[[100.27487819865563,5.345635522787588],[100.27591461543675,5.346670809328824],[100.27636489999999,5.345908794211411],[100.27623079999998,5.345667094211671],[100.275233,5.34531999421201],[100.27487819865563,5.345635522787588]],[[100.27539640704619,5.3456533270349915],[100.27591461543675,5.3456533270349915],[100.27591461543675,5.34604692503223],[100.27539640704619,5.34604692503223],[100.27539640704619,5.3456533270349915]]]},"properties":{"place_id":"b6ecef91-902d-52de-bfb2-53d72d0a1690","habitat":"water_edge","habitat_label":"Water edge","resolution_m":50}}]}