{"type":"FeatureCollection","metadata":{"schema_version":1,"place_id":"b74b981d-b1f2-51e3-a144-507bc91f2642","place_name":"Penang Botanic Gardens","place_type":"park","osm_reference":"way/325187723","protection_context":"mapped protected boundary","resolution_m":50,"raster_coverage":1.0,"interpretation":"Suggested search habitats, not predicted plant locations or probabilities of presence."},"features":[{"type":"Feature","geometry":{"type":"MultiPolygon","coordinates":[[[[100.290942658763,5.438549324545331],[100.29042445037244,5.439328593893368],[100.2910993,5.439249194117022],[100.2934637,5.437599994118691],[100.29307319999998,5.436584194119699],[100.29405190910637,5.4354000804493925],[100.29353370071581,5.435275336619717],[100.29197907554412,5.436400763952998],[100.29197907554412,5.4373683561298565],[100.29042445037244,5.438155668156197],[100.29042445037244,5.438549324545331],[100.290942658763,5.438549324545331]]],[[[100.28679699163852,5.4393366380756225],[100.28679699163852,5.439217401261551],[100.2864468058015,5.4393366380756225],[100.28679699163852,5.4393366380756225]]],[[[100.28576057485739,5.440123952608735],[100.28549339598676,5.440911268144812],[100.28604659999999,5.4415561941147],[100.288058,5.441664394114585],[100.29039600941233,5.4393366380756225],[100.28938803359132,5.438942981185135],[100.28938803359132,5.438549324545331],[100.28990624198187,5.438549324545331],[100.29042445037244,5.4377620120177115],[100.28736289999999,5.4387629941175],[100.28731520002908,5.4393366380756225],[100.28783340841963,5.4393366380756225],[100.28783340841963,5.438942981185135],[100.28886982520076,5.438942981185135],[100.28886982520076,5.4393366380756225],[100.28938803359132,5.4393366380756225],[100.28886982520076,5.440123952608735],[100.28783340841963,5.440123952608735],[100.28783340841963,5.439730295216817],[100.28679699163852,5.440123952608735],[100.28627878324797,5.4393938490611005],[100.28526150000002,5.439756694116527],[100.28531026797246,5.440123952608735],[100.28576057485739,5.440123952608735]]]]},"properties":{"place_id":"b74b981d-b1f2-51e3-a144-507bc91f2642","habitat":"forest_interior","habitat_label":"Forest interior","resolution_m":50}},{"type":"Feature","geometry":{"type":"MultiPolygon","coordinates":[[[[100.29353370071581,5.4354000804493925],[100.29405190910637,5.4354000804493925],[100.29431769999998,5.43585349412046],[100.2954292,5.435108194121214],[100.294859,5.434495994121818],[100.29353370071581,5.4354000804493925]]],[[[100.29146086715357,5.4377620120177115],[100.29146086715357,5.4373683561298565],[100.29197907554412,5.4373683561298565],[100.29197907554412,5.436400763952998],[100.29095749999999,5.437588194118712],[100.2902769650531,5.4377620120177115],[100.29042445037244,5.438155668156197],[100.29146086715357,5.4377620120177115]]],[[[100.290942658763,5.438942981185135],[100.29042445037244,5.438155668156197],[100.28938803359132,5.438549324545331],[100.28990624198187,5.4393366380756225],[100.290942658763,5.438942981185135]]],[[[100.28783340841963,5.440123952608735],[100.28886982520076,5.440123952608735],[100.28938803359132,5.4393366380756225],[100.28886982520076,5.4393366380756225],[100.28886982520076,5.438942981185135],[100.28783340841963,5.438942981185135],[100.28783340841963,5.4393366380756225],[100.28627878324797,5.4393938490611005],[100.28679699163852,5.440123952608735],[100.28731520002908,5.440123952608735],[100.28731520002908,5.439730295216817],[100.28783340841963,5.439730295216817],[100.28783340841963,5.440123952608735]]],[[[100.28549339598676,5.440911268144812],[100.28576057485739,5.440123952608735],[100.28531026797246,5.440123952608735],[100.28549339598676,5.440911268144812]]]]},"properties":{"place_id":"b74b981d-b1f2-51e3-a144-507bc91f2642","habitat":"forest_edge_opening","habitat_label":"Forest edge or opening","resolution_m":50}},{"type":"Feature","geometry":{"type":"MultiPolygon","coordinates":[[[[100.29146086715357,5.4373683561298565],[100.29146086715357,5.437006442131792],[100.29120178077251,5.4373683561298565],[100.29146086715357,5.4373683561298565]]],[[[100.28990624198187,5.438549324545331],[100.28990624198187,5.438942981185135],[100.29042445037244,5.438942981185135],[100.29042445037244,5.438549324545331],[100.28990624198187,5.438549324545331]]],[[[100.28679699163852,5.4393366380756225],[100.28679699163852,5.439730295216817],[100.28731520002908,5.439730295216817],[100.28731520002908,5.4393366380756225],[100.28679699163852,5.4393366380756225]]],[[[100.28783340841963,5.4393366380756225],[100.28783340841963,5.439730295216817],[100.28886982520076,5.439730295216817],[100.28886982520076,5.4393366380756225],[100.28783340841963,5.4393366380756225]]]]},"properties":{"place_id":"b74b981d-b1f2-51e3-a144-507bc91f2642","habitat":"open_grassland","habitat_label":"Open grassland or shrubland","resolution_m":50}},{"type":"Feature","geometry":{"type":"MultiPolygon","coordinates":[[[[100.29353370071581,5.4354000804493925],[100.29405190910637,5.4354000804493925],[100.29431769999998,5.43585349412046],[100.2954292,5.435108194121214],[100.294859,5.434495994121818],[100.29353370071581,5.4354000804493925]]],[[[100.29197907554412,5.436581045105965],[100.29197907554412,5.436400763952998],[100.29176642323937,5.436581045105965],[100.29197907554412,5.436581045105965]]],[[[100.29146086715357,5.4377620120177115],[100.29146086715357,5.437006442131792],[100.2902769650531,5.4377620120177115],[100.29042445037244,5.438155668156197],[100.29146086715357,5.4377620120177115]]]]},"properties":{"place_id":"b74b981d-b1f2-51e3-a144-507bc91f2642","habitat":"disturbed_built_edge","habitat_label":"Disturbed, bare or built edge","resolution_m":50}},{"type":"Feature","geometry":{"type":"Polygon","coordinates":[[[100.28576057485739,5.440911268144812],[100.28627878324797,5.440911268144812],[100.28627878324797,5.440123952608735],[100.28533394714655,5.439730295216817],[100.28576057485739,5.441254246833547],[100.28576057485739,5.440911268144812]]]},"properties":{"place_id":"b74b981d-b1f2-51e3-a144-507bc91f2642","habitat":"water_edge","habitat_label":"Water edge","resolution_m":50}}]}