{"type":"FeatureCollection","metadata":{"schema_version":1,"place_id":"b7c7b174-ad4f-58de-af64-50d298f289c7","place_name":"Sibu Lake Garden","place_type":"park","osm_reference":"way/704477578","protection_context":"no protected status confirmed from included OSM tags","resolution_m":50,"raster_coverage":1.0,"interpretation":"Suggested search habitats, not predicted plant locations or probabilities of presence."},"features":[{"type":"Feature","geometry":{"type":"MultiPolygon","coordinates":[[[[111.8915556898535,2.299448305378858],[111.89207389824406,2.2996714975126795],[111.89207389824406,2.2993740229468624],[111.8915556898535,2.299448305378858]]],[[[111.89000106468181,2.3012404544546445],[111.8915556898535,2.300455975773688],[111.8915556898535,2.2996714975126795],[111.89103748146294,2.2996714975126795],[111.88916425597984,2.3020249335556926],[111.89000106468181,2.3016326939526475],[111.89000106468181,2.3012404544546445]]],[[[111.88948285629127,2.3028094130769756],[111.8890601401879,2.3028094130769756],[111.88948285629127,2.303102869547432],[111.88948285629127,2.3028094130769756]]],[[[111.88962515115523,2.3032016529952513],[111.89000106468181,2.303462618414288],[111.89000106468181,2.3032016529952513],[111.88962515115523,2.3032016529952513]]],[[[111.89311031502518,2.3032016529952513],[111.89259210663461,2.3032016529952513],[111.89259210663461,2.303986133147157],[111.89362852341574,2.3043783733808247],[111.89362852341574,2.3035938930186384],[111.89311031502518,2.3035938930186384],[111.89311031502518,2.3032016529952513]]],[[[111.89051927307237,2.303986133147157],[111.89044314185742,2.303986133147157],[111.89051927307237,2.3047673413978553],[111.89051927307237,2.303986133147157]]]]},"properties":{"place_id":"b7c7b174-ad4f-58de-af64-50d298f289c7","habitat":"forest_interior","habitat_label":"Forest interior","resolution_m":50}},{"type":"Feature","geometry":{"type":"MultiPolygon","coordinates":[[[[111.89074085973162,2.3000637365906993],[111.89103748146294,2.2996714975126795],[111.8915556898535,2.299448305378858],[111.89104159999998,2.2995219974440704],[111.89074085973162,2.3000637365906993]]],[[[111.89103748146294,2.300455975773688],[111.89103748146294,2.300848215061664],[111.88948285629127,2.3016326939526475],[111.8889698,2.3027466974405333],[111.89042049999999,2.3037537974394398],[111.89056819999999,2.3052693974377507],[111.8915556898535,2.3051628541636777],[111.8915556898535,2.3043783733808247],[111.89362852341574,2.305000609104152],[111.89387642251373,2.304770613719659],[111.89341691646878,2.3016326939526475],[111.89207389824406,2.3020249335556926],[111.89207389824406,2.3028094130769756],[111.8915556898535,2.3028094130769756],[111.8915556898535,2.3032016529952513],[111.89051927307237,2.3032016529952513],[111.89051927307237,2.3028094130769756],[111.89000106468181,2.3028094130769756],[111.89000106468181,2.3020249335556926],[111.89103748146294,2.3020249335556926],[111.89207389824406,2.300455975773688],[111.89311031502518,2.300848215061664],[111.89311059999999,2.299613197443967],[111.8927703,2.2992741974443276],[111.89207389824406,2.2993740229468624],[111.89207389824406,2.2996714975126795],[111.8915556898535,2.2996714975126795],[111.8915556898535,2.300455975773688],[111.89103748146294,2.300455975773688]],[[111.89259210663461,2.303986133147157],[111.89259210663461,2.3032016529952513],[111.89311031502518,2.3032016529952513],[111.89311031502518,2.3035938930186384],[111.89362852341574,2.3035938930186384],[111.89362852341574,2.3043783733808247],[111.89259210663461,2.303986133147157]],[[111.8915556898535,2.3035938930186384],[111.8915556898535,2.303986133147157],[111.89103748146294,2.303986133147157],[111.89103748146294,2.3035938930186384],[111.8915556898535,2.3035938930186384]]]]},"properties":{"place_id":"b7c7b174-ad4f-58de-af64-50d298f289c7","habitat":"forest_edge_opening","habitat_label":"Forest edge or opening","resolution_m":50}},{"type":"Feature","geometry":{"type":"MultiPolygon","coordinates":[[[[111.89347400883285,2.3020249335556926],[111.89311031502518,2.300455975773688],[111.89259210663461,2.300455975773688],[111.89259210663461,2.2996714975126795],[111.89207389824406,2.2996714975126795],[111.89207389824406,2.300455975773688],[111.89103748146294,2.300848215061664],[111.89103748146294,2.3012404544546445],[111.89207389824406,2.3012404544546445],[111.8915556898535,2.3020249335556926],[111.89347400883285,2.3020249335556926]]],[[[111.89311031502518,2.3043783733808247],[111.8915556898535,2.3043783733808247],[111.8915556898535,2.3051628541636777],[111.89311031502518,2.305037792229253],[111.89311031502518,2.3043783733808247]]]]},"properties":{"place_id":"b7c7b174-ad4f-58de-af64-50d298f289c7","habitat":"open_grassland","habitat_label":"Open grassland or shrubland","resolution_m":50}},{"type":"Feature","geometry":{"type":"MultiPolygon","coordinates":[[[[111.8915556898535,2.2996714975126795],[111.89104159999998,2.2995219974440704],[111.89074085973162,2.3000637365906993],[111.89103748146294,2.2996714975126795],[111.8915556898535,2.2996714975126795]]],[[[111.89259210663461,2.3016326939526475],[111.89207389824406,2.300848215061664],[111.89103748146294,2.3012404544546445],[111.8915556898535,2.3020249335556926],[111.89259210663461,2.3016326939526475]]],[[[111.89051927307237,2.3028094130769756],[111.89051927307237,2.3020249335556926],[111.89103748146294,2.3020249335556926],[111.89103748146294,2.3016326939526475],[111.89000106468181,2.3012404544546445],[111.8889698,2.3027466974405333],[111.88962515115523,2.3032016529952513],[111.89051927307237,2.3028094130769756]]],[[[111.89259210663461,2.2996714975126795],[111.89207389824406,2.2996714975126795],[111.89207389824406,2.3000637365906993],[111.89259210663461,2.3000637365906993],[111.89259210663461,2.3012404544546445],[111.89311031502518,2.3012404544546445],[111.89311031502518,2.3028094130769756],[111.89207389824406,2.3024171732637955],[111.89207389824406,2.3028094130769756],[111.8915556898535,2.3028094130769756],[111.8915556898535,2.3035938930186384],[111.89051927307237,2.3032016529952513],[111.89019016212256,2.3035938930186384],[111.89056819999999,2.3052693974377507],[111.8939016,2.3049469974381003],[111.8927703,2.2992741974443276],[111.89259210663461,2.2996714975126795]],[[111.89259210663461,2.3032016529952513],[111.89362852341574,2.3035938930186384],[111.89362852341574,2.3043783733808247],[111.89311031502518,2.3043783733808247],[111.89311031502518,2.304770613719659],[111.89207389824406,2.304770613719659],[111.89259210663461,2.3032016529952513]]]]},"properties":{"place_id":"b7c7b174-ad4f-58de-af64-50d298f289c7","habitat":"disturbed_built_edge","habitat_label":"Disturbed, bare or built edge","resolution_m":50}},{"type":"Feature","geometry":{"type":"Polygon","coordinates":[[[111.89207389824406,2.3043783733808247],[111.89207389824406,2.303986133147157],[111.8915556898535,2.303986133147157],[111.8915556898535,2.3032016529952513],[111.89259210663461,2.3028094130769756],[111.89259210663461,2.3020249335556926],[111.8915556898535,2.3020249335556926],[111.8915556898535,2.3012404544546445],[111.89103748146294,2.3012404544546445],[111.89103748146294,2.3016326939526475],[111.89000106468181,2.3016326939526475],[111.88948285629127,2.3024171732637955],[111.89000106468181,2.3024171732637955],[111.89000106468181,2.3032016529952513],[111.89103748146294,2.3035938930186384],[111.89103748146294,2.3043783733808247],[111.89207389824406,2.3043783733808247]]]},"properties":{"place_id":"b7c7b174-ad4f-58de-af64-50d298f289c7","habitat":"permanent_water","habitat_label":"Permanent water","resolution_m":50}},{"type":"Feature","geometry":{"type":"MultiPolygon","coordinates":[[[[111.89051927307237,2.3020249335556926],[111.89000106468181,2.3020249335556926],[111.89000106468181,2.3028094130769756],[111.89051927307237,2.3028094130769756],[111.89051927307237,2.3020249335556926]]],[[[111.89207389824406,2.3020249335556926],[111.8915556898535,2.3020249335556926],[111.89103748146294,2.3028094130769756],[111.89207389824406,2.3028094130769756],[111.89207389824406,2.3020249335556926]]]]},"properties":{"place_id":"b7c7b174-ad4f-58de-af64-50d298f289c7","habitat":"seasonal_water_wetland","habitat_label":"Seasonal water or wetland","resolution_m":50}},{"type":"Feature","geometry":{"type":"Polygon","coordinates":[[[111.89103748146294,2.304770613719659],[111.89103748146294,2.3051628541636777],[111.89207389824406,2.305146038129341],[111.89259210663461,2.3043783733808247],[111.89311031502518,2.3043783733808247],[111.89311031502518,2.303986133147157],[111.89259210663461,2.303986133147157],[111.89259210663461,2.3032016529952513],[111.89359116376839,2.3028094130769756],[111.89347400883285,2.3020249335556926],[111.89207389824406,2.3012404544546445],[111.89207389824406,2.300848215061664],[111.8915556898535,2.300848215061664],[111.8915556898535,2.300455975773688],[111.89103748146294,2.300455975773688],[111.89103748146294,2.300848215061664],[111.89006464525366,2.300848215061664],[111.8889698,2.3027466974405333],[111.89042049999999,2.3037537974394398],[111.89051959197042,2.304770613719659],[111.89103748146294,2.304770613719659]],[[111.89103748146294,2.3035938930186384],[111.89000106468181,2.3032016529952513],[111.89000106468181,2.3024171732637955],[111.88948285629127,2.3024171732637955],[111.88948285629127,2.3020249335556926],[111.8915556898535,2.3012404544546445],[111.8915556898535,2.3020249335556926],[111.89259210663461,2.3020249335556926],[111.89259210663461,2.3028094130769756],[111.8915556898535,2.3032016529952513],[111.8915556898535,2.303986133147157],[111.89207389824406,2.303986133147157],[111.89207389824406,2.3043783733808247],[111.89103748146294,2.3043783733808247],[111.89103748146294,2.3035938930186384]]]},"properties":{"place_id":"b7c7b174-ad4f-58de-af64-50d298f289c7","habitat":"water_edge","habitat_label":"Water edge","resolution_m":50}}]}