{"type":"FeatureCollection","metadata":{"schema_version":1,"place_id":"b7c97e33-50b2-531f-bf6d-5f751fe895a2","place_name":"The Park · OSM way/1185514542","place_type":"park","osm_reference":"way/1185514542","protection_context":"no protected status confirmed from included OSM tags","resolution_m":50,"raster_coverage":1.0,"interpretation":"Suggested search habitats, not predicted plant locations or probabilities of presence."},"features":[{"type":"Feature","geometry":{"type":"Polygon","coordinates":[[[101.6362237,3.1181347965514163],[101.63651659999996,3.118212396551301],[101.6361965,3.1178415965517083],[101.6362237,3.1181347965514163]]]},"properties":{"place_id":"b7c97e33-50b2-531f-bf6d-5f751fe895a2","habitat":"disturbed_built_edge","habitat_label":"Disturbed, bare or built edge","resolution_m":50}}]}