{"type":"FeatureCollection","metadata":{"schema_version":1,"place_id":"b848af6c-1606-5ed7-939a-3067bcc63eef","place_name":"Dataran Bukti Bakri","place_type":"park","osm_reference":"way/734821758","protection_context":"no protected status confirmed from included OSM tags","resolution_m":50,"raster_coverage":1.0,"interpretation":"Suggested search habitats, not predicted plant locations or probabilities of presence."},"features":[{"type":"Feature","geometry":{"type":"Polygon","coordinates":[[[102.65967321201569,2.0412079116274784],[102.66069370000001,2.041046197728513],[102.66019142040626,2.0408157379095724],[102.66017389999998,2.0392557977304797],[102.6591278,2.0395184977302123],[102.65967321201569,2.0412079116274784]]]},"properties":{"place_id":"b848af6c-1606-5ed7-939a-3067bcc63eef","habitat":"forest_edge_opening","habitat_label":"Forest edge or opening","resolution_m":50}},{"type":"Feature","geometry":{"type":"MultiPolygon","coordinates":[[[[102.65915500362513,2.0396392173143525],[102.65915218589936,2.0396392173143525],[102.65915500362513,2.0396531661416435],[102.65915500362513,2.0396392173143525]]],[[[102.66019142040626,2.0408157379095724],[102.66057489172387,2.0404235642847617],[102.66017389999998,2.0392557977304797],[102.65967321201569,2.039381532103762],[102.65938984826192,2.0408157379095724],[102.66019142040626,2.0408157379095724]]]]},"properties":{"place_id":"b848af6c-1606-5ed7-939a-3067bcc63eef","habitat":"open_grassland","habitat_label":"Open grassland or shrubland","resolution_m":50}},{"type":"Feature","geometry":{"type":"MultiPolygon","coordinates":[[[[102.65915500362513,2.0396392173143525],[102.6591278,2.0395184977302123],[102.65915218589936,2.0396392173143525],[102.65915500362513,2.0396392173143525]]],[[[102.66019142040626,2.0404235642847617],[102.6593106274744,2.0404235642847617],[102.65947650000001,2.041244697728292],[102.66069370000001,2.041046197728513],[102.66019142040626,2.039293159815024],[102.66019142040626,2.0404235642847617]]]]},"properties":{"place_id":"b848af6c-1606-5ed7-939a-3067bcc63eef","habitat":"disturbed_built_edge","habitat_label":"Disturbed, bare or built edge","resolution_m":50}}]}