{"type":"FeatureCollection","metadata":{"schema_version":1,"place_id":"b8cbeb48-7d44-5cda-98a9-84d403bc84f8","place_name":"Park Bintang","place_type":"park","osm_reference":"way/734790700","protection_context":"no protected status confirmed from included OSM tags","resolution_m":50,"raster_coverage":1.0,"interpretation":"Suggested search habitats, not predicted plant locations or probabilities of presence."},"features":[{"type":"Feature","geometry":{"type":"Polygon","coordinates":[[[102.6358356260499,1.9612063757760552],[102.6357346,1.960788997817051],[102.63552029999998,1.961065597816752],[102.63627259999998,1.961647797816108],[102.6364869,1.9613711978163964],[102.6358356260499,1.9612063757760552]]]},"properties":{"place_id":"b8cbeb48-7d44-5cda-98a9-84d403bc84f8","habitat":"forest_edge_opening","habitat_label":"Forest edge or opening","resolution_m":50}},{"type":"Feature","geometry":{"type":"Polygon","coordinates":[[[102.6358356260499,1.9608671811981029],[102.63620893897732,1.9615985309636577],[102.63631077023062,1.9615985309636577],[102.6358356260499,1.9608671811981029]]]},"properties":{"place_id":"b8cbeb48-7d44-5cda-98a9-84d403bc84f8","habitat":"open_grassland","habitat_label":"Open grassland or shrubland","resolution_m":50}},{"type":"Feature","geometry":{"type":"Polygon","coordinates":[[[102.63627259999998,1.961647797816108],[102.6364869,1.9613711978163964],[102.6357346,1.960788997817051],[102.63552029999998,1.961065597816752],[102.63627259999998,1.961647797816108]]]},"properties":{"place_id":"b8cbeb48-7d44-5cda-98a9-84d403bc84f8","habitat":"disturbed_built_edge","habitat_label":"Disturbed, bare or built edge","resolution_m":50}}]}