{"type":"FeatureCollection","metadata":{"schema_version":1,"place_id":"b9195f6a-e4bc-5b29-9156-796f971e3dc5","place_name":"Lingga Waterfront Park","place_type":"park","osm_reference":"way/1442508737","protection_context":"no protected status confirmed from included OSM tags","resolution_m":50,"raster_coverage":1.0,"interpretation":"Suggested search habitats, not predicted plant locations or probabilities of presence."},"features":[{"type":"Feature","geometry":{"type":"Polygon","coordinates":[[[111.16860869999996,1.354149898489014],[111.1691315,1.3547386984883623],[111.1693149,1.3549249984881648],[111.16860869999996,1.354149898489014]]]},"properties":{"place_id":"b9195f6a-e4bc-5b29-9156-796f971e3dc5","habitat":"forest_edge_opening","habitat_label":"Forest edge or opening","resolution_m":50}},{"type":"Feature","geometry":{"type":"Polygon","coordinates":[[[111.16860869999996,1.354149898489014],[111.1693149,1.3549249984881648],[111.1694321,1.354714698488381],[111.16860869999996,1.354149898489014]]]},"properties":{"place_id":"b9195f6a-e4bc-5b29-9156-796f971e3dc5","habitat":"disturbed_built_edge","habitat_label":"Disturbed, bare or built edge","resolution_m":50}},{"type":"Feature","geometry":{"type":"MultiPolygon","coordinates":[[[[111.16865498502142,1.3542463072215802],[111.1685846,1.3544592984886468],[111.16865498502142,1.354508479863478],[111.16865498502142,1.3542463072215802]]],[[[111.16917319341196,1.354638345399992],[111.16884083969242,1.354638345399992],[111.16917319341196,1.3548428825010363],[111.16917319341196,1.354638345399992]]]]},"properties":{"place_id":"b9195f6a-e4bc-5b29-9156-796f971e3dc5","habitat":"permanent_water","habitat_label":"Permanent water","resolution_m":50}},{"type":"Feature","geometry":{"type":"Polygon","coordinates":[[[111.16860869999996,1.354149898489014],[111.1693149,1.3549249984881648],[111.1694321,1.354714698488381],[111.16860869999996,1.354149898489014]]]},"properties":{"place_id":"b9195f6a-e4bc-5b29-9156-796f971e3dc5","habitat":"water_edge","habitat_label":"Water edge","resolution_m":50}}]}