{"type":"FeatureCollection","metadata":{"schema_version":1,"place_id":"ba0f4ff8-bdf1-59c5-823b-db8bb142fa7f","place_name":"Skate Park Bandar Baru Salak Tinggi","place_type":"park","osm_reference":"way/700246543","protection_context":"no protected status confirmed from included OSM tags","resolution_m":50,"raster_coverage":1.0,"interpretation":"Suggested search habitats, not predicted plant locations or probabilities of presence."},"features":[{"type":"Feature","geometry":{"type":"Polygon","coordinates":[[[101.73920219999997,2.8121240968834904],[101.7398428,2.8126965968828688],[101.74015159999999,2.811179596884541],[101.7394427,2.8111771968844983],[101.73920219999997,2.8121240968834904]]]},"properties":{"place_id":"ba0f4ff8-bdf1-59c5-823b-db8bb142fa7f","habitat":"forest_edge_opening","habitat_label":"Forest edge or opening","resolution_m":50}},{"type":"Feature","geometry":{"type":"Polygon","coordinates":[[[101.73985331877056,2.8120318490234073],[101.73933511038,2.8120318490234073],[101.7398428,2.8126965968828688],[101.73985331877056,2.8126628325203047],[101.73985331877056,2.8120318490234073]]]},"properties":{"place_id":"ba0f4ff8-bdf1-59c5-823b-db8bb142fa7f","habitat":"open_grassland","habitat_label":"Open grassland or shrubland","resolution_m":50}},{"type":"Feature","geometry":{"type":"Polygon","coordinates":[[[101.73920219999997,2.8121240968834904],[101.7398428,2.8126965968828688],[101.74015159999999,2.811179596884541],[101.7394427,2.8111771968844983],[101.73920219999997,2.8121240968834904]]]},"properties":{"place_id":"ba0f4ff8-bdf1-59c5-823b-db8bb142fa7f","habitat":"disturbed_built_edge","habitat_label":"Disturbed, bare or built edge","resolution_m":50}}]}