{"type":"FeatureCollection","metadata":{"schema_version":1,"place_id":"ba299456-9a8e-52cf-9505-c4fb7301d9b6","place_name":"Block A- KOPEL Forest Restoration","place_type":"forest","osm_reference":"way/396408335","protection_context":"no protected status confirmed from included OSM tags","resolution_m":50,"raster_coverage":1.0,"interpretation":"Suggested search habitats, not predicted plant locations or probabilities of presence."},"features":[{"type":"Feature","geometry":{"type":"Polygon","coordinates":[[[117.95511206780355,5.424377852312817],[117.95563027619411,5.425165147817769],[117.95459385941298,5.425558795945292],[117.95428652811896,5.426346092950517],[117.97575529999999,5.438278994117997],[117.97941659999998,5.4312868941250665],[117.95823349999999,5.418790094137674],[117.95511206780355,5.424377852312817]]]},"properties":{"place_id":"ba299456-9a8e-52cf-9505-c4fb7301d9b6","habitat":"forest_interior","habitat_label":"Forest interior","resolution_m":50}},{"type":"Feature","geometry":{"type":"MultiPolygon","coordinates":[[[[117.95822131814693,5.418866811769701],[117.95822131814693,5.418811140361104],[117.9581890947468,5.418866811769701],[117.95822131814693,5.418866811769701]]],[[[117.95770310975635,5.420047744906511],[117.95770310975635,5.419706434168409],[117.95750555459563,5.420047744906511],[117.95770310975635,5.420047744906511]]],[[[117.95718490136579,5.420835034913329],[117.95718490136579,5.420601729267761],[117.95704986116152,5.420835034913329],[117.95718490136579,5.420835034913329]]],[[[117.95666669297525,5.421622325919472],[117.95666669297525,5.421497025659379],[117.9565941677274,5.421622325919472],[117.95666669297525,5.421622325919472]]],[[[117.95511206780355,5.425165147817769],[117.95563027619411,5.425165147817769],[117.95563027619411,5.424771499940284],[117.95511206780355,5.424771499940284],[117.954999240708,5.424377852312817],[117.95497479999997,5.4250947941313035],[117.95389920000001,5.425586094130804],[117.95428652811896,5.426346092950517],[117.95511206780355,5.425165147817769]]]]},"properties":{"place_id":"ba299456-9a8e-52cf-9505-c4fb7301d9b6","habitat":"forest_edge_opening","habitat_label":"Forest edge or opening","resolution_m":50}},{"type":"Feature","geometry":{"type":"MultiPolygon","coordinates":[[[[117.95511206780355,5.425165147817769],[117.95496437630725,5.424771499940284],[117.9548401817163,5.425165147817769],[117.95511206780355,5.425165147817769]]],[[[117.95407565102245,5.425457029598568],[117.95386429999998,5.42569029413072],[117.95407565102245,5.426228883122289],[117.95407565102245,5.425457029598568]]]]},"properties":{"place_id":"ba299456-9a8e-52cf-9505-c4fb7301d9b6","habitat":"permanent_water","habitat_label":"Permanent water","resolution_m":50}},{"type":"Feature","geometry":{"type":"Polygon","coordinates":[[[117.95407565102245,5.425558795945292],[117.95386429999998,5.42569029413072],[117.95407565102245,5.426228883122289],[117.95407565102245,5.425558795945292]]]},"properties":{"place_id":"ba299456-9a8e-52cf-9505-c4fb7301d9b6","habitat":"seasonal_water_wetland","habitat_label":"Seasonal water or wetland","resolution_m":50}},{"type":"Feature","geometry":{"type":"MultiPolygon","coordinates":[[[[117.96029415170916,5.420047744906511],[117.96036534043252,5.420047744906511],[117.96029415170916,5.420005748029552],[117.96029415170916,5.420047744906511]]],[[[117.95718490136579,5.421622325919472],[117.95718490136579,5.420835034913329],[117.95770310975635,5.420835034913329],[117.95770310975635,5.420047744906511],[117.95822131814693,5.420047744906511],[117.95823349999999,5.418790094137674],[117.95636632101034,5.422015971797338],[117.95718490136579,5.421622325919472]]],[[[117.95614848458469,5.42240961792509],[117.95614848458469,5.422392323343484],[117.95613847429328,5.42240961792509],[117.95614848458469,5.42240961792509]]],[[[117.95511206780355,5.426346092950517],[117.95511206780355,5.425558795945292],[117.95614848458469,5.425165147817769],[117.95614848458469,5.424771499940284],[117.95511206780355,5.424182922590015],[117.95511206780355,5.425165147817769],[117.95407565102245,5.425457029598568],[117.95407565102245,5.426228883122289],[117.95511206780355,5.426346092950517]]]]},"properties":{"place_id":"ba299456-9a8e-52cf-9505-c4fb7301d9b6","habitat":"water_edge","habitat_label":"Water edge","resolution_m":50}}]}