{"type":"FeatureCollection","metadata":{"schema_version":1,"place_id":"baa80280-18b8-528e-bd8f-5d5deb33f191","place_name":"Taman Kejiranan Taman Hikmat","place_type":"park","osm_reference":"way/264428700","protection_context":"no protected status confirmed from included OSM tags","resolution_m":50,"raster_coverage":1.0,"interpretation":"Suggested search habitats, not predicted plant locations or probabilities of presence."},"features":[{"type":"Feature","geometry":{"type":"Polygon","coordinates":[[[100.30959816082317,5.39406773433138],[100.310157,5.393929394162831],[100.31006800000002,5.393511194163229],[100.30927359999997,5.393704394163021],[100.30959816082317,5.39406773433138]]]},"properties":{"place_id":"baa80280-18b8-528e-bd8f-5d5deb33f191","habitat":"forest_edge_opening","habitat_label":"Forest edge or opening","resolution_m":50}},{"type":"Feature","geometry":{"type":"Polygon","coordinates":[[[100.30939389999999,5.394150494162586],[100.310157,5.393929394162831],[100.31006800000002,5.393511194163229],[100.30927359999997,5.393704394163021],[100.30939389999999,5.394150494162586]]]},"properties":{"place_id":"baa80280-18b8-528e-bd8f-5d5deb33f191","habitat":"disturbed_built_edge","habitat_label":"Disturbed, bare or built edge","resolution_m":50}}]}