{"type":"FeatureCollection","metadata":{"schema_version":1,"place_id":"bbb5e213-e52f-5c09-a138-1973a8a83100","place_name":"Pulau Besuar","place_type":"wood","osm_reference":"way/254993160","protection_context":"no protected status confirmed from included OSM tags","resolution_m":50,"raster_coverage":1.0,"interpretation":"Suggested search habitats, not predicted plant locations or probabilities of presence."},"features":[{"type":"Feature","geometry":{"type":"MultiPolygon","coordinates":[[[[113.80633569297507,2.465990506632917],[113.80581748458452,2.4652059365753827],[113.80529927619395,2.4653851972621506],[113.80529927619395,2.467167362563597],[113.80685390136563,2.467167362563597],[113.80685390136563,2.4660706286765097],[113.80633569297507,2.465990506632917]]],[[[113.80633569297507,2.467951933747179],[113.80633569297507,2.4683442195079626],[113.80737210975619,2.4683442195079626],[113.80737210975619,2.467951933747179],[113.80633569297507,2.467951933747179]]],[[[113.809963151709,2.4700292389731895],[113.80911110000001,2.469943397257154],[113.80892673492787,2.4691287913676034],[113.8084085265373,2.4691287913676034],[113.8084085265373,2.469521077466498],[113.80737210975619,2.4691287913676034],[113.80789031814676,2.4706979364396906],[113.809963151709,2.4706979364396906],[113.809963151709,2.4710902229896505],[113.81048136009956,2.4710902229896505],[113.809963151709,2.4700292389731895]]],[[[113.8109995684901,2.4710902229896505],[113.81048136009956,2.4710902229896505],[113.81048136009956,2.4714825096524233],[113.8109995684901,2.4714825096524233],[113.8109995684901,2.4710902229896505]]]]},"properties":{"place_id":"bbb5e213-e52f-5c09-a138-1973a8a83100","habitat":"forest_interior","habitat_label":"Forest interior","resolution_m":50}},{"type":"Feature","geometry":{"type":"MultiPolygon","coordinates":[[[[113.80646717248655,2.465990506632917],[113.8061097,2.464629497262963],[113.80563760684124,2.4652059365753827],[113.80646717248655,2.465990506632917]]],[[[113.80478106780339,2.4652059365753827],[113.804715,2.466984997260399],[113.8059099,2.4675785972597453],[113.8061097,2.4684105972588264],[113.8073114,2.469913997257177],[113.8069801,2.4710983972558975],[113.8090843,2.471127897255853],[113.80901656224522,2.4706979364396906],[113.80789031814676,2.4706979364396906],[113.80737210975619,2.4691287913676034],[113.80789031814676,2.4691287913676034],[113.80789031814676,2.469521077466498],[113.80892673492787,2.4691287913676034],[113.80912071922684,2.469521077466498],[113.8091232,2.4686678972585434],[113.8077593,2.468485697258734],[113.8070753,2.4660470972614017],[113.80685390136563,2.467167362563597],[113.80529927619395,2.467167362563597],[113.80529927619395,2.4653851972621506],[113.80478106780339,2.4652059365753827]],[[113.80737210975619,2.467951933747179],[113.80737210975619,2.4683442195079626],[113.80633569297507,2.4683442195079626],[113.80633569297507,2.467951933747179],[113.80737210975619,2.467951933747179]]],[[[113.81048136009956,2.4710902229896505],[113.80924039074617,2.4706979364396906],[113.81138090000002,2.4722063972546495],[113.81156530000001,2.471675197255242],[113.81048136009956,2.470502124561573],[113.81048136009956,2.4710902229896505]],[[113.8109995684901,2.4710902229896505],[113.8109995684901,2.4714825096524233],[113.81048136009956,2.4714825096524233],[113.81048136009956,2.4710902229896505],[113.8109995684901,2.4710902229896505]]],[[[113.809877035719,2.469913363678131],[113.80975480000001,2.4698656972572537],[113.80948331209672,2.469913363678131],[113.809877035719,2.469913363678131]]],[[[113.809963151709,2.470305650002523],[113.81007266918908,2.470305650002523],[113.809963151709,2.4700292389731895],[113.809963151709,2.470305650002523]]]]},"properties":{"place_id":"bbb5e213-e52f-5c09-a138-1973a8a83100","habitat":"forest_edge_opening","habitat_label":"Forest edge or opening","resolution_m":50}},{"type":"Feature","geometry":{"type":"MultiPolygon","coordinates":[[[[113.80737210975619,2.4673992360283084],[113.80719535692121,2.467167362563597],[113.80685390136563,2.467167362563597],[113.80685390136563,2.4675596480990625],[113.80737210975619,2.4673992360283084]]],[[[113.80737210975619,2.468736505381431],[113.80789031814676,2.468736505381431],[113.80765856548683,2.4683442195079626],[113.80737210975619,2.4683442195079626],[113.80737210975619,2.468736505381431]]],[[[113.8084085265373,2.468736505381431],[113.80789031814676,2.468736505381431],[113.80789031814676,2.4691287913676034],[113.8084085265373,2.4691287913676034],[113.8084085265373,2.468736505381431]]]]},"properties":{"place_id":"bbb5e213-e52f-5c09-a138-1973a8a83100","habitat":"open_grassland","habitat_label":"Open grassland or shrubland","resolution_m":50}},{"type":"Feature","geometry":{"type":"MultiPolygon","coordinates":[[[[113.8061097,2.464629497262963],[113.80633569297507,2.46559822154787],[113.80647305423403,2.46559822154787],[113.80641009999997,2.4647179972628663],[113.8061097,2.464629497262963]]],[[[113.80478106780339,2.4652059365753827],[113.8044709,2.4649510972626305],[113.80478106780339,2.46709100435585],[113.80478106780339,2.4652059365753827]]],[[[113.80737210975619,2.4675596480990625],[113.8074535,2.4674860972598456],[113.80737210975619,2.4673992360283084],[113.80737210975619,2.4675596480990625]]],[[[113.8060219691772,2.467951933747179],[113.80633569297507,2.4675596480990625],[113.80588230830512,2.4675596480990625],[113.8060219691772,2.467951933747179]]],[[[113.80633569297507,2.4683442195079626],[113.80608927607744,2.4683442195079626],[113.80633569297507,2.4686233676468166],[113.80633569297507,2.4683442195079626]]],[[[113.80685390136563,2.468736505381431],[113.80646419925309,2.468736505381431],[113.80685390136563,2.4693685436720014],[113.80685390136563,2.468736505381431]]],[[[113.80737210975619,2.4706979364396906],[113.80737210975619,2.4703793345226708],[113.80707465102101,2.4706979364396906],[113.80737210975619,2.4706979364396906]]],[[[113.80737210975619,2.469913363678131],[113.80731085572278,2.469913363678131],[113.80737210975619,2.47009369477894],[113.80737210975619,2.469913363678131]]],[[[113.80892673492787,2.468736505381431],[113.80909230000002,2.468628997258581],[113.80892673492787,2.468649315575401],[113.80892673492787,2.468736505381431]]],[[[113.8109995684901,2.4710902229896505],[113.8110155,2.470883997256101],[113.8109995684901,2.470855750180177],[113.8109995684901,2.4710902229896505]]],[[[113.809963151709,2.4710902229896505],[113.80975612434645,2.4710902229896505],[113.809963151709,2.471342229306807],[113.809963151709,2.4710902229896505]]],[[[113.80760787129519,2.4710902229896505],[113.80828229999999,2.47124579725571],[113.80913549836173,2.4710902229896505],[113.80760787129519,2.4710902229896505]]],[[[113.80697601286701,2.4710902229896505],[113.80717720000001,2.47120559725576],[113.80738963285935,2.4710902229896505],[113.80697601286701,2.4710902229896505]]],[[[113.81048136009956,2.4714825096524233],[113.81031679999998,2.4716195972553225],[113.81048136009956,2.4718052316792036],[113.81048136009956,2.4714825096524233]]],[[[113.81151777688068,2.4719280178662],[113.8115848,2.4717870972551452],[113.81151777688068,2.4716457324051433],[113.81151777688068,2.4719280178662]]],[[[113.8109995684901,2.4718747964280254],[113.81094261383963,2.4718747964280254],[113.8109995684901,2.471987881785492],[113.8109995684901,2.4718747964280254]]]]},"properties":{"place_id":"bbb5e213-e52f-5c09-a138-1973a8a83100","habitat":"permanent_water","habitat_label":"Permanent water","resolution_m":50}},{"type":"Feature","geometry":{"type":"MultiPolygon","coordinates":[[[[113.80478106780339,2.4667750771407633],[113.804628774842,2.4667750771407633],[113.80478106780339,2.46709100435585],[113.80478106780339,2.4667750771407633]]],[[[113.80581748458452,2.467167362563597],[113.80483312130603,2.467167362563597],[113.80581748458452,2.467515129084373],[113.80581748458452,2.467167362563597]]],[[[113.80737210975619,2.4675596480990625],[113.80749953356745,2.4675596480990625],[113.80737210975619,2.4673992360283084],[113.80737210975619,2.4675596480990625]]],[[[113.80633569297507,2.4683442195079626],[113.80608927607744,2.4683442195079626],[113.80633569297507,2.4686233676468166],[113.80633569297507,2.4683442195079626]]],[[[113.80731085572278,2.469913363678131],[113.80737210975619,2.469521077466498],[113.80697386149103,2.469521077466498],[113.80731085572278,2.469913363678131]]],[[[113.80892673492787,2.4710902229896505],[113.80901656224522,2.4706979364396906],[113.80892673492787,2.4706979364396906],[113.80892673492787,2.4710902229896505]]],[[[113.80975612434645,2.4710902229896505],[113.809963151709,2.4706979364396906],[113.80924039074617,2.4706979364396906],[113.80975612434645,2.4710902229896505]]],[[[113.809963151709,2.4710902229896505],[113.81005789999999,2.4714466972554794],[113.81048136009956,2.4714825096524233],[113.81048136009956,2.4710902229896505],[113.809963151709,2.4710902229896505]]]]},"properties":{"place_id":"bbb5e213-e52f-5c09-a138-1973a8a83100","habitat":"seasonal_water_wetland","habitat_label":"Seasonal water or wetland","resolution_m":50}},{"type":"Feature","geometry":{"type":"Polygon","coordinates":[[[113.81048136009956,2.4718052316792036],[113.81138090000002,2.4722063972546495],[113.8108961,2.4706722972563395],[113.8098755,2.4699112972572004],[113.80902800000001,2.469868397257244],[113.8091167154516,2.468736505381431],[113.80765999999998,2.4683476972588827],[113.80722549999999,2.4662292972612225],[113.80646909999999,2.4660765972613863],[113.80633569297507,2.4648136517154366],[113.80531309999999,2.4653851972621506],[113.80478106780339,2.4652059365753827],[113.80478106780339,2.46709100435585],[113.80633569297507,2.4675596480990625],[113.80608927607744,2.4683442195079626],[113.80737210975619,2.469521077466498],[113.80697601286701,2.4710902229896505],[113.80892673492787,2.4710902229896505],[113.80904269999998,2.470618697256414],[113.809963151709,2.4706979364396906],[113.809963151709,2.4710902229896505],[113.81048136009956,2.4710902229896505],[113.81048136009956,2.4718052316792036]],[[113.80892673492787,2.469521077466498],[113.80892673492787,2.470305650002523],[113.8084085265373,2.470305650002523],[113.8084085265373,2.469521077466498],[113.80892673492787,2.469521077466498]],[[113.80789031814676,2.469521077466498],[113.80789031814676,2.4691287913676034],[113.8084085265373,2.4691287913676034],[113.8084085265373,2.469521077466498],[113.80789031814676,2.469521077466498]],[[113.80581748458452,2.465990506632917],[113.80633569297507,2.465990506632917],[113.80633569297507,2.4667750771407633],[113.80581748458452,2.4667750771407633],[113.80581748458452,2.465990506632917]]]},"properties":{"place_id":"bbb5e213-e52f-5c09-a138-1973a8a83100","habitat":"water_edge","habitat_label":"Water edge","resolution_m":50}}]}