{"type":"FeatureCollection","metadata":{"schema_version":1,"place_id":"bbee429f-ffd5-5b79-a60d-40897db6d751","place_name":"X Park","place_type":"park","osm_reference":"way/763961969","protection_context":"no protected status confirmed from included OSM tags","resolution_m":50,"raster_coverage":1.0,"interpretation":"Suggested search habitats, not predicted plant locations or probabilities of presence."},"features":[{"type":"Feature","geometry":{"type":"MultiPolygon","coordinates":[[[[101.86525974928622,2.6758796280024986],[101.86556935158654,2.6762719760108578],[101.86532985764643,2.6758796280024986],[101.86525974928622,2.6758796280024986]]],[[[101.86577795767678,2.676664324141448],[101.86580776111356,2.676664324141448],[101.86577795767678,2.6766151530869062],[101.86577795767678,2.676664324141448]]],[[[101.86577795767678,2.6778413692667873],[101.86525974928622,2.6770566723942886],[101.86422333250512,2.6774490207693944],[101.86474154089566,2.678233717886483],[101.86577795767678,2.6778413692667873]]],[[[101.8671539,2.6790861970284916],[101.86675899751896,2.678233717886483],[101.86629616606736,2.678233717886483],[101.86577795767678,2.6790184154928554],[101.8671539,2.6790861970284916]]]]},"properties":{"place_id":"bbee429f-ffd5-5b79-a60d-40897db6d751","habitat":"forest_edge_opening","habitat_label":"Forest edge or opening","resolution_m":50}},{"type":"Feature","geometry":{"type":"MultiPolygon","coordinates":[[[[101.86474154089566,2.675094932352401],[101.86485086976629,2.675094932352401],[101.86474154089566,2.6749158258239794],[101.86474154089566,2.675094932352401]]],[[[101.86266870733343,2.6770566723942886],[101.86239078959737,2.676664324141448],[101.86318691572399,2.6778413692667873],[101.86318691572399,2.6770566723942886],[101.86266870733343,2.6770566723942886]]],[[[101.86629616606736,2.678233717886483],[101.86675899751896,2.678233717886483],[101.86628337931626,2.6774490207693944],[101.86577795767678,2.6774490207693944],[101.86577795767678,2.676664324141448],[101.86525974928622,2.676664324141448],[101.86509036370634,2.6754872801163523],[101.86379511500526,2.6754872801163523],[101.86370512411455,2.676664324141448],[101.86422333250512,2.676664324141448],[101.86422333250512,2.6774490207693944],[101.86525974928622,2.6774490207693944],[101.86525974928622,2.678626066628499],[101.86577795767678,2.678626066628499],[101.86577795767678,2.6793368495148107],[101.86681437445792,2.6791378599175886],[101.86629616606736,2.6790184154928554],[101.86629616606736,2.678233717886483]]],[[[101.86318691572399,2.677930414950918],[101.86337763446151,2.678233717886483],[101.86370512411455,2.678233717886483],[101.86370512411455,2.6778413692667873],[101.86318691572399,2.677930414950918]]],[[[101.86370512411455,2.678626066628499],[101.86422333250512,2.678626066628499],[101.86422333250512,2.678233717886483],[101.86370512411455,2.678233717886483],[101.86370512411455,2.678626066628499]]],[[[101.86525974928622,2.678626066628499],[101.86422333250512,2.6790184154928554],[101.86425599999997,2.6796305970278973],[101.86525974928622,2.6794107644795693],[101.86525974928622,2.678626066628499]]]]},"properties":{"place_id":"bbee429f-ffd5-5b79-a60d-40897db6d751","habitat":"open_grassland","habitat_label":"Open grassland or shrubland","resolution_m":50}},{"type":"Feature","geometry":{"type":"Polygon","coordinates":[[[101.8622962,2.6765138970313056],[101.86425599999997,2.6796305970278973],[101.8671539,2.6790861970284916],[101.86470849999999,2.6748616970331005],[101.8622962,2.6765138970313056]],[[101.86629616606736,2.6778413692667873],[101.86629616606736,2.678233717886483],[101.86577795767678,2.678233717886483],[101.86577795767678,2.6778413692667873],[101.86629616606736,2.6778413692667873]],[[101.86525974928622,2.6778413692667873],[101.86525974928622,2.6774490207693944],[101.86577795767678,2.6774490207693944],[101.86577795767678,2.6778413692667873],[101.86525974928622,2.6778413692667873]],[[101.86474154089566,2.6774490207693944],[101.86474154089566,2.676664324141448],[101.86525974928622,2.676664324141448],[101.86525974928622,2.6774490207693944],[101.86474154089566,2.6774490207693944]],[[101.86422333250512,2.676664324141448],[101.86422333250512,2.6758796280024986],[101.86474154089566,2.6758796280024986],[101.86474154089566,2.676664324141448],[101.86422333250512,2.676664324141448]]]},"properties":{"place_id":"bbee429f-ffd5-5b79-a60d-40897db6d751","habitat":"disturbed_built_edge","habitat_label":"Disturbed, bare or built edge","resolution_m":50}},{"type":"Feature","geometry":{"type":"Polygon","coordinates":[[[101.86318691572399,2.6778413692667873],[101.86313092324546,2.6778413692667873],[101.86318691572399,2.677930414950918],[101.86318691572399,2.6778413692667873]]]},"properties":{"place_id":"bbee429f-ffd5-5b79-a60d-40897db6d751","habitat":"cropland","habitat_label":"Cropland","resolution_m":50}},{"type":"Feature","geometry":{"type":"Polygon","coordinates":[[[101.86422333250512,2.6778413692667873],[101.86422333250512,2.6774490207693944],[101.86370512411455,2.6774490207693944],[101.86370512411455,2.6778413692667873],[101.86422333250512,2.6778413692667873]]]},"properties":{"place_id":"bbee429f-ffd5-5b79-a60d-40897db6d751","habitat":"permanent_water","habitat_label":"Permanent water","resolution_m":50}},{"type":"Feature","geometry":{"type":"Polygon","coordinates":[[[101.86422333250512,2.6778413692667873],[101.86422333250512,2.6774490207693944],[101.86370512411455,2.6774490207693944],[101.86370512411455,2.6778413692667873],[101.86422333250512,2.6778413692667873]]]},"properties":{"place_id":"bbee429f-ffd5-5b79-a60d-40897db6d751","habitat":"seasonal_water_wetland","habitat_label":"Seasonal water or wetland","resolution_m":50}},{"type":"Feature","geometry":{"type":"Polygon","coordinates":[[[101.86288421202944,2.6774490207693944],[101.86370512411455,2.678626066628499],[101.86422333250512,2.678626066628499],[101.86422333250512,2.678233717886483],[101.86525974928622,2.6778413692667873],[101.86422333250512,2.676664324141448],[101.86370512411455,2.676664324141448],[101.86370512411455,2.6770566723942886],[101.86288421202944,2.6774490207693944]],[[101.86370512411455,2.6774490207693944],[101.86422333250512,2.6774490207693944],[101.86422333250512,2.6778413692667873],[101.86370512411455,2.6778413692667873],[101.86370512411455,2.6774490207693944]]]},"properties":{"place_id":"bbee429f-ffd5-5b79-a60d-40897db6d751","habitat":"water_edge","habitat_label":"Water edge","resolution_m":50}}]}