{"type":"FeatureCollection","metadata":{"schema_version":1,"place_id":"bbf4f6ec-6d12-523a-9dee-86796d5f5e56","place_name":"Taman Tas Park","place_type":"park","osm_reference":"way/392757504","protection_context":"no protected status confirmed from included OSM tags","resolution_m":50,"raster_coverage":1.0,"interpretation":"Suggested search habitats, not predicted plant locations or probabilities of presence."},"features":[{"type":"Feature","geometry":{"type":"Polygon","coordinates":[[[103.2367220358198,3.7765700874567782],[103.23643915070969,3.7757845644074544],[103.23592094231913,3.7757845644074544],[103.23592094231913,3.7769628492409066],[103.2367220358198,3.7765700874567782]]]},"properties":{"place_id":"bbf4f6ec-6d12-523a-9dee-86796d5f5e56","habitat":"open_grassland","habitat_label":"Open grassland or shrubland","resolution_m":50}},{"type":"Feature","geometry":{"type":"Polygon","coordinates":[[[103.2357624,3.7770160958439463],[103.2366331,3.7769915958439433],[103.23669559999999,3.775709895845333],[103.2357302,3.7757339958452913],[103.2357624,3.7770160958439463]]]},"properties":{"place_id":"bbf4f6ec-6d12-523a-9dee-86796d5f5e56","habitat":"disturbed_built_edge","habitat_label":"Disturbed, bare or built edge","resolution_m":50}}]}