{"type":"FeatureCollection","metadata":{"schema_version":1,"place_id":"bcaa6595-f6c4-5246-8795-815b75209aa7","place_name":"Hutan Simpanan Kekal Bukit Sungai Putih (Utara)","place_type":"park","osm_reference":"relation/18152290","protection_context":"mapped protected boundary","resolution_m":50,"raster_coverage":1.0,"interpretation":"Suggested search habitats, not predicted plant locations or probabilities of presence."},"features":[{"type":"Feature","geometry":{"type":"MultiPolygon","coordinates":[[[[101.76006344600243,3.102437909585531],[101.76058165439298,3.1016529269639723],[101.75954523761186,3.1012604358659046],[101.75954523761186,3.10054051271682],[101.7590270292213,3.1004754540950974],[101.75850882083073,3.099428143169089],[101.75850882083073,3.0996904728912775],[101.75747240404962,3.0996904728912775],[101.75747240404962,3.0992979825019424],[101.75695419565906,3.0992979825019424],[101.75695419565906,3.0985130021483314],[101.75747240404962,3.098315774759522],[101.75643429999998,3.0972015965740365],[101.75263069999998,3.097301096573953],[101.75695419565906,3.1009756162817412],[101.75799061244018,3.1012604358659046],[101.75781788436791,3.1016529269639723],[101.75831837859336,3.1020454182038417],[101.7590270292213,3.1016529269639723],[101.7590270292213,3.1020454182038417],[101.75954523761186,3.1020454182038417],[101.75954523761186,3.102830401109056],[101.76006344600243,3.102830401109056],[101.76006344600243,3.1032228927744367],[101.76109986278354,3.1032228927744367],[101.76109986278354,3.102830401109056],[101.76006344600243,3.102437909585531]]],[[[101.76131307747757,3.102437909585531],[101.76109986278354,3.102830401109056],[101.7616180711741,3.102830401109056],[101.76131307747757,3.102437909585531]]],[[[101.76576373829859,3.1036153845816914],[101.76576373829859,3.1044003686218913],[101.76680015507971,3.1047928608548743],[101.7668080479958,3.105577845746694],[101.76972639999998,3.1034335965672866],[101.7689277,3.10272649656806],[101.76534403888559,3.1036153845816914],[101.76576373829859,3.1036153845816914]]],[[[101.76265448795523,3.1063628312064413],[101.76420911312691,3.1063628312064413],[101.76420911312691,3.105577845746694],[101.76369090473634,3.105577845746694],[101.76420911312691,3.1047928608548743],[101.76265448795523,3.1047928608548743],[101.76213627956467,3.104007876530837],[101.76109986278354,3.104007876530837],[101.76109986278354,3.1036153845816914],[101.76058165439298,3.1036153845816914],[101.76036424635407,3.104007876530837],[101.76265448795523,3.1063628312064413]]],[[[101.76524552990803,3.1059703384055672],[101.76576373829859,3.1059703384055672],[101.76576373829859,3.105577845746694],[101.76524552990803,3.105577845746694],[101.76524552990803,3.1059703384055672]]]]},"properties":{"place_id":"bcaa6595-f6c4-5246-8795-815b75209aa7","habitat":"forest_interior","habitat_label":"Forest interior","resolution_m":50}},{"type":"Feature","geometry":{"type":"MultiPolygon","coordinates":[[[[101.75643598726849,3.0973355326802916],[101.75655909123961,3.0973355326802916],[101.75643598726849,3.0972034074877066],[101.75643598726849,3.0973355326802916]]],[[[101.75747240404962,3.0985130021483314],[101.75695419565906,3.0985130021483314],[101.75695419565906,3.0992979825019424],[101.75747240404962,3.0992979825019424],[101.75747240404962,3.0996904728912775],[101.75850882083073,3.0996904728912775],[101.75747240404962,3.0985130021483314]]],[[[101.7590270292213,3.1004754540950974],[101.7594846212322,3.1004754540950974],[101.75911892998313,3.1000829634223233],[101.7590270292213,3.1000829634223233],[101.7590270292213,3.1004754540950974]]],[[[101.75747240404962,3.1008679449096186],[101.75695419565906,3.1009756162817412],[101.75799061244018,3.1016529269639723],[101.75799061244018,3.1012604358659046],[101.75747240404962,3.1012604358659046],[101.75747240404962,3.1008679449096186]]],[[[101.75954523761186,3.1012604358659046],[101.76058165439298,3.1016529269639723],[101.76006344600243,3.102437909585531],[101.76109986278354,3.102830401109056],[101.76131307747757,3.102437909585531],[101.75954523761186,3.10054051271682],[101.75954523761186,3.1012604358659046]]],[[[101.75954523761186,3.102830401109056],[101.75954523761186,3.1020454182038417],[101.75850882083073,3.1016529269639723],[101.75831837859336,3.1020454182038417],[101.76036424635407,3.104007876530837],[101.76109986278354,3.1036153845816914],[101.76109986278354,3.104007876530837],[101.76213627956467,3.104007876530837],[101.76265448795523,3.1047928608548743],[101.76420911312691,3.1047928608548743],[101.76420911312691,3.105185353229802],[101.76369090473634,3.105185353229802],[101.76369090473634,3.105577845746694],[101.76420911312691,3.105577845746694],[101.76420911312691,3.1063628312064413],[101.76265448795523,3.1063628312064413],[101.76265448795523,3.1059703384055672],[101.76213627956467,3.1059703384055672],[101.7623733,3.106394296564106],[101.7647044,3.107123496563289],[101.7668080479958,3.105577845746694],[101.76680015507971,3.1047928608548743],[101.76576373829859,3.1044003686218913],[101.76576373829859,3.1036153845816914],[101.7629609,3.1042064965664395],[101.7616180711741,3.102765255228421],[101.76109986278354,3.102830401109056],[101.76109986278354,3.1032228927744367],[101.76006344600243,3.1032228927744367],[101.76006344600243,3.102830401109056],[101.75954523761186,3.102830401109056]],[[101.76524552990803,3.1059703384055672],[101.76524552990803,3.105577845746694],[101.76576373829859,3.105577845746694],[101.76576373829859,3.1059703384055672],[101.76524552990803,3.1059703384055672]]],[[[101.76109986278354,3.1047928608548743],[101.7610251010066,3.1047928608548743],[101.76109986278354,3.104881665323957],[101.76109986278354,3.1047928608548743]]],[[[101.76135552833287,3.105185353229802],[101.7616180711741,3.1054972102964853],[101.7616180711741,3.105185353229802],[101.76135552833287,3.105185353229802]]]]},"properties":{"place_id":"bcaa6595-f6c4-5246-8795-815b75209aa7","habitat":"forest_edge_opening","habitat_label":"Forest edge or opening","resolution_m":50}},{"type":"Feature","geometry":{"type":"MultiPolygon","coordinates":[[[[101.75838754748499,3.0992979825019424],[101.75747240404962,3.0985130021483314],[101.75747240404962,3.0992979825019424],[101.75838754748499,3.0992979825019424]]],[[[101.75747240404962,3.1012604358659046],[101.75731739014246,3.1012604358659046],[101.75747240404962,3.1013819988489693],[101.75747240404962,3.1012604358659046]]],[[[101.76058165439298,3.102437909585531],[101.76109986278354,3.102437909585531],[101.7609473862285,3.1020454182038417],[101.76058165439298,3.1020454182038417],[101.76058165439298,3.102437909585531]]],[[[101.76204445997573,3.1032228927744367],[101.76167876872663,3.102830401109056],[101.7616180711741,3.102830401109056],[101.7616180711741,3.1032228927744367],[101.76204445997573,3.1032228927744367]]],[[[101.76109986278354,3.1032228927744367],[101.76109986278354,3.1036153845816914],[101.7616180711741,3.1036153845816914],[101.7616180711741,3.1032228927744367],[101.76109986278354,3.1032228927744367]]],[[[101.76213627956467,3.104007876530837],[101.76265448795523,3.103877628193115],[101.76213627956467,3.1033214415683177],[101.76213627956467,3.104007876530837]]],[[[101.76524552990803,3.104007876530837],[101.76524552990803,3.103639818668344],[101.76420911312691,3.1038968906769275],[101.76420911312691,3.104007876530837],[101.76524552990803,3.104007876530837]]],[[[101.76369090473634,3.1044003686218913],[101.76369090473634,3.104025426704046],[101.76265448795523,3.104007876530837],[101.76265448795523,3.1044003686218913],[101.76369090473634,3.1044003686218913]]],[[[101.76576373829859,3.105185353229802],[101.76628194668915,3.105185353229802],[101.76628194668915,3.1047928608548743],[101.76576373829859,3.1047928608548743],[101.76576373829859,3.105185353229802]]],[[[101.76472732151747,3.105577845746694],[101.76472732151747,3.105185353229802],[101.76420911312691,3.105185353229802],[101.76420911312691,3.105577845746694],[101.76472732151747,3.105577845746694]]],[[[101.76472732151747,3.1059703384055672],[101.76472732151747,3.106755324149332],[101.76520548648864,3.106755324149332],[101.76573967365769,3.1063628312064413],[101.76472732151747,3.1059703384055672]]]]},"properties":{"place_id":"bcaa6595-f6c4-5246-8795-815b75209aa7","habitat":"open_grassland","habitat_label":"Open grassland or shrubland","resolution_m":50}},{"type":"Feature","geometry":{"type":"MultiPolygon","coordinates":[[[[101.75643598726849,3.0973355326802916],[101.75655909123961,3.0973355326802916],[101.75643598726849,3.0972034074877066],[101.75643598726849,3.0973355326802916]]],[[[101.75799061244018,3.0989054922543002],[101.75799061244018,3.0992979825019424],[101.75838754748499,3.0992979825019424],[101.75765616498683,3.0985130021483314],[101.75747240404962,3.0985130021483314],[101.75747240404962,3.0989054922543002],[101.75799061244018,3.0989054922543002]]],[[[101.7594846212322,3.1004754540950974],[101.75911892998313,3.1000829634223233],[101.7590270292213,3.1000829634223233],[101.7590270292213,3.1004754540950974],[101.7594846212322,3.1004754540950974]]],[[[101.75954523761186,3.1012604358659046],[101.76006344600243,3.1012604358659046],[101.76006344600243,3.1016529269639723],[101.7609473862285,3.1020454182038417],[101.75954523761186,3.10054051271682],[101.75954523761186,3.1012604358659046]]],[[[101.75954523761186,3.102830401109056],[101.75954523761186,3.1020454182038417],[101.75850882083073,3.1016529269639723],[101.75831837859336,3.1020454182038417],[101.76058165439298,3.104007876530837],[101.76058165439298,3.1032228927744367],[101.75954523761186,3.102830401109056]]],[[[101.76109986278354,3.1047928608548743],[101.7610251010066,3.1047928608548743],[101.76109986278354,3.104881665323957],[101.76109986278354,3.1047928608548743]]],[[[101.7616180711741,3.105185353229802],[101.76135552833287,3.105185353229802],[101.7616180711741,3.1054972102964853],[101.7616180711741,3.105185353229802]]],[[[101.76131307747757,3.102437909585531],[101.76109986278354,3.102209069173375],[101.76109986278354,3.102437909585531],[101.76131307747757,3.102437909585531]]],[[[101.76204445997573,3.1032228927744367],[101.76167876872663,3.102830401109056],[101.7616180711741,3.102830401109056],[101.7616180711741,3.1032228927744367],[101.76204445997573,3.1032228927744367]]],[[[101.76213627956467,3.104007876530837],[101.76265448795523,3.104007876530837],[101.76265448795523,3.1044003686218913],[101.76317269634579,3.1044003686218913],[101.76213627956467,3.1033214415683177],[101.76213627956467,3.104007876530837]]],[[[101.76524552990803,3.104007876530837],[101.76524552990803,3.103639818668344],[101.76369090473634,3.104025426704046],[101.76369090473634,3.1047928608548743],[101.76420911312691,3.1047928608548743],[101.76420911312691,3.105185353229802],[101.76524552990803,3.105185353229802],[101.76524552990803,3.1047928608548743],[101.76576373829859,3.1047928608548743],[101.76576373829859,3.104007876530837],[101.76524552990803,3.104007876530837]]],[[[101.76628194668915,3.105185353229802],[101.76628194668915,3.1047928608548743],[101.76524552990803,3.105185353229802],[101.76524552990803,3.105577845746694],[101.76576373829859,3.105577845746694],[101.76576373829859,3.1063451497635155],[101.76680015507971,3.1055836450456047],[101.76680015507971,3.105185353229802],[101.76628194668915,3.105185353229802]]],[[[101.76265448795523,3.1063628312064413],[101.76265448795523,3.1059703384055672],[101.76213627956467,3.1059703384055672],[101.7623733,3.106394296564106],[101.7647044,3.107123496563289],[101.76520548648864,3.106755324149332],[101.76472732151747,3.106755324149332],[101.76472732151747,3.1063628312064413],[101.76265448795523,3.1063628312064413]]]]},"properties":{"place_id":"bcaa6595-f6c4-5246-8795-815b75209aa7","habitat":"disturbed_built_edge","habitat_label":"Disturbed, bare or built edge","resolution_m":50}}]}