{"type":"FeatureCollection","metadata":{"schema_version":1,"place_id":"bccde254-9ead-54de-8a16-975ec5db2d31","place_name":"Taman Rekreasi Permai","place_type":"park","osm_reference":"way/23023860","protection_context":"no protected status confirmed from included OSM tags","resolution_m":50,"raster_coverage":1.0,"interpretation":"Suggested search habitats, not predicted plant locations or probabilities of presence."},"features":[{"type":"Feature","geometry":{"type":"MultiPolygon","coordinates":[[[[101.51391446048612,3.0702540856666296],[101.51339625209555,3.070646565619565],[101.51391446048612,3.070646565619565],[101.51391446048612,3.0702540856666296]]],[[[101.5154690856578,3.0714315259465708],[101.5154690856578,3.071824006320677],[101.51598729404836,3.071824006320677],[101.51598729404836,3.0714315259465708],[101.5154690856578,3.0714315259465708]]],[[[101.51184162692388,3.073393929221552],[101.51184162692388,3.0737864102979735],[101.51235983531443,3.0737864102979735],[101.51235983531443,3.073393929221552],[101.51184162692388,3.073393929221552]]],[[[101.51443266887668,3.074571372872385],[101.51443266887668,3.074663034867975],[101.51449590098196,3.074571372872385],[101.51443266887668,3.074571372872385]]]]},"properties":{"place_id":"bccde254-9ead-54de-8a16-975ec5db2d31","habitat":"forest_interior","habitat_label":"Forest interior","resolution_m":50}},{"type":"Feature","geometry":{"type":"Polygon","coordinates":[[[101.51339625209555,3.070450293207006],[101.5114177,3.0734446965997777],[101.5117206,3.074068896599069],[101.51406369999998,3.075197896597884],[101.5156208,3.072940696600311],[101.5165725,3.0706873966027635],[101.51610609999999,3.068993696604584],[101.5152242,3.0689445966046214],[101.51432549999998,3.0694183966041213],[101.51356264916753,3.0702540856666296],[101.51391446048612,3.070646565619565],[101.51339625209555,3.070450293207006]],[[101.51443266887668,3.0737864102979735],[101.51443266887668,3.0741788915149115],[101.51391446048612,3.0741788915149115],[101.51391446048612,3.0737864102979735],[101.51443266887668,3.0737864102979735]],[[101.51339625209555,3.0737864102979735],[101.51339625209555,3.073393929221552],[101.512878043705,3.073393929221552],[101.512878043705,3.0730014482856305],[101.51391446048612,3.0730014482856305],[101.51391446048612,3.0737864102979735],[101.51339625209555,3.0737864102979735]],[[101.51184162692388,3.073393929221552],[101.51235983531443,3.073393929221552],[101.51235983531443,3.0737864102979735],[101.51184162692388,3.0737864102979735],[101.51184162692388,3.073393929221552]],[[101.51443266887668,3.072216486835211],[101.51391446048612,3.072216486835211],[101.51391446048612,3.072608967490189],[101.512878043705,3.072608967490189],[101.51391446048612,3.0714315259465708],[101.51443266887668,3.0714315259465708],[101.51443266887668,3.072216486835211]],[[101.51443266887668,3.070646565619565],[101.51495087726724,3.070646565619565],[101.51495087726724,3.0714315259465708],[101.51443266887668,3.0714315259465708],[101.51443266887668,3.070646565619565]],[[101.51495087726724,3.0702540856666296],[101.5154690856578,3.0702540856666296],[101.5154690856578,3.070646565619565],[101.51495087726724,3.070646565619565],[101.51495087726724,3.0702540856666296]],[[101.5154690856578,3.069861605854049],[101.51598729404836,3.069861605854049],[101.51598729404836,3.0702540856666296],[101.5154690856578,3.0702540856666296],[101.5154690856578,3.069861605854049]],[[101.5154690856578,3.0714315259465708],[101.51598729404836,3.0714315259465708],[101.51598729404836,3.071824006320677],[101.5154690856578,3.071824006320677],[101.5154690856578,3.0714315259465708]]]},"properties":{"place_id":"bccde254-9ead-54de-8a16-975ec5db2d31","habitat":"forest_edge_opening","habitat_label":"Forest edge or opening","resolution_m":50}},{"type":"Feature","geometry":{"type":"Polygon","coordinates":[[[101.51391446048612,3.072216486835211],[101.51391446048612,3.071824006320677],[101.51339625209555,3.071824006320677],[101.51339625209555,3.072216486835211],[101.51391446048612,3.072216486835211]]]},"properties":{"place_id":"bccde254-9ead-54de-8a16-975ec5db2d31","habitat":"open_grassland","habitat_label":"Open grassland or shrubland","resolution_m":50}},{"type":"Feature","geometry":{"type":"MultiPolygon","coordinates":[[[[101.51356264916753,3.0702540856666296],[101.51495087726724,3.069469126181805],[101.51495087726724,3.069861605854049],[101.51598729404836,3.0702540856666296],[101.51598729404836,3.071824006320677],[101.51391446048612,3.072608967490189],[101.51391446048612,3.0730014482856305],[101.51443266887668,3.0730014482856305],[101.51443266887668,3.0737864102979735],[101.51391446048612,3.0737864102979735],[101.51391446048612,3.0741788915149115],[101.51443266887668,3.0741788915149115],[101.51449590098196,3.074571372872385],[101.5156208,3.072940696600311],[101.51671179999998,3.0701204966033515],[101.5159008,3.068943396604632],[101.51486199999998,3.0690640966044915],[101.514111,3.069607496603892],[101.51356264916753,3.0702540856666296]]],[[[101.51443266887668,3.074571372872385],[101.512878043705,3.074571372872385],[101.512878043705,3.0741788915149115],[101.51184162692388,3.0737864102979735],[101.51184162692388,3.073393929221552],[101.51235983531443,3.073393929221552],[101.51235983531443,3.0730014482856305],[101.51443266887668,3.071824006320677],[101.51443266887668,3.0714315259465708],[101.51339625209555,3.071039045712872],[101.51339625209555,3.070450293207006],[101.5114177,3.0734446965997777],[101.5117206,3.074068896599069],[101.51385969999998,3.0752602965978024],[101.51443266887668,3.074571372872385]]]]},"properties":{"place_id":"bccde254-9ead-54de-8a16-975ec5db2d31","habitat":"disturbed_built_edge","habitat_label":"Disturbed, bare or built edge","resolution_m":50}},{"type":"Feature","geometry":{"type":"Polygon","coordinates":[[[101.51443266887668,3.074571372872385],[101.51443266887668,3.0730014482856305],[101.51391446048612,3.0730014482856305],[101.51391446048612,3.072608967490189],[101.51495087726724,3.072216486835211],[101.5154690856578,3.0702540856666296],[101.51650550243892,3.070646565619565],[101.51650550243892,3.069861605854049],[101.51443266887668,3.069861605854049],[101.51443266887668,3.070646565619565],[101.51391446048612,3.070646565619565],[101.51391446048612,3.072216486835211],[101.512878043705,3.071824006320677],[101.512878043705,3.0730014482856305],[101.51235983531443,3.0730014482856305],[101.51235983531443,3.073393929221552],[101.512878043705,3.073393929221552],[101.512878043705,3.0741788915149115],[101.51391446048612,3.0741788915149115],[101.51391446048612,3.074571372872385],[101.51443266887668,3.074571372872385]]]},"properties":{"place_id":"bccde254-9ead-54de-8a16-975ec5db2d31","habitat":"permanent_water","habitat_label":"Permanent water","resolution_m":50}},{"type":"Feature","geometry":{"type":"MultiPolygon","coordinates":[[[[101.51495087726724,3.0702540856666296],[101.51495087726724,3.069861605854049],[101.51443266887668,3.069861605854049],[101.51443266887668,3.0702540856666296],[101.51495087726724,3.0702540856666296]]],[[[101.51598729404836,3.071039045712872],[101.51598729404836,3.070646565619565],[101.51650550243892,3.070646565619565],[101.51650550243892,3.069861605854049],[101.5154690856578,3.069861605854049],[101.5154690856578,3.0702540856666296],[101.51495087726724,3.0702540856666296],[101.51495087726724,3.070646565619565],[101.51598729404836,3.071039045712872]]],[[[101.51443266887668,3.0714315259465708],[101.5154690856578,3.0714315259465708],[101.5154690856578,3.071039045712872],[101.51443266887668,3.071039045712872],[101.51443266887668,3.0714315259465708]]],[[[101.512878043705,3.072216486835211],[101.51339625209555,3.072216486835211],[101.51339625209555,3.071824006320677],[101.512878043705,3.071824006320677],[101.512878043705,3.072216486835211]]],[[[101.51391446048612,3.072608967490189],[101.51443266887668,3.072608967490189],[101.51443266887668,3.072216486835211],[101.51391446048612,3.072216486835211],[101.51391446048612,3.072608967490189]]],[[[101.51235983531443,3.073393929221552],[101.512878043705,3.073393929221552],[101.512878043705,3.0730014482856305],[101.51235983531443,3.0730014482856305],[101.51235983531443,3.073393929221552]]],[[[101.51339625209555,3.0737864102979735],[101.51339625209555,3.0741788915149115],[101.51391446048612,3.0741788915149115],[101.51391446048612,3.073393929221552],[101.512878043705,3.073393929221552],[101.512878043705,3.0737864102979735],[101.51339625209555,3.0737864102979735]]],[[[101.51391446048612,3.0741788915149115],[101.51391446048612,3.074571372872385],[101.51443266887668,3.074571372872385],[101.51443266887668,3.0741788915149115],[101.51391446048612,3.0741788915149115]]]]},"properties":{"place_id":"bccde254-9ead-54de-8a16-975ec5db2d31","habitat":"seasonal_water_wetland","habitat_label":"Seasonal water or wetland","resolution_m":50}},{"type":"Feature","geometry":{"type":"Polygon","coordinates":[[[101.51184162692388,3.074153995701889],[101.51391446048612,3.0752435463311305],[101.51406369999998,3.075197896597884],[101.5154690856578,3.073160628956476],[101.51495087726724,3.072608967490189],[101.5159529492693,3.072216486835211],[101.5165725,3.0706873966027635],[101.51671179999998,3.0701204966033515],[101.51608704836853,3.0690766466498784],[101.51484117700025,3.0690766466498784],[101.51426795639813,3.069469126181805],[101.51153842781908,3.0730014482856305],[101.51184162692388,3.074153995701889]],[[101.51391446048612,3.0741788915149115],[101.512878043705,3.0741788915149115],[101.512878043705,3.073393929221552],[101.51235983531443,3.073393929221552],[101.51235983531443,3.0730014482856305],[101.512878043705,3.0730014482856305],[101.512878043705,3.071824006320677],[101.51391446048612,3.072216486835211],[101.51391446048612,3.070646565619565],[101.51443266887668,3.070646565619565],[101.51443266887668,3.069861605854049],[101.51650550243892,3.069861605854049],[101.51650550243892,3.070646565619565],[101.51598729404836,3.070646565619565],[101.51598729404836,3.071039045712872],[101.51495087726724,3.0714315259465708],[101.51495087726724,3.072216486835211],[101.51391446048612,3.072608967490189],[101.51391446048612,3.0730014482856305],[101.51443266887668,3.0730014482856305],[101.51443266887668,3.074571372872385],[101.51391446048612,3.074571372872385],[101.51391446048612,3.0741788915149115]]]},"properties":{"place_id":"bccde254-9ead-54de-8a16-975ec5db2d31","habitat":"water_edge","habitat_label":"Water edge","resolution_m":50}}]}