{"type":"FeatureCollection","metadata":{"schema_version":1,"place_id":"bccf5b5c-021d-598f-9bbf-f86a507bb859","place_name":"Pulau Layak","place_type":"forest","osm_reference":"way/235001319","protection_context":"no protected status confirmed from included OSM tags","resolution_m":50,"raster_coverage":1.0,"interpretation":"Suggested search habitats, not predicted plant locations or probabilities of presence."},"features":[{"type":"Feature","geometry":{"type":"Polygon","coordinates":[[[102.01657659932995,5.328335258715856],[102.01657659932995,5.32715449865391],[102.01709480772048,5.32715449865391],[102.01709480772048,5.325973740800688],[102.01761301611106,5.325973740800688],[102.01761301611106,5.324398715876341],[102.0162551,5.32518939423242],[102.01569849999998,5.326313894231295],[102.01657659932995,5.328335258715856]]]},"properties":{"place_id":"bccf5b5c-021d-598f-9bbf-f86a507bb859","habitat":"forest_interior","habitat_label":"Forest interior","resolution_m":50}},{"type":"Feature","geometry":{"type":"Polygon","coordinates":[[[102.01761301611106,5.325973740800688],[102.01709480772048,5.325973740800688],[102.01709480772048,5.32715449865391],[102.01657659932995,5.32715449865391],[102.01665609999999,5.328481594229106],[102.0181866,5.325450094232155],[102.0181129,5.32427669423337],[102.01761301611106,5.324398715876341],[102.01761301611106,5.325973740800688]]]},"properties":{"place_id":"bccf5b5c-021d-598f-9bbf-f86a507bb859","habitat":"forest_edge_opening","habitat_label":"Forest edge or opening","resolution_m":50}},{"type":"Feature","geometry":{"type":"MultiPolygon","coordinates":[[[[102.01813122450162,5.325547651890826],[102.018293,5.324993794232605],[102.01813122450162,5.324304609124248],[102.01813122450162,5.325547651890826]]],[[[102.01761301611106,5.325973740800688],[102.01761301611106,5.326629355420858],[102.0179070819706,5.325973740800688],[102.01761301611106,5.325973740800688]]],[[[102.01709480772048,5.32715449865391],[102.01709480772048,5.327766690160641],[102.01738555518308,5.32715449865391],[102.01709480772048,5.32715449865391]]],[[[102.01657659932995,5.328335258715856],[102.01665609999999,5.328481594229106],[102.01682638570988,5.328335258715856],[102.01657659932995,5.328335258715856]]]]},"properties":{"place_id":"bccf5b5c-021d-598f-9bbf-f86a507bb859","habitat":"permanent_water","habitat_label":"Permanent water","resolution_m":50}},{"type":"Feature","geometry":{"type":"MultiPolygon","coordinates":[[[[102.01738555518308,5.32715449865391],[102.01709480772048,5.3275480850957875],[102.01720591514416,5.3275480850957875],[102.01738555518308,5.32715449865391]]],[[[102.01657659932995,5.328335258715856],[102.01665609999999,5.328481594229106],[102.01682638570988,5.328335258715856],[102.01657659932995,5.328335258715856]]]]},"properties":{"place_id":"bccf5b5c-021d-598f-9bbf-f86a507bb859","habitat":"seasonal_water_wetland","habitat_label":"Seasonal water or wetland","resolution_m":50}},{"type":"Feature","geometry":{"type":"Polygon","coordinates":[[[102.01709480772048,5.325973740800688],[102.01657659932995,5.325973740800688],[102.01657659932995,5.32715449865391],[102.01605839093938,5.32715449865391],[102.01657659932995,5.328362889404715],[102.01813122450162,5.325547651890826],[102.0181129,5.32427669423337],[102.01709480772048,5.32459948704408],[102.01709480772048,5.325973740800688]]]},"properties":{"place_id":"bccf5b5c-021d-598f-9bbf-f86a507bb859","habitat":"water_edge","habitat_label":"Water edge","resolution_m":50}}]}