{"type":"FeatureCollection","metadata":{"schema_version":1,"place_id":"bd6317d2-0059-56b1-9f60-0886961d2286","place_name":"Taman Bandar Kwasa Damansara","place_type":"park","osm_reference":"way/1009693760","protection_context":"no protected status confirmed from included OSM tags","resolution_m":50,"raster_coverage":1.0,"interpretation":"Suggested search habitats, not predicted plant locations or probabilities of presence."},"features":[{"type":"Feature","geometry":{"type":"Polygon","coordinates":[[[101.56346013268345,3.1777989041638657],[101.56354349999998,3.177806996486887],[101.56355101279652,3.1777989041638657],[101.56346013268345,3.1777989041638657]]]},"properties":{"place_id":"bd6317d2-0059-56b1-9f60-0886961d2286","habitat":"forest_interior","habitat_label":"Forest interior","resolution_m":50}},{"type":"Feature","geometry":{"type":"Polygon","coordinates":[[[101.56366246597995,3.1762288292512233],[101.56314425758937,3.177013866416996],[101.56210784080825,3.177013866416996],[101.5614234,3.1758480964889815],[101.56070199999999,3.176805496487931],[101.56052919999999,3.1787224964859044],[101.5619682,3.178855296485755],[101.56203169999999,3.1778999964867474],[101.5652017,3.177194396487541],[101.56366246597995,3.1762288292512233]],[[101.56107142402713,3.1777989041638657],[101.56158963241771,3.1777989041638657],[101.56158963241771,3.1781914232552575],[101.56107142402713,3.1781914232552575],[101.56107142402713,3.1777989041638657]]]},"properties":{"place_id":"bd6317d2-0059-56b1-9f60-0886961d2286","habitat":"forest_edge_opening","habitat_label":"Forest edge or opening","resolution_m":50}},{"type":"Feature","geometry":{"type":"MultiPolygon","coordinates":[[[[101.56107142402713,3.1766213477614813],[101.56064838704913,3.177013866416996],[101.56107142402713,3.177013866416996],[101.56107142402713,3.1766213477614813]]],[[[101.561442463728,3.1758363108862038],[101.56107142402713,3.1762288292512233],[101.56158963241771,3.1762288292512233],[101.56158963241771,3.1774063852177847],[101.56314425758937,3.1774063852177847],[101.56366246597995,3.1766213477614813],[101.5641806743705,3.1766213477614813],[101.5641806743705,3.1774063852177847],[101.56366246597995,3.1774063852177847],[101.56366246597995,3.1776788536469134],[101.5652017,3.177194396487541],[101.56406819999997,3.176383796488419],[101.5640688263241,3.1758363108862038],[101.561442463728,3.1758363108862038]]],[[[101.56107142402713,3.1777989041638657],[101.56158963241771,3.1777989041638657],[101.56158963241771,3.1774063852177847],[101.56107142402713,3.1774063852177847],[101.56107142402713,3.1777989041638657]]],[[[101.56107142402713,3.1781914232552575],[101.56107142402713,3.1777989041638657],[101.56055321563657,3.1777989041638657],[101.56055321563657,3.1781914232552575],[101.56107142402713,3.1781914232552575]]],[[[101.56210784080825,3.1777989041638657],[101.56158963241771,3.1777989041638657],[101.56158963241771,3.1781914232552575],[101.56107142402713,3.1781914232552575],[101.56107142402713,3.178583942491977],[101.5619682,3.178855296485755],[101.56210784080825,3.1777989041638657]]]]},"properties":{"place_id":"bd6317d2-0059-56b1-9f60-0886961d2286","habitat":"open_grassland","habitat_label":"Open grassland or shrubland","resolution_m":50}},{"type":"Feature","geometry":{"type":"MultiPolygon","coordinates":[[[[101.56158963241771,3.1766213477614813],[101.56210784080825,3.1766213477614813],[101.56210784080825,3.1762288292512233],[101.56406837728264,3.1762288292512233],[101.5640632,3.175558096489327],[101.5617,3.1756770964891974],[101.56064838704913,3.177013866416996],[101.56158963241771,3.177013866416996],[101.56158963241771,3.1766213477614813]]],[[[101.56158963241771,3.178583942491977],[101.56210784080825,3.1777989041638657],[101.56107142402713,3.1774063852177847],[101.56107142402713,3.1777989041638657],[101.56055321563657,3.177695069161533],[101.56049079999998,3.1786738964859267],[101.5619682,3.178855296485755],[101.56158963241771,3.178583942491977]]]]},"properties":{"place_id":"bd6317d2-0059-56b1-9f60-0886961d2286","habitat":"disturbed_built_edge","habitat_label":"Disturbed, bare or built edge","resolution_m":50}},{"type":"Feature","geometry":{"type":"MultiPolygon","coordinates":[[[[101.5641806743705,3.177013866416996],[101.56366246597995,3.1776788536469134],[101.5652017,3.177194396487541],[101.56507545926377,3.177013866416996],[101.5641806743705,3.177013866416996]]],[[[101.56346013268345,3.1777989041638657],[101.56354349999998,3.177806996486887],[101.56355101279652,3.1777989041638657],[101.56346013268345,3.1777989041638657]]]]},"properties":{"place_id":"bd6317d2-0059-56b1-9f60-0886961d2286","habitat":"water_edge","habitat_label":"Water edge","resolution_m":50}}]}