{"type":"FeatureCollection","metadata":{"schema_version":1,"place_id":"bd73d4aa-68c8-5fc9-9de2-77fd569037f4","place_name":"Taman Seribu Bunga","place_type":"park","osm_reference":"way/1223999082","protection_context":"no protected status confirmed from included OSM tags","resolution_m":50,"raster_coverage":1.0,"interpretation":"Suggested search habitats, not predicted plant locations or probabilities of presence."},"features":[{"type":"Feature","geometry":{"type":"MultiPolygon","coordinates":[[[[102.29900017218549,2.266331557637265],[102.29848196379491,2.266331557637265],[102.29848196379491,2.2667237878586235],[102.29900017218549,2.2667237878586235],[102.29900017218549,2.266331557637265]]],[[[102.29692733862325,2.2675082486116813],[102.29744554701381,2.268292709778647],[102.29848196379491,2.268070410585437],[102.29848196379491,2.2675082486116813],[102.29692733862325,2.2675082486116813]]],[[[102.29692733862325,2.269077171359666],[102.29692733862325,2.268684940517391],[102.29589092184212,2.268684940517391],[102.29629656627888,2.269469402305489],[102.29744554701381,2.269469402305489],[102.29744554701381,2.269077171359666],[102.29692733862325,2.269077171359666]]]]},"properties":{"place_id":"bd73d4aa-68c8-5fc9-9de2-77fd569037f4","habitat":"forest_interior","habitat_label":"Forest interior","resolution_m":50}},{"type":"Feature","geometry":{"type":"Polygon","coordinates":[[[102.29589092184212,2.268684940517391],[102.29692733862325,2.268684940517391],[102.29692733862325,2.269077171359666],[102.29744554701381,2.269077171359666],[102.29744554701381,2.269469402305489],[102.29629656627888,2.269469402305489],[102.2976521,2.2703635974761163],[102.298224,2.269655397476883],[102.2977392,2.2690777974775167],[102.29804836350965,2.268292709778647],[102.29744554701381,2.268292709778647],[102.29692733862325,2.2675082486116813],[102.29848196379491,2.2675082486116813],[102.29848196379491,2.268070410585437],[102.29898379999999,2.268001097478699],[102.29925600000001,2.2658850974810076],[102.29736779999998,2.2669155974798927],[102.2955841,2.2689712974776293],[102.29589092184212,2.2691858050701894],[102.29589092184212,2.268684940517391]],[[102.29848196379491,2.266331557637265],[102.29900017218549,2.266331557637265],[102.29900017218549,2.2667237878586235],[102.29848196379491,2.2667237878586235],[102.29848196379491,2.266331557637265]]]},"properties":{"place_id":"bd73d4aa-68c8-5fc9-9de2-77fd569037f4","habitat":"forest_edge_opening","habitat_label":"Forest edge or opening","resolution_m":50}},{"type":"Feature","geometry":{"type":"MultiPolygon","coordinates":[[[[102.29900017218549,2.2667237878586235],[102.29900017218549,2.2678738250039348],[102.2991481117112,2.2667237878586235],[102.29900017218549,2.2667237878586235]]],[[[102.29692733862325,2.268292709778647],[102.29692733862325,2.268684940517391],[102.29744554701381,2.268684940517391],[102.29744554701381,2.268292709778647],[102.29692733862325,2.268292709778647]]],[[[102.29744554701381,2.269469402305489],[102.29744554701381,2.270253864507854],[102.29774071377008,2.270253864507854],[102.29796375540435,2.269469402305489],[102.29744554701381,2.269469402305489]]]]},"properties":{"place_id":"bd73d4aa-68c8-5fc9-9de2-77fd569037f4","habitat":"open_grassland","habitat_label":"Open grassland or shrubland","resolution_m":50}},{"type":"Feature","geometry":{"type":"MultiPolygon","coordinates":[[[[102.29640913023268,2.268684940517391],[102.29640913023268,2.268292709778647],[102.29692733862325,2.268292709778647],[102.29692733862325,2.2675082486116813],[102.29848196379491,2.2675082486116813],[102.29848196379491,2.267116018183423],[102.29900017218549,2.267116018183423],[102.29848196379491,2.266331557637265],[102.29919856780583,2.266331557637265],[102.29925600000001,2.2658850974810076],[102.2977714,2.266575297480279],[102.2955841,2.2689712974776293],[102.29589092184212,2.2691858050701894],[102.29589092184212,2.268684940517391],[102.29640913023268,2.268684940517391]]],[[[102.29900017218549,2.2678738250039348],[102.29904719952198,2.2675082486116813],[102.29900017218549,2.2675082486116813],[102.29900017218549,2.2678738250039348]]],[[[102.29899674342737,2.2679004791434174],[102.29848196379491,2.268070410585437],[102.29898379999999,2.268001097478699],[102.29899674342737,2.2679004791434174]]],[[[102.29796375540435,2.268292709778647],[102.2979994,2.268546497478103],[102.29804836350965,2.268292709778647],[102.29796375540435,2.268292709778647]]],[[[102.29775882993319,2.268684940517391],[102.29744554701381,2.269077171359666],[102.2977392312853,2.269077171359666],[102.29775882993319,2.268684940517391]]],[[[102.29796375540435,2.269469402305489],[102.2979786874615,2.269469402305489],[102.29796375540435,2.2694580808689393],[102.29796375540435,2.269469402305489]]],[[[102.29744554701381,2.2698616333548793],[102.29692733862325,2.2698616333548793],[102.29692733862325,2.269469402305489],[102.29629656627888,2.269469402305489],[102.29760379999999,2.270386397476063],[102.29744554701381,2.2698616333548793]]]]},"properties":{"place_id":"bd73d4aa-68c8-5fc9-9de2-77fd569037f4","habitat":"disturbed_built_edge","habitat_label":"Disturbed, bare or built edge","resolution_m":50}}]}