{"type":"FeatureCollection","metadata":{"schema_version":1,"place_id":"bd808c8a-5fd9-55fd-b559-4ac498083c58","place_name":"Taman Tasik Metropolitan Kepong","place_type":"park","osm_reference":"way/498355681","protection_context":"no protected status confirmed from included OSM tags","resolution_m":50,"raster_coverage":1.0,"interpretation":"Suggested search habitats, not predicted plant locations or probabilities of presence."},"features":[{"type":"Feature","geometry":{"type":"MultiPolygon","coordinates":[[[[101.64502118329796,3.2194067400960718],[101.64504470188996,3.2194067400960718],[101.64502118329796,3.2193731772263456],[101.64502118329796,3.2194067400960718]]],[[[101.64346655812628,3.223724628763913],[101.64398476651682,3.222154485367426],[101.64346655812628,3.222154485367426],[101.64346655812628,3.22136941455339],[101.64294834973572,3.22136941455339],[101.64294834973572,3.2217619498867394],[101.64191193295459,3.222154485367426],[101.64139372456404,3.223724628763913],[101.64191193295459,3.223724628763913],[101.64191193295459,3.224117164981559],[101.64294834973572,3.224117164981559],[101.64294834973572,3.223724628763913],[101.64346655812628,3.223724628763913]]],[[[101.649685058813,3.2233320926936946],[101.64979808681574,3.2233320926936946],[101.649685058813,3.223250735076021],[101.649685058813,3.2233320926936946]]],[[[101.64398476651682,3.2272574600323165],[101.64398476651682,3.2276499975776307],[101.6445029749074,3.2276499975776307],[101.6445029749074,3.2272574600323165],[101.64398476651682,3.2272574600323165]]]]},"properties":{"place_id":"bd808c8a-5fd9-55fd-b559-4ac498083c58","habitat":"forest_interior","habitat_label":"Forest interior","resolution_m":50}},{"type":"Feature","geometry":{"type":"Polygon","coordinates":[[[101.63983909939235,3.222939556770885],[101.64151120000001,3.224113296436891],[101.6441514,3.2280248964326574],[101.6475632,3.2286962964319335],[101.64813043364133,3.2280425352705544],[101.64916685042243,3.2280425352705544],[101.6497363,3.2286503964319495],[101.65008989999998,3.227415296433291],[101.649685058813,3.225294774519249],[101.65017809999999,3.2239302964370617],[101.6494533,3.22288839643818],[101.64935009999999,3.221219896439973],[101.64749259999999,3.220562496440711],[101.64628699999999,3.2206959964405626],[101.64490949999998,3.219213796442145],[101.6443183,3.2191005964422947],[101.6445029749074,3.219799274693005],[101.64553939168852,3.220191809437186],[101.64553939168852,3.22136941455339],[101.64605760007909,3.22136941455339],[101.64605760007909,3.2217619498867394],[101.64657580846963,3.2217619498867394],[101.64657580846963,3.22136941455339],[101.64813043364133,3.22136941455339],[101.64813043364133,3.2217619498867394],[101.64864864203189,3.2217619498867394],[101.64864864203189,3.2233320926936946],[101.649685058813,3.223724628763913],[101.649685058813,3.224117164981559],[101.64916685042243,3.224117164981559],[101.64916685042243,3.2249022378592103],[101.64864864203189,3.2249022378592103],[101.64864864203189,3.225294774519249],[101.64813043364133,3.225294774519249],[101.64813043364133,3.2260798482818482],[101.64761222525075,3.2260798482818482],[101.64761222525075,3.2272574600323165],[101.64605760007909,3.2272574600323165],[101.64605760007909,3.2276499975776307],[101.64398476651682,3.226472385384443],[101.64398476651682,3.223724628763913],[101.6445029749074,3.223724628763913],[101.6445029749074,3.222939556770885],[101.64502118329796,3.222939556770885],[101.6445029749074,3.2209768793673597],[101.64398476651682,3.2209768793673597],[101.64398476651682,3.22058434432863],[101.64360779999998,3.2209555964402767],[101.6421796,3.220862496440362],[101.64242269999998,3.221818896439329],[101.64164189999998,3.2219235964392374],[101.6406527,3.2208162964404163],[101.6394241,3.221787896439402],[101.63983909939235,3.222939556770885]],[[101.64398476651682,3.2272574600323165],[101.6445029749074,3.2272574600323165],[101.6445029749074,3.2276499975776307],[101.64398476651682,3.2276499975776307],[101.64398476651682,3.2272574600323165]],[[101.64191193295459,3.223724628763913],[101.64139372456404,3.223724628763913],[101.64139372456404,3.222939556770885],[101.64191193295459,3.222939556770885],[101.64191193295459,3.222154485367426],[101.64346655812628,3.22136941455339],[101.64398476651682,3.222939556770885],[101.64346655812628,3.222939556770885],[101.64346655812628,3.223724628763913],[101.64294834973572,3.223724628763913],[101.64294834973572,3.224117164981559],[101.64191193295459,3.224117164981559],[101.64191193295459,3.223724628763913]]]},"properties":{"place_id":"bd808c8a-5fd9-55fd-b559-4ac498083c58","habitat":"forest_edge_opening","habitat_label":"Forest edge or opening","resolution_m":50}},{"type":"Feature","geometry":{"type":"MultiPolygon","coordinates":[[[[101.6403573077829,3.2217619498867394],[101.6403573077829,3.222939556770885],[101.64139372456404,3.222939556770885],[101.64139372456404,3.2217619498867394],[101.6403573077829,3.2217619498867394]]],[[[101.64243014134514,3.2245097013466526],[101.64243014134514,3.2249022378592103],[101.64294834973572,3.2249022378592103],[101.64294834973572,3.2245097013466526],[101.64243014134514,3.2245097013466526]]],[[[101.64864864203189,3.2256873113267894],[101.64864864203189,3.2260798482818482],[101.64916685042243,3.2260798482818482],[101.64916685042243,3.2256873113267894],[101.64864864203189,3.2256873113267894]]],[[[101.64864864203189,3.226864922634593],[101.64916685042243,3.226864922634593],[101.64916685042243,3.2272574600323165],[101.649685058813,3.2272574600323165],[101.649685058813,3.226472385384443],[101.64864864203189,3.226472385384443],[101.64864864203189,3.226864922634593]]],[[[101.64813043364133,3.2280425352705544],[101.64761222525075,3.2280425352705544],[101.64761222525075,3.228696234971108],[101.6494602,3.228763496431829],[101.64990577279596,3.228435073111105],[101.64916685042243,3.2280425352705544],[101.64916685042243,3.2272574600323165],[101.64864864203189,3.2272574600323165],[101.64813043364133,3.2280425352705544]]]]},"properties":{"place_id":"bd808c8a-5fd9-55fd-b559-4ac498083c58","habitat":"open_grassland","habitat_label":"Open grassland or shrubland","resolution_m":50}},{"type":"Feature","geometry":{"type":"MultiPolygon","coordinates":[[[[101.64755433176784,3.22058434432863],[101.64749259999999,3.220562496440711],[101.64746792950699,3.22058434432863],[101.64755433176784,3.22058434432863]]],[[[101.64813043364133,3.22136941455339],[101.64916685042243,3.22136941455339],[101.64936706919232,3.2217619498867394],[101.64935009999999,3.221219896439973],[101.64761222525075,3.2206048337848023],[101.64813043364133,3.22136941455339]]],[[[101.64761222525075,3.2280425352705544],[101.64813043364133,3.2280425352705544],[101.64761222525075,3.2272574600323165],[101.6470940168602,3.2272574600323165],[101.64657580846963,3.2280425352705544],[101.64605760007909,3.2280425352705544],[101.64605760007909,3.2276499975776307],[101.64553939168852,3.2276499975776307],[101.64553939168852,3.2280425352705544],[101.6445029749074,3.2280425352705544],[101.6445029749074,3.2276499975776307],[101.64398476651682,3.2276499975776307],[101.64398476651682,3.226864922634593],[101.64346655812628,3.226864922634593],[101.64346655812628,3.2260798482818482],[101.64294834973572,3.2260798482818482],[101.64243014134514,3.224117164981559],[101.64139372456404,3.223724628763913],[101.64139372456404,3.222939556770885],[101.64087551617348,3.222939556770885],[101.64087551617348,3.222547020995469],[101.63983909939235,3.222547020995469],[101.63983909939235,3.222154485367426],[101.64087551617348,3.222154485367426],[101.64087551617348,3.2217619498867394],[101.64139372456404,3.2217619498867394],[101.64139372456404,3.222154485367426],[101.64243014134514,3.222154485367426],[101.64243014134514,3.2217619498867394],[101.64294834973572,3.2217619498867394],[101.64294834973572,3.22136941455339],[101.64398476651682,3.22136941455339],[101.6445029749074,3.22058434432863],[101.64553939168852,3.22058434432863],[101.64553939168852,3.2209768793673597],[101.64605760007909,3.2209768793673597],[101.64553939168852,3.2199868070248976],[101.64502118329796,3.220191809437186],[101.64490949999998,3.219213796442145],[101.6443183,3.2191005964422947],[101.64360779999998,3.2209555964402767],[101.6421796,3.220862496440362],[101.64242269999998,3.221818896439329],[101.64164189999998,3.2219235964392374],[101.6406527,3.2208162964404163],[101.6394241,3.221787896439402],[101.6394901,3.222683996438405],[101.6412918,3.223865896437135],[101.6436843,3.227579696433123],[101.64470349999999,3.2283075964323524],[101.6494602,3.228763496431829],[101.64996989999999,3.2283535964322994],[101.65008989999998,3.227415296433291],[101.649685058813,3.2272574600323165],[101.649685058813,3.228435073111105],[101.64761222525075,3.228435073111105],[101.64761222525075,3.2280425352705544]]],[[[101.65005680693692,3.2245097013466526],[101.649685058813,3.2249022378592103],[101.64864864203189,3.225294774519249],[101.64864864203189,3.2260798482818482],[101.64916685042243,3.2260798482818482],[101.64980676773884,3.226864922634593],[101.65005680693692,3.2245097013466526]]],[[[101.64813043364133,3.2272574600323165],[101.64916685042243,3.2276499975776307],[101.649685058813,3.226864922634593],[101.64864864203189,3.226472385384443],[101.64813043364133,3.2272574600323165]]]]},"properties":{"place_id":"bd808c8a-5fd9-55fd-b559-4ac498083c58","habitat":"disturbed_built_edge","habitat_label":"Disturbed, bare or built edge","resolution_m":50}},{"type":"Feature","geometry":{"type":"Polygon","coordinates":[[[101.64553939168852,3.2199868070248976],[101.64502118329796,3.2194067400960718],[101.6445029749074,3.2194067400960718],[101.6445029749074,3.22058434432863],[101.64398476651682,3.22058434432863],[101.64398476651682,3.222154485367426],[101.6445029749074,3.222154485367426],[101.6445029749074,3.222939556770885],[101.64398476651682,3.222939556770885],[101.64398476651682,3.223724628763913],[101.64346655812628,3.223724628763913],[101.64346655812628,3.226472385384443],[101.64502118329796,3.2272574600323165],[101.64502118329796,3.2280425352705544],[101.64605760007909,3.2280425352705544],[101.64605760007909,3.2276499975776307],[101.64761222525075,3.2276499975776307],[101.64761222525075,3.2272574600323165],[101.64813043364133,3.2272574600323165],[101.64813043364133,3.2260798482818482],[101.64864864203189,3.2260798482818482],[101.64864864203189,3.225294774519249],[101.649685058813,3.2249022378592103],[101.649685058813,3.224117164981559],[101.65017809999999,3.2239302964370617],[101.649685058813,3.2233320926936946],[101.64916685042243,3.2233320926936946],[101.64916685042243,3.2217619498867394],[101.64864864203189,3.2217619498867394],[101.64864864203189,3.2209768793673597],[101.64657580846963,3.2209768793673597],[101.64657580846963,3.22136941455339],[101.64605760007909,3.22136941455339],[101.64605760007909,3.22058434432863],[101.64553939168852,3.22058434432863],[101.64553939168852,3.2199868070248976]]]},"properties":{"place_id":"bd808c8a-5fd9-55fd-b559-4ac498083c58","habitat":"permanent_water","habitat_label":"Permanent water","resolution_m":50}},{"type":"Feature","geometry":{"type":"MultiPolygon","coordinates":[[[[101.6445029749074,3.219799274693005],[101.64502118329796,3.219799274693005],[101.64502118329796,3.2194067400960718],[101.6445029749074,3.2194067400960718],[101.6445029749074,3.219799274693005]]],[[[101.64502118329796,3.22058434432863],[101.64553939168852,3.22058434432863],[101.64553939168852,3.220191809437186],[101.64502118329796,3.220191809437186],[101.64502118329796,3.22058434432863]]],[[[101.64398476651682,3.22136941455339],[101.6445029749074,3.22136941455339],[101.6445029749074,3.22058434432863],[101.64398476651682,3.22058434432863],[101.64398476651682,3.22136941455339]]],[[[101.64864864203189,3.22136941455339],[101.64864864203189,3.2209768793673597],[101.64813043364133,3.2209768793673597],[101.64813043364133,3.22136941455339],[101.64864864203189,3.22136941455339]]],[[[101.64813043364133,3.222154485367426],[101.64813043364133,3.22136941455339],[101.6470940168602,3.22136941455339],[101.6470940168602,3.2217619498867394],[101.64813043364133,3.222154485367426]]],[[[101.64864864203189,3.222939556770885],[101.64916685042243,3.222939556770885],[101.64916685042243,3.222547020995469],[101.64864864203189,3.222547020995469],[101.64864864203189,3.222939556770885]]],[[[101.64864864203189,3.225294774519249],[101.64916685042243,3.225294774519249],[101.64916685042243,3.2249022378592103],[101.64864864203189,3.2249022378592103],[101.64864864203189,3.225294774519249]]],[[[101.64761222525075,3.226864922634593],[101.64813043364133,3.226864922634593],[101.64813043364133,3.226472385384443],[101.64761222525075,3.226472385384443],[101.64761222525075,3.226864922634593]]],[[[101.64502118329796,3.2272574600323165],[101.64502118329796,3.226864922634593],[101.6445029749074,3.226864922634593],[101.6445029749074,3.2272574600323165],[101.64502118329796,3.2272574600323165]]],[[[101.64605760007909,3.2280425352705544],[101.64605760007909,3.2276499975776307],[101.64553939168852,3.2276499975776307],[101.64553939168852,3.2280425352705544],[101.64605760007909,3.2280425352705544]]]]},"properties":{"place_id":"bd808c8a-5fd9-55fd-b559-4ac498083c58","habitat":"seasonal_water_wetland","habitat_label":"Seasonal water or wetland","resolution_m":50}},{"type":"Feature","geometry":{"type":"MultiPolygon","coordinates":[[[[101.64605760007909,3.22058434432863],[101.64605760007909,3.22136941455339],[101.64657580846963,3.22136941455339],[101.64657580846963,3.2209768793673597],[101.64864864203189,3.2209768793673597],[101.64864864203189,3.2217619498867394],[101.64916685042243,3.2217619498867394],[101.64916685042243,3.2233320926936946],[101.65013532865245,3.223724628763913],[101.6494533,3.22288839643818],[101.64935009999999,3.221219896439973],[101.64749259999999,3.220562496440711],[101.64628699999999,3.2206959964405626],[101.64553939168852,3.2199868070248976],[101.64553939168852,3.22058434432863],[101.64605760007909,3.22058434432863]]],[[[101.6403573077829,3.22136941455339],[101.64087551617348,3.22136941455339],[101.64087551617348,3.2217619498867394],[101.64191193295459,3.222154485367426],[101.6406527,3.2208162964404163],[101.6403573077829,3.22136941455339]]],[[[101.64243014134514,3.2217619498867394],[101.64243014134514,3.22136941455339],[101.64294834973572,3.22136941455339],[101.64294834973572,3.222154485367426],[101.64346655812628,3.222154485367426],[101.64346655812628,3.222939556770885],[101.64294834973572,3.222939556770885],[101.64294834973572,3.223724628763913],[101.64243014134514,3.223724628763913],[101.64243014134514,3.22553333706857],[101.6434718760183,3.2272574600323165],[101.64398476651682,3.2272574600323165],[101.64398476651682,3.2278660755446205],[101.64470349999999,3.2283075964323524],[101.64761222525075,3.228435073111105],[101.64761222525075,3.2280425352705544],[101.64916685042243,3.2272574600323165],[101.64916685042243,3.2260798482818482],[101.649685058813,3.2260798482818482],[101.65018346140994,3.224117164981559],[101.649685058813,3.224117164981559],[101.649685058813,3.2249022378592103],[101.64864864203189,3.225294774519249],[101.64864864203189,3.2260798482818482],[101.64813043364133,3.2260798482818482],[101.64813043364133,3.2272574600323165],[101.64761222525075,3.2272574600323165],[101.64761222525075,3.2276499975776307],[101.64502118329796,3.2280425352705544],[101.64502118329796,3.2272574600323165],[101.64346655812628,3.226472385384443],[101.64346655812628,3.223724628763913],[101.64398476651682,3.223724628763913],[101.64398476651682,3.222939556770885],[101.6445029749074,3.222939556770885],[101.6445029749074,3.222154485367426],[101.64398476651682,3.222154485367426],[101.64398476651682,3.22058434432863],[101.6445029749074,3.22058434432863],[101.6445029749074,3.2194067400960718],[101.64536180322466,3.219799274693005],[101.64490949999998,3.219213796442145],[101.6443183,3.2191005964422947],[101.64360779999998,3.2209555964402767],[101.6421796,3.220862496440362],[101.64243014134514,3.2217619498867394]]]]},"properties":{"place_id":"bd808c8a-5fd9-55fd-b559-4ac498083c58","habitat":"water_edge","habitat_label":"Water edge","resolution_m":50}}]}