{"type":"FeatureCollection","metadata":{"schema_version":1,"place_id":"be62c9b7-c328-5113-9a56-7596b4b17513","place_name":"Taman Tasik Tanjung Sura","place_type":"park","osm_reference":"way/487356480","protection_context":"no protected status confirmed from included OSM tags","resolution_m":50,"raster_coverage":1.0,"interpretation":"Suggested search habitats, not predicted plant locations or probabilities of presence."},"features":[{"type":"Feature","geometry":{"type":"MultiPolygon","coordinates":[[[[103.43802221463778,4.70715515913681],[103.43795149999997,4.706537694866779],[103.43750400624721,4.70715515913681],[103.43802221463778,4.70715515913681]]],[[[103.43698579785665,4.707621342407038],[103.43650310000001,4.70816299486513],[103.43680239464929,4.708334827668952],[103.43698579785665,4.708334827668952],[103.43698579785665,4.707621342407038]]]]},"properties":{"place_id":"be62c9b7-c328-5113-9a56-7596b4b17513","habitat":"forest_interior","habitat_label":"Forest interior","resolution_m":50}},{"type":"Feature","geometry":{"type":"Polygon","coordinates":[[[103.43698579785665,4.707621342407038],[103.4374299,4.708695094864552],[103.43870610000002,4.707060794866248],[103.43802221463778,4.70658671529446],[103.43802221463778,4.70715515913681],[103.43750400624721,4.707039842770858],[103.43698579785665,4.707621342407038]]]},"properties":{"place_id":"be62c9b7-c328-5113-9a56-7596b4b17513","habitat":"forest_edge_opening","habitat_label":"Forest edge or opening","resolution_m":50}},{"type":"Feature","geometry":{"type":"Polygon","coordinates":[[[103.43854042302834,4.70715515913681],[103.43854042302834,4.707272960361586],[103.43863241229766,4.70715515913681],[103.43854042302834,4.70715515913681]]]},"properties":{"place_id":"be62c9b7-c328-5113-9a56-7596b4b17513","habitat":"open_grassland","habitat_label":"Open grassland or shrubland","resolution_m":50}},{"type":"Feature","geometry":{"type":"Polygon","coordinates":[[[103.43802221463778,4.707548381764531],[103.43698579785665,4.707941604608572],[103.43680239464929,4.708334827668952],[103.4374299,4.708695094864552],[103.43870610000002,4.707060794866248],[103.43802221463778,4.70658671529446],[103.43802221463778,4.707548381764531]]]},"properties":{"place_id":"be62c9b7-c328-5113-9a56-7596b4b17513","habitat":"disturbed_built_edge","habitat_label":"Disturbed, bare or built edge","resolution_m":50}},{"type":"Feature","geometry":{"type":"Polygon","coordinates":[[[103.43750400624721,4.707548381764531],[103.43750400624721,4.70715515913681],[103.43740124104467,4.70715515913681],[103.43705081733614,4.707548381764531],[103.43750400624721,4.707548381764531]]]},"properties":{"place_id":"be62c9b7-c328-5113-9a56-7596b4b17513","habitat":"permanent_water","habitat_label":"Permanent water","resolution_m":50}},{"type":"Feature","geometry":{"type":"Polygon","coordinates":[[[103.43775166475318,4.706761936725392],[103.43698579785665,4.708334827668952],[103.43750400624721,4.708334827668952],[103.43854042302834,4.70715515913681],[103.43775166475318,4.706761936725392]]]},"properties":{"place_id":"be62c9b7-c328-5113-9a56-7596b4b17513","habitat":"water_edge","habitat_label":"Water edge","resolution_m":50}}]}