{"type":"FeatureCollection","metadata":{"schema_version":1,"place_id":"bf565fd5-e1c9-5958-9ec1-ea7eedd389d5","place_name":"Mini Recreational Park, Taman Delight 8","place_type":"park","osm_reference":"way/1262207692","protection_context":"no protected status confirmed from included OSM tags","resolution_m":50,"raster_coverage":1.0,"interpretation":"Suggested search habitats, not predicted plant locations or probabilities of presence."},"features":[{"type":"Feature","geometry":{"type":"Polygon","coordinates":[[[113.97449149999998,4.317209495272793],[113.97423521151671,4.317574875116275],[113.97438035014676,4.317574875116275],[113.97449149999998,4.317209495272793]]]},"properties":{"place_id":"bf565fd5-e1c9-5958-9ec1-ea7eedd389d5","habitat":"open_grassland","habitat_label":"Open grassland or shrubland","resolution_m":50}},{"type":"Feature","geometry":{"type":"Polygon","coordinates":[[[113.97388879999998,4.317777595272214],[113.97452699999998,4.3175143952724655],[113.97441919999999,4.317153895272841],[113.97383809999998,4.317217095272797],[113.97388879999998,4.317777595272214]]]},"properties":{"place_id":"bf565fd5-e1c9-5958-9ec1-ea7eedd389d5","habitat":"disturbed_built_edge","habitat_label":"Disturbed, bare or built edge","resolution_m":50}}]}