{"type":"FeatureCollection","metadata":{"schema_version":1,"place_id":"bfb67946-e57c-5b34-968b-a59890d7dfde","place_name":"Bertam Impian Park","place_type":"park","osm_reference":"way/893203224","protection_context":"no protected status confirmed from included OSM tags","resolution_m":50,"raster_coverage":1.0,"interpretation":"Suggested search habitats, not predicted plant locations or probabilities of presence."},"features":[{"type":"Feature","geometry":{"type":"Polygon","coordinates":[[[102.17307553327926,2.29339568652548],[102.17255732488869,2.29339568652548],[102.17255732488869,2.293003449229182],[102.17206671117751,2.293003449229182],[102.1721143,2.2937560974504105],[102.17307553327926,2.2937471046234585],[102.17307553327926,2.29339568652548]]]},"properties":{"place_id":"bfb67946-e57c-5b34-968b-a59890d7dfde","habitat":"forest_edge_opening","habitat_label":"Forest edge or opening","resolution_m":50}},{"type":"Feature","geometry":{"type":"Polygon","coordinates":[[[102.17255732488869,2.29339568652548],[102.17255732488869,2.2937519527269057],[102.1735937416698,2.2937422565200265],[102.1735937416698,2.293003449229182],[102.17206671117751,2.293003449229182],[102.1720959407785,2.29339568652548],[102.17255732488869,2.29339568652548]]]},"properties":{"place_id":"bfb67946-e57c-5b34-968b-a59890d7dfde","habitat":"open_grassland","habitat_label":"Open grassland or shrubland","resolution_m":50}},{"type":"Feature","geometry":{"type":"Polygon","coordinates":[[[102.17210559999998,2.2929304974513074],[102.1721143,2.2937560974504105],[102.1739421,2.2937389974504283],[102.17394559999998,2.292936297451329],[102.17210559999998,2.2929304974513074]]]},"properties":{"place_id":"bfb67946-e57c-5b34-968b-a59890d7dfde","habitat":"disturbed_built_edge","habitat_label":"Disturbed, bare or built edge","resolution_m":50}}]}