{"type":"FeatureCollection","metadata":{"schema_version":1,"place_id":"bfe63921-37c8-5d36-870a-b5f5e515bda3","place_name":"Persisiran Sayong","place_type":"park","osm_reference":"way/538796299","protection_context":"no protected status confirmed from included OSM tags","resolution_m":50,"raster_coverage":1.0,"interpretation":"Suggested search habitats, not predicted plant locations or probabilities of presence."},"features":[{"type":"Feature","geometry":{"type":"MultiPolygon","coordinates":[[[[100.94906731477501,4.769680286240874],[100.94906731477501,4.769965046964894],[100.94926099999999,4.769876794801228],[100.94906731477501,4.769680286240874]]],[[[100.94854910638446,4.77007354349468],[100.94854910638446,4.770268228769199],[100.94888186888399,4.77007354349468],[100.94854910638446,4.77007354349468]]],[[[100.94751268960334,4.770466800967731],[100.94751268960334,4.770860058660049],[100.94803089799389,4.770860058660049],[100.94803089799389,4.770466800967731],[100.94751268960334,4.770466800967731]]]]},"properties":{"place_id":"bfe63921-37c8-5d36-870a-b5f5e515bda3","habitat":"forest_interior","habitat_label":"Forest interior","resolution_m":50}},{"type":"Feature","geometry":{"type":"MultiPolygon","coordinates":[[[[100.94854910638446,4.77007354349468],[100.94906731477501,4.769965046964894],[100.9490615,4.769407194801723],[100.94826359999999,4.7698602948012185],[100.94703909999998,4.770818494800253],[100.9463916098566,4.771646574702553],[100.94647627282221,4.7718293040838295],[100.9482086,4.771011994800028],[100.94854910638446,4.77007354349468]],[[100.94803089799389,4.770466800967731],[100.94803089799389,4.770860058660049],[100.94751268960334,4.770860058660049],[100.94751268960334,4.770466800967731],[100.94803089799389,4.770466800967731]]],[[[100.94641599466874,4.772039833052774],[100.94592869999998,4.772595994798413],[100.94583443631656,4.773219609419546],[100.94641599466874,4.772039833052774]]],[[[100.94595806443165,4.773286974731798],[100.94617794687639,4.773612868647235],[100.946205,4.773315694797687],[100.94595806443165,4.773286974731798]]],[[[100.94614214664955,4.774006128094333],[100.945796,4.774453094796506],[100.94611589999997,4.774456194796489],[100.94614214664955,4.774006128094333]]]]},"properties":{"place_id":"bfe63921-37c8-5d36-870a-b5f5e515bda3","habitat":"forest_edge_opening","habitat_label":"Forest edge or opening","resolution_m":50}},{"type":"Feature","geometry":{"type":"MultiPolygon","coordinates":[[[[100.94595806443165,4.774399387760864],[100.94605539999999,4.772768394798244],[100.94727397407476,4.7712533165716495],[100.9466625244598,4.7712533165716495],[100.94600650000001,4.7723567947986485],[100.94595806443165,4.774399387760864]]],[[[100.94803089799389,4.770466800967731],[100.94803089799389,4.770860058660049],[100.94751268960334,4.770860058660049],[100.94764459999999,4.771303194799747],[100.9484437,4.770662094800404],[100.94803089799389,4.770466800967731]]]]},"properties":{"place_id":"bfe63921-37c8-5d36-870a-b5f5e515bda3","habitat":"disturbed_built_edge","habitat_label":"Disturbed, bare or built edge","resolution_m":50}},{"type":"Feature","geometry":{"type":"Polygon","coordinates":[[[100.94616800971787,4.772039833052774],[100.94600650000001,4.7723567947986485],[100.9459816843914,4.772433091622335],[100.94629759442802,4.772433091622335],[100.94616800971787,4.772039833052774]]]},"properties":{"place_id":"bfe63921-37c8-5d36-870a-b5f5e515bda3","habitat":"cropland","habitat_label":"Cropland","resolution_m":50}},{"type":"Feature","geometry":{"type":"MultiPolygon","coordinates":[[[[100.94906731477501,4.769680286240874],[100.9490615,4.769407194801723],[100.94856696604354,4.769680286240874],[100.94906731477501,4.769680286240874]]],[[[100.94854910638446,4.77007354349468],[100.94854910638446,4.769690883640302],[100.94795820348381,4.77007354349468],[100.94854910638446,4.77007354349468]]],[[[100.94751268960334,4.77040029395861],[100.94743612949877,4.770466800967731],[100.94751268960334,4.770466800967731],[100.94751268960334,4.77040029395861]]],[[[100.94699448121277,4.7712533165716495],[100.94699448121277,4.7708671698323375],[100.9466625244598,4.7712533165716495],[100.94699448121277,4.7712533165716495]]],[[[100.9459816843914,4.772433091622335],[100.94647627282221,4.7718293040838295],[100.94647627282221,4.771515486471785],[100.9459816843914,4.772433091622335]]],[[[100.94595806443165,4.774454665286457],[100.94595806443165,4.772505712371819],[100.945796,4.774453094796506],[100.94595806443165,4.774454665286457]]]]},"properties":{"place_id":"bfe63921-37c8-5d36-870a-b5f5e515bda3","habitat":"permanent_water","habitat_label":"Permanent water","resolution_m":50}},{"type":"Feature","geometry":{"type":"MultiPolygon","coordinates":[[[[100.94906731477501,4.769680286240874],[100.9490615,4.769407194801723],[100.94856696604354,4.769680286240874],[100.94906731477501,4.769680286240874]]],[[[100.94699448121277,4.7712533165716495],[100.94699448121277,4.7708671698323375],[100.9466625244598,4.7712533165716495],[100.94699448121277,4.7712533165716495]]],[[[100.94641599466874,4.772039833052774],[100.94626399999999,4.771854294799188],[100.94616800971787,4.772039833052774],[100.94641599466874,4.772039833052774]]],[[[100.94595806443165,4.774399387760864],[100.945796,4.774453094796506],[100.94595806443165,4.774454665286457],[100.94595806443165,4.774399387760864]]]]},"properties":{"place_id":"bfe63921-37c8-5d36-870a-b5f5e515bda3","habitat":"seasonal_water_wetland","habitat_label":"Seasonal water or wetland","resolution_m":50}},{"type":"Feature","geometry":{"type":"MultiPolygon","coordinates":[[[[100.94647627282221,4.7718293040838295],[100.94926099999999,4.769876794801228],[100.94906731477501,4.7694208821072985],[100.94703909999998,4.770818494800253],[100.94699448121277,4.7712533165716495],[100.9466625244598,4.7712533165716495],[100.94647627282221,4.7718293040838295]]],[[[100.94629759442802,4.772433091622335],[100.94595806443165,4.772505712371819],[100.94595806443165,4.77322292391734],[100.94629759442802,4.772433091622335]]],[[[100.94595806443165,4.774454665286457],[100.946205,4.773315694797687],[100.94595806443165,4.773286974731798],[100.94595806443165,4.774454665286457]]]]},"properties":{"place_id":"bfe63921-37c8-5d36-870a-b5f5e515bda3","habitat":"water_edge","habitat_label":"Water edge","resolution_m":50}}]}