{"type":"FeatureCollection","metadata":{"schema_version":1,"place_id":"c0117d84-9120-59c6-8131-8a7c4da02926","place_name":"Recreational Park Kota Padawan","place_type":"park","osm_reference":"way/1291996527","protection_context":"no protected status confirmed from included OSM tags","resolution_m":50,"raster_coverage":1.0,"interpretation":"Suggested search habitats, not predicted plant locations or probabilities of presence."},"features":[{"type":"Feature","geometry":{"type":"Polygon","coordinates":[[[110.32656635036037,1.4234351381162202],[110.32693368420496,1.4236380426506532],[110.32689149999999,1.423389398412105],[110.32656635036037,1.4234351381162202]]]},"properties":{"place_id":"c0117d84-9120-59c6-8131-8a7c4da02926","habitat":"forest_interior","habitat_label":"Forest interior","resolution_m":50}},{"type":"Feature","geometry":{"type":"Polygon","coordinates":[[[110.32693368420496,1.4236380426506532],[110.3262048,1.4234859984119983],[110.32626119999999,1.4241455984112645],[110.32693368420496,1.4236380426506532]]]},"properties":{"place_id":"c0117d84-9120-59c6-8131-8a7c4da02926","habitat":"forest_edge_opening","habitat_label":"Forest edge or opening","resolution_m":50}},{"type":"Feature","geometry":{"type":"Polygon","coordinates":[[[110.32693368420496,1.4236380426506532],[110.3262048,1.4234859984119983],[110.32626119999999,1.4241455984112645],[110.32693368420496,1.4236380426506532]]]},"properties":{"place_id":"c0117d84-9120-59c6-8131-8a7c4da02926","habitat":"disturbed_built_edge","habitat_label":"Disturbed, bare or built edge","resolution_m":50}}]}