{"type":"FeatureCollection","metadata":{"schema_version":1,"place_id":"c051fbe2-f793-584d-81c8-e1dff6fa8e8b","place_name":"Bukit Bandaraya Park","place_type":"park","osm_reference":"way/468007143","protection_context":"no protected status confirmed from included OSM tags","resolution_m":50,"raster_coverage":1.0,"interpretation":"Suggested search habitats, not predicted plant locations or probabilities of presence."},"features":[{"type":"Feature","geometry":{"type":"Polygon","coordinates":[[[101.66965959999999,3.137075096530915],[101.66976129999999,3.1380539965298393],[101.67049909999997,3.138049896529833],[101.67047499999998,3.136938496531053],[101.66965959999999,3.137075096530915]]]},"properties":{"place_id":"c051fbe2-f793-584d-81c8-e1dff6fa8e8b","habitat":"forest_edge_opening","habitat_label":"Forest edge or opening","resolution_m":50}},{"type":"Feature","geometry":{"type":"Polygon","coordinates":[[[101.66965959999999,3.137075096530915],[101.66976129999999,3.1380539965298393],[101.67049909999997,3.138049896529833],[101.67047499999998,3.136938496531053],[101.66965959999999,3.137075096530915]]]},"properties":{"place_id":"c051fbe2-f793-584d-81c8-e1dff6fa8e8b","habitat":"disturbed_built_edge","habitat_label":"Disturbed, bare or built edge","resolution_m":50}}]}