{"type":"FeatureCollection","metadata":{"schema_version":1,"place_id":"c08984d2-ecd6-54b0-83d9-0a552b3128e7","place_name":"Dataran Bunga Raya","place_type":"park","osm_reference":"way/34961816","protection_context":"no protected status confirmed from included OSM tags","resolution_m":50,"raster_coverage":1.0,"interpretation":"Suggested search habitats, not predicted plant locations or probabilities of presence."},"features":[{"type":"Feature","geometry":{"type":"MultiPolygon","coordinates":[[[[101.52158310094077,3.0765337817684135],[101.52168758634453,3.0767115628967745],[101.52168758634453,3.0765337817684135],[101.52158310094077,3.0765337817684135]]],[[[101.52181181256356,3.076926263969477],[101.5218548,3.0770032965959073],[101.52197996764686,3.076926263969477],[101.52181181256356,3.076926263969477]]]]},"properties":{"place_id":"c08984d2-ecd6-54b0-83d9-0a552b3128e7","habitat":"forest_interior","habitat_label":"Forest interior","resolution_m":50}},{"type":"Feature","geometry":{"type":"Polygon","coordinates":[[[101.52158400000002,3.076046996596967],[101.52181181256356,3.076926263969477],[101.5225492,3.0765641965963897],[101.52158400000002,3.076046996596967]]]},"properties":{"place_id":"c08984d2-ecd6-54b0-83d9-0a552b3128e7","habitat":"forest_edge_opening","habitat_label":"Forest edge or opening","resolution_m":50}},{"type":"Feature","geometry":{"type":"Polygon","coordinates":[[[101.52158400000002,3.076046996596967],[101.52181181256356,3.076926263969477],[101.5225492,3.0765641965963897],[101.52158400000002,3.076046996596967]]]},"properties":{"place_id":"c08984d2-ecd6-54b0-83d9-0a552b3128e7","habitat":"disturbed_built_edge","habitat_label":"Disturbed, bare or built edge","resolution_m":50}},{"type":"Feature","geometry":{"type":"Polygon","coordinates":[[[101.52220579473509,3.0765337817684135],[101.521377,3.0761591965968207],[101.52168758634453,3.0767115628967745],[101.52220579473509,3.0765337817684135]]]},"properties":{"place_id":"c08984d2-ecd6-54b0-83d9-0a552b3128e7","habitat":"water_edge","habitat_label":"Water edge","resolution_m":50}}]}