{"type":"FeatureCollection","metadata":{"schema_version":1,"place_id":"c0c0334c-af91-5f85-95cc-066f4e910080","place_name":"Laman Lestari Yong Peng","place_type":"park","osm_reference":"way/1549169783","protection_context":"no protected status confirmed from included OSM tags","resolution_m":50,"raster_coverage":1.0,"interpretation":"Suggested search habitats, not predicted plant locations or probabilities of presence."},"features":[{"type":"Feature","geometry":{"type":"MultiPolygon","coordinates":[[[[103.07585130828676,2.0145403099806996],[103.0752565,2.0142691977580602],[103.07497935997479,2.0145403099806996],[103.07585130828676,2.0145403099806996]]],[[[103.07527634124534,2.015192399399163],[103.07475813285477,2.014818762560745],[103.0746781,2.0149194977573104],[103.07527634124534,2.015192399399163]]]]},"properties":{"place_id":"c0c0334c-af91-5f85-95cc-066f4e910080","habitat":"forest_edge_opening","habitat_label":"Forest edge or opening","resolution_m":50}},{"type":"Feature","geometry":{"type":"Polygon","coordinates":[[[103.07475813285477,2.014932477500927],[103.0755662436089,2.0153246451130653],[103.07621756932997,2.014932477500927],[103.07579454963587,2.014932477500927],[103.07579454963587,2.0145403099806996],[103.07497935997479,2.0145403099806996],[103.07475813285477,2.014932477500927]]]},"properties":{"place_id":"c0c0334c-af91-5f85-95cc-066f4e910080","habitat":"open_grassland","habitat_label":"Open grassland or shrubland","resolution_m":50}},{"type":"Feature","geometry":{"type":"Polygon","coordinates":[[[103.07595699999999,2.0155028977566842],[103.07614219999998,2.014672897757613],[103.0752565,2.0142691977580602],[103.0746781,2.0149194977573104],[103.07595699999999,2.0155028977566842]]]},"properties":{"place_id":"c0c0334c-af91-5f85-95cc-066f4e910080","habitat":"disturbed_built_edge","habitat_label":"Disturbed, bare or built edge","resolution_m":50}}]}