{"type":"FeatureCollection","metadata":{"schema_version":1,"place_id":"c1879513-c7b5-5743-a101-84a74ce27b3f","place_name":"Playground 2 Rumah Murah Endau","place_type":"park","osm_reference":"way/1172654014","protection_context":"no protected status confirmed from included OSM tags","resolution_m":50,"raster_coverage":1.0,"interpretation":"Suggested search habitats, not predicted plant locations or probabilities of presence."},"features":[{"type":"Feature","geometry":{"type":"Polygon","coordinates":[[[103.61950489999998,2.6478712970625575],[103.6197943,2.6478073970626363],[103.6196892,2.6476901970627775],[103.61950489999998,2.6478712970625575]]]},"properties":{"place_id":"c1879513-c7b5-5743-a101-84a74ce27b3f","habitat":"forest_edge_opening","habitat_label":"Forest edge or opening","resolution_m":50}},{"type":"Feature","geometry":{"type":"Polygon","coordinates":[[[103.61950489999998,2.6478712970625575],[103.6197943,2.6478073970626363],[103.6196892,2.6476901970627775],[103.61950489999998,2.6478712970625575]]]},"properties":{"place_id":"c1879513-c7b5-5743-a101-84a74ce27b3f","habitat":"open_grassland","habitat_label":"Open grassland or shrubland","resolution_m":50}},{"type":"Feature","geometry":{"type":"Polygon","coordinates":[[[103.61950489999998,2.6478712970625575],[103.6197943,2.6478073970626363],[103.6196892,2.6476901970627775],[103.61950489999998,2.6478712970625575]]]},"properties":{"place_id":"c1879513-c7b5-5743-a101-84a74ce27b3f","habitat":"disturbed_built_edge","habitat_label":"Disturbed, bare or built edge","resolution_m":50}}]}