{"type":"FeatureCollection","metadata":{"schema_version":1,"place_id":"c25bdfad-deef-54bf-bfca-53b0ec4a3e58","place_name":"Bukit Melati","place_type":"wood","osm_reference":"way/700247975","protection_context":"no protected status confirmed from included OSM tags","resolution_m":50,"raster_coverage":1.0,"interpretation":"Suggested search habitats, not predicted plant locations or probabilities of presence."},"features":[{"type":"Feature","geometry":{"type":"MultiPolygon","coordinates":[[[[101.76731836347028,2.812844122984705],[101.76680015507971,2.8128166321617587],[101.76680015507971,2.8112842200137074],[101.76628194668915,2.8112470663989377],[101.76628194668915,2.810854675279364],[101.76524552990803,2.810840751532864],[101.76420911312691,2.8113221734094376],[101.76419399999999,2.8119259968837262],[101.7647795,2.812210196883381],[101.76472732151747,2.8132090239236858],[101.76576373829859,2.8132090239236858],[101.76576373829859,2.8128166321617587],[101.76628194668915,2.8128166321617587],[101.76628194668915,2.8132090239236858],[101.76731836347028,2.8136014158141367],[101.76731836347028,2.812844122984705]]],[[[101.76628194668915,2.813993807833131],[101.76524552990803,2.8136014158141367],[101.76524552990803,2.8143861999806856],[101.76576373829859,2.8143861999806856],[101.76576373829859,2.8147785922568187],[101.76424486828694,2.815563377194896],[101.76420911312691,2.815955769856874],[101.76472732151747,2.815955769856874],[101.76450834717109,2.8183101285310466],[101.76472732151747,2.8190949157856524],[101.76524552990803,2.8190949157856524],[101.76524552990803,2.819824621414359],[101.76621259999999,2.820259996874651],[101.76555280000001,2.8212699968735313],[101.76601559999999,2.821771796872982],[101.7676554,2.8218040968729645],[101.7680794,2.821506596873276],[101.7676325,2.8193480968756486],[101.76856490972833,2.8187025220939605],[101.76845780715665,2.817525341791478],[101.7677471,2.8172436968779118],[101.76731836347028,2.81517098466155],[101.76680015507971,2.81517098466155],[101.76680015507971,2.8136014158141367],[101.76628194668915,2.8136014158141367],[101.76628194668915,2.813993807833131]]]]},"properties":{"place_id":"c25bdfad-deef-54bf-bfca-53b0ec4a3e58","habitat":"forest_interior","habitat_label":"Forest interior","resolution_m":50}},{"type":"Feature","geometry":{"type":"MultiPolygon","coordinates":[[[[101.76524552990803,2.810854675279364],[101.76628194668915,2.810854675279364],[101.76628194668915,2.8112470663989377],[101.7667666619494,2.8112470663989377],[101.76646189999998,2.8109089968848058],[101.76582579999999,2.810703496885045],[101.76524552990803,2.810854675279364]]],[[[101.76420911312691,2.811639457646946],[101.76420911312691,2.8113221734094376],[101.7640883,2.8113980968842776],[101.76420911312691,2.811639457646946]]],[[[101.76680015507971,2.8128166321617587],[101.76729876900582,2.8128166321617587],[101.76680015507971,2.8112842200137074],[101.76680015507971,2.8128166321617587]]],[[[101.76576373829859,2.8147785922568187],[101.76576373829859,2.8143861999806856],[101.76524552990803,2.8143861999806856],[101.76524552990803,2.8136014158141367],[101.76628194668915,2.813993807833131],[101.76680015507971,2.8132090239236858],[101.76628194668915,2.8132090239236858],[101.76628194668915,2.8128166321617587],[101.76576373829859,2.8128166321617587],[101.76576373829859,2.8132090239236858],[101.76472732151747,2.8132090239236858],[101.7647154625872,2.8124242405283386],[101.76424486828694,2.815563377194896],[101.76576373829859,2.8147785922568187]]],[[[101.76472732151747,2.8183101285310466],[101.76472732151747,2.815955769856874],[101.76420911312691,2.8157469806063844],[101.76409529999998,2.8168237968783822],[101.76472732151747,2.8183101285310466]]],[[[101.76472732151747,2.8190949157856524],[101.76463834811075,2.8187025220939605],[101.76476839999998,2.819891096875036],[101.76498819999998,2.8199559968749757],[101.76524552990803,2.8190949157856524],[101.76472732151747,2.8190949157856524]]],[[[101.76680015507971,2.8136014158141367],[101.76680015507971,2.81517098466155],[101.76731836347028,2.81517098466155],[101.76731836347028,2.815563377194896],[101.76746502329264,2.815563377194896],[101.76736029999999,2.8137612968817183],[101.7678285,2.8135666968819075],[101.76731836347028,2.812844122984705],[101.76731836347028,2.8136014158141367],[101.76680015507971,2.8136014158141367]]],[[[101.76783657186083,2.816348162647503],[101.76783657186083,2.8169653837417807],[101.767974,2.8165378968787],[101.76766996402084,2.815955769856874],[101.76731836347028,2.815955769856874],[101.76731836347028,2.816348162647503],[101.76783657186083,2.816348162647503]]],[[[101.76835478025139,2.817525341791478],[101.76845780715665,2.817525341791478],[101.76835478025139,2.8173446857171336],[101.76835478025139,2.817525341791478]]],[[[101.76783657186083,2.8190949157856524],[101.76861219999999,2.819222296875773],[101.76856490972833,2.8187025220939605],[101.76835478025139,2.8190949157856524],[101.76783657186083,2.8190949157856524]]],[[[101.76795563367659,2.8206644918405526],[101.76783657186083,2.8201794528592843],[101.76783657186083,2.8206644918405526],[101.76795563367659,2.8206644918405526]]]]},"properties":{"place_id":"c25bdfad-deef-54bf-bfca-53b0ec4a3e58","habitat":"forest_edge_opening","habitat_label":"Forest edge or opening","resolution_m":50}},{"type":"Feature","geometry":{"type":"MultiPolygon","coordinates":[[[[101.76524552990803,2.8143861999806856],[101.76472732151747,2.8143861999806856],[101.76472732151747,2.8147785922568187],[101.76524552990803,2.8147785922568187],[101.76524552990803,2.8143861999806856]]],[[[101.76420911312691,2.8171329486147876],[101.76408933271577,2.8167405555668017],[101.76415904062524,2.8171329486147876],[101.76420911312691,2.8171329486147876]]]]},"properties":{"place_id":"c25bdfad-deef-54bf-bfca-53b0ec4a3e58","habitat":"open_grassland","habitat_label":"Open grassland or shrubland","resolution_m":50}},{"type":"Feature","geometry":{"type":"MultiPolygon","coordinates":[[[[101.76582579999999,2.810703496885045],[101.76628194668915,2.810854675279364],[101.76628194668915,2.8112470663989377],[101.7667666619494,2.8112470663989377],[101.76646189999998,2.8109089968848058],[101.76582579999999,2.810703496885045]]],[[[101.76420911312691,2.811639457646946],[101.76420911312691,2.8113221734094376],[101.7640883,2.8113980968842776],[101.76420911312691,2.811639457646946]]],[[[101.76680015507971,2.8124242405283386],[101.76703559999999,2.8115453968841058],[101.76680015507971,2.8112842200137074],[101.76680015507971,2.8124242405283386]]],[[[101.76576373829859,2.8132090239236858],[101.76472732151747,2.8132090239236858],[101.7647154625872,2.8124242405283386],[101.76424486828694,2.815563377194896],[101.76472732151747,2.815563377194896],[101.76524552990803,2.8136014158141367],[101.76576373829859,2.8136014158141367],[101.76576373829859,2.813993807833131],[101.76680015507971,2.8136014158141367],[101.76628194668915,2.8128166321617587],[101.76576373829859,2.8128166321617587],[101.76576373829859,2.8132090239236858]]],[[[101.76731836347028,2.8132090239236858],[101.76731836347028,2.8136014158141367],[101.76680015507971,2.8136014158141367],[101.76680015507971,2.81517098466155],[101.76731836347028,2.81517098466155],[101.76731836347028,2.815563377194896],[101.76746502329264,2.815563377194896],[101.76736029999999,2.8137612968817183],[101.7678285,2.8135666968819075],[101.76731836347028,2.8132090239236858]]],[[[101.76731836347028,2.816348162647503],[101.76783657186083,2.816348162647503],[101.76790884943884,2.8167405555668017],[101.767974,2.8165378968787],[101.76766996402084,2.815955769856874],[101.76731836347028,2.816348162647503]]],[[[101.76420911312691,2.8167405555668017],[101.76472732151747,2.8167405555668017],[101.76472732151747,2.815955769856874],[101.76420911312691,2.8157469806063844],[101.76409529999998,2.8168237968783822],[101.76450834717109,2.8183101285310466],[101.76472732151747,2.8183101285310466],[101.76472732151747,2.8171329486147876],[101.76420911312691,2.8171329486147876],[101.76420911312691,2.8167405555668017]]],[[[101.76856490972833,2.8187025220939605],[101.76783657186083,2.8190949157856524],[101.76783657186083,2.8193218926895347],[101.76861219999999,2.819222296875773],[101.76856490972833,2.8187025220939605]]],[[[101.76463834811075,2.8187025220939605],[101.76476726654097,2.8198797035554395],[101.76508294504713,2.8198797035554395],[101.76524552990803,2.8190949157856524],[101.76472732151747,2.8190949157856524],[101.76463834811075,2.8187025220939605]]],[[[101.76795563367659,2.8206644918405526],[101.76783657186083,2.8201794528592843],[101.76783657186083,2.8206644918405526],[101.76795563367659,2.8206644918405526]]]]},"properties":{"place_id":"c25bdfad-deef-54bf-bfca-53b0ec4a3e58","habitat":"disturbed_built_edge","habitat_label":"Disturbed, bare or built edge","resolution_m":50}}]}