{"type":"FeatureCollection","metadata":{"schema_version":1,"place_id":"c291eda4-3b83-5e7e-9007-87f9ce27accf","place_name":"Pulau Pesagi","place_type":"wood","osm_reference":"way/412280302","protection_context":"no protected status confirmed from included OSM tags","resolution_m":50,"raster_coverage":1.0,"interpretation":"Suggested search habitats, not predicted plant locations or probabilities of presence."},"features":[{"type":"Feature","geometry":{"type":"Polygon","coordinates":[[[102.63842666800271,3.5256298880900436],[102.63842666800271,3.526415198160385],[102.63946308478383,3.526415198160385],[102.63946308478383,3.5268078534376546],[102.64049950156495,3.526415198160385],[102.64049950156495,3.5268078534376546],[102.6410177099555,3.5268078534376546],[102.6410177099555,3.526415198160385],[102.64464516868944,3.526022543044521],[102.64464516868944,3.5256298880900436],[102.64568158547056,3.5256298880900436],[102.64568158547056,3.5252372332969353],[102.6425723351272,3.5252372332969353],[102.6425723351272,3.524844578665177],[102.63946308478383,3.524844578665177],[102.63946308478383,3.5244519241947505],[102.63894487639327,3.5244519241947505],[102.63894487639327,3.524844578665177],[102.63807929420994,3.5252372332969353],[102.63800597075833,3.5256298880900436],[102.63842666800271,3.5256298880900436]]]},"properties":{"place_id":"c291eda4-3b83-5e7e-9007-87f9ce27accf","habitat":"forest_interior","habitat_label":"Forest interior","resolution_m":50}},{"type":"Feature","geometry":{"type":"Polygon","coordinates":[[[102.63842666800271,3.5268078534376546],[102.64160509999998,3.5270557961110196],[102.64723621064223,3.5255240890229556],[102.64493110000001,3.5248832961133396],[102.63871909999999,3.5243518961139224],[102.638188,3.5245766961136815],[102.63807929420994,3.5252372332969353],[102.63946308478383,3.5244519241947505],[102.63946308478383,3.524844578665177],[102.6425723351272,3.524844578665177],[102.6425723351272,3.5252372332969353],[102.64568158547056,3.5252372332969353],[102.64568158547056,3.5256298880900436],[102.64309054351776,3.526022543044521],[102.64309054351776,3.526415198160385],[102.6410177099555,3.526415198160385],[102.6410177099555,3.5268078534376546],[102.64049950156495,3.5268078534376546],[102.64049950156495,3.526415198160385],[102.63998129317439,3.526415198160385],[102.63998129317439,3.5268078534376546],[102.63946308478383,3.5268078534376546],[102.63946308478383,3.526415198160385],[102.63842666800271,3.526415198160385],[102.63842666800271,3.5256298880900436],[102.63800597075833,3.5256298880900436],[102.6377575,3.5263583961117666],[102.63842666800271,3.5268078534376546]]]},"properties":{"place_id":"c291eda4-3b83-5e7e-9007-87f9ce27accf","habitat":"forest_edge_opening","habitat_label":"Forest edge or opening","resolution_m":50}},{"type":"Feature","geometry":{"type":"MultiPolygon","coordinates":[[[[102.63946308478383,3.5244519241947505],[102.64060856165241,3.5244519241947505],[102.63946308478383,3.5243768433259435],[102.63946308478383,3.5244519241947505]]],[[[102.63842666800271,3.524844578665177],[102.63842666800271,3.524409420687496],[102.63810745808574,3.524844578665177],[102.63842666800271,3.524844578665177]]],[[[102.6425723351272,3.524844578665177],[102.64458071641997,3.524844578665177],[102.6425723351272,3.5246090148854177],[102.6425723351272,3.524844578665177]]],[[[102.64568158547056,3.5252372332969353],[102.64599729999999,3.5251603961130407],[102.64568158547056,3.525058808394993],[102.64568158547056,3.5252372332969353]]],[[[102.64671800225167,3.5258660661899768],[102.64753279999996,3.525683696112503],[102.64756299999999,3.525628896112557],[102.64671800225167,3.5254306327196314],[102.64671800225167,3.5258660661899768]]],[[[102.64464516868944,3.526297669929727],[102.6457936,3.5260368961121094],[102.64587206225677,3.526022543044521],[102.64464516868944,3.526022543044521],[102.64464516868944,3.526297669929727]]],[[[102.63842666800271,3.526415198160385],[102.63790845961215,3.526415198160385],[102.63790845961215,3.5258327296280845],[102.63782459999999,3.5264814961116393],[102.638613,3.526912596111175],[102.63946308478383,3.5270525765065632],[102.63842666800271,3.5268078534376546],[102.63842666800271,3.526415198160385]]],[[[102.64309054351776,3.5266871964732545],[102.64415592929987,3.526415198160385],[102.64309054351776,3.526415198160385],[102.64309054351776,3.5266871964732545]]],[[[102.64049950156495,3.5271005382864766],[102.63998129317439,3.5268078534376546],[102.63998129317439,3.527093199749586],[102.64049950156495,3.5271005382864766]]],[[[102.6410177099555,3.5268078534376546],[102.64122429999999,3.5271039961109727],[102.64260907101304,3.5268078534376546],[102.6410177099555,3.5268078534376546]]]]},"properties":{"place_id":"c291eda4-3b83-5e7e-9007-87f9ce27accf","habitat":"permanent_water","habitat_label":"Permanent water","resolution_m":50}},{"type":"Feature","geometry":{"type":"MultiPolygon","coordinates":[[[[102.63842666800271,3.5244519241947505],[102.63842666800271,3.524409420687496],[102.63833447342967,3.5244519241947505],[102.63842666800271,3.5244519241947505]]],[[[102.64360875190832,3.524844578665177],[102.64458071641997,3.524844578665177],[102.64360875190832,3.5247310747952865],[102.64360875190832,3.524844578665177]]],[[[102.64723621064223,3.5256298880900436],[102.64756335639912,3.5256298880900436],[102.64723621064223,3.5255240890229556],[102.64723621064223,3.5256298880900436]]],[[[102.6377293,3.526253996111863],[102.63790845961215,3.526022543044521],[102.63780888735073,3.526022543044521],[102.6377293,3.526253996111863]]],[[[102.64412696029888,3.5264225940900498],[102.64415592929987,3.526415198160385],[102.64412696029888,3.526415198160385],[102.64412696029888,3.5264225940900498]]],[[[102.63894487639327,3.5268078534376546],[102.638613,3.526912596111175],[102.63894487639327,3.526967244997448],[102.63894487639327,3.5268078534376546]]],[[[102.64205412673662,3.5268078534376546],[102.6425723351272,3.526816925803779],[102.6425723351272,3.5268078534376546],[102.64205412673662,3.5268078534376546]]]]},"properties":{"place_id":"c291eda4-3b83-5e7e-9007-87f9ce27accf","habitat":"seasonal_water_wetland","habitat_label":"Seasonal water or wetland","resolution_m":50}},{"type":"Feature","geometry":{"type":"Polygon","coordinates":[[[102.63790845961215,3.526415198160385],[102.63946308478383,3.5270525765065632],[102.64049950156495,3.5268078534376546],[102.6410177099555,3.527103010523694],[102.6410177099555,3.5268078534376546],[102.64260907101304,3.5268078534376546],[102.64309054351776,3.526415198160385],[102.64464516868944,3.526297669929727],[102.64464516868944,3.526022543044521],[102.64671800225167,3.5258660661899768],[102.64671800225167,3.5254306327196314],[102.64493110000001,3.5248832961133396],[102.63871909999999,3.5243518961139224],[102.63810745808574,3.524844578665177],[102.63790845961215,3.526415198160385]],[[102.63946308478383,3.526022543044521],[102.63842666800271,3.5256298880900436],[102.63894487639327,3.524844578665177],[102.63946308478383,3.524844578665177],[102.63946308478383,3.5252372332969353],[102.6425723351272,3.5252372332969353],[102.6425723351272,3.5256298880900436],[102.64309054351776,3.5256298880900436],[102.64309054351776,3.526022543044521],[102.6410177099555,3.526022543044521],[102.6410177099555,3.526415198160385],[102.64049950156495,3.526415198160385],[102.64049950156495,3.526022543044521],[102.63946308478383,3.526415198160385],[102.63946308478383,3.526022543044521]]]},"properties":{"place_id":"c291eda4-3b83-5e7e-9007-87f9ce27accf","habitat":"water_edge","habitat_label":"Water edge","resolution_m":50}}]}