{"type":"FeatureCollection","metadata":{"schema_version":1,"place_id":"c2db0c16-aeb5-5c41-ac6b-6d17abb0efcb","place_name":"Taman Rekreasi Bukit Jenun","place_type":"park","osm_reference":"way/1343527779","protection_context":"no protected status confirmed from included OSM tags","resolution_m":50,"raster_coverage":1.0,"interpretation":"Suggested search habitats, not predicted plant locations or probabilities of presence."},"features":[{"type":"Feature","geometry":{"type":"Polygon","coordinates":[[[100.4762346,5.906181793649946],[100.47659010000001,5.906071693650043],[100.47647789999998,5.905662993650469],[100.4761425,5.905730793650384],[100.4762346,5.906181793649946]]]},"properties":{"place_id":"c2db0c16-aeb5-5c41-ac6b-6d17abb0efcb","habitat":"forest_edge_opening","habitat_label":"Forest edge or opening","resolution_m":50}},{"type":"Feature","geometry":{"type":"Polygon","coordinates":[[[100.4762346,5.906181793649946],[100.47659010000001,5.906071693650043],[100.47647789999998,5.905662993650469],[100.4761425,5.905730793650384],[100.4762346,5.906181793649946]]]},"properties":{"place_id":"c2db0c16-aeb5-5c41-ac6b-6d17abb0efcb","habitat":"disturbed_built_edge","habitat_label":"Disturbed, bare or built edge","resolution_m":50}}]}