{"type":"FeatureCollection","metadata":{"schema_version":1,"place_id":"c382bd1d-d379-5933-ab50-a429ae62e4c9","place_name":"Dataran Ledang","place_type":"park","osm_reference":"way/30022752","protection_context":"no protected status confirmed from included OSM tags","resolution_m":50,"raster_coverage":1.0,"interpretation":"Suggested search habitats, not predicted plant locations or probabilities of presence."},"features":[{"type":"Feature","geometry":{"type":"Polygon","coordinates":[[[102.53789424023394,2.2679004791434174],[102.5384124486245,2.2679004791434174],[102.53817010000002,2.2671409974796455],[102.53789424023394,2.267291774221531],[102.53789424023394,2.2679004791434174]]]},"properties":{"place_id":"c382bd1d-d379-5933-ab50-a429ae62e4c9","habitat":"open_grassland","habitat_label":"Open grassland or shrubland","resolution_m":50}},{"type":"Feature","geometry":{"type":"Polygon","coordinates":[[[102.53799410000002,2.2685598974781125],[102.53872759999999,2.2681589974785283],[102.53817010000002,2.2671409974796455],[102.53743679999998,2.267541797479222],[102.53799410000002,2.2685598974781125]]]},"properties":{"place_id":"c382bd1d-d379-5933-ab50-a429ae62e4c9","habitat":"disturbed_built_edge","habitat_label":"Disturbed, bare or built edge","resolution_m":50}}]}