{"type":"FeatureCollection","metadata":{"schema_version":1,"place_id":"c3a15026-55c4-57b4-a9e1-a8a6aa043385","place_name":"Bandar Kinrara 3 Park","place_type":"park","osm_reference":"way/232972909","protection_context":"no protected status confirmed from included OSM tags","resolution_m":50,"raster_coverage":1.0,"interpretation":"Suggested search habitats, not predicted plant locations or probabilities of presence."},"features":[{"type":"Feature","geometry":{"type":"Polygon","coordinates":[[[101.63983909939235,3.0529851064317937],[101.6384615,3.052992096621894],[101.63846419999997,3.0536670966211834],[101.6378098,3.0536911966211546],[101.63782249999998,3.054104996620716],[101.64006579999999,3.053976596620863],[101.63983909939235,3.0529851064317937]]]},"properties":{"place_id":"c3a15026-55c4-57b4-a9e1-a8a6aa043385","habitat":"forest_edge_opening","habitat_label":"Forest edge or opening","resolution_m":50}},{"type":"Feature","geometry":{"type":"Polygon","coordinates":[[[101.63932089100179,3.053770054160259],[101.63983909939235,3.053770054160259],[101.63983909939235,3.0529851064317937],[101.63932089100179,3.0529865561355027],[101.63932089100179,3.053770054160259]]]},"properties":{"place_id":"c3a15026-55c4-57b4-a9e1-a8a6aa043385","habitat":"open_grassland","habitat_label":"Open grassland or shrubland","resolution_m":50}},{"type":"Feature","geometry":{"type":"Polygon","coordinates":[[[101.63932089100179,3.053770054160259],[101.64006579999999,3.053976596620863],[101.6399971,3.0529821966219295],[101.6384615,3.052992096621894],[101.63846419999997,3.0536670966211834],[101.6378098,3.0536911966211546],[101.63782249999998,3.054104996620716],[101.63932089100179,3.054044750778752],[101.63932089100179,3.053770054160259]]]},"properties":{"place_id":"c3a15026-55c4-57b4-a9e1-a8a6aa043385","habitat":"disturbed_built_edge","habitat_label":"Disturbed, bare or built edge","resolution_m":50}}]}