{"type":"FeatureCollection","metadata":{"schema_version":1,"place_id":"c4269ddf-21ca-5d02-b7f4-d9e9c03cd403","place_name":"Taman Jubli Bukit Aup","place_type":"park","osm_reference":"way/702253363","protection_context":"no protected status confirmed from included OSM tags","resolution_m":50,"raster_coverage":1.0,"interpretation":"Suggested search habitats, not predicted plant locations or probabilities of presence."},"features":[{"type":"Feature","geometry":{"type":"Polygon","coordinates":[[[111.8273628,2.354457397383756],[111.82626143264287,2.3557627599993944],[111.8257432242523,2.3557627599993944],[111.8257432242523,2.3561550142705316],[111.82626143264287,2.3561550142705316],[111.8257432242523,2.3569395231354453],[111.82677964103343,2.3573317777292573],[111.82677964103343,2.3569395231354453],[111.82885247459566,2.3557627599993944],[111.82885247459566,2.355040270552763],[111.82858647724875,2.3545859978310437],[111.8281551,2.354887197383276],[111.8273628,2.354457397383756]]]},"properties":{"place_id":"c4269ddf-21ca-5d02-b7f4-d9e9c03cd403","habitat":"forest_interior","habitat_label":"Forest interior","resolution_m":50}},{"type":"Feature","geometry":{"type":"MultiPolygon","coordinates":[[[[111.82858647724875,2.3545859978310437],[111.82856609999999,2.3545511973836564],[111.82852353159107,2.3545859978310437],[111.82858647724875,2.3545859978310437]]],[[[111.82885247459566,2.3557627599993944],[111.8283342662051,2.3557627599993944],[111.8283342662051,2.3561550142705316],[111.82626143264287,2.3573317777292573],[111.82626143264287,2.3569395231354453],[111.8257432242523,2.3569395231354453],[111.8257432242523,2.356547268649209],[111.82626143264287,2.356547268649209],[111.82626143264287,2.3561550142705316],[111.8257432242523,2.3561550142705316],[111.8257432242523,2.3557627599993944],[111.82626143264287,2.3557627599993944],[111.82595852516242,2.355370505835779],[111.8257663,2.3554954973826336],[111.8253888,2.356607497381381],[111.82661189999999,2.3577758973801295],[111.82927419999999,2.355760497382346],[111.82885247459566,2.355040270552763],[111.82885247459566,2.3557627599993944]]]]},"properties":{"place_id":"c4269ddf-21ca-5d02-b7f4-d9e9c03cd403","habitat":"forest_edge_opening","habitat_label":"Forest edge or opening","resolution_m":50}},{"type":"Feature","geometry":{"type":"MultiPolygon","coordinates":[[[[111.8257432242523,2.356547268649209],[111.82554240821507,2.3561550142705316],[111.82540924634718,2.356547268649209],[111.8257432242523,2.356547268649209]]],[[[111.82626143264287,2.3573317777292573],[111.82614698849024,2.3573317777292573],[111.82626143264287,2.357441103676439],[111.82626143264287,2.3573317777292573]]]]},"properties":{"place_id":"c4269ddf-21ca-5d02-b7f4-d9e9c03cd403","habitat":"open_grassland","habitat_label":"Open grassland or shrubland","resolution_m":50}},{"type":"Feature","geometry":{"type":"MultiPolygon","coordinates":[[[[111.82858647724875,2.3545859978310437],[111.82856609999999,2.3545511973836564],[111.82852353159107,2.3545859978310437],[111.82858647724875,2.3545859978310437]]],[[[111.82626143264287,2.3557627599993944],[111.82595852516242,2.355370505835779],[111.8257663,2.3554954973826336],[111.82554240821507,2.3561550142705316],[111.82626143264287,2.3557627599993944]]],[[[111.82885247459566,2.3557627599993944],[111.8283342662051,2.3557627599993944],[111.8283342662051,2.3561550142705316],[111.82626143264287,2.3573317777292573],[111.82661189999999,2.3577758973801295],[111.82927419999999,2.355760497382346],[111.82885247459566,2.355040270552763],[111.82885247459566,2.3557627599993944]]]]},"properties":{"place_id":"c4269ddf-21ca-5d02-b7f4-d9e9c03cd403","habitat":"disturbed_built_edge","habitat_label":"Disturbed, bare or built edge","resolution_m":50}}]}