{"type":"FeatureCollection","metadata":{"schema_version":1,"place_id":"c47b5d8e-a319-5637-b4ab-f13b3979000f","place_name":"Bukit Kiara Federal Park Family Recreation Zone","place_type":"park","osm_reference":"relation/19352492","protection_context":"mapped protected boundary","resolution_m":50,"raster_coverage":1.0,"interpretation":"Suggested search habitats, not predicted plant locations or probabilities of presence."},"features":[{"type":"Feature","geometry":{"type":"Polygon","coordinates":[[[101.6325841819245,3.1440428039925923],[101.63206597353393,3.1440428039925923],[101.63206597353393,3.145220324406414],[101.6325841819245,3.145220324406414],[101.63310239031506,3.1460053387346414],[101.6325841819245,3.1460053387346414],[101.63206597353393,3.1467903536382487],[101.6325841819245,3.1467903536382487],[101.63310239031506,3.147575369117379],[101.63206597353393,3.1479678770728112],[101.63206597353393,3.1530813306606937],[101.63365919999998,3.1530846965135746],[101.63362059870563,3.145220324406414],[101.63310239031506,3.145220324406414],[101.63310239031506,3.144827817458022],[101.63362059870563,3.144827817458022],[101.63362059870563,3.14375581645122],[101.6325841819245,3.1437368187711683],[101.6325841819245,3.1440428039925923]]]},"properties":{"place_id":"c47b5d8e-a319-5637-b4ab-f13b3979000f","habitat":"forest_interior","habitat_label":"Forest interior","resolution_m":50}},{"type":"Feature","geometry":{"type":"MultiPolygon","coordinates":[[[[101.63362059870563,3.144827817458022],[101.63310239031506,3.144827817458022],[101.63310239031506,3.145220324406414],[101.63362059870563,3.145220324406414],[101.63364986409168,3.1460053387346414],[101.63362059870563,3.14375581645122],[101.63362059870563,3.144827817458022]]],[[[101.63206597353393,3.1479678770728112],[101.63310239031506,3.147575369117379],[101.63310239031506,3.147182861305864],[101.63206597353393,3.1467903536382487],[101.63310239031506,3.1456128314986143],[101.63206597353393,3.145220324406414],[101.63206597353393,3.1440428039925923],[101.6325841819245,3.1440428039925923],[101.6325841819245,3.1437368187711683],[101.6317701,3.143721896523695],[101.63176580000001,3.1530806965135887],[101.63206597353393,3.1479678770728112]]]]},"properties":{"place_id":"c47b5d8e-a319-5637-b4ab-f13b3979000f","habitat":"forest_edge_opening","habitat_label":"Forest edge or opening","resolution_m":50}},{"type":"Feature","geometry":{"type":"MultiPolygon","coordinates":[[[[101.63362059870563,3.14443531065342],[101.63310239031506,3.145220324406414],[101.63362059870563,3.145220324406414],[101.63364670259254,3.1456128314986143],[101.63362059870563,3.14443531065342]]],[[[101.63206597353393,3.147575369117379],[101.6325841819245,3.147575369117379],[101.6325841819245,3.1467903536382487],[101.63206597353393,3.1467903536382487],[101.63206597353393,3.1463978461145135],[101.6325841819245,3.1463978461145135],[101.63310239031506,3.1456128314986143],[101.63206597353393,3.145220324406414],[101.63206597353393,3.1440428039925923],[101.6325841819245,3.1440428039925923],[101.6325841819245,3.1437368187711683],[101.6317701,3.143721896523695],[101.63176580000001,3.1530806965135887],[101.63206597353393,3.147575369117379]]]]},"properties":{"place_id":"c47b5d8e-a319-5637-b4ab-f13b3979000f","habitat":"disturbed_built_edge","habitat_label":"Disturbed, bare or built edge","resolution_m":50}},{"type":"Feature","geometry":{"type":"Polygon","coordinates":[[[101.6325841819245,3.147575369117379],[101.6325841819245,3.147182861305864],[101.63206597353393,3.147182861305864],[101.63206597353393,3.147575369117379],[101.6325841819245,3.147575369117379]]]},"properties":{"place_id":"c47b5d8e-a319-5637-b4ab-f13b3979000f","habitat":"permanent_water","habitat_label":"Permanent water","resolution_m":50}},{"type":"Feature","geometry":{"type":"Polygon","coordinates":[[[101.63176860893587,3.147575369117379],[101.63206597353393,3.147182861305864],[101.63176874504104,3.147182861305864],[101.63176860893587,3.147575369117379]]]},"properties":{"place_id":"c47b5d8e-a319-5637-b4ab-f13b3979000f","habitat":"seasonal_water_wetland","habitat_label":"Seasonal water or wetland","resolution_m":50}},{"type":"Feature","geometry":{"type":"Polygon","coordinates":[[[101.6325841819245,3.147182861305864],[101.6325841819245,3.147575369117379],[101.63176860893587,3.147575369117379],[101.63176833672554,3.1483603851721793],[101.6325841819245,3.1483603851721793],[101.6325841819245,3.1479678770728112],[101.63362059870563,3.147575369117379],[101.6325841819245,3.1463978461145135],[101.6317690117948,3.1463978461145135],[101.63176874504104,3.147182861305864],[101.6325841819245,3.147182861305864]]]},"properties":{"place_id":"c47b5d8e-a319-5637-b4ab-f13b3979000f","habitat":"water_edge","habitat_label":"Water edge","resolution_m":50}}]}