{"type":"FeatureCollection","metadata":{"schema_version":1,"place_id":"c4e2e384-ccf5-5b29-a604-769155ef2917","place_name":"Taman Ensing","place_type":"park","osm_reference":"way/470991731","protection_context":"no protected status confirmed from included OSM tags","resolution_m":50,"raster_coverage":1.0,"interpretation":"Suggested search habitats, not predicted plant locations or probabilities of presence."},"features":[{"type":"Feature","geometry":{"type":"Polygon","coordinates":[[[110.3140414538656,1.5251810528931093],[110.3140617,1.5252037982991107],[110.3141088483717,1.5251810528931093],[110.3140414538656,1.5251810528931093]]]},"properties":{"place_id":"c4e2e384-ccf5-5b29-a604-769155ef2917","habitat":"forest_edge_opening","habitat_label":"Forest edge or opening","resolution_m":50}},{"type":"Feature","geometry":{"type":"Polygon","coordinates":[[[110.3140414538656,1.5251810528931093],[110.3140617,1.5252037982991107],[110.3141088483717,1.5251810528931093],[110.3140414538656,1.5251810528931093]]]},"properties":{"place_id":"c4e2e384-ccf5-5b29-a604-769155ef2917","habitat":"open_grassland","habitat_label":"Open grassland or shrubland","resolution_m":50}},{"type":"Feature","geometry":{"type":"Polygon","coordinates":[[[110.31402509999998,1.5250592982992484],[110.31452509999998,1.5248898982994248],[110.31440360000002,1.5246951982996462],[110.31402509999998,1.5250592982992484]]]},"properties":{"place_id":"c4e2e384-ccf5-5b29-a604-769155ef2917","habitat":"disturbed_built_edge","habitat_label":"Disturbed, bare or built edge","resolution_m":50}}]}