{"type":"FeatureCollection","metadata":{"schema_version":1,"place_id":"c4f042ef-9bd4-553e-9738-f023e8b31e49","place_name":"Hutan Bukit Chabang","place_type":"wood","osm_reference":"relation/18066819","protection_context":"no protected status confirmed from included OSM tags","resolution_m":50,"raster_coverage":1.0,"interpretation":"Suggested search habitats, not predicted plant locations or probabilities of presence."},"features":[{"type":"Feature","geometry":{"type":"MultiPolygon","coordinates":[[[[100.25466807142375,6.601795577028242],[100.2541498630332,6.601795577028242],[100.2541498630332,6.602190055118656],[100.25466807142375,6.602190055118656],[100.25466807142375,6.601795577028242]]],[[[100.25518627981432,6.601401099243855],[100.25518627981432,6.6010066217654755],[100.25570448820488,6.6010066217654755],[100.25570448820488,6.601401099243855],[100.256740904986,6.601401099243855],[100.256740904986,6.6010066217654755],[100.25622269659544,6.6010066217654755],[100.25622269659544,6.600217667726663],[100.256740904986,6.600072328003087],[100.25590899999999,6.599061392973818],[100.2555871,6.597627892975188],[100.25472336157456,6.5970618638079355],[100.25466807142375,6.597456338227279],[100.25334149999999,6.597618492975205],[100.25239529999999,6.599199992973661],[100.2525562,6.60120359297177],[100.2519661,6.602050892970919],[100.25259523786151,6.602979012217639],[100.25311344625209,6.602979012217639],[100.25363165464265,6.6045569300887585],[100.2541498630332,6.6045569300887585],[100.2541498630332,6.605345890861196],[100.25372351082876,6.605345890861196],[100.2541498630332,6.605740371706701],[100.25416741578665,6.6081072632109334],[100.25466807142375,6.6081072632109334],[100.25466807142375,6.608896229496112],[100.25518627981432,6.608896229496112],[100.25570448820488,6.610216839559314],[100.256740904986,6.610474165743029],[100.256740904986,6.610079681221684],[100.25725911337656,6.610250823904316],[100.25777732176712,6.609290713098242],[100.25881373854824,6.608608791505815],[100.25881373854824,6.6081072632109334],[100.25933194693881,6.6081072632109334],[100.25933194693881,6.607712780527848],[100.25881373854824,6.607712780527848],[100.25881373854824,6.60692381608059],[100.2596909,6.606436492966749],[100.2589184,6.604640692968455],[100.25985015532936,6.604398496423415],[100.25933194693881,6.604006717285342],[100.25881373854824,6.6045569300887585],[100.25777732176712,6.6045569300887585],[100.25758352651069,6.604162450161787],[100.256740904986,6.6045569300887585],[100.25622269659544,6.6037679705409555],[100.256740904986,6.6037679705409555],[100.25725911337656,6.602584533515116],[100.25622269659544,6.602584533515116],[100.25622269659544,6.602979012217639],[100.25466807142375,6.602979012217639],[100.25466807142375,6.603373491226246],[100.2541498630332,6.603373491226246],[100.2541498630332,6.602979012217639],[100.25363165464265,6.602979012217639],[100.2541498630332,6.602190055118656],[100.25363165464265,6.602190055118656],[100.25311344625209,6.601401099243855],[100.25363165464265,6.601401099243855],[100.25363165464265,6.6010066217654755],[100.2541498630332,6.6010066217654755],[100.2541498630332,6.601401099243855],[100.25518627981432,6.601401099243855]],[[100.2541498630332,6.600612144593085],[100.25363165464265,6.600612144593085],[100.25363165464265,6.600217667726663],[100.25466807142375,6.599823191166193],[100.25518627981432,6.600612144593085],[100.25466807142375,6.600612144593085],[100.25466807142375,6.6010066217654755],[100.2541498630332,6.6010066217654755],[100.2541498630332,6.600612144593085]],[[100.25725911337656,6.60692381608059],[100.256740904986,6.607712780527848],[100.25570448820488,6.607318298151074],[100.25622269659544,6.60652933431638],[100.25725911337656,6.60692381608059]],[[100.256740904986,6.606134852858424],[100.25622269659544,6.606134852858424],[100.25622269659544,6.605345890861196],[100.25725911337656,6.604951410321889],[100.25725911337656,6.605345890861196],[100.25777732176712,6.605345890861196],[100.25777732176712,6.606134852858424],[100.25725911337656,6.606134852858424],[100.25725911337656,6.60652933431638],[100.256740904986,6.60652933431638],[100.256740904986,6.606134852858424]]]]},"properties":{"place_id":"c4f042ef-9bd4-553e-9738-f023e8b31e49","habitat":"forest_interior","habitat_label":"Forest interior","resolution_m":50}},{"type":"Feature","geometry":{"type":"MultiPolygon","coordinates":[[[[100.25517320501419,6.5970618638079355],[100.25499389999999,6.596846892975943],[100.25472336157456,6.5970618638079355],[100.25517320501419,6.5970618638079355]]],[[[100.2541498630332,6.597456338227279],[100.25436924053497,6.597456338227279],[100.2541498630332,6.597441466154759],[100.2541498630332,6.597456338227279]]],[[[100.25466807142375,6.597456338227279],[100.25466807142375,6.597202666697614],[100.25447905600353,6.597456338227279],[100.25466807142375,6.597456338227279]]],[[[100.25466807142375,6.600217667726663],[100.25466807142375,6.599823191166193],[100.2541498630332,6.599823191166193],[100.25363165464265,6.600612144593085],[100.25466807142375,6.6010066217654755],[100.25466807142375,6.600612144593085],[100.25518627981432,6.600612144593085],[100.25518627981432,6.600217667726663],[100.25466807142375,6.600217667726663]]],[[[100.25466807142375,6.603373491226246],[100.25466807142375,6.602979012217639],[100.25725911337656,6.60268972437623],[100.256740904986,6.600072328003087],[100.25622269659544,6.600217667726663],[100.25622269659544,6.6010066217654755],[100.256740904986,6.6010066217654755],[100.256740904986,6.601401099243855],[100.25570448820488,6.601401099243855],[100.25570448820488,6.6010066217654755],[100.25518627981432,6.6010066217654755],[100.25518627981432,6.601401099243855],[100.2541498630332,6.601401099243855],[100.2541498630332,6.6010066217654755],[100.25311344625209,6.601401099243855],[100.25311344625209,6.601795577028242],[100.2541498630332,6.602190055118656],[100.25363165464265,6.602979012217639],[100.25466807142375,6.603373491226246]],[[100.2541498630332,6.601795577028242],[100.25466807142375,6.601795577028242],[100.25466807142375,6.602190055118656],[100.2541498630332,6.602190055118656],[100.2541498630332,6.601795577028242]]],[[[100.25207702947095,6.602190055118656],[100.25203358915421,6.602190055118656],[100.25207702947095,6.602279628757646],[100.25207702947095,6.602190055118656]]],[[[100.25311344625209,6.6037679705409555],[100.25311344625209,6.602979012217639],[100.25222791193896,6.602584533515116],[100.25372351082876,6.605345890861196],[100.2541498630332,6.605345890861196],[100.2541498630332,6.6045569300887585],[100.25363165464265,6.6045569300887585],[100.25363165464265,6.6037679705409555],[100.25311344625209,6.6037679705409555]]],[[[100.2538822069115,6.60652933431638],[100.2541498630332,6.605740371706701],[100.2538278227542,6.605740371706701],[100.2538822069115,6.60652933431638]]],[[[100.256740904986,6.60692381608059],[100.256740904986,6.60652933431638],[100.25622269659544,6.60652933431638],[100.25570448820488,6.607318298151074],[100.256740904986,6.607712780527848],[100.256740904986,6.607318298151074],[100.25725911337656,6.607318298151074],[100.25725911337656,6.60692381608059],[100.256740904986,6.60692381608059]]],[[[100.25403448791302,6.607712780527848],[100.2541498630332,6.608055172859798],[100.2541498630332,6.607712780527848],[100.25403448791302,6.607712780527848]]],[[[100.25570448820488,6.609685197006761],[100.25518627981432,6.609685197006761],[100.25518627981432,6.608896229496112],[100.25466807142375,6.608896229496112],[100.25466807142375,6.6081072632109334],[100.25416741578665,6.6081072632109334],[100.25459470000001,6.609375292963897],[100.25570448820488,6.610216839559314],[100.25570448820488,6.609685197006761]]],[[[100.25700183670921,6.603373491226246],[100.25622269659544,6.6037679705409555],[100.25622269659544,6.604162450161787],[100.25645556861822,6.604162450161787],[100.2568531,6.603716192969348],[100.25700183670921,6.603373491226246]]],[[[100.256740904986,6.6045569300887585],[100.25725911337656,6.6045569300887585],[100.25758352651069,6.604162450161787],[100.25678069999998,6.6041743929689085],[100.256740904986,6.6045569300887585]]],[[[100.25933194693881,6.604006717285342],[100.25902569999998,6.603883992969164],[100.258162,6.604443492968634],[100.25777732176712,6.604256602709514],[100.25777732176712,6.6045569300887585],[100.25881373854824,6.6045569300887585],[100.25933194693881,6.604006717285342]]],[[[100.25985015532936,6.604467052146028],[100.25987329999997,6.604454192968641],[100.25985015532936,6.604398496423415],[100.25985015532936,6.604467052146028]]],[[[100.25942296779483,6.6045569300887585],[100.25962329999997,6.604593092968517],[100.25968838797,6.6045569300887585],[100.25942296779483,6.6045569300887585]]],[[[100.25933194693881,6.605740371706701],[100.25944085349421,6.605740371706701],[100.25933194693881,6.605511141110423],[100.25933194693881,6.605740371706701]]],[[[100.25725911337656,6.605345890861196],[100.25725911337656,6.604951410321889],[100.25622269659544,6.605345890861196],[100.25622269659544,6.606134852858424],[100.256740904986,6.606134852858424],[100.256740904986,6.60652933431638],[100.25777732176712,6.606134852858424],[100.25777732176712,6.605345890861196],[100.25725911337656,6.605345890861196]]],[[[100.25968784817864,6.60652933431638],[100.25933194693881,6.60692381608059],[100.25881373854824,6.60692381608059],[100.25881373854824,6.607712780527848],[100.25933194693881,6.607712780527848],[100.25881373854824,6.608608791505815],[100.25959429999999,6.607912592965333],[100.25968784817864,6.60652933431638]]],[[[100.2582955301577,6.608896229496112],[100.2582955301577,6.608934941800426],[100.25834109508445,6.608896229496112],[100.2582955301577,6.608896229496112]]],[[[100.25777732176712,6.609290713098242],[100.25777732176712,6.60953400712258],[100.25797460053303,6.609290713098242],[100.25777732176712,6.609290713098242]]],[[[100.25725139999999,6.6102625929630605],[100.256740904986,6.610079681221684],[100.25652696275522,6.610474165743029],[100.25725139999999,6.6102625929630605]]]]},"properties":{"place_id":"c4f042ef-9bd4-553e-9738-f023e8b31e49","habitat":"forest_edge_opening","habitat_label":"Forest edge or opening","resolution_m":50}},{"type":"Feature","geometry":{"type":"MultiPolygon","coordinates":[[[[100.25466807142375,6.600612144593085],[100.25466807142375,6.600217667726663],[100.2541498630332,6.600217667726663],[100.2541498630332,6.600612144593085],[100.25466807142375,6.600612144593085]]],[[[100.2541498630332,6.601795577028242],[100.2541498630332,6.601401099243855],[100.25363165464265,6.601401099243855],[100.25363165464265,6.601795577028242],[100.2541498630332,6.601795577028242]]],[[[100.25518627981432,6.601401099243855],[100.25518627981432,6.602584533515116],[100.25622269659544,6.602584533515116],[100.25622269659544,6.601795577028242],[100.25518627981432,6.601401099243855]]],[[[100.25466807142375,6.602979012217639],[100.25466807142375,6.602584533515116],[100.2541498630332,6.602584533515116],[100.2541498630332,6.602979012217639],[100.25466807142375,6.602979012217639]]],[[[100.25259523786151,6.602979012217639],[100.25246727157483,6.602979012217639],[100.25259523786151,6.603189908280438],[100.25259523786151,6.602979012217639]]],[[[100.25311344625209,6.6037679705409555],[100.25294599084654,6.6037679705409555],[100.25311344625209,6.604043947469742],[100.25311344625209,6.6037679705409555]]],[[[100.25363165464265,6.6045569300887585],[100.2533577452133,6.6045569300887585],[100.25363165464265,6.605147755862662],[100.25363165464265,6.6045569300887585]]],[[[100.256740904986,6.60692381608059],[100.25622269659544,6.60692381608059],[100.25622269659544,6.607318298151074],[100.256740904986,6.607318298151074],[100.256740904986,6.60692381608059]]],[[[100.25466807142375,6.608896229496112],[100.25443327153388,6.608896229496112],[100.25466807142375,6.609434192802266],[100.25466807142375,6.608896229496112]]],[[[100.25518627981432,6.609685197006761],[100.25498074681886,6.609685197006761],[100.25518627981432,6.609850191336213],[100.25518627981432,6.609685197006761]]],[[[100.256740904986,6.6010066217654755],[100.25706229999999,6.600542792972416],[100.256740904986,6.600217667726663],[100.256740904986,6.6010066217654755]]],[[[100.256740904986,6.601401099243855],[100.256740904986,6.602190055118656],[100.25718003416286,6.602190055118656],[100.25711379691401,6.601401099243855],[100.256740904986,6.601401099243855]]],[[[100.25725911337656,6.602584533515116],[100.25726655637044,6.602584533515116],[100.25725911337656,6.602550598859439],[100.25725911337656,6.602584533515116]]],[[[100.25725911337656,6.604016705449788],[100.25681693367207,6.604162450161787],[100.25725911337656,6.604162450161787],[100.25725911337656,6.604016705449788]]],[[[100.256740904986,6.6037679705409555],[100.256740904986,6.603788856051914],[100.25677315313722,6.6037679705409555],[100.256740904986,6.6037679705409555]]],[[[100.25881373854824,6.604162450161787],[100.25881373854824,6.604021300347753],[100.25859584558715,6.604162450161787],[100.25881373854824,6.604162450161787]]],[[[100.25725911337656,6.606134852858424],[100.25725911337656,6.605345890861196],[100.256740904986,6.605345890861196],[100.256740904986,6.606134852858424],[100.25725911337656,6.606134852858424]]],[[[100.25933194693881,6.607712780527848],[100.25967488103315,6.60692381608059],[100.25933194693881,6.60692381608059],[100.25933194693881,6.607712780527848]]],[[[100.25933194693881,6.6081072632109334],[100.25933194693881,6.608260097833376],[100.25944733128894,6.6081072632109334],[100.25933194693881,6.6081072632109334]]],[[[100.256740904986,6.610474165743029],[100.256740904986,6.610508891039686],[100.25681287910514,6.610474165743029],[100.256740904986,6.610474165743029]]]]},"properties":{"place_id":"c4f042ef-9bd4-553e-9738-f023e8b31e49","habitat":"open_grassland","habitat_label":"Open grassland or shrubland","resolution_m":50}},{"type":"Feature","geometry":{"type":"MultiPolygon","coordinates":[[[[100.25403448791302,6.607712780527848],[100.2541498630332,6.608055172859798],[100.2541498630332,6.607712780527848],[100.25403448791302,6.607712780527848]]],[[[100.25466807142375,6.609290713098242],[100.25518627981432,6.609290713098242],[100.25518627981432,6.60850174620035],[100.25416741578665,6.6081072632109334],[100.25466807142375,6.609290713098242]]]]},"properties":{"place_id":"c4f042ef-9bd4-553e-9738-f023e8b31e49","habitat":"water_edge","habitat_label":"Water edge","resolution_m":50}}]}