{"type":"FeatureCollection","metadata":{"schema_version":1,"place_id":"c50c0428-05a3-5c7b-aa4e-952c0ac70aec","place_name":"Jalil Sutera Park","place_type":"park","osm_reference":"relation/17493620","protection_context":"no protected status confirmed from included OSM tags","resolution_m":50,"raster_coverage":1.0,"interpretation":"Suggested search habitats, not predicted plant locations or probabilities of presence."},"features":[{"type":"Feature","geometry":{"type":"Polygon","coordinates":[[[101.67116309999997,3.0563267966182894],[101.671198,3.0571971966173708],[101.6721551,3.0571697966173934],[101.6722265,3.056833796617761],[101.67116309999997,3.0563267966182894]]]},"properties":{"place_id":"c50c0428-05a3-5c7b-aa4e-952c0ac70aec","habitat":"forest_edge_opening","habitat_label":"Forest edge or opening","resolution_m":50}},{"type":"Feature","geometry":{"type":"Polygon","coordinates":[[[101.67116309999997,3.0563267966182894],[101.671198,3.0571971966173708],[101.6721551,3.0571697966173934],[101.6722265,3.056833796617761],[101.67116309999997,3.0563267966182894]]]},"properties":{"place_id":"c50c0428-05a3-5c7b-aa4e-952c0ac70aec","habitat":"disturbed_built_edge","habitat_label":"Disturbed, bare or built edge","resolution_m":50}}]}