{"type":"FeatureCollection","metadata":{"schema_version":1,"place_id":"c58ed787-3e6b-5b95-826c-0b3d3f8d6eb7","place_name":"Hutan Rizab Bukit Perak","place_type":"forest","osm_reference":"relation/10903626","protection_context":"mapped protected boundary","resolution_m":50,"raster_coverage":1.0,"interpretation":"Suggested search habitats, not predicted plant locations or probabilities of presence."},"features":[{"type":"Feature","geometry":{"type":"Polygon","coordinates":[[[100.65057928181209,6.0080480906280025],[100.65006107342153,6.0080480906280025],[100.65057928181209,6.007260014258937],[100.6516156985932,6.007654052304651],[100.65109749020264,6.0081866266135435],[100.6547161,6.007972393549285],[100.6541642,6.002483293554721],[100.6614083,6.000699393556476],[100.6649269,6.001248293555932],[100.6689284,6.006188393551077],[100.6775524,6.010305193546998],[100.6861074,6.01099139354631],[100.68633566076078,6.010412326399486],[100.68581745237022,6.010412326399486],[100.68581745237022,6.010018286409932],[100.68633566076078,6.010018286409932],[100.68737207754188,6.008836168107681],[100.68840849432301,6.008836168107681],[100.68840849432301,6.008442129229006],[100.68893609999999,6.008727093548555],[100.68950554303625,6.005289828194229],[100.68944491110415,6.00489579181393],[100.68892670271359,6.00489579181393],[100.68892670271359,6.004107719885823],[100.68996311949469,6.003713684337979],[100.68996311949469,6.003319649067583],[100.68944491110415,6.003319649067583],[100.68944491110415,6.002137544920888],[100.69048132788525,6.001743510760094],[100.69151774466638,5.998985279399387],[100.69203595305693,5.998985279399387],[100.69255416144749,5.998197215791613],[100.69307236983806,5.9983579132933995],[100.69638719999999,5.995896393561212],[100.6981138063364,5.993862885763561],[100.6977362453531,5.993468857423258],[100.69900889999998,5.9928086935642675],[100.6932826,5.986290293570696],[100.69099953627583,5.984587279198612],[100.69048132788525,5.984800303974338],[100.69048132788525,5.984406281999378],[100.68996311949469,5.984406281999378],[100.69022866348043,5.984012260300946],[100.68383321007778,5.978495985547972],[100.68374461880798,5.978890003376963],[100.68270820202684,5.978495985547972],[100.68270820202684,5.978101967995227],[100.6832264104174,5.978101967995227],[100.6828648,5.977575993579296],[100.6781044,5.984917893572047],[100.6752757,5.983065293573901],[100.6754137,5.970988693585793],[100.67375789999998,5.9661168935906215],[100.6675486,5.96522479359152],[100.66064939999998,5.967351993589395],[100.6533363,5.963577993593133],[100.66042524123274,5.957974562107964],[100.65486141885141,5.946187461921373],[100.65420674054602,5.94697545267384],[100.6531703237649,5.94658145716024],[100.6531703237649,5.945399472267753],[100.65430348476895,5.945005477852964],[100.65361219999998,5.943540993612941],[100.6423665,5.930777293625569],[100.63826859999999,5.925391193630905],[100.63602449999998,5.926652793629668],[100.63241449999997,5.931553693624802],[100.6329511,5.935678193620726],[100.63704899999999,5.940918593615545],[100.63304869999999,5.942859593613615],[100.62856049999999,5.940093793616371],[100.62740839999998,5.9429717936135145],[100.6258607,5.9444331936120465],[100.62622348745575,5.945005477852964],[100.6267416958463,5.945005477852964],[100.627116,5.946599393609925],[100.62680479999999,5.94715429360937],[100.6258929,5.947453093609064],[100.62635419999998,5.948135993608428],[100.62559250000001,5.948509493608055],[100.6247449,5.947805193608734],[100.6225960287218,5.947528648635229],[100.6225960287218,5.948138644131604],[100.62363244550293,5.94894543436345],[100.62363244550293,5.949339431525827],[100.6231334124692,5.949339431525827],[100.62301750000002,5.950835793605728],[100.6215596119407,5.950915422924138],[100.6215596119407,5.950521424662202],[100.62104140355014,5.950521424662202],[100.620004986769,5.94894543436345],[100.6202712021698,5.948157440863207],[100.61798569999999,5.947997293608533],[100.6169987,5.948488193608032],[100.61464469352964,5.950915422924138],[100.61482290286341,5.95130942146101],[100.61430469447285,5.95130942146101],[100.61430469447285,5.952491418721436],[100.61378648608229,5.952491418721436],[100.61378648608229,5.952885418358243],[100.61326827769172,5.952885418358243],[100.61311624661764,5.952491418721436],[100.61208999999998,5.95354959360304],[100.61199895198776,5.954855420668108],[100.61397309999998,5.955274893601356],[100.61482290286341,5.9560374253553645],[100.615797,5.9577078935989425],[100.61565759999999,5.9583694935982825],[100.6135011,5.95812409359851],[100.6118595,5.9590523935976245],[100.61275006930116,5.95997745886911],[100.61223186091061,5.95997745886911],[100.61223186091061,5.960371463734695],[100.6108296,5.960044793596608],[100.6099435,5.961701193594993],[100.60912261056724,5.961553479983847],[100.60912261056724,5.961947485951092],[100.60808619378611,5.961947485951092],[100.60808619378611,5.961553479983847],[100.60756798539555,5.961553479983847],[100.60808619378611,5.960919114954953],[100.607049777005,5.960371463734695],[100.607049777005,5.959870080428775],[100.60389419999998,5.962089293594612],[100.60067439999999,5.9692703935874984],[100.6146715179933,5.978101967995227],[100.61482290286341,5.976919916994299],[100.61585931964453,5.97652590054636],[100.61585931964453,5.976919916994299],[100.61637752803509,5.976919916994299],[100.61637752803509,5.977707950718715],[100.6174139448162,5.978101967995227],[100.61689573642566,5.978890003376963],[100.61597361949377,5.978890003376963],[100.6250496,5.9834769935734915],[100.6250496,5.986839193570142],[100.62570527906517,5.987558465543448],[100.62622348745575,5.987558465543448],[100.62622348745575,5.9881335891103324],[100.62822319999998,5.990338593566678],[100.62780919999999,5.995347493561748],[100.6294651,5.998915393558248],[100.63850299999999,6.003306693553905],[100.6408487,6.01016799354714],[100.65057928181209,6.0080480906280025]],[[100.60964081895781,5.961947485951092],[100.60964081895781,5.962341492193797],[100.61015902734835,5.962341492193797],[100.61015902734835,5.963129505505666],[100.60964081895781,5.963129505505666],[100.60964081895781,5.963523512574867],[100.60860440217668,5.963523512574867],[100.60808619378611,5.962735498711982],[100.60964081895781,5.961947485951092]],[[100.6293327377991,5.9962270616225855],[100.62881452940854,5.9962270616225855],[100.62881452940854,5.99583303162013],[100.62985094618966,5.995439001894746],[100.63036915458022,5.9962270616225855],[100.62985094618966,5.9962270616225855],[100.62985094618966,5.996621091902134],[100.6293327377991,5.996621091902134],[100.6293327377991,5.9962270616225855]],[[100.6635344915761,5.984012260300946],[100.66301628318554,5.984012260300946],[100.66301628318554,5.983618238879025],[100.66405269996667,5.983224217733596],[100.66457090835723,5.984012260300946],[100.66405269996667,5.984012260300946],[100.66405269996667,5.984406281999378],[100.6635344915761,5.984406281999378],[100.6635344915761,5.984012260300946]],[[100.6215596119407,5.9800720585216105],[100.62104140355014,5.9800720585216105],[100.62104140355014,5.97928402148222],[100.62052319515956,5.97928402148222],[100.62052319515956,5.978495985547972],[100.620004986769,5.978495985547972],[100.62052319515956,5.977707950718715],[100.6215596119407,5.978101967995227],[100.6215596119407,5.978890003376963],[100.62207782033126,5.978890003376963],[100.62207782033126,5.979678039863765],[100.6225960287218,5.979678039863765],[100.62207782033126,5.980466077455782],[100.6215596119407,5.980466077455782],[100.6215596119407,5.9800720585216105]],[[100.6225960287218,5.969039640483496],[100.62207782033126,5.969039640483496],[100.62207782033126,5.968645629555087],[100.62311423711238,5.968251618902453],[100.62363244550293,5.969039640483496],[100.62311423711238,5.969039640483496],[100.62311423711238,5.969433651687707],[100.6225960287218,5.969433651687707],[100.6225960287218,5.969039640483496]],[[100.64125153078199,5.968251618902453],[100.64073332239144,5.968251618902453],[100.64073332239144,5.967463598424456],[100.64021511400087,5.967463598424456],[100.64073332239144,5.966675579049349],[100.64176973917256,5.966675579049349],[100.64176973917256,5.96706958859905],[100.64228794756312,5.96706958859905],[100.64228794756312,5.968251618902453],[100.64176973917256,5.968251618902453],[100.64176973917256,5.968645629555087],[100.64125153078199,5.968645629555087],[100.64125153078199,5.968251618902453]],[[100.61378648608229,5.96706958859905],[100.61326827769172,5.96706958859905],[100.61326827769172,5.966675579049349],[100.61430469447285,5.966281569775336],[100.61482290286341,5.96706958859905],[100.61430469447285,5.96706958859905],[100.61430469447285,5.967463598424456],[100.61378648608229,5.967463598424456],[100.61378648608229,5.96706958859905]],[[100.63399661331414,5.964705535435763],[100.6334784049236,5.964705535435763],[100.6334784049236,5.964311527539897],[100.63451482170471,5.9639175199196055],[100.63503303009526,5.964705535435763],[100.63451482170471,5.964705535435763],[100.63451482170471,5.965099543607221],[100.63399661331414,5.965099543607221],[100.63399661331414,5.964705535435763]],[[100.6189685699879,5.961947485951092],[100.61845036159733,5.961947485951092],[100.61845036159733,5.960371463734695],[100.6189685699879,5.960371463734695],[100.6189685699879,5.95997745886911],[100.61948677837846,5.95997745886911],[100.61948677837846,5.960371463734695],[100.62052319515956,5.95997745886911],[100.6215596119407,5.961159474292047],[100.62104140355014,5.961159474292047],[100.62104140355014,5.961553479983847],[100.620004986769,5.961553479983847],[100.61948677837846,5.962341492193797],[100.6189685699879,5.962341492193797],[100.6189685699879,5.961947485951092]],[[100.63917869721975,5.95918944996402],[100.6386604888292,5.95918944996402],[100.6386604888292,5.958795445924479],[100.63969690561032,5.95840144216025],[100.64021511400087,5.95918944996402],[100.63969690561032,5.95918944996402],[100.63969690561032,5.9595834542788895],[100.63917869721975,5.9595834542788895],[100.63917869721975,5.95918944996402]],[[100.64332436434424,5.958795445924479],[100.64280615595368,5.958795445924479],[100.64280615595368,5.958007438671314],[100.6438425727348,5.957613435457651],[100.6438425727348,5.958007438671314],[100.64436078112536,5.958007438671314],[100.64436078112536,5.958795445924479],[100.6438425727348,5.958795445924479],[100.6438425727348,5.95918944996402],[100.64332436434424,5.95918944996402],[100.64332436434424,5.958795445924479]],[[100.65627957410825,5.953673418456967],[100.6557613657177,5.953673418456967],[100.6557613657177,5.952491418721436],[100.65524315732713,5.952491418721436],[100.65524315732713,5.950915422924138],[100.6557613657177,5.950915422924138],[100.6557613657177,5.950521424662202],[100.65679778249881,5.950915422924138],[100.65679778249881,5.952097419359642],[100.65731599088937,5.952097419359642],[100.65731599088937,5.953673418456967],[100.65679778249881,5.953673418456967],[100.65679778249881,5.95406741891892],[100.65627957410825,5.95406741891892],[100.65627957410825,5.953673418456967]],[[100.61948677837846,5.952491418721436],[100.6189685699879,5.952491418721436],[100.6189685699879,5.95130942146101],[100.620004986769,5.950915422924138],[100.620004986769,5.95130942146101],[100.62052319515956,5.95130942146101],[100.62052319515956,5.952491418721436],[100.620004986769,5.952491418721436],[100.620004986769,5.952885418358243],[100.61948677837846,5.952885418358243],[100.61948677837846,5.952491418721436]],[[100.65524315732713,5.949733428963064],[100.65368853215546,5.94894543436345],[100.65420674054602,5.948157440863207],[100.65524315732713,5.948157440863207],[100.65524315732713,5.948551437475919],[100.6557613657177,5.948551437475919],[100.6557613657177,5.949339431525827],[100.65627957410825,5.949339431525827],[100.65627957410825,5.949733428963064],[100.6557613657177,5.949733428963064],[100.6557613657177,5.9501274266751825],[100.65524315732713,5.9501274266751825],[100.65524315732713,5.949733428963064]],[[100.64539719790648,5.946187461921373],[100.64487898951592,5.946187461921373],[100.64487898951592,5.945399472267753],[100.64591540629705,5.945005477852964],[100.64591540629705,5.945399472267753],[100.6464336146876,5.945399472267753],[100.6464336146876,5.946187461921373],[100.64591540629705,5.946187461921373],[100.64591540629705,5.94658145716024],[100.64539719790648,5.94658145716024],[100.64539719790648,5.946187461921373]],[[100.63555123848583,5.943035509898484],[100.63503303009526,5.943035509898484],[100.63503303009526,5.942641517131351],[100.63606944687639,5.942247524638759],[100.63658765526695,5.943035509898484],[100.63606944687639,5.943035509898484],[100.63606944687639,5.943429502940182],[100.63555123848583,5.943429502940182],[100.63555123848583,5.943035509898484]],[[100.64073332239144,5.939883575447576],[100.64021511400087,5.939883575447576],[100.64021511400087,5.939489584876265],[100.64125153078199,5.939095594579347],[100.64176973917256,5.939883575447576],[100.64125153078199,5.939883575447576],[100.64125153078199,5.940277566293299],[100.64073332239144,5.940277566293299],[100.64073332239144,5.939883575447576]]]},"properties":{"place_id":"c58ed787-3e6b-5b95-826c-0b3d3f8d6eb7","habitat":"forest_interior","habitat_label":"Forest interior","resolution_m":50}},{"type":"Feature","geometry":{"type":"MultiPolygon","coordinates":[[[[100.61793215320677,5.948023925938792],[100.61766370899001,5.948157440863207],[100.61793215320677,5.948157440863207],[100.61793215320677,5.948023925938792]]],[[[100.61948677837846,5.948077864686133],[100.6202712021698,5.948157440863207],[100.62026019999999,5.947986593608553],[100.61948677837846,5.948077864686133]]],[[[100.62029657463174,5.948551437475919],[100.620004986769,5.94894543436345],[100.62032194709367,5.94894543436345],[100.62029657463174,5.948551437475919]]],[[[100.61482290286341,5.95130942146101],[100.61464469352964,5.950915422924138],[100.61311624661764,5.952491418721436],[100.61326827769172,5.952885418358243],[100.61430469447285,5.952491418721436],[100.61430469447285,5.95130942146101],[100.61482290286341,5.95130942146101]]],[[[100.61948677837846,5.950915422924138],[100.61948677837846,5.95130942146101],[100.6189685699879,5.95130942146101],[100.6189685699879,5.952491418721436],[100.620004986769,5.952885418358243],[100.620004986769,5.952491418721436],[100.62052319515956,5.952491418721436],[100.62052319515956,5.95130942146101],[100.61948677837846,5.950915422924138]]],[[[100.61223186091061,5.954855420668108],[100.6119883,5.955008193601623],[100.61223186091061,5.955040921171819],[100.61223186091061,5.954855420668108]]],[[[100.61428724916287,5.955643423517791],[100.61430469447285,5.9556638887031434],[100.61430469447285,5.955643423517791],[100.61428724916287,5.955643423517791]]],[[[100.61462311135008,5.9560374253553645],[100.61482290286341,5.956271802043806],[100.61482290286341,5.9560374253553645],[100.61462311135008,5.9560374253553645]]],[[[100.6118777449311,5.95918944996402],[100.61171365252005,5.960371463734695],[100.61223186091061,5.960371463734695],[100.61275006930116,5.9595834542788895],[100.6118777449311,5.95918944996402]]],[[[100.607049777005,5.960371463734695],[100.60753629881039,5.960371463734695],[100.6070745,5.959852693596807],[100.607049777005,5.959870080428775],[100.607049777005,5.960371463734695]]],[[[100.61067723573892,5.960371463734695],[100.61067723573892,5.960329610044843],[100.6106548458639,5.960371463734695],[100.61067723573892,5.960371463734695]]],[[[100.60756798539555,5.9607654688756675],[100.6078870340297,5.9607654688756675],[100.60756798539555,5.960407059457046],[100.60756798539555,5.9607654688756675]]],[[[100.62104140355014,5.961159474292047],[100.6215596119407,5.961159474292047],[100.6215596119407,5.9607654688756675],[100.62104140355014,5.9607654688756675],[100.62052319515956,5.95997745886911],[100.620004986769,5.95997745886911],[100.620004986769,5.960371463734695],[100.61948677837846,5.960371463734695],[100.61948677837846,5.95997745886911],[100.61845036159733,5.960371463734695],[100.61845036159733,5.961947485951092],[100.6189685699879,5.961947485951092],[100.6189685699879,5.962341492193797],[100.61948677837846,5.962341492193797],[100.620004986769,5.961553479983847],[100.62104140355014,5.961553479983847],[100.62104140355014,5.961159474292047]]],[[[100.60808619378611,5.960919114954953],[100.60756798539555,5.961159474292047],[100.60808619378611,5.961947485951092],[100.60912261056724,5.961947485951092],[100.60912261056724,5.961553479983847],[100.60959270502951,5.961553479983847],[100.60808619378611,5.960919114954953]]],[[[100.60860440217668,5.963523512574867],[100.60964081895781,5.963523512574867],[100.60964081895781,5.963129505505666],[100.61015902734835,5.963129505505666],[100.61015902734835,5.962341492193797],[100.60964081895781,5.962341492193797],[100.60964081895781,5.961947485951092],[100.60808619378611,5.962735498711982],[100.60860440217668,5.963523512574867]]],[[[100.61430469447285,5.966281569775336],[100.61326827769172,5.966675579049349],[100.61378648608229,5.967463598424456],[100.61482290286341,5.96706958859905],[100.61430469447285,5.966281569775336]]],[[[100.61637752803509,5.977707950718715],[100.61637752803509,5.976919916994299],[100.61534111125395,5.97652590054636],[100.61534111125395,5.976919916994299],[100.61482290286341,5.976919916994299],[100.6146715179933,5.978101967995227],[100.61597361949377,5.978890003376963],[100.61689573642566,5.978890003376963],[100.6174139448162,5.978101967995227],[100.61637752803509,5.977707950718715]]],[[[100.64073332239144,5.939095594579347],[100.64021511400087,5.939883575447576],[100.64125153078199,5.940277566293299],[100.64176973917256,5.939489584876265],[100.64073332239144,5.939095594579347]]],[[[100.63606944687639,5.942247524638759],[100.63503303009526,5.942641517131351],[100.63555123848583,5.943429502940182],[100.63658765526695,5.943035509898484],[100.63606944687639,5.942247524638759]]],[[[100.62664897086577,5.945793466957215],[100.6267416958463,5.945005477852964],[100.62596401823347,5.9446114837128325],[100.62664897086577,5.945793466957215]]],[[[100.62311423711238,5.947571869021151],[100.62415065389351,5.947763444525305],[100.62415065389351,5.9476898971603775],[100.62311423711238,5.947571869021151]]],[[[100.6225960287218,5.947528648635229],[100.6221807,5.947773193608762],[100.6225960287218,5.948138644131604],[100.6225960287218,5.947528648635229]]],[[[100.62295195372722,5.948551437475919],[100.62311423711238,5.948770000127894],[100.62311423711238,5.948551437475919],[100.62295195372722,5.948551437475919]]],[[[100.62363244550293,5.94894543436345],[100.6231334124692,5.949339431525827],[100.62363244550293,5.949339431525827],[100.62363244550293,5.94894543436345]]],[[[100.62052319515956,5.949733428963064],[100.62072868663836,5.949733428963064],[100.62052319515956,5.949511636817788],[100.62052319515956,5.949733428963064]]],[[[100.62311423711238,5.949400336044015],[100.622921,5.950014093606548],[100.62298058069922,5.950521424662202],[100.62311423711238,5.950521424662202],[100.62311423711238,5.949400336044015]]],[[[100.62104140355014,5.950521424662202],[100.6215596119407,5.950521424662202],[100.6215596119407,5.950915422924138],[100.62241287166528,5.950915422924138],[100.62104140355014,5.950070952394596],[100.62104140355014,5.950521424662202]]],[[[100.63917869721975,5.95840144216025],[100.6386604888292,5.95918944996402],[100.63969690561032,5.9595834542788895],[100.64021511400087,5.958795445924479],[100.63917869721975,5.95840144216025]]],[[[100.63451482170471,5.9639175199196055],[100.6334784049236,5.964311527539897],[100.63399661331414,5.965099543607221],[100.63503303009526,5.964705535435763],[100.63451482170471,5.9639175199196055]]],[[[100.64073332239144,5.966675579049349],[100.64021511400087,5.967463598424456],[100.64073332239144,5.967463598424456],[100.64073332239144,5.968251618902453],[100.64176973917256,5.968645629555087],[100.64176973917256,5.968251618902453],[100.64228794756312,5.968251618902453],[100.64228794756312,5.96706958859905],[100.64176973917256,5.96706958859905],[100.64176973917256,5.966675579049349],[100.64073332239144,5.966675579049349]]],[[[100.6225960287218,5.968251618902453],[100.62207782033126,5.969039640483496],[100.62311423711238,5.969433651687707],[100.62363244550293,5.968645629555087],[100.6225960287218,5.968251618902453]]],[[[100.62207782033126,5.978890003376963],[100.6215596119407,5.978890003376963],[100.6215596119407,5.978101967995227],[100.62104140355014,5.978101967995227],[100.62104140355014,5.977707950718715],[100.620004986769,5.978101967995227],[100.6215596119407,5.980466077455782],[100.6225960287218,5.9800720585216105],[100.6225960287218,5.979678039863765],[100.62207782033126,5.979678039863765],[100.62207782033126,5.978890003376963]]],[[[100.62622348745575,5.987558465543448],[100.62570527906517,5.987558465543448],[100.6253445677575,5.9871644416322605],[100.62622348745575,5.9881335891103324],[100.62622348745575,5.987558465543448]]],[[[100.6293327377991,5.995439001894746],[100.62881452940854,5.9962270616225855],[100.62985094618966,5.996621091902134],[100.63036915458022,5.99583303162013],[100.6293327377991,5.995439001894746]]],[[[100.64539719790648,5.945005477852964],[100.64539719790648,5.945399472267753],[100.64487898951592,5.945399472267753],[100.64487898951592,5.946187461921373],[100.64591540629705,5.94658145716024],[100.64591540629705,5.946187461921373],[100.6464336146876,5.946187461921373],[100.6464336146876,5.945399472267753],[100.64539719790648,5.945005477852964]]],[[[100.65368853215546,5.945005477852964],[100.65368853215546,5.945399472267753],[100.6531703237649,5.945399472267753],[100.6531703237649,5.94658145716024],[100.65420674054602,5.94697545267384],[100.65486141885141,5.946187461921373],[100.65430348476895,5.945005477852964],[100.65368853215546,5.945005477852964]]],[[[100.65524315732713,5.948551437475919],[100.65524315732713,5.948157440863207],[100.65420674054602,5.948157440863207],[100.65368853215546,5.94894543436345],[100.6557613657177,5.9501274266751825],[100.65627957410825,5.949339431525827],[100.6557613657177,5.949339431525827],[100.6557613657177,5.948551437475919],[100.65524315732713,5.948551437475919]]],[[[100.65627957410825,5.950915422924138],[100.65627957410825,5.950521424662202],[100.65524315732713,5.950915422924138],[100.65524315732713,5.952491418721436],[100.6557613657177,5.952491418721436],[100.6557613657177,5.953673418456967],[100.65679778249881,5.95406741891892],[100.65679778249881,5.953673418456967],[100.65731599088937,5.953673418456967],[100.65731599088937,5.952097419359642],[100.65679778249881,5.952097419359642],[100.65679778249881,5.950915422924138],[100.65627957410825,5.950915422924138]]],[[[100.66042524123274,5.958222187582165],[100.6605114,5.958157093598472],[100.66042524123274,5.957974562107964],[100.66042524123274,5.958222187582165]]],[[[100.64332436434424,5.957613435457651],[100.64332436434424,5.958007438671314],[100.64280615595368,5.958007438671314],[100.64280615595368,5.958795445924479],[100.6438425727348,5.95918944996402],[100.6438425727348,5.958795445924479],[100.64436078112536,5.958795445924479],[100.64436078112536,5.958007438671314],[100.64332436434424,5.957613435457651]]],[[[100.68383321007778,5.978495985547972],[100.68270820202684,5.978101967995227],[100.68270820202684,5.978495985547972],[100.68374461880798,5.978890003376963],[100.68383321007778,5.978495985547972]]],[[[100.66405269996667,5.983224217733596],[100.66301628318554,5.983618238879025],[100.6635344915761,5.984406281999378],[100.66457090835723,5.984012260300946],[100.66405269996667,5.983224217733596]]],[[[100.68996311949469,5.984406281999378],[100.69099953627583,5.984587279198612],[100.68996311949469,5.984012260300946],[100.68996311949469,5.984406281999378]]],[[[100.6981138063364,5.993862885763561],[100.69877266213423,5.993086921366605],[100.69877266213423,5.993074829359918],[100.6977362453531,5.993468857423258],[100.6981138063364,5.993862885763561]]],[[[100.696699828572,5.995439001894746],[100.696699828572,5.995528195223214],[100.6967755605659,5.995439001894746],[100.696699828572,5.995439001894746]]],[[[100.69566341179086,5.9962270616225855],[100.69566341179086,5.996433861791086],[100.69594190170176,5.9962270616225855],[100.69566341179086,5.9962270616225855]]],[[[100.6951452034003,5.996621091902134],[100.6951452034003,5.99681867156291],[100.69541127621969,5.996621091902134],[100.6951452034003,5.996621091902134]]],[[[100.69255416144749,5.998197215791613],[100.69255416144749,5.998591247456898],[100.69151774466638,5.998985279399387],[100.69151774466638,5.999512347367108],[100.69307236983806,5.9983579132933995],[100.69255416144749,5.998197215791613]]],[[[100.69048132788525,6.000955443270548],[100.69048132788525,6.001743510760094],[100.68944491110415,6.002137544920888],[100.68944491110415,6.003319649067583],[100.68996311949469,6.003319649067583],[100.68996311949469,6.003713684337979],[100.68892670271359,6.004107719885823],[100.68892670271359,6.00489579181393],[100.68944491110415,6.00489579181393],[100.68944491110415,6.005289828194229],[100.68950554303625,6.005289828194229],[100.69083860998448,6.000955443270548],[100.69048132788525,6.000955443270548]]],[[[100.65057928181209,6.007260014258937],[100.65006107342153,6.0080480906280025],[100.6516156985932,6.0080480906280025],[100.6516156985932,6.007654052304651],[100.65057928181209,6.007260014258937]]],[[[100.68892670271359,6.008442129229006],[100.68840849432301,6.008442129229006],[100.68840849432301,6.008836168107681],[100.68737207754188,6.008836168107681],[100.68737207754188,6.009230207264048],[100.68581745237022,6.010018286409932],[100.68633566076078,6.010808676466945],[100.68892670271359,6.008442129229006]]]]},"properties":{"place_id":"c58ed787-3e6b-5b95-826c-0b3d3f8d6eb7","habitat":"forest_edge_opening","habitat_label":"Forest edge or opening","resolution_m":50}},{"type":"Feature","geometry":{"type":"MultiPolygon","coordinates":[[[[100.63606944687639,5.942641517131351],[100.63555123848583,5.942641517131351],[100.63555123848583,5.943035509898484],[100.63606944687639,5.943035509898484],[100.63606944687639,5.942641517131351]]],[[[100.6215596119407,5.950521424662202],[100.62158954422259,5.950521424662202],[100.6215596119407,5.9505071007587755],[100.6215596119407,5.950521424662202]]],[[[100.61430469447285,5.951265998726838],[100.61426258180164,5.95130942146101],[100.61430469447285,5.95130942146101],[100.61430469447285,5.951265998726838]]],[[[100.61948677837846,5.95130942146101],[100.61948677837846,5.952491418721436],[100.620004986769,5.952491418721436],[100.620004986769,5.95130942146101],[100.61948677837846,5.95130942146101]]],[[[100.61326827769172,5.952334657872819],[100.61378648608229,5.952491418721436],[100.61378648608229,5.951800328046958],[100.61326827769172,5.952334657872819]]],[[[100.63969690561032,5.958795445924479],[100.63917869721975,5.958795445924479],[100.63917869721975,5.95918944996402],[100.63969690561032,5.95918944996402],[100.63969690561032,5.958795445924479]]],[[[100.61223186091061,5.95997745886911],[100.61193019472525,5.9595834542788895],[100.61198264451939,5.95997745886911],[100.61223186091061,5.95997745886911]]],[[[100.60808619378611,5.961553479983847],[100.60912261056724,5.961553479983847],[100.60912261056724,5.961355531509253],[100.60808619378611,5.961159474292047],[100.60808619378611,5.961553479983847]]],[[[100.620004986769,5.960371463734695],[100.620004986769,5.9607654688756675],[100.6189685699879,5.960371463734695],[100.6189685699879,5.961947485951092],[100.61948677837846,5.961947485951092],[100.61948677837846,5.961159474292047],[100.62104140355014,5.961159474292047],[100.62104140355014,5.9607654688756675],[100.620004986769,5.960371463734695]]],[[[100.60964081895781,5.963129505505666],[100.60964081895781,5.962341492193797],[100.60912261056724,5.962341492193797],[100.60860440217668,5.963129505505666],[100.60964081895781,5.963129505505666]]],[[[100.63451482170471,5.964311527539897],[100.63399661331414,5.964311527539897],[100.63399661331414,5.964705535435763],[100.63451482170471,5.964705535435763],[100.63451482170471,5.964311527539897]]],[[[100.61430469447285,5.966675579049349],[100.61378648608229,5.966675579049349],[100.61378648608229,5.96706958859905],[100.61430469447285,5.96706958859905],[100.61430469447285,5.966675579049349]]],[[[100.62311423711238,5.968645629555087],[100.6225960287218,5.968645629555087],[100.6225960287218,5.969039640483496],[100.62311423711238,5.969039640483496],[100.62311423711238,5.968645629555087]]],[[[100.61585931964453,5.976919916994299],[100.61534111125395,5.976919916994299],[100.61534111125395,5.978101967995227],[100.61482290286341,5.978101967995227],[100.61585931964453,5.978820828752016],[100.61585931964453,5.976919916994299]]],[[[100.61637752803509,5.978101967995227],[100.61637752803509,5.978495985547972],[100.61689573642566,5.978495985547972],[100.61689573642566,5.978101967995227],[100.61637752803509,5.978101967995227]]],[[[100.62104140355014,5.978101967995227],[100.62052319515956,5.978101967995227],[100.62052319515956,5.978495985547972],[100.62104140355014,5.978495985547972],[100.62104140355014,5.978101967995227]]],[[[100.6215596119407,5.978890003376963],[100.62104140355014,5.978890003376963],[100.62104140355014,5.97928402148222],[100.6215596119407,5.97928402148222],[100.6215596119407,5.978890003376963]]],[[[100.62207782033126,5.979678039863765],[100.6215596119407,5.979678039863765],[100.6215596119407,5.9800720585216105],[100.62207782033126,5.9800720585216105],[100.62207782033126,5.979678039863765]]],[[[100.62570190816486,5.987558465543448],[100.62570527906517,5.987562182491699],[100.62570527906517,5.987558465543448],[100.62570190816486,5.987558465543448]]],[[[100.6293327377991,5.99583303162013],[100.6293327377991,5.9962270616225855],[100.62985094618966,5.9962270616225855],[100.62985094618966,5.99583303162013],[100.6293327377991,5.99583303162013]]],[[[100.64125153078199,5.939489584876265],[100.64073332239144,5.939489584876265],[100.64073332239144,5.939883575447576],[100.64125153078199,5.939883575447576],[100.64125153078199,5.939489584876265]]],[[[100.64591540629705,5.945399472267753],[100.64539719790648,5.945399472267753],[100.64539719790648,5.946187461921373],[100.64591540629705,5.946187461921373],[100.64591540629705,5.945399472267753]]],[[[100.65368853215546,5.94658145716024],[100.65472494893658,5.946187461921373],[100.65448946279646,5.945399472267753],[100.65368853215546,5.945399472267753],[100.65368853215546,5.94658145716024]]],[[[100.65524315732713,5.948551437475919],[100.65420674054602,5.948551437475919],[100.65420674054602,5.94894543436345],[100.65524315732713,5.949339431525827],[100.65524315732713,5.948551437475919]]],[[[100.6557613657177,5.949339431525827],[100.65524315732713,5.949339431525827],[100.65524315732713,5.949733428963064],[100.6557613657177,5.949733428963064],[100.6557613657177,5.949339431525827]]],[[[100.6557613657177,5.952491418721436],[100.65627957410825,5.952491418721436],[100.65627957410825,5.95327941827008],[100.65679778249881,5.95327941827008],[100.65627957410825,5.950915422924138],[100.6557613657177,5.950915422924138],[100.6557613657177,5.952491418721436]]],[[[100.6438425727348,5.958007438671314],[100.64332436434424,5.958007438671314],[100.64332436434424,5.958795445924479],[100.6438425727348,5.958795445924479],[100.6438425727348,5.958007438671314]]],[[[100.64125153078199,5.968251618902453],[100.64176973917256,5.968251618902453],[100.64176973917256,5.96706958859905],[100.64073332239144,5.96706958859905],[100.64073332239144,5.967463598424456],[100.64125153078199,5.967463598424456],[100.64125153078199,5.968251618902453]]],[[[100.68341845603281,5.978101967995227],[100.6832264104174,5.978495985547972],[100.68374461880798,5.978495985547972],[100.68341845603281,5.978101967995227]]],[[[100.6635344915761,5.983618238879025],[100.6635344915761,5.984012260300946],[100.66405269996667,5.984012260300946],[100.66405269996667,5.983618238879025],[100.6635344915761,5.983618238879025]]],[[[100.69048132788525,5.984406281999378],[100.69075689074096,5.984406281999378],[100.69048132788525,5.984200730770263],[100.69048132788525,5.984406281999378]]],[[[100.69825445374367,5.993468857423258],[100.69825445374367,5.9936972388339465],[100.69844836777904,5.993468857423258],[100.69825445374367,5.993468857423258]]],[[[100.69255416144749,5.998591247456898],[100.69255416144749,5.99874272438691],[100.6927581488093,5.998591247456898],[100.69255416144749,5.998591247456898]]],[[[100.69203595305693,5.998985279399387],[100.69203595305693,5.999127535744805],[100.69222752332725,5.998985279399387],[100.69203595305693,5.998985279399387]]],[[[100.69048132788525,6.001743510760094],[100.69048132788525,6.002117120677125],[100.6905962341757,6.001743510760094],[100.69048132788525,6.001743510760094]]],[[[100.68996311949469,6.002137544920888],[100.68996311949469,6.003319649067583],[100.69011148255818,6.003319649067583],[100.69047504627133,6.002137544920888],[100.68996311949469,6.002137544920888]]],[[[100.68944491110415,6.004107719885823],[100.68944491110415,6.00489579181393],[100.68962673094066,6.00489579181393],[100.68986910674941,6.004107719885823],[100.68944491110415,6.004107719885823]]],[[[100.65109749020264,6.007654052304651],[100.65057928181209,6.007654052304651],[100.65057928181209,6.0080480906280025],[100.65109749020264,6.0080480906280025],[100.65109749020264,6.007654052304651]]],[[[100.68840849432301,6.008836168107681],[100.68840849432301,6.009149427329146],[100.68879983722545,6.008836168107681],[100.68840849432301,6.008836168107681]]],[[[100.68685386915135,6.009624246698127],[100.68685386915135,6.010018286409932],[100.68633566076078,6.010018286409932],[100.68633566076078,6.010412326399486],[100.686830804483,6.010412326399486],[100.68789028593245,6.009230207264048],[100.68685386915135,6.009624246698127]]]]},"properties":{"place_id":"c58ed787-3e6b-5b95-826c-0b3d3f8d6eb7","habitat":"open_grassland","habitat_label":"Open grassland or shrubland","resolution_m":50}},{"type":"Feature","geometry":{"type":"MultiPolygon","coordinates":[[[[100.6267416958463,5.945005477852964],[100.62596401823347,5.9446114837128325],[100.62664897086577,5.945793466957215],[100.6267416958463,5.945793466957215],[100.6267416958463,5.945005477852964]]],[[[100.62029657463174,5.948551437475919],[100.620004986769,5.94894543436345],[100.62032194709367,5.94894543436345],[100.62029657463174,5.948551437475919]]],[[[100.62295195372722,5.948551437475919],[100.62311423711238,5.948770000127894],[100.62311423711238,5.948551437475919],[100.62295195372722,5.948551437475919]]]]},"properties":{"place_id":"c58ed787-3e6b-5b95-826c-0b3d3f8d6eb7","habitat":"disturbed_built_edge","habitat_label":"Disturbed, bare or built edge","resolution_m":50}},{"type":"Feature","geometry":{"type":"Polygon","coordinates":[[[100.65679778249881,5.953673418456967],[100.65679778249881,5.95327941827008],[100.65627957410825,5.95327941827008],[100.65627957410825,5.953673418456967],[100.65679778249881,5.953673418456967]]]},"properties":{"place_id":"c58ed787-3e6b-5b95-826c-0b3d3f8d6eb7","habitat":"cropland","habitat_label":"Cropland","resolution_m":50}},{"type":"Feature","geometry":{"type":"MultiPolygon","coordinates":[[[[100.6070745,5.959852693596807],[100.607049777005,5.960371463734695],[100.60753629881039,5.960371463734695],[100.6070745,5.959852693596807]]],[[[100.6078870340297,5.9607654688756675],[100.60756798539555,5.960407059457046],[100.60756798539555,5.9607654688756675],[100.6078870340297,5.9607654688756675]]]]},"properties":{"place_id":"c58ed787-3e6b-5b95-826c-0b3d3f8d6eb7","habitat":"water_edge","habitat_label":"Water edge","resolution_m":50}}]}