{"type":"FeatureCollection","metadata":{"schema_version":1,"place_id":"c5930a65-3b2f-5588-adc2-08265f1e6822","place_name":"Taman Sentosa","place_type":"park","osm_reference":"way/546809862","protection_context":"no protected status confirmed from included OSM tags","resolution_m":50,"raster_coverage":1.0,"interpretation":"Suggested search habitats, not predicted plant locations or probabilities of presence."},"features":[{"type":"Feature","geometry":{"type":"Polygon","coordinates":[[[101.14857754514087,4.322291095574984],[101.14857754514087,4.32268411523529],[101.14886734198384,4.32268411523529],[101.14900790043835,4.322291095574984],[101.14857754514087,4.322291095574984]]]},"properties":{"place_id":"c5930a65-3b2f-5588-adc2-08265f1e6822","habitat":"open_grassland","habitat_label":"Open grassland or shrubland","resolution_m":50}},{"type":"Feature","geometry":{"type":"Polygon","coordinates":[[[101.14876459999999,4.322971395266735],[101.149054,4.322162195267586],[101.1485151,4.32208149526766],[101.14843449999998,4.322888095266842],[101.14876459999999,4.322971395266735]]]},"properties":{"place_id":"c5930a65-3b2f-5588-adc2-08265f1e6822","habitat":"disturbed_built_edge","habitat_label":"Disturbed, bare or built edge","resolution_m":50}}]}