{"type":"FeatureCollection","metadata":{"schema_version":1,"place_id":"c59cffc1-6231-5fa5-906e-60c733ef3ca8","place_name":"Rubber Research Institute of Malaysia","place_type":"forest","osm_reference":"way/220322681","protection_context":"no protected status confirmed from included OSM tags","resolution_m":50,"raster_coverage":1.0,"interpretation":"Suggested search habitats, not predicted plant locations or probabilities of presence."},"features":[{"type":"Feature","geometry":{"type":"MultiPolygon","coordinates":[[[[101.55433471494986,3.1609207204580505],[101.55588934012152,3.1601356951728645],[101.55588934012152,3.1585656463363017],[101.5574439652932,3.1579323118752693],[101.55566559999998,3.156787596509567],[101.55433471494986,3.1564590053461106],[101.55485292334039,3.1569955998105192],[101.55406525027874,3.1573881112253925],[101.55433471494986,3.1581731344882655],[101.55386958363661,3.1581731344882655],[101.55381650655929,3.160528207743201],[101.55329829816873,3.1609207204580505],[101.55433471494986,3.1609207204580505]]],[[[101.55683446437396,3.167985974057922],[101.55692575690266,3.1677751152180944],[101.55685979999998,3.167772396497694],[101.55683446437396,3.167985974057922]]],[[[101.55588934012152,3.1723036521337478],[101.5564075485121,3.1723036521337478],[101.5564075485121,3.1719111352201135],[101.55692575690266,3.1719111352201135],[101.55692575690266,3.1723036521337478],[101.55796217368376,3.1719111352201135],[101.55796217368376,3.1723036521337478],[101.55848038207434,3.1723036521337478],[101.55848038207434,3.1730886863962073],[101.55940719490512,3.1726961691924394],[101.55940359999998,3.1687409964966875],[101.55772819999999,3.1687410964966714],[101.55759960012787,3.167985974057922],[101.55692575690266,3.167985974057922],[101.5564075485121,3.1691635208847466],[101.55692575690266,3.1691635208847466],[101.55692575690266,3.1687710051309175],[101.55796217368376,3.1691635208847466],[101.55796217368376,3.1703410690157816],[101.5574439652932,3.1703410690157816],[101.5574439652932,3.1707335853493697],[101.55537113173096,3.169556036783489],[101.55485292334039,3.167593458738722],[101.55433471494986,3.167593458738722],[101.55433471494986,3.166415913650086],[101.55485292334039,3.166415913650086],[101.55485292334039,3.1632757997829652],[101.55398279999999,3.1630232965028617],[101.554333060961,3.161705746321367],[101.55329829816873,3.1613132333174336],[101.55329829816873,3.1632757997829652],[101.55278008977815,3.1632757997829652],[101.55278008977815,3.16445334139783],[101.5522618813876,3.1648964801186996],[101.55278008977815,3.1656308843149534],[101.5522618813876,3.1656308843149534],[101.5522618813876,3.167593458738722],[101.55174367299705,3.167593458738722],[101.55174367299705,3.1683784895219818],[101.55136186099877,3.1683784895219818],[101.55122546460649,3.1703410690157816],[101.55070725621592,3.170911039320411],[101.55122546460649,3.1715186184515174],[101.55044875528868,3.1719111352201135],[101.55018904782536,3.17465875666239],[101.54973856195859,3.17465875666239],[101.54967083943478,3.1750512745918043],[101.5537972,3.175308896489569],[101.55381650655929,3.1750512745918043],[101.55796217368376,3.1749615523889534],[101.55796217368376,3.17465875666239],[101.5574439652932,3.17465875666239],[101.5574439652932,3.174266238878141],[101.55796217368376,3.174266238878141],[101.5574439652932,3.1734812037450677],[101.55692575690266,3.1734812037450677],[101.5564075485121,3.174266238878141],[101.55537113173096,3.173873721239039],[101.55537113173096,3.1734812037450677],[101.5564075485121,3.1730886863962073],[101.55588934012152,3.1723036521337478]],[[101.5522618813876,3.17465875666239],[101.55122546460649,3.1750512745918043],[101.55122546460649,3.17465875666239],[101.55070725621592,3.17465875666239],[101.55070725621592,3.173873721239039],[101.55174367299705,3.1734812037450677],[101.55174367299705,3.173873721239039],[101.5522618813876,3.173873721239039],[101.5522618813876,3.17465875666239]],[[101.55174367299705,3.1730886863962073],[101.55122546460649,3.1730886863962073],[101.55174367299705,3.1715186184515174],[101.5522618813876,3.1715186184515174],[101.5522618813876,3.1711261018279417],[101.55329829816873,3.1711261018279417],[101.55433471494986,3.1726961691924394],[101.55381650655929,3.1726961691924394],[101.55381650655929,3.1730886863962073],[101.5522618813876,3.1730886863962073],[101.5522618813876,3.1734812037450677],[101.55174367299705,3.1734812037450677],[101.55174367299705,3.1730886863962073]]],[[[101.5564075485121,3.1734812037450677],[101.55692575690266,3.1734812037450677],[101.55692575690266,3.1730886863962073],[101.5564075485121,3.1730886863962073],[101.5564075485121,3.1734812037450677]]],[[[101.55796217368376,3.173873721239039],[101.55848038207434,3.173873721239039],[101.55848038207434,3.1734812037450677],[101.55796217368376,3.1734812037450677],[101.55796217368376,3.173873721239039]]]]},"properties":{"place_id":"c59cffc1-6231-5fa5-906e-60c733ef3ca8","habitat":"forest_interior","habitat_label":"Forest interior","resolution_m":50}},{"type":"Feature","geometry":{"type":"MultiPolygon","coordinates":[[[[101.55433471494986,3.1581731344882655],[101.55433471494986,3.157780622784635],[101.55396741695766,3.157780622784635],[101.55386958363661,3.1581731344882655],[101.55433471494986,3.1581731344882655]]],[[[101.55381650655929,3.1584554058031187],[101.55361999999997,3.159642196506495],[101.553390984799,3.160528207743201],[101.55381650655929,3.160528207743201],[101.55381650655929,3.1584554058031187]]],[[[101.55278008977815,3.1632757997829652],[101.55329829816873,3.1632757997829652],[101.55329829816873,3.1613132333174336],[101.554333060961,3.161705746321367],[101.55460076983215,3.160528207743201],[101.55433471494986,3.1609207204580505],[101.55329829816873,3.1608867928654303],[101.55237642289887,3.16445334139783],[101.55278008977815,3.16445334139783],[101.55278008977815,3.1632757997829652]]],[[[101.55278008977815,3.1656308843149534],[101.5522618813876,3.1648964801186996],[101.55136186099877,3.1683784895219818],[101.55174367299705,3.1683784895219818],[101.55174367299705,3.167593458738722],[101.5522618813876,3.167593458738722],[101.5522618813876,3.1656308843149534],[101.55278008977815,3.1656308843149534]]],[[[101.55122546460649,3.1703410690157816],[101.55115894861875,3.1691635208847466],[101.55085458004872,3.1703410690157816],[101.55122546460649,3.1703410690157816]]],[[[101.55070725621592,3.170911039320411],[101.55044875528868,3.1719111352201135],[101.55122546460649,3.1715186184515174],[101.55070725621592,3.170911039320411]]],[[[101.55433471494986,3.1726961691924394],[101.55329829816873,3.1711261018279417],[101.5522618813876,3.1711261018279417],[101.5522618813876,3.1715186184515174],[101.55174367299705,3.1715186184515174],[101.55174367299705,3.1723036521337478],[101.55122546460649,3.1723036521337478],[101.55122546460649,3.1730886863962073],[101.55174367299705,3.1730886863962073],[101.55174367299705,3.1734812037450677],[101.55433471494986,3.1726961691924394]]],[[[101.55018904782536,3.1729158999497744],[101.54973856195859,3.17465875666239],[101.55018904782536,3.17465875666239],[101.55018904782536,3.1729158999497744]]],[[[101.55174367299705,3.1734812037450677],[101.55070725621592,3.173873721239039],[101.55070725621592,3.17465875666239],[101.55122546460649,3.17465875666239],[101.55122546460649,3.1750512745918043],[101.5522618813876,3.17465875666239],[101.5522618813876,3.173873721239039],[101.55174367299705,3.173873721239039],[101.55174367299705,3.1734812037450677]]],[[[101.55018904782536,3.1752295756388467],[101.54967083943478,3.1749207643642188],[101.5495944,3.175216496489672],[101.55018904782536,3.1752295756388467]]],[[[101.55278008977815,3.175286575795035],[101.5522618813876,3.1750512745918043],[101.5522618813876,3.175275169887715],[101.55278008977815,3.175286575795035]]],[[[101.55485292334039,3.175110543554901],[101.55381650655929,3.1750512745918043],[101.55381650655929,3.175305269106431],[101.55485292334039,3.175110543554901]]],[[[101.55485292334039,3.1566030885399967],[101.55429909999998,3.1564498965099386],[101.55406525027874,3.1573881112253925],[101.55485292334039,3.1569955998105192],[101.55485292334039,3.1566030885399967]]],[[[101.5564075485121,3.1573881112253925],[101.55651157630732,3.1573881112253925],[101.5564075485121,3.1572986570428],[101.5564075485121,3.1573881112253925]]],[[[101.55705207620605,3.157780622784635],[101.55692575690266,3.1576907844858058],[101.55692575690266,3.157780622784635],[101.55705207620605,3.157780622784635]]],[[[101.5574439652932,3.1579323118752693],[101.5564075485121,3.158341614094627],[101.5585244,3.1582998965079563],[101.5574439652932,3.1579323118752693]]],[[[101.55537113173096,3.160355735623704],[101.5561724,3.1603808965057083],[101.55617926918858,3.1585656463363017],[101.55588934012152,3.1601356951728645],[101.55537113173096,3.160355735623704]]],[[[101.55485292334039,3.166415913650086],[101.55433471494986,3.166415913650086],[101.55433471494986,3.167593458738722],[101.55485292334039,3.167593458738722],[101.55498625709852,3.1687710051309175],[101.5549891,3.1631729965026967],[101.55433471494986,3.1631735662235303],[101.55485292334039,3.1632757997829652],[101.55485292334039,3.166415913650086]]],[[[101.55692575690266,3.167985974057922],[101.55756819999999,3.1678015964976702],[101.55692575690266,3.1677751152180944],[101.55692575690266,3.167985974057922]]],[[[101.55692575690266,3.1683784895219818],[101.55683446437396,3.167985974057922],[101.55678790226247,3.1683784895219818],[101.55692575690266,3.1683784895219818]]],[[[101.5574439652932,3.1687710051309175],[101.55692575690266,3.1687710051309175],[101.55692575690266,3.1691635208847466],[101.55537113173096,3.1689266901323396],[101.55537113173096,3.169556036783489],[101.55588934012152,3.169556036783489],[101.55692575690266,3.1707335853493697],[101.55796217368376,3.1703410690157816],[101.55796217368376,3.1691635208847466],[101.5574439652932,3.1691635208847466],[101.5574439652932,3.1687710051309175]]],[[[101.55940719490512,3.1726961691924394],[101.5589985904649,3.172783473929973],[101.5594073,3.172811796492291],[101.55940719490512,3.1726961691924394]]],[[[101.55848038207434,3.1730886863962073],[101.55848038207434,3.1723036521337478],[101.55796217368376,3.1723036521337478],[101.55796217368376,3.1719111352201135],[101.5574439652932,3.1719111352201135],[101.5574439652932,3.1723036521337478],[101.55692575690266,3.1723036521337478],[101.55692575690266,3.1719111352201135],[101.55588934012152,3.1723036521337478],[101.55588934012152,3.1726961691924394],[101.55796217368376,3.173873721239039],[101.55796217368376,3.174266238878141],[101.5574439652932,3.174266238878141],[101.55796217368376,3.1749615523889534],[101.55902,3.17483369649007],[101.55937469999999,3.17434679649061],[101.55848038207434,3.1730886863962073]],[[101.55796217368376,3.1734812037450677],[101.55848038207434,3.1734812037450677],[101.55848038207434,3.173873721239039],[101.55796217368376,3.173873721239039],[101.55796217368376,3.1734812037450677]]],[[[101.55588934012152,3.174266238878141],[101.55692575690266,3.173873721239039],[101.5564075485121,3.1730886863962073],[101.55537113173096,3.1734812037450677],[101.55588934012152,3.174266238878141]]]]},"properties":{"place_id":"c59cffc1-6231-5fa5-906e-60c733ef3ca8","habitat":"forest_edge_opening","habitat_label":"Forest edge or opening","resolution_m":50}},{"type":"Feature","geometry":{"type":"MultiPolygon","coordinates":[[[[101.55485292334039,3.1631718921617753],[101.55498739454424,3.1632757997829652],[101.5549891,3.1631729965026967],[101.55485292334039,3.1631718921617753]]],[[[101.55485292334039,3.166415913650086],[101.55498593571637,3.167593458738722],[101.55498561433424,3.166415913650086],[101.55485292334039,3.166415913650086]]],[[[101.55588934012152,3.169556036783489],[101.5564075485121,3.169556036783489],[101.5564075485121,3.1691635208847466],[101.55588934012152,3.1691635208847466],[101.55588934012152,3.169556036783489]]],[[[101.55329829816873,3.1723036521337478],[101.55329829816873,3.1715186184515174],[101.5522618813876,3.1715186184515174],[101.5522618813876,3.1723036521337478],[101.55278008977815,3.1723036521337478],[101.55278008977815,3.1726961691924394],[101.55381650655929,3.1726961691924394],[101.55381650655929,3.1723036521337478],[101.55329829816873,3.1723036521337478]]],[[[101.55174367299705,3.1723036521337478],[101.55174367299705,3.1730886863962073],[101.5522618813876,3.1730886863962073],[101.5522618813876,3.1723036521337478],[101.55174367299705,3.1723036521337478]]],[[[101.55588934012152,3.173873721239039],[101.5564075485121,3.173873721239039],[101.5564075485121,3.1734812037450677],[101.55588934012152,3.1734812037450677],[101.55588934012152,3.173873721239039]]],[[[101.55796217368376,3.1583109765128],[101.5574439652932,3.1581731344882655],[101.5574439652932,3.1583211890399783],[101.55796217368376,3.1583109765128]]],[[[101.5574439652932,3.1703410690157816],[101.5574439652932,3.1691635208847466],[101.55692575690266,3.1691635208847466],[101.55692575690266,3.1703410690157816],[101.5574439652932,3.1703410690157816]]],[[[101.5564075485121,3.1726961691924394],[101.55692575690266,3.1726961691924394],[101.55692575690266,3.1723036521337478],[101.5564075485121,3.1723036521337478],[101.5564075485121,3.1726961691924394]]],[[[101.55796217368376,3.1734812037450677],[101.55796217368376,3.1723036521337478],[101.5574439652932,3.1723036521337478],[101.5574439652932,3.1734812037450677],[101.55796217368376,3.1734812037450677]]],[[[101.5589985904649,3.174841239855911],[101.55848038207434,3.17465875666239],[101.55848038207434,3.1749467791328008],[101.5589985904649,3.174841239855911]]]]},"properties":{"place_id":"c59cffc1-6231-5fa5-906e-60c733ef3ca8","habitat":"open_grassland","habitat_label":"Open grassland or shrubland","resolution_m":50}},{"type":"Feature","geometry":{"type":"MultiPolygon","coordinates":[[[[101.55381650655929,3.1613132333174336],[101.55381650655929,3.161705746321367],[101.554333060961,3.161705746321367],[101.55460076983215,3.160528207743201],[101.55433471494986,3.1609207204580505],[101.55329829816873,3.1608867928654303],[101.55237642289887,3.16445334139783],[101.55278008977815,3.16445334139783],[101.55278008977815,3.1632757997829652],[101.55329829816873,3.1632757997829652],[101.55329829816873,3.1613132333174336],[101.55381650655929,3.1613132333174336]]],[[[101.55278008977815,3.1656308843149534],[101.5522618813876,3.1648964801186996],[101.55136186099877,3.1683784895219818],[101.55174367299705,3.1683784895219818],[101.55174367299705,3.167593458738722],[101.5522618813876,3.167593458738722],[101.5522618813876,3.1656308843149534],[101.55278008977815,3.1656308843149534]]],[[[101.55122546460649,3.1703410690157816],[101.55122546460649,3.1691635208847466],[101.55115894861875,3.1691635208847466],[101.55085458004872,3.1703410690157816],[101.55122546460649,3.1703410690157816]]],[[[101.55122546460649,3.1711261018279417],[101.55070725621592,3.170911039320411],[101.55044875528868,3.1719111352201135],[101.55122546460649,3.1715186184515174],[101.55122546460649,3.1711261018279417]]],[[[101.55018904782536,3.17465875666239],[101.55018904782536,3.1729158999497744],[101.54973856195859,3.17465875666239],[101.55018904782536,3.17465875666239]]],[[[101.55174367299705,3.173873721239039],[101.55174367299705,3.1734812037450677],[101.55070725621592,3.173873721239039],[101.55070725621592,3.17465875666239],[101.55122546460649,3.17465875666239],[101.55122546460649,3.1750512745918043],[101.5522618813876,3.17465875666239],[101.5522618813876,3.173873721239039],[101.55174367299705,3.173873721239039]]],[[[101.55018904782536,3.1752295756388467],[101.54967083943478,3.1749207643642188],[101.5495944,3.175216496489672],[101.55018904782536,3.1752295756388467]]],[[[101.55278008977815,3.175286575795035],[101.5522618813876,3.1750512745918043],[101.5522618813876,3.175275169887715],[101.55278008977815,3.175286575795035]]],[[[101.55485292334039,3.1566030885399967],[101.55429909999998,3.1564498965099386],[101.55406525027874,3.1573881112253925],[101.55485292334039,3.1569955998105192],[101.55485292334039,3.1566030885399967]]],[[[101.55433471494986,3.1581731344882655],[101.55433471494986,3.157780622784635],[101.55396741695766,3.157780622784635],[101.55386958363661,3.1581731344882655],[101.55433471494986,3.1581731344882655]]],[[[101.55381650655929,3.160528207743201],[101.55381650655929,3.1584554058031187],[101.553390984799,3.160528207743201],[101.55381650655929,3.160528207743201]]],[[[101.55588934012152,3.1603720080515765],[101.55537113173096,3.1601356951728645],[101.55537113173096,3.160355735623704],[101.55588934012152,3.1603720080515765]]],[[[101.55692575690266,3.167985974057922],[101.55756819999999,3.1678015964976702],[101.55692575690266,3.1677751152180944],[101.55692575690266,3.167985974057922]]],[[[101.55848038207434,3.173873721239039],[101.55867929489324,3.1734812037450677],[101.55848038207434,3.1734812037450677],[101.55848038207434,3.173873721239039]]],[[[101.5589985904649,3.174266238878141],[101.55939010000002,3.1740784964908952],[101.5589985904649,3.1740694368536175],[101.5589985904649,3.174266238878141]]],[[[101.55433471494986,3.1752079063261998],[101.55381650655929,3.1750512745918043],[101.55381650655929,3.175305269106431],[101.55433471494986,3.1752079063261998]]]]},"properties":{"place_id":"c59cffc1-6231-5fa5-906e-60c733ef3ca8","habitat":"disturbed_built_edge","habitat_label":"Disturbed, bare or built edge","resolution_m":50}},{"type":"Feature","geometry":{"type":"Polygon","coordinates":[[[101.5589985904649,3.17465875666239],[101.5589985904649,3.174266238878141],[101.55796217368376,3.174266238878141],[101.55796217368376,3.17465875666239],[101.5589985904649,3.17465875666239]]]},"properties":{"place_id":"c59cffc1-6231-5fa5-906e-60c733ef3ca8","habitat":"cropland","habitat_label":"Cropland","resolution_m":50}}]}