{"type":"FeatureCollection","metadata":{"schema_version":1,"place_id":"c654c2dc-15ff-59f3-9ba5-1052c455e2fe","place_name":"Prince Prima 4 Park","place_type":"park","osm_reference":"way/768016507","protection_context":"no protected status confirmed from included OSM tags","resolution_m":50,"raster_coverage":1.0,"interpretation":"Suggested search habitats, not predicted plant locations or probabilities of presence."},"features":[{"type":"Feature","geometry":{"type":"Polygon","coordinates":[[[101.59112751067966,2.970568673630795],[101.59073944361326,2.970568673630795],[101.59112751067966,2.9706204309048077],[101.59112751067966,2.970568673630795]]]},"properties":{"place_id":"c654c2dc-15ff-59f3-9ba5-1052c455e2fe","habitat":"forest_interior","habitat_label":"Forest interior","resolution_m":50}},{"type":"Feature","geometry":{"type":"Polygon","coordinates":[[[101.59112751067966,2.970568673630795],[101.59051719999998,2.9703311967115225],[101.5901779,2.9697392967121967],[101.5898949,2.970122296711774],[101.59112751067966,2.970568673630795]]]},"properties":{"place_id":"c654c2dc-15ff-59f3-9ba5-1052c455e2fe","habitat":"forest_edge_opening","habitat_label":"Forest edge or opening","resolution_m":50}},{"type":"Feature","geometry":{"type":"Polygon","coordinates":[[[101.59112751067966,2.970568673630795],[101.59051719999998,2.9703311967115225],[101.5901779,2.9697392967121967],[101.5898949,2.970122296711774],[101.59112751067966,2.970568673630795]]]},"properties":{"place_id":"c654c2dc-15ff-59f3-9ba5-1052c455e2fe","habitat":"disturbed_built_edge","habitat_label":"Disturbed, bare or built edge","resolution_m":50}}]}