{"type":"FeatureCollection","metadata":{"schema_version":1,"place_id":"c77dd7d1-f92b-5293-9c67-5b3a439f9b7d","place_name":"Padang Astaka · OSM way/677789983","place_type":"park","osm_reference":"way/677789983","protection_context":"no protected status confirmed from included OSM tags","resolution_m":50,"raster_coverage":1.0,"interpretation":"Suggested search habitats, not predicted plant locations or probabilities of presence."},"features":[{"type":"Feature","geometry":{"type":"Polygon","coordinates":[[[103.42062729999998,4.235519695358591],[103.41988492096814,4.23583155937293],[103.41988492096814,4.237010489357816],[103.42040312935872,4.23709701732578],[103.4209759,4.236908995357128],[103.42062729999998,4.235519695358591]]]},"properties":{"place_id":"c77dd7d1-f92b-5293-9c67-5b3a439f9b7d","habitat":"forest_edge_opening","habitat_label":"Forest edge or opening","resolution_m":50}},{"type":"Feature","geometry":{"type":"Polygon","coordinates":[[[103.4193667125776,4.236224535840225],[103.41988492096814,4.237010489357816],[103.42040312935872,4.237010489357816],[103.42040312935872,4.236224535840225],[103.4193667125776,4.236224535840225]]]},"properties":{"place_id":"c77dd7d1-f92b-5293-9c67-5b3a439f9b7d","habitat":"open_grassland","habitat_label":"Open grassland or shrubland","resolution_m":50}},{"type":"Feature","geometry":{"type":"Polygon","coordinates":[[[103.41981370000002,4.237850295356152],[103.4209759,4.236908995357128],[103.42062729999998,4.235519695358591],[103.4193141,4.236044895358058],[103.41981370000002,4.237850295356152]]]},"properties":{"place_id":"c77dd7d1-f92b-5293-9c67-5b3a439f9b7d","habitat":"disturbed_built_edge","habitat_label":"Disturbed, bare or built edge","resolution_m":50}}]}