{"type":"FeatureCollection","metadata":{"schema_version":1,"place_id":"c7af8395-da09-5a65-8335-b091e66f8b2e","place_name":"Tanah Lapang Persiaran Halia 2","place_type":"park","osm_reference":"way/1202839211","protection_context":"no protected status confirmed from included OSM tags","resolution_m":50,"raster_coverage":1.0,"interpretation":"Suggested search habitats, not predicted plant locations or probabilities of presence."},"features":[{"type":"Feature","geometry":{"type":"Polygon","coordinates":[[[100.29851839999999,5.449174394107013],[100.29871578462142,5.449161578814782],[100.2984011,5.4489438941072486],[100.29851839999999,5.449174394107013]]]},"properties":{"place_id":"c7af8395-da09-5a65-8335-b091e66f8b2e","habitat":"open_grassland","habitat_label":"Open grassland or shrubland","resolution_m":50}},{"type":"Feature","geometry":{"type":"Polygon","coordinates":[[[100.2984011,5.4489438941072486],[100.29859199999999,5.449223794106959],[100.29904830000001,5.449180994106975],[100.2984011,5.4489438941072486]]]},"properties":{"place_id":"c7af8395-da09-5a65-8335-b091e66f8b2e","habitat":"disturbed_built_edge","habitat_label":"Disturbed, bare or built edge","resolution_m":50}}]}