{"type":"FeatureCollection","metadata":{"schema_version":1,"place_id":"c7b9043d-deba-5c7c-8f20-fc715bfe827c","place_name":"SS 24 Gated Park","place_type":"park","osm_reference":"way/471314847","protection_context":"no protected status confirmed from included OSM tags","resolution_m":50,"raster_coverage":1.0,"interpretation":"Suggested search habitats, not predicted plant locations or probabilities of presence."},"features":[{"type":"Feature","geometry":{"type":"Polygon","coordinates":[[[101.60875480000001,3.116287096553362],[101.609463565129,3.1177451842830117],[101.61021519999998,3.116855196552795],[101.60875480000001,3.116287096553362]]]},"properties":{"place_id":"c7b9043d-deba-5c7c-8f20-fc715bfe827c","habitat":"forest_edge_opening","habitat_label":"Forest edge or opening","resolution_m":50}},{"type":"Feature","geometry":{"type":"Polygon","coordinates":[[[101.60926480434927,3.116567693930356],[101.60926480434927,3.1169601905720623],[101.60978301273984,3.1169601905720623],[101.60978301273984,3.1165874911036378],[101.60926480434927,3.116567693930356]]]},"properties":{"place_id":"c7b9043d-deba-5c7c-8f20-fc715bfe827c","habitat":"open_grassland","habitat_label":"Open grassland or shrubland","resolution_m":50}},{"type":"Feature","geometry":{"type":"Polygon","coordinates":[[[101.60978301273984,3.1169601905720623],[101.60926480434927,3.1169601905720623],[101.60926480434927,3.116567693930356],[101.60975105191407,3.116567693930356],[101.60875480000001,3.116287096553362],[101.6093954,3.1178258965517243],[101.61021519999998,3.116855196552795],[101.60978301273984,3.1165874911036378],[101.60978301273984,3.1169601905720623]]]},"properties":{"place_id":"c7b9043d-deba-5c7c-8f20-fc715bfe827c","habitat":"disturbed_built_edge","habitat_label":"Disturbed, bare or built edge","resolution_m":50}}]}