{"type":"FeatureCollection","metadata":{"schema_version":1,"place_id":"c7ed1da4-4567-5264-aa39-6f488779e9ac","place_name":"The East Park · OSM way/1364509297","place_type":"forest","osm_reference":"way/1364509297","protection_context":"no protected status confirmed from included OSM tags","resolution_m":50,"raster_coverage":1.0,"interpretation":"Suggested search habitats, not predicted plant locations or probabilities of presence."},"features":[{"type":"Feature","geometry":{"type":"Polygon","coordinates":[[[101.634899878058,3.182901663692755],[101.63480117034344,3.1832941846748297],[101.63514075918343,3.1832941846748297],[101.634899878058,3.182901663692755]]]},"properties":{"place_id":"c7ed1da4-4567-5264-aa39-6f488779e9ac","habitat":"forest_interior","habitat_label":"Forest interior","resolution_m":50}},{"type":"Feature","geometry":{"type":"MultiPolygon","coordinates":[[[[101.63465701548674,3.1829944142050595],[101.6346832,3.182715496481574],[101.63452969999999,3.182656296481654],[101.63465701548674,3.1829944142050595]]],[[[101.63480117034344,3.1832941846748297],[101.63529450000001,3.1842253964799543],[101.63534099999998,3.184216296479966],[101.63514075918343,3.1832941846748297],[101.63480117034344,3.1832941846748297]]]]},"properties":{"place_id":"c7ed1da4-4567-5264-aa39-6f488779e9ac","habitat":"forest_edge_opening","habitat_label":"Forest edge or opening","resolution_m":50}},{"type":"Feature","geometry":{"type":"MultiPolygon","coordinates":[[[[101.63465701548674,3.1829944142050595],[101.6346832,3.182715496481574],[101.63452969999999,3.182656296481654],[101.63465701548674,3.1829944142050595]]],[[[101.63480117034344,3.1832941846748297],[101.63529450000001,3.1842253964799543],[101.63534099999998,3.184216296479966],[101.63514075918343,3.1832941846748297],[101.63480117034344,3.1832941846748297]]]]},"properties":{"place_id":"c7ed1da4-4567-5264-aa39-6f488779e9ac","habitat":"disturbed_built_edge","habitat_label":"Disturbed, bare or built edge","resolution_m":50}}]}