{"type":"FeatureCollection","metadata":{"schema_version":1,"place_id":"c8c14b3f-57b8-5f58-86c7-663db579cff4","place_name":"Iramanis Playground","place_type":"park","osm_reference":"relation/14956499","protection_context":"no protected status confirmed from included OSM tags","resolution_m":50,"raster_coverage":1.0,"interpretation":"Suggested search habitats, not predicted plant locations or probabilities of presence."},"features":[{"type":"Feature","geometry":{"type":"Polygon","coordinates":[[[116.10925378062656,5.97179772470578],[116.108735572236,5.97179772470578],[116.108735572236,5.971403711846387],[116.10821736384543,5.971403711846387],[116.10853139999999,5.972302093584518],[116.10925378062656,5.97179772470578]]]},"properties":{"place_id":"c8c14b3f-57b8-5f58-86c7-663db579cff4","habitat":"forest_edge_opening","habitat_label":"Forest edge or opening","resolution_m":50}},{"type":"Feature","geometry":{"type":"Polygon","coordinates":[[[116.1077356,5.971339993585455],[116.108735572236,5.972191737841102],[116.10925378062656,5.971988650549775],[116.10873540090637,5.971009699262903],[116.1077356,5.971339993585455]]]},"properties":{"place_id":"c8c14b3f-57b8-5f58-86c7-663db579cff4","habitat":"open_grassland","habitat_label":"Open grassland or shrubland","resolution_m":50}},{"type":"Feature","geometry":{"type":"Polygon","coordinates":[[[116.1085,5.972237593584579],[116.10954759999998,5.971828293584967],[116.10871030000001,5.970999693585807],[116.1077356,5.971339993585455],[116.1085,5.972237593584579]]]},"properties":{"place_id":"c8c14b3f-57b8-5f58-86c7-663db579cff4","habitat":"disturbed_built_edge","habitat_label":"Disturbed, bare or built edge","resolution_m":50}}]}