{"type":"FeatureCollection","metadata":{"schema_version":1,"place_id":"c8fff840-3502-5ffe-984a-c0a5980e9496","place_name":"Taman Rakyat · OSM way/544227796","place_type":"park","osm_reference":"way/544227796","protection_context":"no protected status confirmed from included OSM tags","resolution_m":50,"raster_coverage":1.0,"interpretation":"Suggested search habitats, not predicted plant locations or probabilities of presence."},"features":[{"type":"Feature","geometry":{"type":"MultiPolygon","coordinates":[[[[100.760155,4.294443195296679],[100.75998181751162,4.294780211172154],[100.76038330918033,4.294780211172154],[100.760155,4.294443195296679]]],[[[100.7618074,4.295224495295875],[100.76147587739207,4.294735192338512],[100.76098259686175,4.294387205548212],[100.76109469999999,4.2951931952959015],[100.76043946061094,4.295173216993151],[100.76043946061094,4.295455692870102],[100.76130013871841,4.295566223011219],[100.7618074,4.295224495295875]]]]},"properties":{"place_id":"c8fff840-3502-5ffe-984a-c0a5980e9496","habitat":"open_grassland","habitat_label":"Open grassland or shrubland","resolution_m":50}},{"type":"Feature","geometry":{"type":"Polygon","coordinates":[[[100.7607606,4.295929695295134],[100.7618074,4.295224495295875],[100.7611594,4.294268095296857],[100.7606847,4.294587895296543],[100.76109469999999,4.2951931952959015],[100.7607983,4.295392795295705],[100.760155,4.294443195296679],[100.75987929999998,4.294628895296506],[100.7607606,4.295929695295134]]]},"properties":{"place_id":"c8fff840-3502-5ffe-984a-c0a5980e9496","habitat":"disturbed_built_edge","habitat_label":"Disturbed, bare or built edge","resolution_m":50}}]}