{"type":"FeatureCollection","metadata":{"schema_version":1,"place_id":"c9b3c8a3-169b-54d5-b43d-31f5a454ac15","place_name":"Jalan Danau 32 Park","place_type":"park","osm_reference":"way/1182432372","protection_context":"no protected status confirmed from included OSM tags","resolution_m":50,"raster_coverage":1.0,"interpretation":"Suggested search habitats, not predicted plant locations or probabilities of presence."},"features":[{"type":"Feature","geometry":{"type":"Polygon","coordinates":[[[103.81005112736605,1.5522338256356296],[103.80925779999998,1.5526864982686046],[103.80958349999999,1.5533489982678723],[103.8104301,1.552697798268597],[103.81005112736605,1.5522338256356296]]]},"properties":{"place_id":"c9b3c8a3-169b-54d5-b43d-31f5a454ac15","habitat":"forest_edge_opening","habitat_label":"Forest edge or opening","resolution_m":50}},{"type":"Feature","geometry":{"type":"Polygon","coordinates":[[[103.80937859999999,1.5528519982684474],[103.80958349999999,1.5533489982678723],[103.8104301,1.552697798268597],[103.80998960000001,1.5521584982691634],[103.80937859999999,1.5528519982684474]]]},"properties":{"place_id":"c9b3c8a3-169b-54d5-b43d-31f5a454ac15","habitat":"disturbed_built_edge","habitat_label":"Disturbed, bare or built edge","resolution_m":50}}]}