{"type":"FeatureCollection","metadata":{"schema_version":1,"place_id":"c9eb5cbe-d2a9-5841-9754-58f2dd12f375","place_name":"Recreation Park · OSM way/477390072","place_type":"park","osm_reference":"way/477390072","protection_context":"no protected status confirmed from included OSM tags","resolution_m":50,"raster_coverage":1.0,"interpretation":"Suggested search habitats, not predicted plant locations or probabilities of presence."},"features":[{"type":"Feature","geometry":{"type":"Polygon","coordinates":[[[103.6334297,1.570023098249378],[103.63357989999999,1.5702965982490504],[103.6335745,1.5700176982493932],[103.6334297,1.570023098249378]]]},"properties":{"place_id":"c9eb5cbe-d2a9-5841-9754-58f2dd12f375","habitat":"forest_interior","habitat_label":"Forest interior","resolution_m":50}}]}