{"type":"FeatureCollection","metadata":{"schema_version":1,"place_id":"c9f4c84d-7bc8-5e20-a84e-e0daff57a647","place_name":"Pulau Mengkirai","place_type":"wood","osm_reference":"way/724617269","protection_context":"no protected status confirmed from included OSM tags","resolution_m":50,"raster_coverage":1.0,"interpretation":"Suggested search habitats, not predicted plant locations or probabilities of presence."},"features":[{"type":"Feature","geometry":{"type":"Polygon","coordinates":[[[102.65760037845345,5.061538691476149],[102.65811858684401,5.06232554171393],[102.65915500362513,5.062251448778823],[102.65915500362513,5.061538691476149],[102.65760037845345,5.061538691476149]]]},"properties":{"place_id":"c9f4c84d-7bc8-5e20-a84e-e0daff57a647","habitat":"forest_interior","habitat_label":"Forest interior","resolution_m":50}},{"type":"Feature","geometry":{"type":"MultiPolygon","coordinates":[[[[102.6579237,5.062345094500249],[102.65994339999999,5.064350194498197],[102.6595022,5.063722394498869],[102.65990850000001,5.063047794499524],[102.65918969999998,5.062910194499692],[102.65904371697229,5.06232554171393],[102.65811858684401,5.06232554171393],[102.65811858684401,5.061932116478574],[102.65760037845345,5.061932116478574],[102.65760849999998,5.061206894501434],[102.65621509999998,5.062339794500263],[102.6579237,5.062345094500249]]],[[[102.65915500362513,5.061538691476149],[102.65915500362513,5.062251448778823],[102.6594982,5.062023194500599],[102.65910119999997,5.060868994501757],[102.65876948726822,5.061538691476149],[102.65915500362513,5.061538691476149]]]]},"properties":{"place_id":"c9f4c84d-7bc8-5e20-a84e-e0daff57a647","habitat":"forest_edge_opening","habitat_label":"Forest edge or opening","resolution_m":50}},{"type":"Feature","geometry":{"type":"MultiPolygon","coordinates":[[[[102.6589228,5.061096094501541],[102.65912330000002,5.06088829450176],[102.65910119999997,5.060868994501757],[102.6589228,5.061096094501541]]],[[[102.65738174858359,5.061538691476149],[102.65766219999999,5.061248294501398],[102.65760849999998,5.061206894501434],[102.65738174858359,5.061538691476149]]],[[[102.65915500362513,5.061538691476149],[102.65916933814951,5.061538691476149],[102.65915500362513,5.061212090335512],[102.65915500362513,5.061538691476149]]],[[[102.65811858684401,5.061747227731068],[102.65863679523457,5.061932116478574],[102.65863679523457,5.06158869454002],[102.65811858684401,5.061747227731068]]],[[[102.65811858684401,5.06232554171393],[102.65771656591721,5.06232554171393],[102.65811858684401,5.062570296714128],[102.65811858684401,5.06232554171393]]],[[[102.65707542829155,5.06232554171393],[102.6573148,5.062445294500156],[102.65768361019718,5.06232554171393],[102.65707542829155,5.06232554171393]]],[[[102.65621026883865,5.06232554171393],[102.6563331,5.062417194500165],[102.65667063197056,5.06232554171393],[102.65621026883865,5.06232554171393]]],[[[102.65915500362513,5.06271896718224],[102.65917089999999,5.062685694499917],[102.65915500362513,5.062567147378815],[102.65915500362513,5.06271896718224]]],[[[102.65967321201569,5.063350817913035],[102.65993,5.063179994499418],[102.6598616,5.063023694499575],[102.65967321201569,5.06299847889805],[102.65967321201569,5.063350817913035]]],[[[102.65967321201569,5.064210413476567],[102.65857279999997,5.0635526944990215],[102.65915079999999,5.063984194498599],[102.65967321201569,5.064210413476567]]],[[[102.65863679523457,5.06271896718224],[102.65825176545516,5.06271896718224],[102.65863679523457,5.063102014810777],[102.65863679523457,5.06271896718224]]],[[[102.65976566672592,5.064292671385367],[102.65989110000001,5.064372994498181],[102.65999456306263,5.064292671385367],[102.65976566672592,5.064292671385367]]]]},"properties":{"place_id":"c9f4c84d-7bc8-5e20-a84e-e0daff57a647","habitat":"permanent_water","habitat_label":"Permanent water","resolution_m":50}},{"type":"Feature","geometry":{"type":"MultiPolygon","coordinates":[[[[102.65760037845345,5.061538691476149],[102.65760037845345,5.061212301387301],[102.65738174858359,5.061538691476149],[102.65760037845345,5.061538691476149]]],[[[102.6591520707351,5.061145266706639],[102.65876948726822,5.061538691476149],[102.65942257386389,5.061932116478574],[102.6591520707351,5.061145266706639]]],[[[102.65915500362513,5.06271896718224],[102.65917089999999,5.062685694499917],[102.65915500362513,5.062567147378815],[102.65915500362513,5.06271896718224]]],[[[102.65957992937099,5.0638992449850635],[102.65915500362513,5.063984977782777],[102.65967321201569,5.064210413476567],[102.65957992937099,5.0638992449850635]]]]},"properties":{"place_id":"c9f4c84d-7bc8-5e20-a84e-e0daff57a647","habitat":"seasonal_water_wetland","habitat_label":"Seasonal water or wetland","resolution_m":50}},{"type":"Feature","geometry":{"type":"MultiPolygon","coordinates":[[[[102.65915500362513,5.06271896718224],[102.6594982,5.062023194500599],[102.65915500362513,5.061538691476149],[102.65863679523457,5.06158869454002],[102.65863679523457,5.061932116478574],[102.65738174858359,5.061538691476149],[102.6561856,5.062158094500452],[102.65811858684401,5.06232554171393],[102.65863679523457,5.06271896718224],[102.65863679523457,5.063505818817788],[102.65957992937099,5.0638992449850635],[102.65967321201569,5.06299847889805],[102.65915500362513,5.06271896718224]]],[[[102.65976566672592,5.064292671385367],[102.660048,5.064075094498485],[102.65967321201569,5.064020962214047],[102.65976566672592,5.064292671385367]]]]},"properties":{"place_id":"c9f4c84d-7bc8-5e20-a84e-e0daff57a647","habitat":"water_edge","habitat_label":"Water edge","resolution_m":50}}]}