{"type":"FeatureCollection","metadata":{"schema_version":1,"place_id":"ca1a1eb4-c87d-5fad-b522-ec757c10d5ee","place_name":"Pulau Semut","place_type":"wood","osm_reference":"way/724557627","protection_context":"no protected status confirmed from included OSM tags","resolution_m":50,"raster_coverage":1.0,"interpretation":"Suggested search habitats, not predicted plant locations or probabilities of presence."},"features":[{"type":"Feature","geometry":{"type":"Polygon","coordinates":[[[102.7042391336039,5.687391085550704],[102.7042391336039,5.687018495952396],[102.70410579999998,5.687182793867904],[102.7042391336039,5.687391085550704]]]},"properties":{"place_id":"ca1a1eb4-c87d-5fad-b522-ec757c10d5ee","habitat":"forest_edge_opening","habitat_label":"Forest edge or opening","resolution_m":50}},{"type":"Feature","geometry":{"type":"MultiPolygon","coordinates":[[[[102.70786659233782,5.684898722463349],[102.7078852,5.6847393938703705],[102.70786659233782,5.684713952120308],[102.70786659233782,5.684898722463349]]],[[[102.70734838394728,5.6854412639243765],[102.70737724317466,5.685421995570458],[102.70734838394728,5.685421995570458],[102.70734838394728,5.6854412639243765]]],[[[102.70631196716614,5.686195567184849],[102.7065749,5.6859576938691365],[102.70678740221594,5.685815813041753],[102.70631196716614,5.685815813041753],[102.70631196716614,5.686195567184849]]],[[[102.70579375877558,5.686603448771437],[102.70579375877558,5.686801540288334],[102.70586111624773,5.686603448771437],[102.70579375877558,5.686603448771437]]],[[[102.70527555038502,5.6877627369827115],[102.70548819999999,5.687487393867591],[102.70553110687925,5.687391085550704],[102.70527555038502,5.687391085550704],[102.70527555038502,5.6877627369827115]]],[[[102.7042391336039,5.687923222778654],[102.70405759999998,5.6883222938667695],[102.7042708,5.688445493866647],[102.7047076,5.6882367938668565],[102.70525843037271,5.68778490433398],[102.70475734199448,5.68778490433398],[102.70475734199448,5.688178723379705],[102.7042391336039,5.687923222778654]]],[[[102.7042391336039,5.687018495952396],[102.70410579999998,5.687182793867904],[102.7042391336039,5.687614870958005],[102.7042391336039,5.687018495952396]]]]},"properties":{"place_id":"ca1a1eb4-c87d-5fad-b522-ec757c10d5ee","habitat":"permanent_water","habitat_label":"Permanent water","resolution_m":50}},{"type":"Feature","geometry":{"type":"MultiPolygon","coordinates":[[[[102.70786659233782,5.684898722463349],[102.7078852,5.6847393938703705],[102.70786659233782,5.684713952120308],[102.70786659233782,5.684898722463349]]],[[[102.70631196716614,5.685815813041753],[102.70631196716614,5.686195567184849],[102.70678740221594,5.685815813041753],[102.70631196716614,5.685815813041753]]]]},"properties":{"place_id":"ca1a1eb4-c87d-5fad-b522-ec757c10d5ee","habitat":"seasonal_water_wetland","habitat_label":"Seasonal water or wetland","resolution_m":50}},{"type":"Feature","geometry":{"type":"Polygon","coordinates":[[[102.7042391336039,5.688178723379705],[102.70525843037271,5.68778490433398],[102.70631196716614,5.685815813041753],[102.707641,5.685245893869836],[102.7078302,5.684664193870412],[102.70579375877558,5.685612521976411],[102.70527555038502,5.686603448771437],[102.7042391336039,5.687018495952396],[102.7042391336039,5.688178723379705]]]},"properties":{"place_id":"ca1a1eb4-c87d-5fad-b522-ec757c10d5ee","habitat":"water_edge","habitat_label":"Water edge","resolution_m":50}},{"type":"Feature","geometry":{"type":"Polygon","coordinates":[[[102.7042391336039,5.688178723379705],[102.70525843037271,5.68778490433398],[102.70631196716614,5.685815813041753],[102.707641,5.685245893869836],[102.7078302,5.684664193870412],[102.70574269999999,5.685639393869445],[102.7042391336039,5.687018495952396],[102.7042391336039,5.688178723379705]]]},"properties":{"place_id":"ca1a1eb4-c87d-5fad-b522-ec757c10d5ee","habitat":"mangrove","habitat_label":"Mangrove","resolution_m":50}}]}