{"type":"FeatureCollection","metadata":{"schema_version":1,"place_id":"ca757c34-9c95-5f8c-90c6-3b9488b8bfd8","place_name":"Pulau Tangkur","place_type":"wood","osm_reference":"way/724751142","protection_context":"no protected status confirmed from included OSM tags","resolution_m":50,"raster_coverage":1.0,"interpretation":"Suggested search habitats, not predicted plant locations or probabilities of presence."},"features":[{"type":"Feature","geometry":{"type":"MultiPolygon","coordinates":[[[[102.58971507929,5.06311239288352],[102.58919687089944,5.06311239288352],[102.58919687089944,5.063505818817788],[102.59023328768058,5.063505818817788],[102.59023328768058,5.06271896718224],[102.58971507929,5.06271896718224],[102.58971507929,5.06311239288352]]],[[[102.59075149607114,5.063505818817788],[102.59023328768058,5.063505818817788],[102.59023328768058,5.0638992449850635],[102.59075149607114,5.0638992449850635],[102.59075149607114,5.063505818817788]]],[[[102.59095731848593,5.0638992449850635],[102.59095520624976,5.064292671385367],[102.59126970446168,5.064292671385367],[102.59095731848593,5.0638992449850635]]],[[[102.59126970446168,5.064292671385367],[102.59178791285224,5.0646860980187105],[102.59178791285224,5.064345529266631],[102.59126970446168,5.064292671385367]]],[[[102.59178791285224,5.06547295198461],[102.59230612124281,5.06547295198461],[102.5921693,5.065079524885119],[102.59178791285224,5.065079524885119],[102.59178791285224,5.06547295198461]]]]},"properties":{"place_id":"ca757c34-9c95-5f8c-90c6-3b9488b8bfd8","habitat":"forest_interior","habitat_label":"Forest interior","resolution_m":50}},{"type":"Feature","geometry":{"type":"MultiPolygon","coordinates":[[[[102.59075149607114,5.06420691056948],[102.59085239999999,5.06359949449899],[102.59078529999998,5.06351129449908],[102.5903991,5.06327089449931],[102.59026769999998,5.063105194499481],[102.5904125,5.062405194500166],[102.58943079999999,5.062036494500587],[102.58956220000002,5.062862094499732],[102.58857519999998,5.063385694499187],[102.59075149607114,5.06420691056948]],[[102.59023328768058,5.0638992449850635],[102.59023328768058,5.063505818817788],[102.59075149607114,5.063505818817788],[102.59075149607114,5.0638992449850635],[102.59023328768058,5.0638992449850635]],[[102.58919687089944,5.063505818817788],[102.58919687089944,5.06311239288352],[102.59023328768058,5.06271896718224],[102.59023328768058,5.063505818817788],[102.58919687089944,5.063505818817788]]],[[[102.59126970446168,5.064292671385367],[102.59161238467762,5.064292671385367],[102.59126970446168,5.064143844610539],[102.59126970446168,5.064292671385367]]],[[[102.59126970446168,5.064292671385367],[102.59108300000001,5.064411694498158],[102.59126970446168,5.064606531119716],[102.59126970446168,5.064292671385367]]],[[[102.59178791285224,5.06547295198461],[102.5921693,5.065079524885119],[102.5919896,5.0642834944982855],[102.591134,5.065044894497517],[102.59270039999997,5.06668799449582],[102.59291949999998,5.065809294496682],[102.59230612124281,5.065329757857404],[102.59178791285224,5.06547295198461]]]]},"properties":{"place_id":"ca757c34-9c95-5f8c-90c6-3b9488b8bfd8","habitat":"forest_edge_opening","habitat_label":"Forest edge or opening","resolution_m":50}},{"type":"Feature","geometry":{"type":"Polygon","coordinates":[[[102.59045,5.062487994500117],[102.59023328768058,5.06271896718224],[102.59040872131916,5.06271896718224],[102.59045,5.062487994500117]]]},"properties":{"place_id":"ca757c34-9c95-5f8c-90c6-3b9488b8bfd8","habitat":"cropland","habitat_label":"Cropland","resolution_m":50}},{"type":"Feature","geometry":{"type":"MultiPolygon","coordinates":[[[[102.59023328768058,5.06232554171393],[102.59028870720417,5.06232554171393],[102.59023328768058,5.062301768071997],[102.59023328768058,5.06232554171393]]],[[[102.58971507929,5.06271896718224],[102.58971507929,5.06210906891377],[102.5894737,5.062023194500599],[102.58944690000001,5.062287694500307],[102.58971507929,5.06271896718224]]],[[[102.58919687089944,5.06311239288352],[102.58919687089944,5.062930672068739],[102.58883597001015,5.06311239288352],[102.58919687089944,5.06311239288352]]],[[[102.58867866250887,5.063215579745119],[102.5885591,5.063334994499266],[102.58867866250887,5.063498564537215],[102.58867866250887,5.063215579745119]]],[[[102.58919687089944,5.063505818817788],[102.58868544409168,5.063505818817788],[102.5888568,5.0636582944989215],[102.58919687089944,5.063505818817788]]],[[[102.59023328768058,5.0638992449850635],[102.58976875638574,5.0638992449850635],[102.59023328768058,5.064048254048231],[102.59023328768058,5.0638992449850635]]],[[[102.59126970446168,5.0647811529283455],[102.59112859999999,5.064967394497546],[102.59126970446168,5.065241699508481],[102.59126970446168,5.0647811529283455]]],[[[102.59075149607114,5.0638992449850635],[102.59085239999999,5.06359949449899],[102.59075149607114,5.063487251702994],[102.59075149607114,5.0638992449850635]]],[[[102.59126970446168,5.064292671385367],[102.5915068,5.064211294498343],[102.59126970446168,5.064143844610539],[102.59126970446168,5.064292671385367]]],[[[102.59200712888571,5.064292671385367],[102.5919896,5.0642834944982855],[102.5919153563734,5.064292671385367],[102.59200712888571,5.064292671385367]]],[[[102.59230612124281,5.06547295198461],[102.59248319999999,5.065464394497037],[102.59230612124281,5.065329757857404],[102.59230612124281,5.06547295198461]]],[[[102.59178791285224,5.06547295198461],[102.59146080566917,5.06547295198461],[102.59178791285224,5.065886673875542],[102.59178791285224,5.06547295198461]]],[[[102.59282432963337,5.0665717390353375],[102.59297939999998,5.066009394496504],[102.59282432963337,5.065703392753014],[102.59282432963337,5.0665717390353375]]],[[[102.59230612124281,5.066259806882907],[102.59220421227286,5.066259806882907],[102.59230612124281,5.06638045956667],[102.59230612124281,5.066259806882907]]],[[[102.592582965058,5.066653234681751],[102.5926441,5.06668799449582],[102.59276159493206,5.066653234681751],[102.592582965058,5.066653234681751]]]]},"properties":{"place_id":"ca757c34-9c95-5f8c-90c6-3b9488b8bfd8","habitat":"permanent_water","habitat_label":"Permanent water","resolution_m":50}},{"type":"Feature","geometry":{"type":"MultiPolygon","coordinates":[[[[102.5894628362737,5.06232554171393],[102.58971507929,5.06210906891377],[102.58943079999999,5.062036494500587],[102.5894628362737,5.06232554171393]]],[[[102.58960729912594,5.06271896718224],[102.58919687089944,5.062930672068739],[102.58919687089944,5.06311239288352],[102.58971507929,5.06311239288352],[102.58960729912594,5.06271896718224]]],[[[102.58867866250887,5.063215579745119],[102.5885591,5.063334994499266],[102.58867866250887,5.063498564537215],[102.58867866250887,5.063215579745119]]],[[[102.59230612124281,5.06547295198461],[102.59249626379125,5.06547295198461],[102.59230612124281,5.065329757857404],[102.59230612124281,5.06547295198461]]],[[[102.592582965058,5.066653234681751],[102.5926441,5.06668799449582],[102.59276159493206,5.066653234681751],[102.592582965058,5.066653234681751]]]]},"properties":{"place_id":"ca757c34-9c95-5f8c-90c6-3b9488b8bfd8","habitat":"seasonal_water_wetland","habitat_label":"Seasonal water or wetland","resolution_m":50}},{"type":"Feature","geometry":{"type":"Polygon","coordinates":[[[102.59096500000001,5.06429679449827],[102.59276159493206,5.066653234681751],[102.59282432963337,5.065703392753014],[102.59230612124281,5.06547295198461],[102.5921103,5.06441969449814],[102.59075149607114,5.0638992449850635],[102.5904125,5.062405194500166],[102.58971507929,5.06210906891377],[102.58971507929,5.06311239288352],[102.58883597001015,5.06311239288352],[102.58867866250887,5.063498564537215],[102.59096500000001,5.06429679449827]]]},"properties":{"place_id":"ca757c34-9c95-5f8c-90c6-3b9488b8bfd8","habitat":"water_edge","habitat_label":"Water edge","resolution_m":50}}]}