{"type":"FeatureCollection","metadata":{"schema_version":1,"place_id":"ca7c1e56-74dc-5277-8a1e-c988391433eb","place_name":"Pusat Rekreasi Balok","place_type":"park","osm_reference":"way/600107512","protection_context":"no protected status confirmed from included OSM tags","resolution_m":50,"raster_coverage":1.0,"interpretation":"Suggested search habitats, not predicted plant locations or probabilities of presence."},"features":[{"type":"Feature","geometry":{"type":"Polygon","coordinates":[[[103.37376437420825,3.927403504862882],[103.37376437420825,3.92815656629629],[103.37405929999997,3.9277840956836654],[103.37376437420825,3.927403504862882]]]},"properties":{"place_id":"ca7c1e56-74dc-5277-8a1e-c988391433eb","habitat":"forest_interior","habitat_label":"Forest interior","resolution_m":50}},{"type":"Feature","geometry":{"type":"Polygon","coordinates":[[[103.3732461658177,3.9262250172757946],[103.3732461658177,3.9266178462915438],[103.37220974903657,3.9262250172757946],[103.37207639999998,3.9248577956867816],[103.37172159999999,3.9250283956865784],[103.3723239,3.9269815956845053],[103.3734983,3.9290637956823082],[103.37386222849443,3.927403504862882],[103.3732461658177,3.9262250172757946]]]},"properties":{"place_id":"ca7c1e56-74dc-5277-8a1e-c988391433eb","habitat":"forest_edge_opening","habitat_label":"Forest edge or opening","resolution_m":50}},{"type":"Feature","geometry":{"type":"MultiPolygon","coordinates":[[[[103.3732461658177,3.9266178462915438],[103.3728452448946,3.9254393597840465],[103.37220974903657,3.925147008364179],[103.37184779687402,3.9254393597840465],[103.37297884559663,3.928189164154129],[103.3732461658177,3.9266178462915438]]],[[[103.3732461658177,3.928581994069763],[103.37340496136528,3.92897482416543],[103.37352439374759,3.92897482416543],[103.37363960379014,3.928581994069763],[103.3732461658177,3.928581994069763]]]]},"properties":{"place_id":"ca7c1e56-74dc-5277-8a1e-c988391433eb","habitat":"open_grassland","habitat_label":"Open grassland or shrubland","resolution_m":50}},{"type":"Feature","geometry":{"type":"MultiPolygon","coordinates":[[[[103.37272795742713,3.927403504862882],[103.3732461658177,3.927403504862882],[103.3732461658177,3.927010675487233],[103.37220974903657,3.9266178462915438],[103.37272795742713,3.925832188439968],[103.37220974903657,3.925832188439968],[103.37207639999998,3.9248577956867816],[103.37172159999999,3.9250283956865784],[103.3722802,3.92684749568467],[103.3723239,3.9269815956845053],[103.37272795742713,3.927726584092414],[103.37272795742713,3.927403504862882]]],[[[103.37304861501511,3.925832188439968],[103.3727732,3.925300195686315],[103.37247564131361,3.9254393597840465],[103.37272795742713,3.925832188439968],[103.37304861501511,3.925832188439968]]],[[[103.3732461658177,3.9266178462915438],[103.37345542158856,3.9266178462915438],[103.3732461658177,3.9262137144838007],[103.3732461658177,3.9266178462915438]]],[[[103.37363960379014,3.928581994069763],[103.3732461658177,3.9286820414130426],[103.3734983,3.9290637956823082],[103.37363960379014,3.928581994069763]]]]},"properties":{"place_id":"ca7c1e56-74dc-5277-8a1e-c988391433eb","habitat":"disturbed_built_edge","habitat_label":"Disturbed, bare or built edge","resolution_m":50}},{"type":"Feature","geometry":{"type":"MultiPolygon","coordinates":[[[[103.37272795742713,3.925321355012815],[103.37304861501511,3.925832188439968],[103.3727732,3.925300195686315],[103.37272795742713,3.925321355012815]]],[[[103.37376437420825,3.927403504862882],[103.37376437420825,3.92815656629629],[103.37405929999997,3.9277840956836654],[103.3732461658177,3.9262137144838007],[103.3732461658177,3.927403504862882],[103.37376437420825,3.927403504862882]]]]},"properties":{"place_id":"ca7c1e56-74dc-5277-8a1e-c988391433eb","habitat":"water_edge","habitat_label":"Water edge","resolution_m":50}}]}