{"type":"FeatureCollection","metadata":{"schema_version":1,"place_id":"cb4eae30-f524-53f3-986d-d3ddd214ce9c","place_name":"Seri Mangga Park","place_type":"park","osm_reference":"way/507524344","protection_context":"no protected status confirmed from included OSM tags","resolution_m":50,"raster_coverage":1.0,"interpretation":"Suggested search habitats, not predicted plant locations or probabilities of presence."},"features":[{"type":"Feature","geometry":{"type":"Polygon","coordinates":[[[102.22118926311282,2.228285715001767],[102.22023249682027,2.2286779352747668],[102.22044058304745,2.2290701556494654],[102.22126891360138,2.2290701556494654],[102.22118926311282,2.228285715001767]]]},"properties":{"place_id":"cb4eae30-f524-53f3-986d-d3ddd214ce9c","habitat":"open_grassland","habitat_label":"Open grassland or shrubland","resolution_m":50}},{"type":"Feature","geometry":{"type":"Polygon","coordinates":[[[102.2201887,2.22860679752199],[102.2206612,2.2294759975210368],[102.22158089999999,2.2290446975215406],[102.221094,2.2281010975225577],[102.2208737,2.228592997522023],[102.2201887,2.22860679752199]]]},"properties":{"place_id":"cb4eae30-f524-53f3-986d-d3ddd214ce9c","habitat":"disturbed_built_edge","habitat_label":"Disturbed, bare or built edge","resolution_m":50}}]}