{"type":"FeatureCollection","metadata":{"schema_version":1,"place_id":"cbc64a40-82e5-5b72-a0b7-e33709d30f79","place_name":"Taman Rakyat","place_type":"park","osm_reference":"way/486477247","protection_context":"no protected status confirmed from included OSM tags","resolution_m":50,"raster_coverage":1.0,"interpretation":"Suggested search habitats, not predicted plant locations or probabilities of presence."},"features":[{"type":"Feature","geometry":{"type":"MultiPolygon","coordinates":[[[[101.44593996058845,3.0204102662731103],[101.4455109529321,3.0206094080945607],[101.44557865707887,3.02119519095631],[101.44602916132267,3.02119519095631],[101.44593996058845,3.0204102662731103]]],[[[101.44913841166604,3.02119519095631],[101.44913841166604,3.0215876535050437],[101.4496566200566,3.0215876535050437],[101.4496566200566,3.02119519095631],[101.44913841166604,3.02119519095631]]],[[[101.44862020327547,3.0219801161918896],[101.44810199488491,3.0219801161918896],[101.44810199488491,3.0215876535050437],[101.4496566200566,3.020802728545672],[101.4496566200566,3.019625342142146],[101.44862020327547,3.019625342142146],[101.44758378649436,3.020802728545672],[101.44654736971323,3.020802728545672],[101.44654736971323,3.02119519095631],[101.4470655781038,3.02119519095631],[101.44654736971323,3.0219801161918896],[101.44568371304292,3.0215876535050437],[101.44603339999999,3.022893996654538],[101.447442,3.023282696654104],[101.44862020327547,3.0219801161918896]]],[[[101.4496566200566,3.0215876535050437],[101.44913841166604,3.022358738410839],[101.44965750000001,3.022837396654565],[101.45017482844715,3.0226274024542565],[101.45017482844715,3.0215876535050437],[101.4496566200566,3.0215876535050437]]]]},"properties":{"place_id":"cbc64a40-82e5-5b72-a0b7-e33709d30f79","habitat":"forest_interior","habitat_label":"Forest interior","resolution_m":50}},{"type":"Feature","geometry":{"type":"MultiPolygon","coordinates":[[[[101.4455109529321,3.0206094080945607],[101.4454317,3.020646196656942],[101.4455109529321,3.020942265436664],[101.4455109529321,3.0206094080945607]]],[[[101.44602916132267,3.0204102662731103],[101.44568371304292,3.0215876535050437],[101.44654736971323,3.0219801161918896],[101.44654736971323,3.0215876535050437],[101.4470655781038,3.0215876535050437],[101.44654736971323,3.020802728545672],[101.44758378649436,3.020802728545672],[101.44862020327547,3.019625342142146],[101.4496566200566,3.019625342142146],[101.4496566200566,3.020802728545672],[101.44913841166604,3.020802728545672],[101.44913841166604,3.02119519095631],[101.45017482844715,3.0215876535050437],[101.45017482844715,3.0226274024542565],[101.4505069,3.0225334966549338],[101.4502417,3.0189008966588493],[101.44761539999999,3.0196559966580514],[101.4469889,3.020476496657144],[101.44602916132267,3.0204102662731103]]],[[[101.44810199488491,3.0215876535050437],[101.44862020327547,3.0223505697604685],[101.4496566200566,3.0219801161918896],[101.44913841166604,3.02119519095631],[101.44810199488491,3.0215876535050437]]]]},"properties":{"place_id":"cbc64a40-82e5-5b72-a0b7-e33709d30f79","habitat":"forest_edge_opening","habitat_label":"Forest edge or opening","resolution_m":50}},{"type":"Feature","geometry":{"type":"Polygon","coordinates":[[[101.44654736971323,3.0215876535050437],[101.44654736971323,3.02119519095631],[101.44602916132267,3.02119519095631],[101.44602916132267,3.0215876535050437],[101.44654736971323,3.0215876535050437]]]},"properties":{"place_id":"cbc64a40-82e5-5b72-a0b7-e33709d30f79","habitat":"open_grassland","habitat_label":"Open grassland or shrubland","resolution_m":50}},{"type":"Feature","geometry":{"type":"MultiPolygon","coordinates":[[[[101.45017482844715,3.0226274024542565],[101.4505069,3.0225334966549338],[101.4502417,3.0189008966588493],[101.44761539999999,3.0196559966580514],[101.4469889,3.020476496657144],[101.44611589999998,3.020328596657312],[101.44593996058845,3.0204102662731103],[101.44602916132267,3.020802728545672],[101.44758378649436,3.020802728545672],[101.44862020327547,3.019625342142146],[101.4496566200566,3.019625342142146],[101.4496566200566,3.020802728545672],[101.44913841166604,3.020802728545672],[101.44913841166604,3.02119519095631],[101.45017482844715,3.0215876535050437],[101.45017482844715,3.0226274024542565]]],[[[101.44862020327547,3.0215876535050437],[101.44810199488491,3.0215876535050437],[101.44862020327547,3.0223505697604685],[101.4496566200566,3.0219801161918896],[101.44913841166604,3.02119519095631],[101.44862020327547,3.02119519095631],[101.44862020327547,3.0215876535050437]]]]},"properties":{"place_id":"cbc64a40-82e5-5b72-a0b7-e33709d30f79","habitat":"disturbed_built_edge","habitat_label":"Disturbed, bare or built edge","resolution_m":50}}]}