{"type":"FeatureCollection","metadata":{"schema_version":1,"place_id":"cbe9f94f-ad85-588a-9b48-c61a04acdc2e","place_name":"Taman Permainan Desa Bestari Jalan 3","place_type":"park","osm_reference":"way/700247007","protection_context":"no protected status confirmed from included OSM tags","resolution_m":50,"raster_coverage":1.0,"interpretation":"Suggested search habitats, not predicted plant locations or probabilities of presence."},"features":[{"type":"Feature","geometry":{"type":"Polygon","coordinates":[[[101.75280852853459,2.801272635219598],[101.75332673692513,2.8013097391320483],[101.75332673692513,2.800260163533179],[101.75286271505533,2.800260163533179],[101.75280852853459,2.801272635219598]]]},"properties":{"place_id":"cbe9f94f-ad85-588a-9b48-c61a04acdc2e","habitat":"forest_edge_opening","habitat_label":"Forest edge or opening","resolution_m":50}},{"type":"Feature","geometry":{"type":"Polygon","coordinates":[[[101.75342602724709,2.800260163533179],[101.75332673692513,2.800652551191842],[101.75339603540348,2.800652551191842],[101.75342602724709,2.800260163533179]]]},"properties":{"place_id":"cbe9f94f-ad85-588a-9b48-c61a04acdc2e","habitat":"open_grassland","habitat_label":"Open grassland or shrubland","resolution_m":50}},{"type":"Feature","geometry":{"type":"Polygon","coordinates":[[[101.75334569999998,2.8013110968952444],[101.75343590000001,2.8001309968965606],[101.7528728,2.8001094968965807],[101.75280519999998,2.8012723968952944],[101.75334569999998,2.8013110968952444]]]},"properties":{"place_id":"cbe9f94f-ad85-588a-9b48-c61a04acdc2e","habitat":"disturbed_built_edge","habitat_label":"Disturbed, bare or built edge","resolution_m":50}}]}