{"type":"FeatureCollection","metadata":{"schema_version":1,"place_id":"cc513294-b968-535e-a970-8be5e5a7ee2b","place_name":"Taman Milenium Fasa 2","place_type":"park","osm_reference":"way/1291991780","protection_context":"no protected status confirmed from included OSM tags","resolution_m":50,"raster_coverage":1.0,"interpretation":"Suggested search habitats, not predicted plant locations or probabilities of presence."},"features":[{"type":"Feature","geometry":{"type":"Polygon","coordinates":[[[113.0741072371129,3.235893320154821],[113.07462544550344,3.235893320154821],[113.07462544550344,3.2355007795059127],[113.07422186309938,3.2355007795059127],[113.0741072371129,3.235893320154821]]]},"properties":{"place_id":"cc513294-b968-535e-a970-8be5e5a7ee2b","habitat":"forest_interior","habitat_label":"Forest interior","resolution_m":50}},{"type":"Feature","geometry":{"type":"MultiPolygon","coordinates":[[[[113.07618007067514,3.2335380784805787],[113.07614019999997,3.2330956964271778],[113.07590636836034,3.2335380784805787],[113.07618007067514,3.2335380784805787]]],[[[113.07566186228456,3.233930618389812],[113.07566186228456,3.2336145932019327],[113.0749863,3.2334252964268293],[113.07483498079318,3.233930618389812],[113.07566186228456,3.233930618389812]]],[[[113.07618007067514,3.2335380784805787],[113.07618007067514,3.233930618389812],[113.0766982790657,3.234096534482963],[113.0765027427451,3.2335380784805787],[113.07618007067514,3.2335380784805787]]],[[[113.0749795,3.236857496423134],[113.07514365389402,3.235893320154821],[113.07566186228456,3.235893320154821],[113.07566186228456,3.235108239004976],[113.07459988780755,3.234715698651992],[113.07422186309938,3.2355007795059127],[113.07462544550344,3.2355007795059127],[113.07462544550344,3.235893320154821],[113.0741072371129,3.235719700817982],[113.07385559999999,3.2362002964238497],[113.0749795,3.236857496423134]]]]},"properties":{"place_id":"cc513294-b968-535e-a970-8be5e5a7ee2b","habitat":"forest_edge_opening","habitat_label":"Forest edge or opening","resolution_m":50}},{"type":"Feature","geometry":{"type":"MultiPolygon","coordinates":[[[[113.07514365389402,3.236634074525577],[113.0766787,3.234204696425977],[113.07618007067514,3.233118126078031],[113.0758396,3.233664396426554],[113.0749863,3.2334252964268293],[113.07442470544649,3.235108239004976],[113.07514365389402,3.235108239004976],[113.07514365389402,3.235893320154821],[113.07462544550344,3.235893320154821],[113.07514365389402,3.236634074525577]]],[[[113.0741072371129,3.23634744107186],[113.07462544550344,3.2366504631771256],[113.07462544550344,3.236285860951718],[113.0741072371129,3.23634744107186]]]]},"properties":{"place_id":"cc513294-b968-535e-a970-8be5e5a7ee2b","habitat":"open_grassland","habitat_label":"Open grassland or shrubland","resolution_m":50}},{"type":"Feature","geometry":{"type":"MultiPolygon","coordinates":[[[[113.07618007067514,3.2335380784805787],[113.07655579999998,3.2333294964269412],[113.07614019999997,3.2330956964271778],[113.07618007067514,3.2335380784805787]]],[[[113.07538879658053,3.2335380784805787],[113.07514365389402,3.233469387968482],[113.07514365389402,3.2335380784805787],[113.07538879658053,3.2335380784805787]]],[[[113.0766982790657,3.233930618389812],[113.07673,3.233921296426292],[113.0766982790657,3.2338928387622805],[113.0766982790657,3.233930618389812]]],[[[113.07514365389402,3.234715698651992],[113.07483498079318,3.233930618389812],[113.07442470544649,3.235108239004976],[113.07514365389402,3.234715698651992]]],[[[113.0741072371129,3.235893320154821],[113.07385559999999,3.2362002964238497],[113.07462544550344,3.2366504631771256],[113.07462544550344,3.236285860951718],[113.0741072371129,3.236285860951718],[113.0741072371129,3.235893320154821]]]]},"properties":{"place_id":"cc513294-b968-535e-a970-8be5e5a7ee2b","habitat":"disturbed_built_edge","habitat_label":"Disturbed, bare or built edge","resolution_m":50}}]}