{"type":"FeatureCollection","metadata":{"schema_version":1,"place_id":"cc9a9293-e3aa-5695-859c-ca2555c5d7b5","place_name":"Taman Awam Jalan Pokok Pines","place_type":"park","osm_reference":"way/712254739","protection_context":"no protected status confirmed from included OSM tags","resolution_m":50,"raster_coverage":1.0,"interpretation":"Suggested search habitats, not predicted plant locations or probabilities of presence."},"features":[{"type":"Feature","geometry":{"type":"Polygon","coordinates":[[[101.73396499999998,3.714888795910147],[101.7343274,3.715324595909701],[101.7346303,3.7152735959097667],[101.73442749999998,3.7146524959104017],[101.73396499999998,3.714888795910147]]]},"properties":{"place_id":"cc9a9293-e3aa-5695-859c-ca2555c5d7b5","habitat":"forest_edge_opening","habitat_label":"Forest edge or opening","resolution_m":50}},{"type":"Feature","geometry":{"type":"Polygon","coordinates":[[[101.73415302647439,3.7149086211228584],[101.73462740911656,3.7149086211228584],[101.73442749999998,3.7146524959104017],[101.73415302647439,3.7149086211228584]]]},"properties":{"place_id":"cc9a9293-e3aa-5695-859c-ca2555c5d7b5","habitat":"open_grassland","habitat_label":"Open grassland or shrubland","resolution_m":50}},{"type":"Feature","geometry":{"type":"MultiPolygon","coordinates":[[[[101.73415302647439,3.7149086211228584],[101.73462740911656,3.7149086211228584],[101.73442749999998,3.7146524959104017],[101.73415302647439,3.7149086211228584]]],[[[101.73467123486495,3.7151908808694905],[101.73467919999999,3.7150991959099144],[101.73467123486495,3.7150698866193674],[101.73467123486495,3.7151908808694905]]]]},"properties":{"place_id":"cc9a9293-e3aa-5695-859c-ca2555c5d7b5","habitat":"disturbed_built_edge","habitat_label":"Disturbed, bare or built edge","resolution_m":50}}]}