{"type":"FeatureCollection","metadata":{"schema_version":1,"place_id":"cd78b719-566e-5a03-9fbb-834a0423bec5","place_name":"Pulau Kincir","place_type":"wood","osm_reference":"way/412279589","protection_context":"no protected status confirmed from included OSM tags","resolution_m":50,"raster_coverage":1.0,"interpretation":"Suggested search habitats, not predicted plant locations or probabilities of presence."},"features":[{"type":"Feature","geometry":{"type":"Polygon","coordinates":[[[102.9503881191202,3.487150482503324],[102.9503881191202,3.486757843436288],[102.95505199463526,3.486365204528823],[102.95505199463526,3.4859725657809117],[102.94935170233909,3.4855799271925365],[102.94935170233909,3.485187288763678],[102.94779707716741,3.485187288763678],[102.94779707716741,3.4847946504943184],[102.94624245199573,3.4847946504943184],[102.94624245199573,3.485187288763678],[102.9452060352146,3.485187288763678],[102.9452060352146,3.4859725657809117],[102.94468782682404,3.4859725657809117],[102.94468782682404,3.486365204528823],[102.94727886877683,3.486365204528823],[102.94727886877683,3.486757843436288],[102.9503881191202,3.487150482503324]]]},"properties":{"place_id":"cd78b719-566e-5a03-9fbb-834a0423bec5","habitat":"forest_interior","habitat_label":"Forest interior","resolution_m":50}},{"type":"Feature","geometry":{"type":"Polygon","coordinates":[[[102.94416961843348,3.486365204528823],[102.949174,3.48756459615338],[102.9540643,3.4869851961539826],[102.95660661980693,3.4860071871147187],[102.9467413,3.484413496156739],[102.9454724,3.4847609961563526],[102.94416961843348,3.486365204528823]],[[102.94883349394854,3.486757843436288],[102.94727886877683,3.486757843436288],[102.94727886877683,3.486365204528823],[102.94468782682404,3.486365204528823],[102.94468782682404,3.4859725657809117],[102.9452060352146,3.4859725657809117],[102.9452060352146,3.485187288763678],[102.94624245199573,3.485187288763678],[102.94624245199573,3.4847946504943184],[102.94779707716741,3.4847946504943184],[102.94779707716741,3.485187288763678],[102.94935170233909,3.485187288763678],[102.94935170233909,3.4855799271925365],[102.95505199463526,3.4859725657809117],[102.95505199463526,3.486365204528823],[102.95246095268244,3.486365204528823],[102.95246095268244,3.486757843436288],[102.9503881191202,3.486757843436288],[102.9503881191202,3.487150482503324],[102.94883349394854,3.487150482503324],[102.94883349394854,3.486757843436288]]]},"properties":{"place_id":"cd78b719-566e-5a03-9fbb-834a0423bec5","habitat":"forest_edge_opening","habitat_label":"Forest edge or opening","resolution_m":50}},{"type":"Feature","geometry":{"type":"MultiPolygon","coordinates":[[[[102.94779707716741,3.4847946504943184],[102.94830859999999,3.4847132961564347],[102.94779707716741,3.4845758509620417],[102.94779707716741,3.4847946504943184]]],[[[102.94883349394854,3.487150482503324],[102.94831528555797,3.487150482503324],[102.94831528555797,3.4874757084033403],[102.94883349394854,3.487522099023101],[102.94883349394854,3.487150482503324]]]]},"properties":{"place_id":"cd78b719-566e-5a03-9fbb-834a0423bec5","habitat":"cropland","habitat_label":"Cropland","resolution_m":50}},{"type":"Feature","geometry":{"type":"MultiPolygon","coordinates":[[[[102.94624245199573,3.4847946504943184],[102.94624245199573,3.484471491324266],[102.94542913012869,3.4847946504943184],[102.94624245199573,3.4847946504943184]]],[[[102.94861356704341,3.4847946504943184],[102.94831528555797,3.484715079624949],[102.94831528555797,3.4847946504943184],[102.94861356704341,3.4847946504943184]]],[[[102.9452060352146,3.485187288763678],[102.9452060352146,3.4849681687465264],[102.94492772184272,3.485187288763678],[102.9452060352146,3.485187288763678]]],[[[102.94468782682404,3.4859725657809117],[102.94468782682404,3.485429761689434],[102.94431379108102,3.4859725657809117],[102.94468782682404,3.4859725657809117]]],[[[102.94468782682404,3.486365204528823],[102.94416961843348,3.4861879600115055],[102.94408199999998,3.4864367961545764],[102.94438029999999,3.4866272961543636],[102.94468782682404,3.486365204528823]]],[[[102.9459796704769,3.486757843436288],[102.9478866,3.487382596153567],[102.94831528555797,3.4874757084033403],[102.94831528555797,3.487150482503324],[102.94727886877683,3.487150482503324],[102.94727886877683,3.486757843436288],[102.9459796704769,3.486757843436288]]],[[[102.9490019372983,3.48754312172995],[102.949174,3.48756459615338],[102.94954942847397,3.48754312172995],[102.9490019372983,3.48754312172995]]],[[[102.95024151426384,3.485187288763678],[102.9498774,3.4851317961559793],[102.94935170233909,3.4849915587117413],[102.94935170233909,3.485187288763678],[102.95024151426384,3.485187288763678]]],[[[102.95330270260767,3.4855799271925365],[102.95298519999999,3.485516196155572],[102.95246095268244,3.4854608025438507],[102.95246095268244,3.4855799271925365],[102.95330270260767,3.4855799271925365]]],[[[102.95519466333363,3.4859725657809117],[102.95505199463526,3.485946790068656],[102.95505199463526,3.4859725657809117],[102.95519466333363,3.4859725657809117]]],[[[102.95608841141639,3.4862487127334685],[102.95663999999998,3.486084096154957],[102.95671809999999,3.486027496154982],[102.95608841141639,3.4859977343922712],[102.95608841141639,3.4862487127334685]]],[[[102.95505199463526,3.486365204528823],[102.95505199463526,3.48664274751373],[102.95578436532611,3.486365204528823],[102.95505199463526,3.486365204528823]]],[[[102.95246095268244,3.486757843436288],[102.95246095268244,3.487150482503324],[102.9503881191202,3.487150482503324],[102.9503881191202,3.4874430750467154],[102.95326439999998,3.487128196153831],[102.95477967155259,3.486757843436288],[102.95246095268244,3.486757843436288]]]]},"properties":{"place_id":"cd78b719-566e-5a03-9fbb-834a0423bec5","habitat":"permanent_water","habitat_label":"Permanent water","resolution_m":50}},{"type":"Feature","geometry":{"type":"MultiPolygon","coordinates":[[[[102.94831528555797,3.4847946504943184],[102.94861356704341,3.4847946504943184],[102.94831528555797,3.484715079624949],[102.94831528555797,3.4847946504943184]]],[[[102.94468782682404,3.4859725657809117],[102.94468782682404,3.485429761689434],[102.94431379108102,3.4859725657809117],[102.94468782682404,3.4859725657809117]]],[[[102.94416961843348,3.4861879600115055],[102.94408199999998,3.4864367961545764],[102.94416961843348,3.486537317494162],[102.94416961843348,3.4861879600115055]]],[[[102.95142453590132,3.487150482503324],[102.95090632751078,3.487301784234666],[102.95142453590132,3.4872195814244646],[102.95142453590132,3.487150482503324]]]]},"properties":{"place_id":"cd78b719-566e-5a03-9fbb-834a0423bec5","habitat":"seasonal_water_wetland","habitat_label":"Seasonal water or wetland","resolution_m":50}},{"type":"Feature","geometry":{"type":"Polygon","coordinates":[[[102.94727886877683,3.486757843436288],[102.94727886877683,3.487150482503324],[102.94831528555797,3.487150482503324],[102.94831528555797,3.4874757084033403],[102.94987679999998,3.4875243961534172],[102.9503881191202,3.487150482503324],[102.95246095268244,3.487150482503324],[102.95246095268244,3.486757843436288],[102.95477967155259,3.486757843436288],[102.95608841141639,3.4859977343922712],[102.94935170233909,3.485187288763678],[102.9467413,3.484413496156739],[102.94542913012869,3.4847946504943184],[102.94416961843348,3.4861879600115055],[102.94468782682404,3.486584562898161],[102.94727886877683,3.486757843436288]],[[102.94831528555797,3.486365204528823],[102.94572424360517,3.4859725657809117],[102.94572424360517,3.4855799271925365],[102.94624245199573,3.4855799271925365],[102.94624245199573,3.485187288763678],[102.94831528555797,3.485187288763678],[102.94831528555797,3.4855799271925365],[102.94935170233909,3.4855799271925365],[102.94935170233909,3.4859725657809117],[102.95246095268244,3.4859725657809117],[102.95246095268244,3.486365204528823],[102.9503881191202,3.486365204528823],[102.9503881191202,3.486757843436288],[102.94831528555797,3.486757843436288],[102.94831528555797,3.486365204528823]]]},"properties":{"place_id":"cd78b719-566e-5a03-9fbb-834a0423bec5","habitat":"water_edge","habitat_label":"Water edge","resolution_m":50}}]}