{"type":"FeatureCollection","metadata":{"schema_version":1,"place_id":"cdec6eda-b714-545a-b3db-6312c7d912e3","place_name":"Vet Fruits Park","place_type":"park","osm_reference":"way/628504518","protection_context":"no protected status confirmed from included OSM tags","resolution_m":50,"raster_coverage":1.0,"interpretation":"Suggested search habitats, not predicted plant locations or probabilities of presence."},"features":[{"type":"Feature","geometry":{"type":"Polygon","coordinates":[[[101.71135185728971,2.976299725162268],[101.71083364889917,2.976455361151221],[101.7102844,2.975871796705524],[101.7101246,2.9762605967051154],[101.71106249999998,2.976559096704782],[101.7113946,2.9765714967047656],[101.71135185728971,2.976299725162268]]]},"properties":{"place_id":"cdec6eda-b714-545a-b3db-6312c7d912e3","habitat":"forest_edge_opening","habitat_label":"Forest edge or opening","resolution_m":50}},{"type":"Feature","geometry":{"type":"Polygon","coordinates":[[[101.71039649999999,2.976375696704972],[101.7113946,2.9765714967047656],[101.7114814,2.9763428967050216],[101.7102844,2.975871796705524],[101.71039649999999,2.976375696704972]]]},"properties":{"place_id":"cdec6eda-b714-545a-b3db-6312c7d912e3","habitat":"disturbed_built_edge","habitat_label":"Disturbed, bare or built edge","resolution_m":50}}]}