{"type":"FeatureCollection","metadata":{"schema_version":1,"place_id":"ce0cf3c5-2b93-5547-8c99-06a87f4d0486","place_name":"Pulau Kemamba","place_type":"wood","osm_reference":"way/724547205","protection_context":"no protected status confirmed from included OSM tags","resolution_m":50,"raster_coverage":1.0,"interpretation":"Suggested search habitats, not predicted plant locations or probabilities of presence."},"features":[{"type":"Feature","geometry":{"type":"Polygon","coordinates":[[[102.71045763429062,5.01786995979436],[102.71201225946233,5.01786995979436],[102.71201225946233,5.017476560763545],[102.71304867624343,5.0170831619635745],[102.71304867624343,5.016296365056098],[102.71356688463399,5.0162548465811625],[102.71356688463399,5.014722774010475],[102.71460330141512,5.014329376825907],[102.71460330141512,5.013149186656315],[102.71512150980568,5.013149186656315],[102.71512150980568,5.012755790394426],[102.71563971819623,5.012755790394426],[102.71563971819623,5.011968998562502],[102.71667613497736,5.011575602992431],[102.71667613497736,5.010002023017643],[102.71719434336792,5.010002023017643],[102.71719434336792,5.009215234413292],[102.71771255175848,5.009207373963524],[102.71771255175848,5.008821840456811],[102.71719434336792,5.008821840456811],[102.71719434336792,5.008428446730769],[102.71771255175848,5.008428446730769],[102.71771255175848,5.006854874130626],[102.71719434336792,5.006854874130626],[102.71719434336792,5.007248266935098],[102.71563971819623,5.008124117747874],[102.71563971819623,5.008821840456811],[102.71512150980568,5.008821840456811],[102.71512150980568,5.00960862860023],[102.71460330141512,5.00960862860023],[102.71460330141512,5.010788812543974],[102.71408509302456,5.010788812543974],[102.7139752,5.011528494552352],[102.71304867624343,5.011575602992431],[102.71304867624343,5.011968998562502],[102.71201225946233,5.012362394363161],[102.71149405107175,5.016689763394431],[102.71045763429062,5.017192311847002],[102.71045763429062,5.01786995979436]]]},"properties":{"place_id":"ce0cf3c5-2b93-5547-8c99-06a87f4d0486","habitat":"forest_interior","habitat_label":"Forest interior","resolution_m":50}},{"type":"Feature","geometry":{"type":"MultiPolygon","coordinates":[[[[102.71667613497736,5.007641659969931],[102.71667613497736,5.007248266935098],[102.71771255175848,5.006854874130626],[102.71771255175848,5.008428446730769],[102.71719434336792,5.008428446730769],[102.71771255175848,5.009207373963524],[102.7182312,5.0064079945575815],[102.71596939999999,5.007094994556876],[102.71608741087401,5.00803505323515],[102.7161579265868,5.007641659969931],[102.71667613497736,5.007641659969931]]],[[[102.71460330141512,5.00960862860023],[102.71512150980568,5.00960862860023],[102.71563971819623,5.008124117747874],[102.71524259999998,5.008179094555784],[102.71388972694359,5.011182207652927],[102.71460330141512,5.010788812543974],[102.71460330141512,5.00960862860023]]],[[[102.71304867624343,5.011968998562502],[102.71356688463399,5.011428660546555],[102.71318289999999,5.011336794552535],[102.71262318208949,5.011968998562502],[102.71304867624343,5.011968998562502]]],[[[102.71719434336792,5.009215234413292],[102.71719434336792,5.010002023017643],[102.71667613497736,5.010002023017643],[102.71667613497736,5.011575602992431],[102.71563971819623,5.011968998562502],[102.71563971819623,5.012755790394426],[102.71460330141512,5.013149186656315],[102.71460330141512,5.014329376825907],[102.71356688463399,5.014722774010475],[102.71356688463399,5.0162548465811625],[102.7142508,5.014772894549009],[102.71495889999998,5.014470994549314],[102.71493239999998,5.013492994550306],[102.7154802,5.013388194550434],[102.71548119999999,5.013000694550825],[102.7161484,5.013063494550733],[102.71577019999998,5.012394494551436],[102.71688599999999,5.011742294552111],[102.71770584263469,5.009215234413292],[102.71719434336792,5.009215234413292]]],[[[102.71253046785287,5.012029237204668],[102.71139289999999,5.012416894551403],[102.7112366,5.01310699455072],[102.71181199999998,5.013374094550443],[102.7118114182821,5.013935979872038],[102.71201225946233,5.012362394363161],[102.71253046785287,5.012362394363161],[102.71253046785287,5.012029237204668]]],[[[102.71149405107175,5.015474086015818],[102.71102339999999,5.015757494547983],[102.71067433883505,5.0170831619635745],[102.71149405107175,5.016689763394431],[102.71149405107175,5.015474086015818]]],[[[102.71149405107175,5.014131448639332],[102.7108464,5.014215094549583],[102.71149405107175,5.015070149739216],[102.71149405107175,5.014131448639332]]],[[[102.71304867624343,5.016296365056098],[102.71304867624343,5.0170831619635745],[102.71253046785287,5.0170831619635745],[102.71201225946233,5.01786995979436],[102.71045763429062,5.01786995979436],[102.71026969999998,5.017224394546474],[102.7097641,5.018657894545017],[102.7123752,5.017885694545827],[102.71285269999998,5.01751829454617],[102.71332609999997,5.016733394546991],[102.713447765113,5.016296365056098],[102.71304867624343,5.016296365056098]]]]},"properties":{"place_id":"ce0cf3c5-2b93-5547-8c99-06a87f4d0486","habitat":"forest_edge_opening","habitat_label":"Forest edge or opening","resolution_m":50}},{"type":"Feature","geometry":{"type":"Polygon","coordinates":[[[102.71807430642714,5.008428446730769],[102.71771255175848,5.008821840456811],[102.71792859636003,5.008821840456811],[102.71807430642714,5.008428446730769]]]},"properties":{"place_id":"ce0cf3c5-2b93-5547-8c99-06a87f4d0486","habitat":"cropland","habitat_label":"Cropland","resolution_m":50}},{"type":"Feature","geometry":{"type":"MultiPolygon","coordinates":[[[[102.71408509302456,5.010788812543974],[102.71408509302456,5.010512955134827],[102.71392200824002,5.010788812543974],[102.71408509302456,5.010788812543974]]],[[[102.71304867624343,5.011575602992431],[102.71304867624343,5.011558053350343],[102.71303986869893,5.011575602992431],[102.71304867624343,5.011575602992431]]],[[[102.71149405107175,5.012831509833625],[102.71123060000001,5.013054194550787],[102.71149405107175,5.013257281500544],[102.71149405107175,5.012831509833625]]],[[[102.71149405107175,5.012217524389425],[102.71138010000001,5.012472994551368],[102.71149405107175,5.012621043549663],[102.71149405107175,5.012217524389425]]],[[[102.7109758426812,5.0140586545336],[102.7108464,5.014215094549583],[102.7109758426812,5.014451828155139],[102.7109758426812,5.0140586545336]]],[[[102.71408509302456,5.014722774010475],[102.71408509302456,5.015152077253571],[102.71435019080164,5.014722774010475],[102.71408509302456,5.014722774010475]]],[[[102.71070304034183,5.016689763394431],[102.7109758426812,5.016594936478445],[102.71070349999998,5.016670694547032],[102.71070304034183,5.016689763394431]]],[[[102.7109758426812,5.015890852640874],[102.71083089999999,5.016297294547432],[102.7109758426812,5.016415787599472],[102.7109758426812,5.015890852640874]]],[[[102.71304867624343,5.0170831619635745],[102.71304867624343,5.01719762411971],[102.71310567577966,5.0170831619635745],[102.71304867624343,5.0170831619635745]]],[[[102.70993942590007,5.018263359056041],[102.70993942590007,5.0178581967033],[102.70964795165219,5.018263359056041],[102.70993942590007,5.018263359056041]]],[[[102.71149405107175,5.01786995979436],[102.71149405107175,5.01810221699772],[102.71239099084634,5.01786995979436],[102.71149405107175,5.01786995979436]]],[[[102.71045763429062,5.018263359056041],[102.71045763429062,5.018386082027219],[102.71049776406115,5.018263359056041],[102.71045763429062,5.018263359056041]]],[[[102.70976275070473,5.018656758548603],[102.7098761,5.0186992945449695],[102.71003969416856,5.018656758548603],[102.70976275070473,5.018656758548603]]],[[[102.71823076014904,5.006753472607444],[102.7182533,5.0065251945574865],[102.71823076014904,5.006407755698113],[102.71823076014904,5.006753472607444]]],[[[102.71719434336792,5.006854874130626],[102.71719434336792,5.0068224725365225],[102.71714030029618,5.006854874130626],[102.71719434336792,5.006854874130626]]],[[[102.7161579265868,5.007055318511525],[102.7158594,5.007270094556686],[102.7159560938101,5.007641659969931],[102.7161579265868,5.007641659969931],[102.7161579265868,5.007055318511525]]],[[[102.71512150980568,5.008821840456811],[102.7151191,5.0087476945551765],[102.7150783980246,5.008821840456811],[102.71512150980568,5.008821840456811]]],[[[102.71460330141512,5.00960862860023],[102.71460330141512,5.0095805523452634],[102.71458545705099,5.00960862860023],[102.71460330141512,5.00960862860023]]],[[[102.71719434336792,5.010002023017643],[102.71719434336792,5.010443406976879],[102.71726419999999,5.0101938945537166],[102.71719434336792,5.010002023017643]]],[[[102.71687887634288,5.011575602992431],[102.71667613497736,5.0118021082989594],[102.716822,5.011793994552034],[102.71687887634288,5.011575602992431]]],[[[102.7161579265868,5.011968998562502],[102.7161579265868,5.012211102506079],[102.71652191942164,5.011968998562502],[102.7161579265868,5.011968998562502]]],[[[102.7161579265868,5.0130544599472175],[102.7162061,5.012978894550831],[102.7161579265868,5.01290264335332],[102.7161579265868,5.0130544599472175]]],[[[102.71541376048468,5.013149186656315],[102.71512150980568,5.013449930232119],[102.7154802,5.013388194550434],[102.71541376048468,5.013149186656315]]]]},"properties":{"place_id":"ce0cf3c5-2b93-5547-8c99-06a87f4d0486","habitat":"permanent_water","habitat_label":"Permanent water","resolution_m":50}},{"type":"Feature","geometry":{"type":"MultiPolygon","coordinates":[[[[102.7161579265868,5.007641659969931],[102.71608741087401,5.00803505323515],[102.7161579265868,5.00803505323515],[102.7161579265868,5.007641659969931]]],[[[102.71512150980568,5.008821840456811],[102.71512150980568,5.008742058212126],[102.7150783980246,5.008821840456811],[102.71512150980568,5.008821840456811]]],[[[102.71432605861906,5.010395417665552],[102.71460330141512,5.00960862860023],[102.71458545705099,5.00960862860023],[102.71432605861906,5.010395417665552]]],[[[102.71408509302456,5.010788812543974],[102.71408509302456,5.010512955134827],[102.71392200824002,5.010788812543974],[102.71408509302456,5.010788812543974]]],[[[102.71149405107175,5.01550956907178],[102.71149405107175,5.015474086015818],[102.71131068298058,5.01550956907178],[102.71149405107175,5.01550956907178]]],[[[102.71067433883505,5.0170831619635745],[102.7109758426812,5.016689763394431],[102.71070304034183,5.016689763394431],[102.71067433883505,5.0170831619635745]]],[[[102.70993942590007,5.018656758548603],[102.70993942590007,5.01786995979436],[102.70993155589463,5.01786995979436],[102.709626,5.018318594545362],[102.70993942590007,5.018656758548603]]]]},"properties":{"place_id":"ce0cf3c5-2b93-5547-8c99-06a87f4d0486","habitat":"seasonal_water_wetland","habitat_label":"Seasonal water or wetland","resolution_m":50}},{"type":"Feature","geometry":{"type":"Polygon","coordinates":[[[102.70993942590007,5.018656758548603],[102.71285269999998,5.01751829454617],[102.713951,5.015902494547829],[102.71408509302456,5.014722774010475],[102.71495889999998,5.014470994549314],[102.71512150980568,5.013149186656315],[102.7161579265868,5.0130544599472175],[102.71577019999998,5.012394494551436],[102.7170208,5.011229894552648],[102.71807289999998,5.0084607945554644],[102.71820099999998,5.006391594557604],[102.7161579265868,5.007055318511525],[102.7161579265868,5.00803505323515],[102.71524259999998,5.008179094555784],[102.71460330141512,5.010395417665552],[102.71389069999998,5.01086789455302],[102.7139752,5.011528494552352],[102.71323489999999,5.011313694552567],[102.71220759999999,5.0123333945515185],[102.71149405107175,5.012217524389425],[102.71190959999998,5.0138373945499515],[102.7109758426812,5.0140586545336],[102.7109758426812,5.014451828155139],[102.71154309999999,5.015401494548352],[102.7109758426812,5.015890852640874],[102.7109758426812,5.0170831619635745],[102.71026969999998,5.017224394546474],[102.70993942590007,5.0178581967033],[102.70993942590007,5.018656758548603]],[[102.71201225946233,5.01550956907178],[102.71253046785287,5.01550956907178],[102.71253046785287,5.015116171425761],[102.71201225946233,5.015116171425761],[102.71253046785287,5.012362394363161],[102.71304867624343,5.012362394363161],[102.71304867624343,5.011968998562502],[102.71356688463399,5.011968998562502],[102.71356688463399,5.011575602992431],[102.71408509302456,5.011575602992431],[102.71408509302456,5.011182207652927],[102.71563971819623,5.010395417665552],[102.71563971819623,5.008821840456811],[102.71719434336792,5.00803505323515],[102.71719434336792,5.009215234413292],[102.71667613497736,5.009215234413292],[102.71667613497736,5.010002023017643],[102.7161579265868,5.010002023017643],[102.7161579265868,5.011575602992431],[102.71563971819623,5.011575602992431],[102.71563971819623,5.011968998562502],[102.71512150980568,5.011968998562502],[102.71512150980568,5.012755790394426],[102.71408509302456,5.013149186656315],[102.71408509302456,5.014329376825907],[102.71304867624343,5.014722774010475],[102.71304867624343,5.016296365056098],[102.71253046785287,5.016296365056098],[102.71253046785287,5.0170831619635745],[102.71201225946233,5.0170831619635745],[102.71201225946233,5.01550956907178]]]},"properties":{"place_id":"ce0cf3c5-2b93-5547-8c99-06a87f4d0486","habitat":"water_edge","habitat_label":"Water edge","resolution_m":50}}]}