{"type":"FeatureCollection","metadata":{"schema_version":1,"place_id":"ce1d0d7a-61cf-565a-b5ca-f097def7dcab","place_name":"Taman Putra Perdana","place_type":"park","osm_reference":"way/467062755","protection_context":"no protected status confirmed from included OSM tags","resolution_m":50,"raster_coverage":1.0,"interpretation":"Suggested search habitats, not predicted plant locations or probabilities of presence."},"features":[{"type":"Feature","geometry":{"type":"MultiPolygon","coordinates":[[[[101.69684202235402,2.939173521271517],[101.69684202235402,2.9395659553511404],[101.69736023074458,2.9395659553511404],[101.69736023074458,2.939173521271517],[101.69684202235402,2.939173521271517]]],[[[101.70202410625963,2.94023209422809],[101.70150589786907,2.939958389565102],[101.70046948108795,2.9387810873262117],[101.69943306430683,2.939173521271517],[101.69891485591626,2.9383886535152075],[101.69839664752571,2.9383886535152075],[101.69839664752571,2.939173521271517],[101.69787843913514,2.939173521271517],[101.69787843913514,2.9395659553511404],[101.69891485591626,2.939958389565102],[101.69891485591626,2.9407432583961084],[101.6997091335167,2.9407432583961084],[101.69943230000001,2.9401746967442977],[101.69979570000001,2.9396416967448555],[101.70202410625963,2.94023209422809]]],[[[101.69632381396346,2.939958389565102],[101.69684202235402,2.939958389565102],[101.69684202235402,2.9395659553511404],[101.69632381396346,2.9395659553511404],[101.69632381396346,2.939958389565102]]],[[[101.69787843913514,2.9415281277646796],[101.69839664752571,2.9415281277646796],[101.69839664752571,2.941135693013189],[101.69787843913514,2.941135693013189],[101.69787843913514,2.9415281277646796]]],[[[101.69943306430683,2.9419205626505978],[101.69943306430683,2.9422271651962077],[101.69970415370904,2.9419205626505978],[101.69943306430683,2.9419205626505978]]],[[[101.69787843913514,2.9419205626505978],[101.69787843913514,2.942312997670962],[101.69736023074458,2.942312997670962],[101.69736023074458,2.9419205626505978],[101.69632381396346,2.9415281277646796],[101.69632381396346,2.941135693013189],[101.69684202235402,2.941135693013189],[101.69684202235402,2.9403508239134184],[101.6958056055729,2.939958389565102],[101.6958056055729,2.942312997670962],[101.69632381396346,2.942312997670962],[101.69632381396346,2.943097868115098],[101.6958056055729,2.9433357129714315],[101.69684202235402,2.9438827390972317],[101.69684202235402,2.9442751747900937],[101.69736023074458,2.9442751747900937],[101.69736023074458,2.945060046579498],[101.6981853995146,2.945452482676076],[101.69743939999998,2.9431747967410087],[101.69891485591626,2.9427673794505567],[101.69839664752571,2.9427054328257887],[101.69839664752571,2.942312997670962],[101.69891485591626,2.942312997670962],[101.69943306430683,2.9415281277646796],[101.69839664752571,2.9415281277646796],[101.69839664752571,2.9419205626505978],[101.69787843913514,2.9419205626505978]]]]},"properties":{"place_id":"ce1d0d7a-61cf-565a-b5ca-f097def7dcab","habitat":"forest_interior","habitat_label":"Forest interior","resolution_m":50}},{"type":"Feature","geometry":{"type":"MultiPolygon","coordinates":[[[[101.69891485591626,2.9407432583961084],[101.69891485591626,2.939958389565102],[101.69787843913514,2.9395659553511404],[101.69787843913514,2.939173521271517],[101.69839664752571,2.939173521271517],[101.69839664752571,2.9383886535152075],[101.69891485591626,2.9383886535152075],[101.69943306430683,2.939173521271517],[101.70046948108795,2.9387810873262117],[101.70150589786907,2.939958389565102],[101.70208770000002,2.9402403967442017],[101.70229959999998,2.9399798967444997],[101.7009236,2.938922396745628],[101.6992083,2.9382942967463106],[101.6974434,2.938181796746442],[101.696223,2.9386799967459023],[101.69515009999999,2.9404612967439565],[101.6958056055729,2.9433357129714315],[101.69632381396346,2.943097868115098],[101.69632381396346,2.942312997670962],[101.6958056055729,2.942312997670962],[101.6958056055729,2.939958389565102],[101.69684202235402,2.9403508239134184],[101.69684202235402,2.941135693013189],[101.69632381396346,2.941135693013189],[101.69632381396346,2.9415281277646796],[101.69684202235402,2.9415281277646796],[101.69736023074458,2.942312997670962],[101.69787843913514,2.942312997670962],[101.69839664752571,2.9415281277646796],[101.69943306430683,2.9415281277646796],[101.69970415370904,2.9419205626505978],[101.6998172,2.940865796743522],[101.69891485591626,2.9407432583961084]],[[101.69632381396346,2.9395659553511404],[101.69684202235402,2.9395659553511404],[101.69684202235402,2.939958389565102],[101.69632381396346,2.939958389565102],[101.69632381396346,2.9395659553511404]],[[101.69684202235402,2.939173521271517],[101.69736023074458,2.939173521271517],[101.69736023074458,2.9395659553511404],[101.69684202235402,2.9395659553511404],[101.69684202235402,2.939173521271517]],[[101.69787843913514,2.9415281277646796],[101.69787843913514,2.941135693013189],[101.69839664752571,2.941135693013189],[101.69839664752571,2.9415281277646796],[101.69787843913514,2.9415281277646796]]],[[[101.69891485591626,2.9419205626505978],[101.69891485591626,2.942312997670962],[101.69839664752571,2.942312997670962],[101.69839664752571,2.9427054328257887],[101.69891485591626,2.9427673794505567],[101.69943306430683,2.9422271651962077],[101.69943306430683,2.9419205626505978],[101.69891485591626,2.9419205626505978]]],[[[101.69817029999999,2.945750396738221],[101.69787843913514,2.945060046579498],[101.69736023074458,2.945060046579498],[101.69736023074458,2.9442751747900937],[101.69588356942619,2.9434903035389057],[101.6974474,2.945457096738535],[101.69817029999999,2.945750396738221]]]]},"properties":{"place_id":"ce1d0d7a-61cf-565a-b5ca-f097def7dcab","habitat":"forest_edge_opening","habitat_label":"Forest edge or opening","resolution_m":50}},{"type":"Feature","geometry":{"type":"MultiPolygon","coordinates":[[[[101.69943306430683,2.9383886535152075],[101.69943306430683,2.9387810873262117],[101.69995127269738,2.9387810873262117],[101.69995127269738,2.9385242555821045],[101.69943306430683,2.9383886535152075]]],[[[101.69736023074458,2.939173521271517],[101.69787843913514,2.939173521271517],[101.69787843913514,2.9383886535152075],[101.69736023074458,2.9383886535152075],[101.69736023074458,2.939173521271517]]],[[[101.6958056055729,2.9395659553511404],[101.69632381396346,2.9395659553511404],[101.69632381396346,2.939173521271517],[101.6958056055729,2.939173521271517],[101.6958056055729,2.9395659553511404]]],[[[101.69787843913514,2.9403508239134184],[101.69787843913514,2.9407432583961084],[101.69839664752571,2.9407432583961084],[101.69839664752571,2.939958389565102],[101.69684202235402,2.939958389565102],[101.69684202235402,2.9403508239134184],[101.69787843913514,2.9403508239134184]]],[[[101.69839664752571,2.9407432583961084],[101.69839664752571,2.941135693013189],[101.69891485591626,2.941135693013189],[101.69891485591626,2.9407432583961084],[101.69839664752571,2.9407432583961084]]],[[[101.69736023074458,2.9415281277646796],[101.69736023074458,2.941135693013189],[101.69684202235402,2.941135693013189],[101.69684202235402,2.9415281277646796],[101.69736023074458,2.9415281277646796]]],[[[101.69736023074458,2.9415281277646796],[101.69736023074458,2.9419205626505978],[101.69787843913514,2.9419205626505978],[101.69787843913514,2.9415281277646796],[101.69736023074458,2.9415281277646796]]]]},"properties":{"place_id":"ce1d0d7a-61cf-565a-b5ca-f097def7dcab","habitat":"open_grassland","habitat_label":"Open grassland or shrubland","resolution_m":50}},{"type":"Feature","geometry":{"type":"MultiPolygon","coordinates":[[[[101.69839664752571,2.941135693013189],[101.69839664752571,2.9403508239134184],[101.69736023074458,2.939958389565102],[101.69736023074458,2.9403508239134184],[101.69684202235402,2.9403508239134184],[101.69684202235402,2.941135693013189],[101.69736023074458,2.941135693013189],[101.69736023074458,2.9415281277646796],[101.69839664752571,2.941135693013189]]],[[[101.69632381396346,2.943097868115098],[101.69632381396346,2.942312997670962],[101.6958056055729,2.942312997670962],[101.6958056055729,2.9395659553511404],[101.69632381396346,2.9395659553511404],[101.69736023074458,2.9383886535152075],[101.70046948108795,2.9387810873262117],[101.70046948108795,2.939173521271517],[101.70098768947851,2.939173521271517],[101.70098768947851,2.9395659553511404],[101.70218019999999,2.940234996744202],[101.7019965,2.93961219674487],[101.7009236,2.938922396745628],[101.69858339999999,2.938173796746465],[101.6974434,2.938181796746442],[101.696223,2.9386799967459023],[101.6952896,2.939880096744589],[101.69509649999999,2.941114896743245],[101.6958056055729,2.9433357129714315],[101.69632381396346,2.943097868115098]]],[[[101.69943306430683,2.9407432583961084],[101.69891485591626,2.9415281277646796],[101.69970415370904,2.9419205626505978],[101.69990969999999,2.9410345967433384],[101.69943306430683,2.9407432583961084]]],[[[101.69891485591626,2.942312997670962],[101.69839664752571,2.942312997670962],[101.69839664752571,2.9427054328257887],[101.69895279999999,2.9427401967415006],[101.69943306430683,2.9419205626505978],[101.69891485591626,2.9419205626505978],[101.69891485591626,2.942312997670962]]],[[[101.69787843913514,2.945060046579498],[101.69736023074458,2.945060046579498],[101.69736023074458,2.9442751747900937],[101.69588356942619,2.9434903035389057],[101.69804959999999,2.9457945967381898],[101.69787843913514,2.945060046579498]]]]},"properties":{"place_id":"ce1d0d7a-61cf-565a-b5ca-f097def7dcab","habitat":"disturbed_built_edge","habitat_label":"Disturbed, bare or built edge","resolution_m":50}}]}