{"type":"FeatureCollection","metadata":{"schema_version":1,"place_id":"ce9a2c65-5a6a-5fdb-bf6b-04d1d526d2b0","place_name":"Laman Hopea Odorata","place_type":"park","osm_reference":"way/1291992389","protection_context":"no protected status confirmed from included OSM tags","resolution_m":50,"raster_coverage":1.0,"interpretation":"Suggested search habitats, not predicted plant locations or probabilities of presence."},"features":[{"type":"Feature","geometry":{"type":"MultiPolygon","coordinates":[[[[113.07566186228456,3.236285860951718],[113.0749795,3.236857496423134],[113.07530832643444,3.2370709429895537],[113.07566186228456,3.2370709429895537],[113.07566186228456,3.236285860951718]]],[[[113.07618007067514,3.236678401896623],[113.07618007067514,3.236819274410228],[113.07627852875356,3.236678401896623],[113.07618007067514,3.236678401896623]]]]},"properties":{"place_id":"ce9a2c65-5a6a-5fdb-bf6b-04d1d526d2b0","habitat":"forest_edge_opening","habitat_label":"Forest edge or opening","resolution_m":50}},{"type":"Feature","geometry":{"type":"Polygon","coordinates":[[[113.07514365389402,3.2369608313916918],[113.07578639999998,3.2374157964225048],[113.07618007067514,3.2364766066415647],[113.0755351,3.236101296423937],[113.07514365389402,3.2369608313916918]]]},"properties":{"place_id":"ce9a2c65-5a6a-5fdb-bf6b-04d1d526d2b0","habitat":"open_grassland","habitat_label":"Open grassland or shrubland","resolution_m":50}},{"type":"Feature","geometry":{"type":"Polygon","coordinates":[[[113.07566186228456,3.236285860951718],[113.07514365389402,3.2369608313916918],[113.07578639999998,3.2374157964225048],[113.07632789999998,3.236606596423396],[113.07566186228456,3.236285860951718]]]},"properties":{"place_id":"ce9a2c65-5a6a-5fdb-bf6b-04d1d526d2b0","habitat":"disturbed_built_edge","habitat_label":"Disturbed, bare or built edge","resolution_m":50}}]}