{"type":"FeatureCollection","metadata":{"schema_version":1,"place_id":"ceb96d4b-5e11-5394-baaf-53f65f0e36c1","place_name":"Tropicana Park","place_type":"park","osm_reference":"way/488411896","protection_context":"no protected status confirmed from included OSM tags","resolution_m":50,"raster_coverage":1.0,"interpretation":"Suggested search habitats, not predicted plant locations or probabilities of presence."},"features":[{"type":"Feature","geometry":{"type":"Polygon","coordinates":[[[101.59399720000002,3.1342197965339813],[101.59431199999999,3.134955696533209],[101.59473690000002,3.1346988965334566],[101.59449549999998,3.133697296534549],[101.5958284,3.131972296536424],[101.59478979999999,3.1320255965363644],[101.59399720000002,3.1342197965339813]]]},"properties":{"place_id":"ceb96d4b-5e11-5394-baaf-53f65f0e36c1","habitat":"forest_edge_opening","habitat_label":"Forest edge or opening","resolution_m":50}},{"type":"Feature","geometry":{"type":"MultiPolygon","coordinates":[[[[101.59527317780415,3.132267670932214],[101.59475496941357,3.132267670932214],[101.59475496941357,3.1326601732882797],[101.59527317780415,3.1326601732882797],[101.59527317780415,3.132267670932214]]],[[[101.59475496941357,3.1330526757875754],[101.59475496941357,3.1326601732882797],[101.59447241212419,3.1326601732882797],[101.59427609942499,3.1330526757875754],[101.59475496941357,3.1330526757875754]]]]},"properties":{"place_id":"ceb96d4b-5e11-5394-baaf-53f65f0e36c1","habitat":"open_grassland","habitat_label":"Open grassland or shrubland","resolution_m":50}},{"type":"Feature","geometry":{"type":"Polygon","coordinates":[[[101.59399720000002,3.1342197965339813],[101.59431199999999,3.134955696533209],[101.59473690000002,3.1346988965334566],[101.59449549999998,3.133697296534549],[101.5958284,3.131972296536424],[101.59478979999999,3.1320255965363644],[101.59399720000002,3.1342197965339813]],[[101.59475496941357,3.132267670932214],[101.59527317780415,3.132267670932214],[101.59527317780415,3.1326601732882797],[101.59475496941357,3.1326601732882797],[101.59475496941357,3.132267670932214]]]},"properties":{"place_id":"ceb96d4b-5e11-5394-baaf-53f65f0e36c1","habitat":"disturbed_built_edge","habitat_label":"Disturbed, bare or built edge","resolution_m":50}},{"type":"Feature","geometry":{"type":"Polygon","coordinates":[[[101.59447241212419,3.1326601732882797],[101.59475496941357,3.132267670932214],[101.59527317780415,3.132000790030228],[101.59478979999999,3.1320255965363644],[101.59447241212419,3.1326601732882797]]]},"properties":{"place_id":"ceb96d4b-5e11-5394-baaf-53f65f0e36c1","habitat":"water_edge","habitat_label":"Water edge","resolution_m":50}}]}