{"type":"FeatureCollection","metadata":{"schema_version":1,"place_id":"cfd56f9b-a013-5696-a66d-51ed73bc9ea3","place_name":"Taiping Lake Gardens","place_type":"park","osm_reference":"way/313687771","protection_context":"no protected status confirmed from included OSM tags","resolution_m":50,"raster_coverage":1.0,"interpretation":"Suggested search habitats, not predicted plant locations or probabilities of presence."},"features":[{"type":"Feature","geometry":{"type":"MultiPolygon","coordinates":[[[[100.74852066762806,4.848729425664199],[100.74852066762806,4.848484340726042],[100.74784587496883,4.848729425664199],[100.74852066762806,4.848729425664199]]],[[[100.74696604245636,4.8499093314106725],[100.74696604245636,4.849516029272219],[100.74660131684476,4.849516029272219],[100.74644783406582,4.8499093314106725],[100.74696604245636,4.8499093314106725]]],[[[100.74852066762806,4.8499093314106725],[100.74852066762806,4.850302633772109],[100.74955708440918,4.850302633772109],[100.74955708440918,4.849516029272219],[100.74852066762806,4.8499093314106725]]],[[[100.74644783406582,4.85620219596451],[100.74644783406582,4.855808890256074],[100.74592962567525,4.855808890256074],[100.74592962567525,4.85620219596451],[100.74644783406582,4.85620219596451]]],[[[100.74800245923748,4.856988808051245],[100.74800245923748,4.856595501896228],[100.74748425084694,4.856595501896228],[100.74748425084694,4.856988808051245],[100.74800245923748,4.856988808051245]]],[[[100.74903887601862,4.856988808051245],[100.74903887601862,4.856595501896228],[100.74852066762806,4.856595501896228],[100.74852066762806,4.856988808051245],[100.74903887601862,4.856988808051245]]],[[[100.74800245923748,4.857775421031248],[100.74748425084694,4.857775421031248],[100.74754824714756,4.858562034904669],[100.74903887601862,4.859348649671657],[100.74903887601862,4.857775421031248],[100.74852066762806,4.857775421031248],[100.74852066762806,4.858168727856273],[100.74800245923748,4.858168727856273],[100.74800245923748,4.857775421031248]]],[[[100.74903887601862,4.859741957390282],[100.74955708440918,4.859741957390282],[100.74955708440918,4.859348649671657],[100.74903887601862,4.859348649671657],[100.74903887601862,4.859741957390282]]],[[[100.75318454314309,4.848729425664199],[100.75331789999998,4.848669394719834],[100.75318454314309,4.848482903958752],[100.75318454314309,4.848729425664199]]],[[[100.75111170958085,4.850302633772109],[100.75111170958085,4.8499093314106725],[100.7505935011903,4.8499093314106725],[100.7505935011903,4.850302633772109],[100.75111170958085,4.850302633772109]]],[[[100.75162991797143,4.856595501896228],[100.75162991797143,4.85620219596451],[100.75214812636197,4.85620219596451],[100.75214812636197,4.856595326270331],[100.75273470150532,4.8554155847709],[100.75214812636197,4.8554155847709],[100.75214812636197,4.855808890256074],[100.75111170958085,4.855808890256074],[100.75111170958085,4.8554155847709],[100.75007529279974,4.855022279508968],[100.75007529279974,4.853842365062454],[100.7505935011903,4.853842365062454],[100.7505935011903,4.853449060693316],[100.75162991797143,4.853842365062454],[100.75214812636197,4.853055756547327],[100.75300849244572,4.853055756547327],[100.7536609,4.851558194716853],[100.75346125272631,4.849122727356733],[100.75266633475253,4.849516029272219],[100.75266633475253,4.8499093314106725],[100.75214812636197,4.8499093314106725],[100.75162991797143,4.849122727356733],[100.7505935011903,4.849122727356733],[100.75214812636197,4.850695936356552],[100.75162991797143,4.850695936356552],[100.75162991797143,4.8510892391640175],[100.7505935011903,4.8510892391640175],[100.7505935011903,4.851482542194525],[100.74852066762806,4.852662452624472],[100.74852066762806,4.854235669654765],[100.74800245923748,4.854235669654765],[100.74800245923748,4.854628974470263],[100.74748425084694,4.854628974470263],[100.74696604245636,4.853842365062454],[100.74592962567525,4.854235669654765],[100.74592962567525,4.854628974470263],[100.74644783406582,4.854628974470263],[100.74644783406582,4.855022279508968],[100.74748425084694,4.855022279508968],[100.74903887601862,4.856595501896228],[100.7505935011903,4.856595501896228],[100.7505935011903,4.85620219596451],[100.75162991797143,4.856595501896228]]],[[[100.75214812636197,4.854628974470263],[100.75214812636197,4.854235669654765],[100.75162991797143,4.854235669654765],[100.75162991797143,4.854628974470263],[100.75214812636197,4.854628974470263]]],[[[100.75214812636197,4.854628974470263],[100.75214812636197,4.855022279508968],[100.75282833708178,4.855022279508968],[100.75266633475253,4.854548214726909],[100.75214812636197,4.854628974470263]]],[[[100.75266633475253,4.854235669654765],[100.75266633475253,4.854299252257222],[100.75268165939885,4.854235669654765],[100.75266633475253,4.854235669654765]]],[[[100.75111170958085,4.858168727856273],[100.75111170958085,4.857382114429577],[100.7505935011903,4.857382114429577],[100.7505935011903,4.858168727856273],[100.75111170958085,4.858168727856273]]],[[[100.75162991797143,4.857775421031248],[100.75162991797143,4.858021475874969],[100.75172873472133,4.857775421031248],[100.75162991797143,4.857775421031248]]],[[[100.75370275153367,4.860528573497894],[100.75370275153367,4.861315190499437],[100.75422095992421,4.861315190499437],[100.75422095992421,4.860785570650996],[100.75318454314309,4.859741957390282],[100.75318454314309,4.860528573497894],[100.75370275153367,4.860528573497894]]]]},"properties":{"place_id":"cfd56f9b-a013-5696-a66d-51ed73bc9ea3","habitat":"forest_interior","habitat_label":"Forest interior","resolution_m":50}},{"type":"Feature","geometry":{"type":"MultiPolygon","coordinates":[[[[100.75318454314309,4.852269148924732],[100.75318454314309,4.85276980783119],[100.75338123865714,4.852269148924732],[100.75318454314309,4.852269148924732]]],[[[100.75214812636197,4.855022279508968],[100.75300849244572,4.853055756547327],[100.75214812636197,4.853055756547327],[100.75162991797143,4.853842365062454],[100.7505935011903,4.853449060693316],[100.7505935011903,4.853842365062454],[100.75007529279974,4.853842365062454],[100.75007529279974,4.855022279508968],[100.7505935011903,4.855022279508968],[100.75111170958085,4.855808890256074],[100.75214812636197,4.855808890256074],[100.75214812636197,4.8554155847709],[100.75273470150532,4.8554155847709],[100.75282833708178,4.855022279508968],[100.75214812636197,4.855022279508968]],[[100.75162991797143,4.854628974470263],[100.75162991797143,4.854235669654765],[100.75214812636197,4.854235669654765],[100.75214812636197,4.854628974470263],[100.75162991797143,4.854628974470263]]],[[[100.75111170958085,4.860528573497894],[100.7505935011903,4.860528573497894],[100.7505935011903,4.860135265332354],[100.75214812636197,4.859348649671657],[100.75214812636197,4.860038445306536],[100.752391,4.859851594708322],[100.7544767,4.862521194705549],[100.7549633,4.8620948947059945],[100.75422095992421,4.860785570650996],[100.75422095992421,4.861315190499437],[100.75370275153367,4.861315190499437],[100.75312490000002,4.859370494708795],[100.75111170958085,4.858955342176458],[100.75214812636197,4.85620219596451],[100.75162991797143,4.85620219596451],[100.75162991797143,4.856595501896228],[100.75111170958085,4.856595501896228],[100.75111170958085,4.85620219596451],[100.7505935011903,4.85620219596451],[100.7505935011903,4.856595501896228],[100.74903887601862,4.856595501896228],[100.74903887601862,4.85620219596451],[100.74852066762806,4.85620219596451],[100.74748425084694,4.855022279508968],[100.74644783406582,4.855022279508968],[100.74592962567525,4.854235669654765],[100.74696604245636,4.853842365062454],[100.74696604245636,4.854235669654765],[100.74800245923748,4.854628974470263],[100.74800245923748,4.854235669654765],[100.74852066762806,4.854235669654765],[100.74852066762806,4.852662452624472],[100.74903887601862,4.852662452624472],[100.7505935011903,4.8510892391640175],[100.75162991797143,4.8510892391640175],[100.75162991797143,4.850695936356552],[100.75214812636197,4.850695936356552],[100.7505935011903,4.849122727356733],[100.75162991797143,4.849122727356733],[100.75214812636197,4.8499093314106725],[100.75318454314309,4.849516029272219],[100.75341849999998,4.848757594719749],[100.7517046,4.847020094721534],[100.75132772679883,4.847549521924099],[100.75162991797143,4.847942822947899],[100.74999429999998,4.847872994720662],[100.74852066762806,4.848729425664199],[100.74748509999999,4.848866294719632],[100.74660131684476,4.849516029272219],[100.74696604245636,4.8499093314106725],[100.74644783406582,4.84965862988069],[100.74621689999998,4.849892294718591],[100.745983,4.85418339471416],[100.7454495,4.854540394713789],[100.74573059999999,4.856366094711912],[100.74657409999999,4.8576309947105925],[100.74748425084694,4.85825234122421],[100.74748425084694,4.857775421031248],[100.74800245923748,4.857775421031248],[100.74800245923748,4.858168727856273],[100.74903887601862,4.857775421031248],[100.74903887601862,4.859348649671657],[100.74852066762806,4.859348649671657],[100.74800245923748,4.858562034904669],[100.74759560000001,4.858819594709368],[100.74879049999998,4.859680294708488],[100.749761,4.860175394707975],[100.7499958,4.8599286947082385],[100.7507174,4.861146694706958],[100.75111170958085,4.860528573497894]],[[100.74903887601862,4.856988808051245],[100.74852066762806,4.856988808051245],[100.74852066762806,4.856595501896228],[100.74903887601862,4.856595501896228],[100.74903887601862,4.856988808051245]],[[100.75111170958085,4.850302633772109],[100.7505935011903,4.850302633772109],[100.7505935011903,4.8499093314106725],[100.75111170958085,4.8499093314106725],[100.75111170958085,4.850302633772109]],[[100.75214812636197,4.847942822947899],[100.75214812636197,4.848336124194592],[100.75162991797143,4.848336124194592],[100.75162991797143,4.847942822947899],[100.75214812636197,4.847942822947899]],[[100.74955708440918,4.859348649671657],[100.74955708440918,4.859741957390282],[100.74903887601862,4.859741957390282],[100.74903887601862,4.859348649671657],[100.74955708440918,4.859348649671657]],[[100.75111170958085,4.858168727856273],[100.7505935011903,4.858168727856273],[100.7505935011903,4.857382114429577],[100.75111170958085,4.857382114429577],[100.75111170958085,4.858168727856273]],[[100.74800245923748,4.856988808051245],[100.74748425084694,4.856988808051245],[100.74748425084694,4.856595501896228],[100.74800245923748,4.856595501896228],[100.74800245923748,4.856988808051245]],[[100.74644783406582,4.85620219596451],[100.74592962567525,4.85620219596451],[100.74592962567525,4.855808890256074],[100.74644783406582,4.855808890256074],[100.74644783406582,4.85620219596451]],[[100.74644783406582,4.851875845448089],[100.74696604245636,4.851875845448089],[100.74696604245636,4.852269148924732],[100.74644783406582,4.852269148924732],[100.74644783406582,4.851875845448089]],[[100.74696604245636,4.8510892391640175],[100.74748425084694,4.8510892391640175],[100.74748425084694,4.851875845448089],[100.74696604245636,4.851875845448089],[100.74696604245636,4.8510892391640175]],[[100.74800245923748,4.851875845448089],[100.74800245923748,4.852269148924732],[100.74748425084694,4.852269148924732],[100.74748425084694,4.851875845448089],[100.74800245923748,4.851875845448089]],[[100.75007529279974,4.8510892391640175],[100.74955708440918,4.8510892391640175],[100.74955708440918,4.850695936356552],[100.75007529279974,4.850695936356552],[100.75007529279974,4.8510892391640175]],[[100.74903887601862,4.849516029272219],[100.74955708440918,4.849516029272219],[100.74955708440918,4.850302633772109],[100.74852066762806,4.850302633772109],[100.74903887601862,4.849516029272219]]]]},"properties":{"place_id":"cfd56f9b-a013-5696-a66d-51ed73bc9ea3","habitat":"forest_edge_opening","habitat_label":"Forest edge or opening","resolution_m":50}},{"type":"Feature","geometry":{"type":"MultiPolygon","coordinates":[[[[100.74748425084694,4.849122727356733],[100.74748425084694,4.8488668728972],[100.7471280961483,4.849122727356733],[100.74748425084694,4.849122727356733]]],[[[100.74696604245636,4.853449060693316],[100.74696604245636,4.853055756547327],[100.74644783406582,4.853055756547327],[100.74644783406582,4.853449060693316],[100.74696604245636,4.853449060693316]]],[[[100.74800245923748,4.854235669654765],[100.74800245923748,4.853842365062454],[100.74748425084694,4.853842365062454],[100.74748425084694,4.854235669654765],[100.74800245923748,4.854235669654765]]],[[[100.74644783406582,4.85620219596451],[100.74644783406582,4.856595501896228],[100.74748425084694,4.856595501896228],[100.74748425084694,4.8554155847709],[100.74696604245636,4.8554155847709],[100.74696604245636,4.85620219596451],[100.74644783406582,4.85620219596451]]],[[[100.74852066762806,4.856595501896228],[100.74852066762806,4.85620219596451],[100.74800245923748,4.85620219596451],[100.74800245923748,4.856595501896228],[100.74852066762806,4.856595501896228]]],[[[100.74852066762806,4.857382114429577],[100.74852066762806,4.856988808051245],[100.74800245923748,4.856988808051245],[100.74800245923748,4.857382114429577],[100.74852066762806,4.857382114429577]]],[[[100.74748425084694,4.857775421031248],[100.74748425084694,4.856988808051245],[100.74696604245636,4.856988808051245],[100.74696604245636,4.857775421031248],[100.74748425084694,4.857775421031248]]],[[[100.74800245923748,4.858955342176458],[100.74778137685378,4.858955342176458],[100.74800245923748,4.859116887489762],[100.74800245923748,4.858955342176458]]],[[[100.74903887601862,4.859741957390282],[100.74891137184704,4.859741957390282],[100.74903887601862,4.85980700355338],[100.74903887601862,4.859741957390282]]],[[[100.75266633475253,4.848729425664199],[100.75266633475253,4.847942822947899],[100.75132772679883,4.847549521924099],[100.75111170958085,4.848729425664199],[100.75214812636197,4.848729425664199],[100.75214812636197,4.849516029272219],[100.75318454314309,4.849122727356733],[100.75318454314309,4.848729425664199],[100.75266633475253,4.848729425664199]]],[[[100.7505935011903,4.8499093314106725],[100.7505935011903,4.849516029272219],[100.75007529279974,4.849516029272219],[100.75007529279974,4.8499093314106725],[100.7505935011903,4.8499093314106725]]],[[[100.75162991797143,4.850695936356552],[100.75162991797143,4.850302633772109],[100.75111170958085,4.850302633772109],[100.75111170958085,4.850695936356552],[100.75162991797143,4.850695936356552]]],[[[100.75111170958085,4.856988808051245],[100.75111170958085,4.856595501896228],[100.7505935011903,4.856595501896228],[100.7505935011903,4.856988808051245],[100.75111170958085,4.856988808051245]]],[[[100.75162991797143,4.857382114429577],[100.75162991797143,4.856988808051245],[100.75111170958085,4.856988808051245],[100.75111170958085,4.857382114429577],[100.75162991797143,4.857382114429577]]],[[[100.75318454314309,4.859741957390282],[100.75309051545455,4.859348649671657],[100.75125370000002,4.858942894709244],[100.75155320856295,4.858168727856273],[100.75111170958085,4.858168727856273],[100.75111170958085,4.858562034904669],[100.75007529279974,4.858562034904669],[100.75007529279974,4.856988808051245],[100.74903887601862,4.856988808051245],[100.74903887601862,4.857775421031248],[100.74955708440918,4.857775421031248],[100.74955708440918,4.859348649671657],[100.75007529279974,4.859348649671657],[100.75048840995758,4.860528573497894],[100.75151104433029,4.860528573497894],[100.75214812636197,4.859741957390282],[100.75318454314309,4.859741957390282]],[[100.7505935011903,4.858955342176458],[100.75111170958085,4.858955342176458],[100.75111170958085,4.860135265332354],[100.7505935011903,4.860135265332354],[100.7505935011903,4.858955342176458]]],[[[100.75370275153367,4.861315190499437],[100.75353185878953,4.861315190499437],[100.75370275153367,4.861534427277387],[100.75370275153367,4.861315190499437]]],[[[100.75473916831479,4.861479157047543],[100.75422095992421,4.861315190499437],[100.75422095992421,4.862101808395064],[100.75473916831479,4.862101808395064],[100.75473916831479,4.861479157047543]]],[[[100.75422095992421,4.862101808395064],[100.75414775546683,4.862101808395064],[100.75422095992421,4.8621951400572945],[100.75422095992421,4.862101808395064]]]]},"properties":{"place_id":"cfd56f9b-a013-5696-a66d-51ed73bc9ea3","habitat":"open_grassland","habitat_label":"Open grassland or shrubland","resolution_m":50}},{"type":"Feature","geometry":{"type":"MultiPolygon","coordinates":[[[[100.74748425084694,4.849122727356733],[100.74748425084694,4.8488668728972],[100.7471280961483,4.849122727356733],[100.74748425084694,4.849122727356733]]],[[[100.74696604245636,4.849516029272219],[100.74696604245636,4.849242091482332],[100.74660131684476,4.849516029272219],[100.74696604245636,4.849516029272219]]],[[[100.74558425165364,4.8554155847709],[100.74592962567525,4.855808890256074],[100.74696604245636,4.8554155847709],[100.74696604245636,4.855022279508968],[100.74592962567525,4.854628974470263],[100.74592962567525,4.854235669654765],[100.74696604245636,4.853842365062454],[100.74696604245636,4.853055756547327],[100.74644783406582,4.853055756547327],[100.74644783406582,4.84965862988069],[100.74587820000002,4.8512125947172295],[100.74618499999998,4.852852894715505],[100.7455428,4.853205794715155],[100.745983,4.85418339471416],[100.7454495,4.854540394713789],[100.74558425165364,4.8554155847709]]],[[[100.74696604245636,4.856988808051245],[100.74644783406582,4.856988808051245],[100.74606757893878,4.856595501896228],[100.74644783406582,4.857398726067954],[100.74696604245636,4.857382114429577],[100.74696604245636,4.856988808051245]]],[[[100.74852066762806,4.857382114429577],[100.74852066762806,4.856988808051245],[100.74800245923748,4.856988808051245],[100.74748425084694,4.857775421031248],[100.74852066762806,4.858168727856273],[100.74852066762806,4.857775421031248],[100.74903887601862,4.857775421031248],[100.74903887601862,4.857382114429577],[100.74852066762806,4.857382114429577]]],[[[100.74968233802005,4.860135265332354],[100.749761,4.860175394707975],[100.74979919366034,4.860135265332354],[100.74968233802005,4.860135265332354]]],[[[100.74903887601862,4.848336124194592],[100.74903887601862,4.848729425664199],[100.74955708440918,4.848729425664199],[100.74955708440918,4.848336124194592],[100.75111170958085,4.848336124194592],[100.75162991797143,4.847549521924099],[100.75241269457563,4.847549521924099],[100.7517046,4.847020094721534],[100.75083939999998,4.847987494720561],[100.75013039999999,4.847837294720676],[100.74903887601862,4.848336124194592]]],[[[100.75266633475253,4.847942822947899],[100.7526956,4.847839594720724],[100.75266633475253,4.847807882956588],[100.75266633475253,4.847942822947899]]],[[[100.75266633475253,4.854628974470263],[100.75266633475253,4.853055756547327],[100.75214812636197,4.853055756547327],[100.75162991797143,4.853842365062454],[100.75111170958085,4.853842365062454],[100.75111170958085,4.853449060693316],[100.75007529279974,4.853842365062454],[100.75007529279974,4.855022279508968],[100.7505935011903,4.855022279508968],[100.75111170958085,4.855808890256074],[100.75214812636197,4.855808890256074],[100.75214812636197,4.8554155847709],[100.75273470150532,4.8554155847709],[100.75282833708178,4.855022279508968],[100.75214812636197,4.855022279508968],[100.75214812636197,4.854628974470263],[100.75266633475253,4.854628974470263]],[[100.75162991797143,4.854628974470263],[100.75162991797143,4.854235669654765],[100.75214812636197,4.854235669654765],[100.75214812636197,4.854628974470263],[100.75162991797143,4.854628974470263]]],[[[100.75162991797143,4.856595501896228],[100.75111170958085,4.856595501896228],[100.75111170958085,4.856988808051245],[100.75184274215879,4.857382114429577],[100.75214812636197,4.85620219596451],[100.75162991797143,4.85620219596451],[100.75162991797143,4.856595501896228]]],[[[100.75370275153367,4.860921881886914],[100.75266633475253,4.859348649671657],[100.75214812636197,4.859348649671657],[100.75214812636197,4.859741957390282],[100.75111170958085,4.859741957390282],[100.75111170958085,4.859348649671657],[100.75007529279974,4.859741957390282],[100.75012995455232,4.860135265332354],[100.7505935011903,4.860135265332354],[100.7507174,4.861146694706958],[100.752391,4.859851594708322],[100.75322527876011,4.860921881886914],[100.75370275153367,4.860921881886914]]],[[[100.75473916831479,4.8617084993354815],[100.75473916831479,4.862101808395064],[100.75414775546683,4.862101808395064],[100.7544767,4.862521194705549],[100.75499539999998,4.862008994706105],[100.75473916831479,4.8617084993354815]]]]},"properties":{"place_id":"cfd56f9b-a013-5696-a66d-51ed73bc9ea3","habitat":"disturbed_built_edge","habitat_label":"Disturbed, bare or built edge","resolution_m":50}},{"type":"Feature","geometry":{"type":"MultiPolygon","coordinates":[[[[100.74903887601862,4.849516029272219],[100.74903887601862,4.849122727356733],[100.7505935011903,4.849122727356733],[100.7505935011903,4.848336124194592],[100.75007529279974,4.848336124194592],[100.75007529279974,4.848729425664199],[100.74852066762806,4.848729425664199],[100.74748425084694,4.8499093314106725],[100.74852066762806,4.8499093314106725],[100.74852066762806,4.849516029272219],[100.74903887601862,4.849516029272219]]],[[[100.74748425084694,4.851875845448089],[100.74748425084694,4.851482542194525],[100.74852066762806,4.851482542194525],[100.74852066762806,4.8510892391640175],[100.74903887601862,4.8510892391640175],[100.74903887601862,4.851875845448089],[100.74955708440918,4.851875845448089],[100.7505935011903,4.850302633772109],[100.74800245923748,4.850695936356552],[100.74800245923748,4.8510892391640175],[100.74748425084694,4.8510892391640175],[100.74748425084694,4.850302633772109],[100.74644783406582,4.850302633772109],[100.74644783406582,4.851875845448089],[100.7460238,4.852237194716178],[100.74644783406582,4.852269148924732],[100.74644783406582,4.853055756547327],[100.74696604245636,4.853055756547327],[100.74696604245636,4.851875845448089],[100.74748425084694,4.851875845448089]]],[[[100.74852066762806,4.851875845448089],[100.74852066762806,4.852269148924732],[100.74903887601862,4.852269148924732],[100.74903887601862,4.851875845448089],[100.74852066762806,4.851875845448089]]],[[[100.74748425084694,4.853055756547327],[100.74696604245636,4.853055756547327],[100.74696604245636,4.853449060693316],[100.74800245923748,4.853842365062454],[100.74800245923748,4.852662452624472],[100.74748425084694,4.852662452624472],[100.74748425084694,4.853055756547327]]],[[[100.7505935011903,4.857382114429577],[100.75162991797143,4.857382114429577],[100.75162991797143,4.856988808051245],[100.7505935011903,4.856988808051245],[100.7505935011903,4.857382114429577]]]]},"properties":{"place_id":"cfd56f9b-a013-5696-a66d-51ed73bc9ea3","habitat":"permanent_water","habitat_label":"Permanent water","resolution_m":50}},{"type":"Feature","geometry":{"type":"MultiPolygon","coordinates":[[[[100.75007529279974,4.848336124194592],[100.75007529279974,4.848729425664199],[100.74903887601862,4.848729425664199],[100.74903887601862,4.849122727356733],[100.7505935011903,4.849122727356733],[100.7505935011903,4.848336124194592],[100.75007529279974,4.848336124194592]]],[[[100.74852066762806,4.849516029272219],[100.74852066762806,4.849122727356733],[100.74748425084694,4.849122727356733],[100.74748425084694,4.8499093314106725],[100.74852066762806,4.849516029272219]]],[[[100.74696604245636,4.850302633772109],[100.74696604245636,4.8510892391640175],[100.74748425084694,4.8510892391640175],[100.74748425084694,4.850302633772109],[100.74696604245636,4.850302633772109]]],[[[100.75007529279974,4.8510892391640175],[100.7505935011903,4.8510892391640175],[100.7505935011903,4.850695936356552],[100.74800245923748,4.850695936356552],[100.74800245923748,4.8510892391640175],[100.74903887601862,4.8510892391640175],[100.74903887601862,4.851875845448089],[100.74955708440918,4.851875845448089],[100.75007529279974,4.8510892391640175]]],[[[100.74852066762806,4.851875845448089],[100.74800245923748,4.851875845448089],[100.74800245923748,4.851482542194525],[100.74644783406582,4.851482542194525],[100.74644783406582,4.852269148924732],[100.74748425084694,4.852269148924732],[100.74748425084694,4.853449060693316],[100.74800245923748,4.853449060693316],[100.74800245923748,4.852269148924732],[100.74852066762806,4.852269148924732],[100.74852066762806,4.851875845448089]]]]},"properties":{"place_id":"cfd56f9b-a013-5696-a66d-51ed73bc9ea3","habitat":"seasonal_water_wetland","habitat_label":"Seasonal water or wetland","resolution_m":50}},{"type":"Feature","geometry":{"type":"MultiPolygon","coordinates":[[[[100.74800245923748,4.853842365062454],[100.74644783406582,4.853055756547327],[100.74644783406582,4.852269148924732],[100.74603216612083,4.852269148924732],[100.74592962567525,4.853449060693316],[100.74800245923748,4.854628974470263],[100.74800245923748,4.854235669654765],[100.74903887601862,4.853842365062454],[100.74903887601862,4.852662452624472],[100.74955708440918,4.852662452624472],[100.74955708440918,4.852269148924732],[100.75162991797143,4.8510892391640175],[100.75162991797143,4.850302633772109],[100.7505935011903,4.8499093314106725],[100.7505935011903,4.849516029272219],[100.75162991797143,4.849122727356733],[100.75162991797143,4.848336124194592],[100.75111170958085,4.848336124194592],[100.75111170958085,4.847942822947899],[100.75013039999999,4.847837294720676],[100.74748509999999,4.848866294719632],[100.74614179999999,4.849997594718459],[100.74603974644685,4.851875845448089],[100.74644783406582,4.851875845448089],[100.74644783406582,4.850302633772109],[100.74748425084694,4.850302633772109],[100.74748425084694,4.8510892391640175],[100.74800245923748,4.8510892391640175],[100.74800245923748,4.850695936356552],[100.7505935011903,4.850302633772109],[100.7505935011903,4.8510892391640175],[100.75007529279974,4.8510892391640175],[100.74903887601862,4.852269148924732],[100.74800245923748,4.852269148924732],[100.74800245923748,4.853842365062454]],[[100.74852066762806,4.848729425664199],[100.75007529279974,4.848729425664199],[100.75007529279974,4.848336124194592],[100.7505935011903,4.848336124194592],[100.7505935011903,4.849122727356733],[100.74903887601862,4.849122727356733],[100.74852066762806,4.8499093314106725],[100.74748425084694,4.8499093314106725],[100.74748425084694,4.849122727356733],[100.74852066762806,4.849122727356733],[100.74852066762806,4.848729425664199]]],[[[100.74852066762806,4.851482542194525],[100.74800245923748,4.851482542194525],[100.74800245923748,4.851875845448089],[100.74903887601862,4.851875845448089],[100.74903887601862,4.8510892391640175],[100.74852066762806,4.8510892391640175],[100.74852066762806,4.851482542194525]]],[[[100.74696604245636,4.852269148924732],[100.74696604245636,4.853055756547327],[100.74748425084694,4.853055756547327],[100.74748425084694,4.852269148924732],[100.74696604245636,4.852269148924732]]],[[[100.75162991797143,4.856595501896228],[100.75162991797143,4.85620219596451],[100.7505935011903,4.85620219596451],[100.74955708440918,4.857382114429577],[100.75007529279974,4.857382114429577],[100.7505935011903,4.858168727856273],[100.75155320856295,4.858168727856273],[100.75214803993092,4.856595501896228],[100.75162991797143,4.856595501896228]],[[100.75162991797143,4.857382114429577],[100.7505935011903,4.857382114429577],[100.7505935011903,4.856988808051245],[100.75162991797143,4.856988808051245],[100.75162991797143,4.857382114429577]]]]},"properties":{"place_id":"cfd56f9b-a013-5696-a66d-51ed73bc9ea3","habitat":"water_edge","habitat_label":"Water edge","resolution_m":50}}]}