{"type":"FeatureCollection","metadata":{"schema_version":1,"place_id":"d002f362-4b68-5cd8-871e-a2685c58b522","place_name":"Taman Alam Kuala Selangor","place_type":"park","osm_reference":"relation/7923462","protection_context":"mapped protected boundary","resolution_m":50,"raster_coverage":1.0,"interpretation":"Suggested search habitats, not predicted plant locations or probabilities of presence."},"features":[{"type":"Feature","geometry":{"type":"MultiPolygon","coordinates":[[[[101.23822759670786,3.342669931943474],[101.24133684705122,3.3434550955412528],[101.24133684705122,3.342669931943474],[101.24185505544177,3.342669931943474],[101.24237326383233,3.3416630352939496],[101.24237326383233,3.340314444819547],[101.24289147222291,3.340314444819547],[101.2435392,3.339569996312392],[101.24444609739457,3.339473504261965],[101.24496430578515,3.3387441231266544],[101.24600072256627,3.33913670332073],[101.24703713934738,3.3376491472811476],[101.24703713934738,3.336781224446945],[101.24755534773794,3.336781224446945],[101.24703713934738,3.3348183295833462],[101.24755534773794,3.3348183295833462],[101.24807355612852,3.3341673017663167],[101.24807355612852,3.3330235031639965],[101.24703713934738,3.3324628607811064],[101.24703713934738,3.331850408411576],[101.2454825141757,3.330107397466892],[101.24496430578515,3.330107397466892],[101.24444609739457,3.3289296678665714],[101.24496430578515,3.3287175432198617],[101.24496430578515,3.3281445155611307],[101.2454825141757,3.3281445155611307],[101.2454825141757,3.32775193963679],[101.24651893095682,3.327207199313242],[101.24651893095682,3.326574212777056],[101.24703713934738,3.326574212777056],[101.24703713934738,3.3261816374615156],[101.24755534773794,3.3261816374615156],[101.24755534773794,3.3257890622981305],[101.24859176451908,3.3251934109419574],[101.24859176451908,3.324611337720726],[101.24910997290962,3.324611337720726],[101.24910997290962,3.3242187631657814],[101.24959499089103,3.3242187631657814],[101.2511094,3.3227474963305355],[101.24787629999999,3.319162096334383],[101.24703713934738,3.3199004530936627],[101.24600072256627,3.3199158870268994],[101.24600072256627,3.320685599012008],[101.24444609739457,3.3214707455379595],[101.24392788900403,3.3230410404132615],[101.24289147222291,3.3234336145120658],[101.24289147222291,3.3242187631657814],[101.24185505544177,3.324611337720726],[101.24185505544177,3.3253964872868833],[101.24133684705122,3.3253964872868833],[101.24133684705122,3.3261816374615156],[101.24081863866066,3.3261816374615156],[101.24081863866066,3.3273593638646743],[101.2403004302701,3.3273593638646743],[101.2403004302701,3.328537091637719],[101.23978222187954,3.328537091637719],[101.23978222187954,3.3293222442477046],[101.23926401348898,3.3293222442477046],[101.23926401348898,3.3308925512954235],[101.23874580509842,3.3308925512954235],[101.23822759670786,3.3328554385335942],[101.2377093883173,3.3328554385335942],[101.2377093883173,3.3344257510683604],[101.23719117992673,3.3344257510683604],[101.2377093883173,3.335210908250885],[101.23926401348898,3.335210908250885],[101.23926401348898,3.335603487070997],[101.23978222187954,3.335603487070997],[101.23978222187954,3.336388645169008],[101.2403004302701,3.336388645169008],[101.2403004302701,3.3359960660436987],[101.24081863866066,3.3359960660436987],[101.24081863866066,3.336388645169008],[101.24133684705122,3.336388645169008],[101.24133684705122,3.3359960660436987],[101.24237326383233,3.336388645169008],[101.24185505544177,3.3371738038775254],[101.24081863866066,3.336781224446945],[101.24081863866066,3.3383515430853157],[101.2403004302701,3.3383515430853157],[101.24081863866066,3.33913670332073],[101.2403004302701,3.33913670332073],[101.23926401348898,3.340314444819547],[101.23822759670786,3.340314444819547],[101.23822759670786,3.3410996065827656],[101.23874580509842,3.3410996065827656],[101.23874580509842,3.341492187693632],[101.23822759670786,3.341492187693632],[101.23822759670786,3.342669931943474]],[[101.24133684705122,3.3281445155611307],[101.24185505544177,3.3273593638646743],[101.24289147222291,3.32775193963679],[101.24237326383233,3.328537091637719],[101.24133684705122,3.3281445155611307]],[[101.24444609739457,3.3242187631657814],[101.24496430578515,3.3234336145120658],[101.24600072256627,3.3238261887629004],[101.2454825141757,3.324611337720726],[101.24444609739457,3.3242187631657814]]],[[[101.2454825141757,3.339529283667558],[101.24578560000002,3.339679796312271],[101.24585212303133,3.339529283667558],[101.2454825141757,3.339529283667558]]],[[[101.2387941979749,3.3442402597508427],[101.23874580509842,3.344632842085112],[101.2388325524465,3.344632842085112],[101.2387941979749,3.3442402597508427]]]]},"properties":{"place_id":"d002f362-4b68-5cd8-871e-a2685c58b522","habitat":"forest_interior","habitat_label":"Forest interior","resolution_m":50}},{"type":"Feature","geometry":{"type":"MultiPolygon","coordinates":[[[[101.2454825141757,3.3238261887629004],[101.2454825141757,3.3234336145120658],[101.24496430578515,3.3234336145120658],[101.24444609739457,3.3242187631657814],[101.2454825141757,3.324611337720726],[101.2454825141757,3.3242187631657814],[101.24600072256627,3.3242187631657814],[101.24600072256627,3.3238261887629004],[101.2454825141757,3.3238261887629004]]],[[[101.24600072256627,3.3273593638646743],[101.24600072256627,3.327710647031751],[101.24636230503903,3.3273593638646743],[101.24600072256627,3.3273593638646743]]],[[[101.24237326383233,3.3273593638646743],[101.24133684705122,3.32775193963679],[101.24185505544177,3.328537091637719],[101.24289147222291,3.3281445155611307],[101.24237326383233,3.3273593638646743]]],[[[101.2454825141757,3.3281445155611307],[101.24496430578515,3.3281445155611307],[101.24496430578515,3.3287175432198617],[101.24595821930754,3.32775193963679],[101.2454825141757,3.32775193963679],[101.2454825141757,3.3281445155611307]]],[[[101.24444609739457,3.3289296678665714],[101.24480352901506,3.3293222442477046],[101.24474596211303,3.3289296678665714],[101.24444609739457,3.3289296678665714]]],[[[101.24496430578515,3.330107397466892],[101.24584404363755,3.3304999743049803],[101.24496430578515,3.3295042229891583],[101.24496430578515,3.330107397466892]]],[[[101.24619088184505,3.3308925512954235],[101.24600072256627,3.330677315020124],[101.24600072256627,3.3308925512954235],[101.24619088184505,3.3308925512954235]]],[[[101.24688455826004,3.3316777057334472],[101.24651893095682,3.33126386154576],[101.24651893095682,3.3316777057334472],[101.24688455826004,3.3316777057334472]]],[[[101.23822759670786,3.339529283667558],[101.23822759670786,3.3399218641671578],[101.23719117992673,3.340314444819547],[101.23719117992673,3.3410996065827656],[101.2377093883173,3.3410996065827656],[101.2377093883173,3.341492187693632],[101.23719117992673,3.341492187693632],[101.23719117992673,3.342669931943474],[101.2377093883173,3.342669931943474],[101.2377093883173,3.3450254245723885],[101.23822759670786,3.3450254245723885],[101.23874580509842,3.349650998272945],[101.23930559999998,3.3494747963017373],[101.2387183,3.3434633963082354],[101.23926401348898,3.342669931943474],[101.23822759670786,3.342669931943474],[101.23822759670786,3.341492187693632],[101.23874580509842,3.341492187693632],[101.23874580509842,3.3410996065827656],[101.23822759670786,3.3410996065827656],[101.23822759670786,3.340314444819547],[101.23926401348898,3.340314444819547],[101.23926401348898,3.3399218641671578],[101.24081863866066,3.33913670332073],[101.24081863866066,3.3387441231266544],[101.2403004302701,3.3387441231266544],[101.2403004302701,3.3383515430853157],[101.24081863866066,3.3383515430853157],[101.24081863866066,3.336781224446945],[101.24185505544177,3.3371738038775254],[101.24237326383233,3.336388645169008],[101.24185505544177,3.336388645169008],[101.24185505544177,3.3359960660436987],[101.24133684705122,3.3359960660436987],[101.24133684705122,3.336388645169008],[101.24081863866066,3.336388645169008],[101.24081863866066,3.3359960660436987],[101.23978222187954,3.336388645169008],[101.23978222187954,3.335603487070997],[101.23926401348898,3.335603487070997],[101.23926401348898,3.335210908250885],[101.2377093883173,3.335210908250885],[101.23719117992673,3.3344257510683604],[101.2377093883173,3.3344257510683604],[101.2377093883173,3.3328554385335942],[101.23822759670786,3.3328554385335942],[101.23822759670786,3.3316777057334472],[101.23874580509842,3.3316777057334472],[101.23874580509842,3.3308925512954235],[101.23926401348898,3.3308925512954235],[101.23926401348898,3.3293222442477046],[101.23978222187954,3.3293222442477046],[101.23978222187954,3.328537091637719],[101.2403004302701,3.328537091637719],[101.24081863866066,3.3261816374615156],[101.24133684705122,3.3261816374615156],[101.24185505544177,3.324611337720726],[101.24289147222291,3.3242187631657814],[101.24289147222291,3.3234336145120658],[101.24392788900403,3.3230410404132615],[101.24444609739457,3.3214707455379595],[101.24600072256627,3.320685599012008],[101.24556887113552,3.319507880362297],[101.2454825141757,3.3199004530936627],[101.24496430578515,3.3199004530936627],[101.24496430578515,3.320685599012008],[101.24340968061347,3.3214707455379595],[101.24289147222291,3.3230410404132615],[101.24185505544177,3.3234336145120658],[101.24185505544177,3.3242187631657814],[101.24081863866066,3.324611337720726],[101.2403004302701,3.3261816374615156],[101.23978222187954,3.3261816374615156],[101.23926401348898,3.328537091637719],[101.23874580509842,3.328537091637719],[101.23874580509842,3.3293222442477046],[101.23822759670786,3.3293222442477046],[101.23822759670786,3.3308925512954235],[101.2377093883173,3.3308925512954235],[101.23719117992673,3.3328554385335942],[101.23667297153618,3.3328554385335942],[101.23667297153618,3.3344257510683604],[101.23563655475505,3.3348183295833462],[101.23563655475505,3.335603487070997],[101.23615476314562,3.335603487070997],[101.23615476314562,3.3359960660436987],[101.23563655475505,3.3359960660436987],[101.23563655475505,3.336781224446945],[101.23615476314562,3.336781224446945],[101.23615476314562,3.3371738038775254],[101.23719117992673,3.336781224446945],[101.23719117992673,3.3359960660436987],[101.23874580509842,3.3359960660436987],[101.23822759670786,3.3379589631966926],[101.23874580509842,3.3379589631966926],[101.23978222187954,3.33913670332073],[101.23926401348898,3.33913670332073],[101.23926401348898,3.339529283667558],[101.23822759670786,3.339529283667558]],[[101.23667297153618,3.3359960660436987],[101.23667297153618,3.335603487070997],[101.23719117992673,3.335603487070997],[101.23719117992673,3.3359960660436987],[101.23667297153618,3.3359960660436987]],[[101.23926401348898,3.3379589631966926],[101.23978222187954,3.3379589631966926],[101.23978222187954,3.3383515430853157],[101.23926401348898,3.3383515430853157],[101.23926401348898,3.3379589631966926]]],[[[101.23978222187954,3.343062513665896],[101.23941113193035,3.343062513665896],[101.23978222187954,3.343151655962271],[101.23978222187954,3.343062513665896]]],[[[101.24651893095682,3.3379589631966926],[101.24651893095682,3.338287277035006],[101.24678554594948,3.3379589631966926],[101.24651893095682,3.3379589631966926]]],[[[101.24600072256627,3.33913670332073],[101.24496430578515,3.3387441231266544],[101.24444609739457,3.339473504261965],[101.24585212303133,3.339529283667558],[101.24617515355794,3.3387441231266544],[101.24600072256627,3.33913670332073]],[[101.2451085,3.3393599963126377],[101.24536959999999,3.3391648963128664],[101.2453051,3.339360296312635],[101.2451085,3.3393599963126377]]],[[[101.24324321530376,3.3399218641671578],[101.24237326383233,3.340314444819547],[101.24237326383233,3.3416630352939496],[101.24324321530376,3.3399218641671578]]],[[[101.24081863866066,3.343062513665896],[101.2403004302701,3.3432761386946477],[101.24081863866066,3.3434006214424024],[101.24081863866066,3.343062513665896]]],[[[101.24185505544177,3.342277350373968],[101.24100496561495,3.3434550955412528],[101.2415923,3.3443251963072917],[101.24242509999999,3.3444453963071443],[101.24183759999998,3.343756096307901],[101.24185505544177,3.342277350373968]]],[[[101.23822759670786,3.349736426360838],[101.23822759670786,3.34981411043252],[101.23847439949776,3.349736426360838],[101.23822759670786,3.349736426360838]]],[[[101.24755534773794,3.319343667212817],[101.2472650777714,3.319507880362297],[101.24755534773794,3.319507880362297],[101.24755534773794,3.319343667212817]]],[[[101.24807355612852,3.319507880362297],[101.24818810792284,3.319507880362297],[101.24807355612852,3.3193808464346115],[101.24807355612852,3.319507880362297]]],[[[101.24703713934738,3.3196368309814357],[101.24657115013711,3.3199004530936627],[101.24703713934738,3.3199004530936627],[101.24703713934738,3.3196368309814357]]],[[[101.25014638969076,3.3218633190288327],[101.25031210267444,3.3218633190288327],[101.25014638969076,3.3216795487126216],[101.25014638969076,3.3218633190288327]]],[[[101.25066459808131,3.3226484664664655],[101.25102010092496,3.3226484664664655],[101.25066459808131,3.322254225096008],[101.25066459808131,3.3226484664664655]]],[[[101.25066459808131,3.3230410404132615],[101.25066459808131,3.3231796265732387],[101.25080724808551,3.3230410404132615],[101.25066459808131,3.3230410404132615]]],[[[101.25014638969076,3.3234336145120658],[101.25014638969076,3.323683072290312],[101.25040316235402,3.3234336145120658],[101.25014638969076,3.3234336145120658]]],[[[101.24962818130018,3.324186518257431],[101.24999907662252,3.3238261887629004],[101.24962818130018,3.3238261887629004],[101.24962818130018,3.324186518257431]]],[[[101.24910997290962,3.324611337720726],[101.24859176451908,3.324611337720726],[101.24859176451908,3.3251934109419574],[101.24959499089103,3.3242187631657814],[101.24910997290962,3.3242187631657814],[101.24910997290962,3.324611337720726]]],[[[101.24807355612852,3.3256968576594432],[101.24838273369653,3.3253964872868833],[101.24807355612852,3.3253964872868833],[101.24807355612852,3.3256968576594432]]],[[[101.24755534773794,3.3257890622981305],[101.24755534773794,3.3261816374615156],[101.24651893095682,3.326574212777056],[101.24651893095682,3.327207199313242],[101.24797864796503,3.3257890622981305],[101.24755534773794,3.3257890622981305]]],[[[101.24703713934738,3.3324628607811064],[101.24755534773794,3.3324628607811064],[101.24792507288254,3.3328554385335942],[101.24703713934738,3.331850408411576],[101.24703713934738,3.3324628607811064]]],[[[101.24807355612852,3.3341673017663167],[101.2485471,3.3335594963188857],[101.24807355612852,3.3330235031639965],[101.24807355612852,3.3341673017663167]]],[[[101.24755534773794,3.336781224446945],[101.24703713934738,3.336781224446945],[101.24703713934738,3.3376491472811476],[101.24805,3.3364018963158237],[101.2470587,3.3354698963168157],[101.24787219723788,3.3344257510683604],[101.24703713934738,3.3348183295833462],[101.24703713934738,3.3359960660436987],[101.24755534773794,3.3359960660436987],[101.24755534773794,3.336781224446945]]]]},"properties":{"place_id":"d002f362-4b68-5cd8-871e-a2685c58b522","habitat":"forest_edge_opening","habitat_label":"Forest edge or opening","resolution_m":50}},{"type":"Feature","geometry":{"type":"MultiPolygon","coordinates":[[[[101.24755534773794,3.336781224446945],[101.24755534773794,3.337011017930708],[101.24774195718082,3.336781224446945],[101.24755534773794,3.336781224446945]]],[[[101.24289147222291,3.340314444819547],[101.24289147222291,3.3404861524095524],[101.24296707904372,3.340314444819547],[101.24289147222291,3.340314444819547]]],[[[101.24185505544177,3.342669931943474],[101.24185505544177,3.343644282607027],[101.24200716319179,3.342669931943474],[101.24185505544177,3.342669931943474]]],[[[101.24185505544177,3.343847677569563],[101.2418899679126,3.343847677569563],[101.24185505544177,3.3437866224689436],[101.24185505544177,3.343847677569563]]],[[[101.24185505544177,3.3442402597508427],[101.2415923,3.3443251963072917],[101.24185505544177,3.344444678058308],[101.24185505544177,3.3442402597508427]]]]},"properties":{"place_id":"d002f362-4b68-5cd8-871e-a2685c58b522","habitat":"open_grassland","habitat_label":"Open grassland or shrubland","resolution_m":50}},{"type":"Feature","geometry":{"type":"MultiPolygon","coordinates":[[[[101.24600072256627,3.3273593638646743],[101.24600072256627,3.327710647031751],[101.24636230503903,3.3273593638646743],[101.24600072256627,3.3273593638646743]]],[[[101.2454825141757,3.3281445155611307],[101.24496430578515,3.3281445155611307],[101.24496430578515,3.3287175432198617],[101.24595821930754,3.32775193963679],[101.2454825141757,3.32775193963679],[101.2454825141757,3.3281445155611307]]],[[[101.24444609739457,3.3289296678665714],[101.24480352901506,3.3293222442477046],[101.24474596211303,3.3289296678665714],[101.24444609739457,3.3289296678665714]]],[[[101.24496430578515,3.330107397466892],[101.24584404363755,3.3304999743049803],[101.24496430578515,3.3295042229891583],[101.24496430578515,3.330107397466892]]],[[[101.24619088184505,3.3308925512954235],[101.24600072256627,3.330677315020124],[101.24600072256627,3.3308925512954235],[101.24619088184505,3.3308925512954235]]],[[[101.24600072256627,3.33913670332073],[101.24496430578515,3.3387441231266544],[101.24444609739457,3.339473504261965],[101.24585212303133,3.339529283667558],[101.24617515355794,3.3387441231266544],[101.24600072256627,3.33913670332073]],[[101.2451085,3.3393599963126377],[101.24536959999999,3.3391648963128664],[101.2453051,3.339360296312635],[101.2451085,3.3393599963126377]]],[[[101.24237326383233,3.3410996065827656],[101.24237326383233,3.3416630352939496],[101.2426213542759,3.3410996065827656],[101.24237326383233,3.3410996065827656]]],[[[101.24081863866066,3.343062513665896],[101.2403004302701,3.343062513665896],[101.2403004302701,3.3432761386946477],[101.24081863866066,3.3434006214424024],[101.24081863866066,3.343062513665896]]],[[[101.23926401348898,3.342669931943474],[101.23822759670786,3.343062513665896],[101.23822759670786,3.343847677569563],[101.23874580509842,3.343847677569563],[101.23874580509842,3.3442402597508427],[101.23926401348898,3.342669931943474]]],[[[101.23978222187954,3.343062513665896],[101.23941113193035,3.343062513665896],[101.23978222187954,3.343151655962271],[101.23978222187954,3.343062513665896]]],[[[101.24133684705122,3.3434550955412528],[101.24100496561495,3.3434550955412528],[101.24133684705122,3.3438201972756754],[101.24133684705122,3.3434550955412528]]],[[[101.24185505544177,3.343847677569563],[101.24185505544177,3.3442402597508427],[101.24235186475384,3.3442402597508427],[101.24229339999998,3.3440764963075655],[101.24185505544177,3.343847677569563]]],[[[101.24237326383233,3.34444971149272],[101.24242509999999,3.3444453963071443],[101.24237326383233,3.344300199918778],[101.24237326383233,3.34444971149272]]],[[[101.23902432480452,3.346595756051924],[101.23874580509842,3.3481660899810204],[101.23917774269097,3.3481660899810204],[101.23902432480452,3.346595756051924]]],[[[101.23926401348898,3.349487886139822],[101.23930559999998,3.3494747963017373],[101.23926401348898,3.3490491299544507],[101.23926401348898,3.349487886139822]]],[[[101.25014638969076,3.3218633190288327],[101.25031210267444,3.3218633190288327],[101.25014638969076,3.3216795487126216],[101.25014638969076,3.3218633190288327]]],[[[101.25066459808131,3.3226484664664655],[101.25102010092496,3.3226484664664655],[101.25066459808131,3.322254225096008],[101.25066459808131,3.3226484664664655]]],[[[101.25066459808131,3.3230410404132615],[101.25066459808131,3.3231796265732387],[101.25080724808551,3.3230410404132615],[101.25066459808131,3.3230410404132615]]],[[[101.25014638969076,3.3234336145120658],[101.25014638969076,3.323683072290312],[101.25040316235402,3.3234336145120658],[101.25014638969076,3.3234336145120658]]],[[[101.24962818130018,3.324186518257431],[101.24999907662252,3.3238261887629004],[101.24962818130018,3.3238261887629004],[101.24962818130018,3.324186518257431]]],[[[101.24910997290962,3.324611337720726],[101.24859176451908,3.324611337720726],[101.24859176451908,3.3251934109419574],[101.24959499089103,3.3242187631657814],[101.24910997290962,3.3242187631657814],[101.24910997290962,3.324611337720726]]],[[[101.24807355612852,3.3256968576594432],[101.24838273369653,3.3253964872868833],[101.24807355612852,3.3253964872868833],[101.24807355612852,3.3256968576594432]]],[[[101.24755534773794,3.3257890622981305],[101.24755534773794,3.3261816374615156],[101.24651893095682,3.326574212777056],[101.24651893095682,3.327207199313242],[101.24797864796503,3.3257890622981305],[101.24755534773794,3.3257890622981305]]],[[[101.24651893095682,3.3312851284382408],[101.24653772005256,3.3312851284382408],[101.24651893095682,3.33126386154576],[101.24651893095682,3.3312851284382408]]],[[[101.24703713934738,3.3324628607811064],[101.24755534773794,3.3324628607811064],[101.24792507288254,3.3328554385335942],[101.24703713934738,3.331850408411576],[101.24703713934738,3.3324628607811064]]],[[[101.24807355612852,3.3341673017663167],[101.2485471,3.3335594963188857],[101.24807355612852,3.3330235031639965],[101.24807355612852,3.3341673017663167]]],[[[101.24755534773794,3.337011017930708],[101.24805,3.3364018963158237],[101.2470587,3.3354698963168157],[101.24787219723788,3.3344257510683604],[101.24703713934738,3.3348183295833462],[101.24703713934738,3.3359960660436987],[101.24755534773794,3.3359960660436987],[101.24755534773794,3.337011017930708]]],[[[101.24703713934738,3.3371738038775254],[101.24703713934738,3.3376491472811476],[101.24742315343705,3.3371738038775254],[101.24703713934738,3.3371738038775254]]],[[[101.24651893095682,3.338287277035006],[101.24678554594948,3.3379589631966926],[101.24651893095682,3.3379589631966926],[101.24651893095682,3.338287277035006]]]]},"properties":{"place_id":"d002f362-4b68-5cd8-871e-a2685c58b522","habitat":"disturbed_built_edge","habitat_label":"Disturbed, bare or built edge","resolution_m":50}},{"type":"Feature","geometry":{"type":"MultiPolygon","coordinates":[[[[101.23822759670786,3.3383515430853157],[101.23822759670786,3.33913670332073],[101.23874580509842,3.33913670332073],[101.23874580509842,3.3383515430853157],[101.23822759670786,3.3383515430853157]]],[[[101.23926401348898,3.339529283667558],[101.23926401348898,3.33913670332073],[101.23874580509842,3.33913670332073],[101.23874580509842,3.339529283667558],[101.23926401348898,3.339529283667558]]]]},"properties":{"place_id":"d002f362-4b68-5cd8-871e-a2685c58b522","habitat":"cropland","habitat_label":"Cropland","resolution_m":50}},{"type":"Feature","geometry":{"type":"MultiPolygon","coordinates":[[[[101.23408192958337,3.32775193963679],[101.23408192958337,3.3277448415380095],[101.23407525733744,3.32775193963679],[101.23408192958337,3.32775193963679]]],[[[101.23200909602113,3.330107397466892],[101.23200909602113,3.3299499750870516],[101.23186111858385,3.330107397466892],[101.23200909602113,3.330107397466892]]],[[[101.23097267924001,3.3312851284382408],[101.23097267924001,3.331247111542182],[101.23095680833968,3.3312851284382408],[101.23097267924001,3.3312851284382408]]],[[[101.23304551280225,3.3348183295833462],[101.23301288050351,3.3348183295833462],[101.23304551280225,3.3348726267032216],[101.23304551280225,3.3348183295833462]]],[[[101.23356372119281,3.335210908250885],[101.23324881828887,3.335210908250885],[101.23356372119281,3.3357348778149083],[101.23356372119281,3.335210908250885]]],[[[101.23408192958337,3.3359960660436987],[101.23372069385954,3.3359960660436987],[101.23408192958337,3.3365971296627306],[101.23408192958337,3.3359960660436987]]],[[[101.23460013797393,3.336781224446945],[101.23419256943025,3.336781224446945],[101.23460013797393,3.3374593822468794],[101.23460013797393,3.336781224446945]]],[[[101.23511834636449,3.3379589631966926],[101.23490038278628,3.3379589631966926],[101.23511834636449,3.3386056145226783],[101.23511834636449,3.3379589631966926]]],[[[101.24340968061347,3.3175450189828144],[101.24340968061347,3.3174241507785727],[101.2433068190745,3.3175450189828144],[101.24340968061347,3.3175450189828144]]],[[[101.23719117992673,3.324611337720726],[101.23719117992673,3.324437150219107],[101.23702744234224,3.324611337720726],[101.23719117992673,3.324611337720726]]],[[[101.23667297153618,3.3250039124277544],[101.23667297153618,3.324988431355579],[101.23665841921664,3.3250039124277544],[101.23667297153618,3.3250039124277544]]],[[[101.23563655475505,3.3261816374615156],[101.23563655475505,3.3260909945283865],[101.23555134983984,3.3261816374615156],[101.23563655475505,3.3261816374615156]]],[[[101.23563655475505,3.339529283667558],[101.23535057234089,3.339529283667558],[101.23563655475505,3.340666767965771],[101.23563655475505,3.339529283667558]]],[[[101.23615476314562,3.341492187693632],[101.23584407875965,3.341492187693632],[101.23615476314562,3.342727925621506],[101.23615476314562,3.341492187693632]]],[[[101.23667297153618,3.343847677569563],[101.23631891147343,3.343847677569563],[101.23665279999999,3.3503097963008406],[101.23667297153618,3.3503034470699764],[101.23667297153618,3.343847677569563]]]]},"properties":{"place_id":"d002f362-4b68-5cd8-871e-a2685c58b522","habitat":"permanent_water","habitat_label":"Permanent water","resolution_m":50}},{"type":"Feature","geometry":{"type":"MultiPolygon","coordinates":[[[[101.24367377130429,3.3171524471622607],[101.2436578,3.3171325963365783],[101.24364090649867,3.3171524471622607],[101.24367377130429,3.3171524471622607]]],[[[101.24340968061347,3.3175450189828144],[101.24340968061347,3.3174241507785727],[101.2433068190745,3.3175450189828144],[101.24340968061347,3.3175450189828144]]],[[[101.23563655475505,3.3261816374615156],[101.23563655475505,3.3260909945283865],[101.23555134983984,3.3261816374615156],[101.23563655475505,3.3261816374615156]]],[[[101.23663002311896,3.349343842036065],[101.23665279999999,3.3503097963008406],[101.23667297153618,3.349343842036065],[101.23663002311896,3.349343842036065]]]]},"properties":{"place_id":"d002f362-4b68-5cd8-871e-a2685c58b522","habitat":"seasonal_water_wetland","habitat_label":"Seasonal water or wetland","resolution_m":50}},{"type":"Feature","geometry":{"type":"MultiPolygon","coordinates":[[[[101.2377093883173,3.343847677569563],[101.23719117992673,3.343847677569563],[101.23719117992673,3.341492187693632],[101.23667297153618,3.341492187693632],[101.23667297153618,3.339529283667558],[101.23615476314562,3.339529283667558],[101.23563655475505,3.336781224446945],[101.23511834636449,3.336781224446945],[101.23460013797393,3.335210908250885],[101.23356372119281,3.3348183295833462],[101.23356372119281,3.3340331727059103],[101.23149088763056,3.3328554385335942],[101.23149088763056,3.3312851284382408],[101.23200909602113,3.3312851284382408],[101.23200909602113,3.3304999743049803],[101.23304551280225,3.330107397466892],[101.23356372119281,3.328537091637719],[101.23511834636449,3.32775193963679],[101.23511834636449,3.3269667882447695],[101.23667297153618,3.3261816374615156],[101.23667297153618,3.3253964872868833],[101.23822759670786,3.324611337720726],[101.23874580509842,3.3230410404132615],[101.23978222187954,3.3226484664664655],[101.23978222187954,3.3218633190288327],[101.2403004302701,3.3218633190288327],[101.2403004302701,3.3214707455379595],[101.24081863866066,3.3214707455379595],[101.24081863866066,3.320685599012008],[101.24185505544177,3.3202930259768935],[101.24237326383233,3.318722735355089],[101.24392788900403,3.317937590955125],[101.24367377130429,3.3171524471622607],[101.23111879999999,3.330897096321755],[101.23059449999998,3.33215299632039],[101.23356372119281,3.335210908250885],[101.23511834636449,3.3379589631966926],[101.23615476314562,3.341492187693632],[101.23631891147343,3.343847677569563],[101.23667297153618,3.343847677569563],[101.23667297153618,3.3503034470699764],[101.2377093883173,3.3499772226185494],[101.2377093883173,3.343847677569563]]],[[[101.23874580509842,3.349343842036065],[101.23874580509842,3.349650998272945],[101.23926401348898,3.349487886139822],[101.23926401348898,3.349343842036065],[101.23874580509842,3.349343842036065]]],[[[101.23822759670786,3.349736426360838],[101.23822759670786,3.34981411043252],[101.23847439949776,3.349736426360838],[101.23822759670786,3.349736426360838]]]]},"properties":{"place_id":"d002f362-4b68-5cd8-871e-a2685c58b522","habitat":"water_edge","habitat_label":"Water edge","resolution_m":50}},{"type":"Feature","geometry":{"type":"MultiPolygon","coordinates":[[[[101.24496430578515,3.3238261887629004],[101.24496430578515,3.3242187631657814],[101.2454825141757,3.3242187631657814],[101.2454825141757,3.3238261887629004],[101.24496430578515,3.3238261887629004]]],[[[101.24185505544177,3.32775193963679],[101.24185505544177,3.3281445155611307],[101.24237326383233,3.3281445155611307],[101.24237326383233,3.32775193963679],[101.24185505544177,3.32775193963679]]],[[[101.23719117992673,3.3328554385335942],[101.2377093883173,3.3328554385335942],[101.2377093883173,3.3316777057334472],[101.23822759670786,3.3316777057334472],[101.23822759670786,3.3308925512954235],[101.23874580509842,3.3308925512954235],[101.23874580509842,3.3293222442477046],[101.23926401348898,3.3293222442477046],[101.23926401348898,3.328537091637719],[101.23978222187954,3.328537091637719],[101.23978222187954,3.3273593638646743],[101.2403004302701,3.3273593638646743],[101.2403004302701,3.3261816374615156],[101.24081863866066,3.3261816374615156],[101.24133684705122,3.324611337720726],[101.24237326383233,3.3242187631657814],[101.24237326383233,3.3234336145120658],[101.24340968061347,3.3230410404132615],[101.24392788900403,3.3214707455379595],[101.2454825141757,3.320685599012008],[101.2454825141757,3.3199004530936627],[101.24598146092839,3.3199004530936627],[101.2436578,3.3171325963365783],[101.23111879999999,3.330897096321755],[101.23059449999998,3.33215299632039],[101.23356372119281,3.335210908250885],[101.23511834636449,3.3379589631966926],[101.23615476314562,3.341492187693632],[101.23631891147343,3.343847677569563],[101.23667297153618,3.343847677569563],[101.23667297153618,3.3503034470699764],[101.23926401348898,3.349487886139822],[101.23913938821934,3.3477735062690366],[101.23874580509842,3.3477735062690366],[101.23874580509842,3.3450254245723885],[101.23822759670786,3.3450254245723885],[101.23822759670786,3.342669931943474],[101.2377093883173,3.342669931943474],[101.2377093883173,3.341492187693632],[101.23822759670786,3.341492187693632],[101.23822759670786,3.3410996065827656],[101.2377093883173,3.3410996065827656],[101.2377093883173,3.340314444819547],[101.23822759670786,3.340314444819547],[101.23822759670786,3.3399218641671578],[101.23926401348898,3.3399218641671578],[101.23926401348898,3.339529283667558],[101.2403004302701,3.33913670332073],[101.2403004302701,3.3387441231266544],[101.23978222187954,3.3387441231266544],[101.23978222187954,3.3383515430853157],[101.2403004302701,3.3383515430853157],[101.2403004302701,3.3371738038775254],[101.23874580509842,3.3379589631966926],[101.23874580509842,3.336781224446945],[101.23978222187954,3.336781224446945],[101.23978222187954,3.336388645169008],[101.23926401348898,3.336388645169008],[101.23926401348898,3.335603487070997],[101.23719117992673,3.335603487070997],[101.23719117992673,3.3348183295833462],[101.23667297153618,3.3348183295833462],[101.23667297153618,3.3344257510683604],[101.23719117992673,3.3344257510683604],[101.23719117992673,3.3328554385335942]],[[101.23874580509842,3.339529283667558],[101.23874580509842,3.33913670332073],[101.23926401348898,3.33913670332073],[101.23926401348898,3.339529283667558],[101.23874580509842,3.339529283667558]],[[101.23822759670786,3.33913670332073],[101.23822759670786,3.3383515430853157],[101.23874580509842,3.3383515430853157],[101.23874580509842,3.33913670332073],[101.23822759670786,3.33913670332073]],[[101.23667297153618,3.335603487070997],[101.23615476314562,3.335603487070997],[101.23615476314562,3.3348183295833462],[101.23667297153618,3.3348183295833462],[101.23667297153618,3.335603487070997]],[[101.23667297153618,3.336781224446945],[101.23615476314562,3.336781224446945],[101.23615476314562,3.3359960660436987],[101.23667297153618,3.3359960660436987],[101.23667297153618,3.336781224446945]]],[[[101.2403004302701,3.336781224446945],[101.24081863866066,3.336781224446945],[101.24081863866066,3.336388645169008],[101.2403004302701,3.336388645169008],[101.2403004302701,3.336781224446945]]],[[[101.24133684705122,3.336781224446945],[101.24185505544177,3.336781224446945],[101.24185505544177,3.336388645169008],[101.24133684705122,3.336388645169008],[101.24133684705122,3.336781224446945]]]]},"properties":{"place_id":"d002f362-4b68-5cd8-871e-a2685c58b522","habitat":"mangrove","habitat_label":"Mangrove","resolution_m":50}}]}