{"type":"FeatureCollection","metadata":{"schema_version":1,"place_id":"d01da244-43b4-513e-b4bb-e02bd68e1dc8","place_name":"Tonggak 10","place_type":"park","osm_reference":"way/388808372","protection_context":"no protected status confirmed from included OSM tags","resolution_m":50,"raster_coverage":1.0,"interpretation":"Suggested search habitats, not predicted plant locations or probabilities of presence."},"features":[{"type":"Feature","geometry":{"type":"Polygon","coordinates":[[[100.98793294406705,3.676814146655878],[100.98741473567651,3.676814146655878],[100.98741473567651,3.677183143224975],[100.98760526042311,3.6772068650868452],[100.98793294406705,3.676814146655878]]]},"properties":{"place_id":"d01da244-43b4-513e-b4bb-e02bd68e1dc8","habitat":"open_grassland","habitat_label":"Open grassland or shrubland","resolution_m":50}},{"type":"Feature","geometry":{"type":"Polygon","coordinates":[[[100.9869686,3.6769037959506945],[100.9875454,3.6772547959503457],[100.98802410000002,3.67687149595073],[100.9873832,3.6761673959514964],[100.9869686,3.6769037959506945]]]},"properties":{"place_id":"d01da244-43b4-513e-b4bb-e02bd68e1dc8","habitat":"disturbed_built_edge","habitat_label":"Disturbed, bare or built edge","resolution_m":50}}]}