{"type":"FeatureCollection","metadata":{"schema_version":1,"place_id":"d025c452-3df7-5ddd-af8a-4ffc3bbaabe1","place_name":"Serindit Recreation Park","place_type":"park","osm_reference":"way/494077622","protection_context":"no protected status confirmed from included OSM tags","resolution_m":50,"raster_coverage":1.0,"interpretation":"Suggested search habitats, not predicted plant locations or probabilities of presence."},"features":[{"type":"Feature","geometry":{"type":"Polygon","coordinates":[[[103.914255725563,1.51694766628788],[103.914255725563,1.5157714706945253],[103.91373751717244,1.5157714706945253],[103.91373751717244,1.5161635358231946],[103.91321930878189,1.5161635358231946],[103.91321930878189,1.51694766628788],[103.914255725563,1.51694766628788]]]},"properties":{"place_id":"d025c452-3df7-5ddd-af8a-4ffc3bbaabe1","habitat":"open_grassland","habitat_label":"Open grassland or shrubland","resolution_m":50}},{"type":"Feature","geometry":{"type":"Polygon","coordinates":[[[103.91303379999998,1.5170477983081172],[103.9144996,1.5171146983080386],[103.91446489999998,1.5155696983097742],[103.91306739999997,1.5155635983097746],[103.91303379999998,1.5170477983081172]]]},"properties":{"place_id":"d025c452-3df7-5ddd-af8a-4ffc3bbaabe1","habitat":"disturbed_built_edge","habitat_label":"Disturbed, bare or built edge","resolution_m":50}}]}