{"type":"FeatureCollection","metadata":{"schema_version":1,"place_id":"d0455163-cc59-5a37-82f8-83fac8b87fa5","place_name":"Hutan Simpanan Kekal Hulu Gombak Tambahan","place_type":"park","osm_reference":"relation/18142179","protection_context":"mapped protected boundary","resolution_m":50,"raster_coverage":1.0,"interpretation":"Suggested search habitats, not predicted plant locations or probabilities of presence."},"features":[{"type":"Feature","geometry":{"type":"MultiPolygon","coordinates":[[[[101.77457328093813,3.235108239004976],[101.77457328093813,3.234715698651992],[101.77405507254755,3.234715698651992],[101.77405507254755,3.235108239004976],[101.77457328093813,3.235108239004976]]],[[[101.74866286141008,3.236678401896623],[101.74866286141008,3.236530173088388],[101.74818362233792,3.236678401896623],[101.74866286141008,3.236678401896623]]],[[[101.77716432289093,3.2323604596400917],[101.77716432289093,3.2331455387192265],[101.77612790610979,3.2335380784805787],[101.77560969771925,3.2327529991057373],[101.77612790610979,3.2327529991057373],[101.77612790610979,3.231967920322274],[101.77696228554568,3.2315753811522625],[101.7757658,3.2292367964313193],[101.77768253128149,3.225925119365226],[101.75292049999999,3.2357767964242843],[101.75229032014401,3.235720762925484],[101.75332673692513,3.236285860951718],[101.75332673692513,3.236678401896623],[101.75384494531569,3.236678401896623],[101.75384494531569,3.2370709429895537],[101.75436315370625,3.2370709429895537],[101.75436315370625,3.2374634842305277],[101.75488136209682,3.2374634842305277],[101.75488136209682,3.236678401896623],[101.75539957048738,3.236678401896623],[101.75539957048738,3.236285860951718],[101.75695419565906,3.236285860951718],[101.75747240404962,3.2370709429895537],[101.75850882083073,3.2370709429895537],[101.75850882083073,3.2374634842305277],[101.75954523761186,3.2374634842305277],[101.75954523761186,3.2378560256195628],[101.76006344600243,3.2378560256195628],[101.76006344600243,3.2390336506752218],[101.76058165439298,3.2390336506752218],[101.76109986278354,3.2382485671566794],[101.76317269634579,3.2382485671566794],[101.76317269634579,3.2370709429895537],[101.76420911312691,3.236678401896623],[101.76420911312691,3.2370709429895537],[101.76524552990803,3.2374634842305277],[101.76524552990803,3.2390336506752218],[101.76628194668915,3.2394261926566856],[101.76628194668915,3.240603819490063],[101.76680015507971,3.240603819490063],[101.76680015507971,3.2409963620642452],[101.76731836347028,3.2409963620642452],[101.76731836347028,3.241781447657301],[101.76783657186083,3.241781447657301],[101.76731836347028,3.2441367079953087],[101.76990940542308,3.243744164234822],[101.77094582220418,3.244921795961408],[101.77301865576644,3.244921795961408],[101.77405507254755,3.246099429023646],[101.77509148932867,3.246099429023646],[101.77509148932867,3.246491973674621],[101.77612790610979,3.246099429023646],[101.77612790610979,3.246491973674621],[101.77664611450037,3.246491973674621],[101.77664611450037,3.2476696085184886],[101.77560969771925,3.2480621537634846],[101.77509148932867,3.247277063422024],[101.77405507254755,3.2476696085184886],[101.77250044737588,3.246099429023646],[101.77042761381364,3.245706884521131],[101.77042761381364,3.2488472446991485],[101.76887298864195,3.2496323362291597],[101.76887298864195,3.2500248822170907],[101.76939119703252,3.2500248822170907],[101.76939119703252,3.251202521072803],[101.77094582220418,3.2519876143867243],[101.77094582220418,3.2543428978986313],[101.77198223898532,3.2543428978986313],[101.77250044737588,3.2551279935931303],[101.773536864157,3.2551279935931303],[101.773536864157,3.2555205416636843],[101.77457328093813,3.2559130898831348],[101.77457328093813,3.2566981867687907],[101.77475690562088,3.2566981867687907],[101.77446839999999,3.253239896405462],[101.77595699999999,3.250604896408293],[101.7770648,3.2499326964090107],[101.77753149999998,3.2483661964106996],[101.77693340000002,3.247870796411238],[101.77583099999998,3.2408492964188262],[101.7797106,3.237716996422194],[101.77986489999999,3.2357159964243527],[101.77872029999999,3.2337405964264887],[101.77776696110973,3.2355007795059127],[101.77820073967203,3.2355007795059127],[101.77820073967203,3.235108239004976],[101.77923715645316,3.2355007795059127],[101.77923715645316,3.235893320154821],[101.7787189480626,3.235893320154821],[101.7787189480626,3.2370709429895537],[101.77820073967203,3.2370709429895537],[101.77820073967203,3.2374634842305277],[101.77716432289093,3.2370709429895537],[101.77716432289093,3.235893320154821],[101.77768253128149,3.2356083440603536],[101.7763742,3.2348579964252893],[101.77735779999998,3.2329698964273277],[101.77716432289093,3.2323604596400917]],[[101.773536864157,3.235108239004976],[101.77301865576644,3.234323158446944],[101.77405507254755,3.233930618389812],[101.77405507254755,3.234323158446944],[101.77560969771925,3.235108239004976],[101.77560969771925,3.235893320154821],[101.77457328093813,3.236285860951718],[101.77457328093813,3.235893320154821],[101.77405507254755,3.235893320154821],[101.77405507254755,3.235108239004976],[101.773536864157,3.235108239004976]],[[101.773536864157,3.2323604596400917],[101.773536864157,3.231967920322274],[101.77405507254755,3.231967920322274],[101.77457328093813,3.2327529991057373],[101.773536864157,3.2331455387192265],[101.773536864157,3.2327529991057373],[101.77301865576644,3.2327529991057373],[101.77301865576644,3.2323604596400917],[101.773536864157,3.2323604596400917]]],[[[101.7590270292213,3.2421739906762115],[101.75954523761186,3.2421739906762115],[101.75954523761186,3.2409963620642452],[101.7590270292213,3.2409963620642452],[101.7590270292213,3.2421739906762115]]],[[[101.75954523761186,3.2425665338434007],[101.76006344600243,3.2425665338434007],[101.76006344600243,3.2421739906762115],[101.75954523761186,3.2421739906762115],[101.75954523761186,3.2425665338434007]]],[[[101.75850882083073,3.2425665338434007],[101.75799061244018,3.2425665338434007],[101.75799061244018,3.241781447657301],[101.75747240404962,3.241781447657301],[101.75747240404962,3.2409963620642452],[101.75799061244018,3.2409963620642452],[101.75799061244018,3.2390336506752218],[101.75591777887793,3.2394261926566856],[101.75539957048738,3.240211277064088],[101.75488136209682,3.240211277064088],[101.75488136209682,3.239818734786302],[101.75384494531569,3.239818734786302],[101.75384494531569,3.240211277064088],[101.75436315370625,3.240211277064088],[101.75436315370625,3.2409963620642452],[101.75488136209682,3.2409963620642452],[101.75488136209682,3.2413889047866506],[101.75695419565906,3.2425665338434007],[101.75747240404962,3.244529251904165],[101.7590270292213,3.2453143401670577],[101.7590270292213,3.246099429023646],[101.75799061244018,3.246491973674621],[101.75799061244018,3.246099429023646],[101.75747240404962,3.246099429023646],[101.75747240404962,3.2453143401670577],[101.75643598726849,3.245706884521131],[101.75643598726849,3.2453143401670577],[101.75539957048738,3.244921795961408],[101.75539957048738,3.2433516206226884],[101.75436315370625,3.2433516206226884],[101.75332673692513,3.241781447657301],[101.75280852853459,3.241781447657301],[101.75280852853459,3.243744164234822],[101.75332673692513,3.243744164234822],[101.75332673692513,3.2441367079953087],[101.75280852853459,3.2441367079953087],[101.75229032014401,3.244921795961408],[101.75125390336288,3.244529251904165],[101.75125390336288,3.2413889047866506],[101.75073569497233,3.2413889047866506],[101.75073569497233,3.240211277064088],[101.74969927819122,3.239818734786302],[101.74969927819122,3.2390336506752218],[101.74762644462898,3.2382485671566794],[101.74762644462898,3.2370709429895537],[101.74814465301954,3.2370709429895537],[101.74814465301954,3.2366845848192893],[101.737452,3.238381096421456],[101.74449419999999,3.2413169964183117],[101.748246,3.2452854964139983],[101.74963519999999,3.243275896416186],[101.75061369999999,3.244151596415241],[101.7491789,3.2462674964129516],[101.75162769999997,3.2484439964105953],[101.75323479999997,3.24843649641061],[101.75371139999999,3.24907679640994],[101.7545023,3.252010096406756],[101.75436315370625,3.253165255473141],[101.75488136209682,3.253165255473141],[101.75436315370625,3.2537553965077715],[101.75539957048738,3.2543428978986313],[101.75539957048738,3.2547354456714515],[101.75591777887793,3.2547354456714515],[101.75591777887793,3.2551279935931303],[101.75643598726849,3.2551279935931303],[101.75643598726849,3.2555205416636843],[101.75695419565906,3.2555205416636843],[101.75695419565906,3.2559130898831348],[101.75747240404962,3.2559130898831348],[101.75747240404962,3.256305638251498],[101.75799061244018,3.256305638251498],[101.75799061244018,3.2566981867687907],[101.75850882083073,3.2566981867687907],[101.75850882083073,3.257090735435033],[101.7604653,3.257360696400986],[101.76058165439298,3.2586609315898554],[101.76109986278354,3.2586609315898554],[101.76109986278354,3.261016230293637],[101.76058165439298,3.261016230293637],[101.76046573783616,3.261408780599513],[101.7608961,3.2635615963943008],[101.77131243076084,3.257090735435033],[101.77094582220418,3.257090735435033],[101.77094582220418,3.256305638251498],[101.77042761381364,3.256305638251498],[101.77042761381364,3.2555205416636843],[101.76990940542308,3.2555205416636843],[101.76990940542308,3.2547354456714515],[101.76835478025139,3.253950350274652],[101.76835478025139,3.252772708295574],[101.76783657186083,3.252772708295574],[101.76783657186083,3.251595067655407],[101.76731836347028,3.251595067655407],[101.76628194668915,3.2578758332144373],[101.76576373829859,3.2578758332144373],[101.76576373829859,3.258268382327636],[101.76472732151747,3.2578758332144373],[101.76472732151747,3.2559130898831348],[101.76524552990803,3.2559130898831348],[101.76524552990803,3.251202521072803],[101.76472732151747,3.251202521072803],[101.76472732151747,3.248454699157032],[101.76420911312691,3.248454699157032],[101.76265448795523,3.2500248822170907],[101.76109986278354,3.2492397903898516],[101.7616180711741,3.248454699157032],[101.76265448795523,3.248454699157032],[101.76265448795523,3.2480621537634846],[101.76317269634579,3.2480621537634846],[101.76369090473634,3.245706884521131],[101.7616180711741,3.245706884521131],[101.7616180711741,3.2453143401670577],[101.76109986278354,3.2453143401670577],[101.76109986278354,3.244529251904165],[101.7616180711741,3.244529251904165],[101.76213627956467,3.243744164234822],[101.7616180711741,3.243744164234822],[101.7616180711741,3.2433516206226884],[101.76058165439298,3.2433516206226884],[101.76058165439298,3.243744164234822],[101.76006344600243,3.243744164234822],[101.76006344600243,3.2433516206226884],[101.75954523761186,3.2433516206226884],[101.75954523761186,3.2425665338434007],[101.7590270292213,3.2425665338434007],[101.7590270292213,3.2429590771588863],[101.75850882083073,3.2429590771588863],[101.75850882083073,3.2425665338434007]],[[101.76524552990803,3.259053481001114],[101.76524552990803,3.2586609315898554],[101.76576373829859,3.2586609315898554],[101.76628194668915,3.2594460305614312],[101.76524552990803,3.2598385802708236],[101.76524552990803,3.2594460305614312],[101.76472732151747,3.2594460305614312],[101.76472732151747,3.259053481001114],[101.76524552990803,3.259053481001114]],[[101.76109986278354,3.251202521072803],[101.76109986278354,3.250809974638894],[101.7616180711741,3.250809974638894],[101.76213627956467,3.251595067655407],[101.76109986278354,3.2519876143867243],[101.76109986278354,3.251595067655407],[101.76058165439298,3.251595067655407],[101.76058165439298,3.251202521072803],[101.76109986278354,3.251202521072803]]]]},"properties":{"place_id":"d0455163-cc59-5a37-82f8-83fac8b87fa5","habitat":"forest_interior","habitat_label":"Forest interior","resolution_m":50}},{"type":"Feature","geometry":{"type":"MultiPolygon","coordinates":[[[[101.76058165439298,3.243744164234822],[101.76058165439298,3.2433516206226884],[101.7616180711741,3.2433516206226884],[101.7616180711741,3.243744164234822],[101.76213627956467,3.243744164234822],[101.76213627956467,3.2441367079953087],[101.76109986278354,3.244529251904165],[101.76109986278354,3.2453143401670577],[101.7616180711741,3.2453143401670577],[101.7616180711741,3.245706884521131],[101.76369090473634,3.245706884521131],[101.76317269634579,3.2480621537634846],[101.76265448795523,3.2480621537634846],[101.76265448795523,3.248454699157032],[101.7616180711741,3.248454699157032],[101.76109986278354,3.2492397903898516],[101.76265448795523,3.2500248822170907],[101.76265448795523,3.2496323362291597],[101.76472732151747,3.248454699157032],[101.76472732151747,3.251202521072803],[101.76524552990803,3.251202521072803],[101.76524552990803,3.2559130898831348],[101.76472732151747,3.2559130898831348],[101.76472732151747,3.2578758332144373],[101.76524552990803,3.2578758332144373],[101.76524552990803,3.258268382327636],[101.76628194668915,3.2578758332144373],[101.76628194668915,3.256305638251498],[101.76680015507971,3.256305638251498],[101.76680015507971,3.253165255473141],[101.76731836347028,3.253165255473141],[101.76731836347028,3.251595067655407],[101.76783657186083,3.251595067655407],[101.76835478025139,3.253950350274652],[101.76990940542308,3.2547354456714515],[101.76990940542308,3.2555205416636843],[101.77042761381364,3.2555205416636843],[101.77094582220418,3.257090735435033],[101.7719577,3.2568306964015763],[101.77268189999998,3.257238096401104],[101.7727836,3.258867996399376],[101.77310239999998,3.2591735963990542],[101.773536864157,3.2594433502886493],[101.773536864157,3.259053481001114],[101.77301865576644,3.259053481001114],[101.77301865576644,3.257090735435033],[101.77146403059476,3.256305638251498],[101.77146403059476,3.2555205416636843],[101.77198223898532,3.2555205416636843],[101.77198223898532,3.2559130898831348],[101.773536864157,3.2559130898831348],[101.773536864157,3.2566981867687907],[101.77405507254755,3.2566981867687907],[101.77405507254755,3.257483284250243],[101.77457328093813,3.257483284250243],[101.77457328093813,3.2592787662443103],[101.77494319999998,3.259021496399229],[101.77457328093813,3.2559130898831348],[101.77405507254755,3.2559130898831348],[101.773536864157,3.2551279935931303],[101.77250044737588,3.2551279935931303],[101.77198223898532,3.2543428978986313],[101.77094582220418,3.2543428978986313],[101.77094582220418,3.2519876143867243],[101.76939119703252,3.251202521072803],[101.76939119703252,3.2500248822170907],[101.76887298864195,3.2500248822170907],[101.76887298864195,3.2496323362291597],[101.77042761381364,3.2488472446991485],[101.77042761381364,3.245706884521131],[101.77250044737588,3.246099429023646],[101.77405507254755,3.2476696085184886],[101.77509148932867,3.247277063422024],[101.77560969771925,3.2480621537634846],[101.77664611450037,3.2476696085184886],[101.77664611450037,3.246491973674621],[101.77612790610979,3.246491973674621],[101.77612790610979,3.246099429023646],[101.77560969771925,3.246099429023646],[101.77560969771925,3.246491973674621],[101.77509148932867,3.246491973674621],[101.77509148932867,3.246099429023646],[101.77405507254755,3.246099429023646],[101.77301865576644,3.244921795961408],[101.77094582220418,3.244921795961408],[101.76990940542308,3.243744164234822],[101.76731836347028,3.2441367079953087],[101.76783657186083,3.241781447657301],[101.76731836347028,3.241781447657301],[101.76731836347028,3.2409963620642452],[101.76628194668915,3.240603819490063],[101.76628194668915,3.2394261926566856],[101.76524552990803,3.2390336506752218],[101.76524552990803,3.2374634842305277],[101.76472732151747,3.2374634842305277],[101.76420911312691,3.236678401896623],[101.76317269634579,3.2370709429895537],[101.76317269634579,3.2382485671566794],[101.76109986278354,3.2382485671566794],[101.76109986278354,3.2386411088418923],[101.76006344600243,3.2390336506752218],[101.76006344600243,3.2378560256195628],[101.75954523761186,3.2378560256195628],[101.75954523761186,3.2374634842305277],[101.75850882083073,3.2374634842305277],[101.75850882083073,3.2370709429895537],[101.75747240404962,3.2370709429895537],[101.75695419565906,3.236285860951718],[101.75539957048738,3.236285860951718],[101.75539957048738,3.236678401896623],[101.75488136209682,3.236678401896623],[101.75488136209682,3.2374634842305277],[101.75436315370625,3.2374634842305277],[101.75280852853459,3.235893320154821],[101.7503608,3.235549196424536],[101.74976516795125,3.235893320154821],[101.75177211175345,3.235893320154821],[101.75177211175345,3.236285860951718],[101.75332673692513,3.2370709429895537],[101.75332673692513,3.2382485671566794],[101.75384494531569,3.2382485671566794],[101.75384494531569,3.2386411088418923],[101.75436315370625,3.2386411088418923],[101.75591777887793,3.2370709429895537],[101.75695419565906,3.2370709429895537],[101.75747240404962,3.2378560256195628],[101.75850882083073,3.2378560256195628],[101.75850882083073,3.2382485671566794],[101.7590270292213,3.2382485671566794],[101.7590270292213,3.2390336506752218],[101.75850882083073,3.2390336506752218],[101.75799061244018,3.2382485671566794],[101.75539957048738,3.2386411088418923],[101.75539957048738,3.2390336506752218],[101.75332673692513,3.2390336506752218],[101.75332673692513,3.2394261926566856],[101.75280852853459,3.2394261926566856],[101.75332673692513,3.2409963620642452],[101.75229032014401,3.2409963620642452],[101.75229032014401,3.2413889047866506],[101.75177211175345,3.2413889047866506],[101.75177211175345,3.239818734786302],[101.75125390336288,3.239818734786302],[101.75125390336288,3.2394261926566856],[101.75073569497233,3.2394261926566856],[101.75073569497233,3.2390336506752218],[101.74866286141008,3.2378560256195628],[101.74866286141008,3.2370709429895537],[101.74969927819122,3.236678401896623],[101.74969927819122,3.2359313876735647],[101.74762644462898,3.2370709429895537],[101.74762644462898,3.2382485671566794],[101.74814465301954,3.2382485671566794],[101.74814465301954,3.2386411088418923],[101.74918106980064,3.2386411088418923],[101.74918106980064,3.2390336506752218],[101.74969927819122,3.2390336506752218],[101.74969927819122,3.239818734786302],[101.75073569497233,3.240211277064088],[101.75073569497233,3.2413889047866506],[101.75125390336288,3.2413889047866506],[101.75125390336288,3.244529251904165],[101.75177211175345,3.244529251904165],[101.75177211175345,3.244921795961408],[101.75332673692513,3.2441367079953087],[101.75332673692513,3.243744164234822],[101.75280852853459,3.243744164234822],[101.75280852853459,3.241781447657301],[101.75332673692513,3.241781447657301],[101.75332673692513,3.2421739906762115],[101.75384494531569,3.2421739906762115],[101.75384494531569,3.2429590771588863],[101.75436315370625,3.2429590771588863],[101.75436315370625,3.2433516206226884],[101.75539957048738,3.2433516206226884],[101.75539957048738,3.244921795961408],[101.75591777887793,3.244921795961408],[101.75643598726849,3.245706884521131],[101.75747240404962,3.2453143401670577],[101.75747240404962,3.246099429023646],[101.75799061244018,3.246099429023646],[101.75799061244018,3.246491973674621],[101.7590270292213,3.246099429023646],[101.7590270292213,3.2453143401670577],[101.75850882083073,3.2453143401670577],[101.75850882083073,3.244921795961408],[101.75747240404962,3.244529251904165],[101.75747240404962,3.243744164234822],[101.75695419565906,3.243744164234822],[101.75695419565906,3.2425665338434007],[101.75643598726849,3.2425665338434007],[101.75643598726849,3.2421739906762115],[101.75436315370625,3.2409963620642452],[101.75436315370625,3.240211277064088],[101.75384494531569,3.240211277064088],[101.75384494531569,3.239818734786302],[101.75488136209682,3.239818734786302],[101.75488136209682,3.240211277064088],[101.75539957048738,3.240211277064088],[101.75539957048738,3.239818734786302],[101.75591777887793,3.239818734786302],[101.75591777887793,3.2394261926566856],[101.75695419565906,3.2394261926566856],[101.75695419565906,3.2390336506752218],[101.75799061244018,3.2390336506752218],[101.75799061244018,3.2409963620642452],[101.75747240404962,3.2409963620642452],[101.75799061244018,3.2425665338434007],[101.75850882083073,3.2425665338434007],[101.75850882083073,3.2429590771588863],[101.75954523761186,3.2425665338434007],[101.75954523761186,3.2433516206226884],[101.76058165439298,3.243744164234822]],[[101.77094582220418,3.2555205416636843],[101.77094582220418,3.2551279935931303],[101.77146403059476,3.2551279935931303],[101.77146403059476,3.2555205416636843],[101.77094582220418,3.2555205416636843]],[[101.75954523761186,3.2390336506752218],[101.76006344600243,3.239818734786302],[101.76109986278354,3.239818734786302],[101.7616180711741,3.2390336506752218],[101.76317269634579,3.2390336506752218],[101.76317269634579,3.2386411088418923],[101.76420911312691,3.2382485671566794],[101.76420911312691,3.2394261926566856],[101.76524552990803,3.239818734786302],[101.76524552990803,3.2409963620642452],[101.76680015507971,3.241781447657301],[101.76628194668915,3.2441367079953087],[101.76680015507971,3.2441367079953087],[101.76731836347028,3.244921795961408],[101.76887298864195,3.244921795961408],[101.76887298864195,3.244529251904165],[101.76990940542308,3.244529251904165],[101.76990940542308,3.244921795961408],[101.77042761381364,3.244921795961408],[101.77042761381364,3.2453143401670577],[101.76939119703252,3.245706884521131],[101.76939119703252,3.247277063422024],[101.76887298864195,3.247277063422024],[101.76887298864195,3.2468845184740753],[101.76783657186083,3.2468845184740753],[101.76783657186083,3.247277063422024],[101.76731836347028,3.247277063422024],[101.76731836347028,3.2480621537634846],[101.76783657186083,3.2480621537634846],[101.76783657186083,3.248454699157032],[101.76939119703252,3.2476696085184886],[101.76939119703252,3.2488472446991485],[101.76835478025139,3.2488472446991485],[101.76835478025139,3.2492397903898516],[101.76783657186083,3.2492397903898516],[101.76835478025139,3.251202521072803],[101.76783657186083,3.251202521072803],[101.76783657186083,3.250809974638894],[101.76731836347028,3.250809974638894],[101.76680015507971,3.251595067655407],[101.76576373829859,3.251202521072803],[101.76576373829859,3.248454699157032],[101.76420911312691,3.2476696085184886],[101.76420911312691,3.2468845184740753],[101.76472732151747,3.2468845184740753],[101.76472732151747,3.2453143401670577],[101.76420911312691,3.2453143401670577],[101.76420911312691,3.244921795961408],[101.76265448795523,3.244921795961408],[101.76265448795523,3.244529251904165],[101.76317269634579,3.244529251904165],[101.76317269634579,3.243744164234822],[101.76265448795523,3.243744164234822],[101.76265448795523,3.2433516206226884],[101.76058165439298,3.2421739906762115],[101.76058165439298,3.2409963620642452],[101.7590270292213,3.240211277064088],[101.7590270292213,3.2390336506752218],[101.75954523761186,3.2390336506752218]],[[101.76887298864195,3.251202521072803],[101.76887298864195,3.251595067655407],[101.76835478025139,3.251595067655407],[101.76835478025139,3.251202521072803],[101.76887298864195,3.251202521072803]],[[101.75954523761186,3.2421739906762115],[101.76006344600243,3.2421739906762115],[101.76006344600243,3.2425665338434007],[101.75954523761186,3.2425665338434007],[101.75954523761186,3.2421739906762115]],[[101.7590270292213,3.2421739906762115],[101.7590270292213,3.2409963620642452],[101.75954523761186,3.2409963620642452],[101.75954523761186,3.2421739906762115],[101.7590270292213,3.2421739906762115]],[[101.76939119703252,3.2519876143867243],[101.76939119703252,3.252380161266774],[101.76990940542308,3.252380161266774],[101.76990940542308,3.253950350274652],[101.76939119703252,3.253950350274652],[101.76939119703252,3.252772708295574],[101.76887298864195,3.252772708295574],[101.76887298864195,3.2519876143867243],[101.76939119703252,3.2519876143867243]],[[101.75643598726849,3.244921795961408],[101.75643598726849,3.244529251904165],[101.75695419565906,3.244529251904165],[101.75695419565906,3.244921795961408],[101.75643598726849,3.244921795961408]],[[101.75539957048738,3.2425665338434007],[101.75591777887793,3.2425665338434007],[101.75591777887793,3.2429590771588863],[101.75539957048738,3.2429590771588863],[101.75539957048738,3.2425665338434007]],[[101.75488136209682,3.2425665338434007],[101.75488136209682,3.2421739906762115],[101.75539957048738,3.2421739906762115],[101.75539957048738,3.2425665338434007],[101.75488136209682,3.2425665338434007]],[[101.75436315370625,3.2421739906762115],[101.75436315370625,3.241781447657301],[101.75488136209682,3.241781447657301],[101.75488136209682,3.2421739906762115],[101.75436315370625,3.2421739906762115]]],[[[101.7616180711741,3.251202521072803],[101.7616180711741,3.250809974638894],[101.76109986278354,3.250809974638894],[101.76058165439298,3.251595067655407],[101.7616180711741,3.2519876143867243],[101.7616180711741,3.251595067655407],[101.76213627956467,3.251595067655407],[101.76213627956467,3.251202521072803],[101.7616180711741,3.251202521072803]]],[[[101.75488136209682,3.253165255473141],[101.7541132,3.253466596405195],[101.75436315370625,3.2537553965077715],[101.75488136209682,3.2535578027994942],[101.75488136209682,3.253165255473141]]],[[[101.75850882083073,3.2566981867687907],[101.75799061244018,3.2566981867687907],[101.75799061244018,3.256305638251498],[101.75747240404962,3.256305638251498],[101.75747240404962,3.2559130898831348],[101.75695419565906,3.2559130898831348],[101.75695419565906,3.2555205416636843],[101.75643598726849,3.2555205416636843],[101.75643598726849,3.2551279935931303],[101.75591777887793,3.2551279935931303],[101.75591777887793,3.2547354456714515],[101.75453188427373,3.253950350274652],[101.7553782,3.2549281964036205],[101.75863179999999,3.257383196400964],[101.7590270292213,3.257378346301402],[101.75850882083073,3.2566981867687907]]],[[[101.76576373829859,3.259053481001114],[101.76576373829859,3.2586609315898554],[101.76524552990803,3.2586609315898554],[101.76472732151747,3.2594460305614312],[101.76576373829859,3.2598385802708236],[101.76576373829859,3.2594460305614312],[101.76628194668915,3.2594460305614312],[101.76628194668915,3.259053481001114],[101.76576373829859,3.259053481001114]]],[[[101.76058165439298,3.2586609315898554],[101.76046539817442,3.258268382327636],[101.76046573783616,3.261408780599513],[101.76058165439298,3.261016230293637],[101.76109986278354,3.261016230293637],[101.76109986278354,3.2586609315898554],[101.76058165439298,3.2586609315898554]]],[[[101.77768253128149,3.2259578393473523],[101.77770739999998,3.2259152964349345],[101.77768253128149,3.225925119365226],[101.77768253128149,3.2259578393473523]]],[[[101.77405507254755,3.2323604596400917],[101.77405507254755,3.231967920322274],[101.773536864157,3.231967920322274],[101.77301865576644,3.2327529991057373],[101.77405507254755,3.2331455387192265],[101.77405507254755,3.2327529991057373],[101.77457328093813,3.2327529991057373],[101.77457328093813,3.2323604596400917],[101.77405507254755,3.2323604596400917]]],[[[101.77728676972497,3.2323604596400917],[101.77664611450037,3.2315753811522625],[101.77560969771925,3.2331455387192265],[101.77664611450037,3.2335380784805787],[101.77728676972497,3.2323604596400917]]],[[[101.773536864157,3.233930618389812],[101.77301865576644,3.234715698651992],[101.77405507254755,3.235108239004976],[101.77457328093813,3.234323158446944],[101.773536864157,3.233930618389812]]],[[[101.77509148932867,3.235108239004976],[101.77509148932867,3.234715698651992],[101.77405507254755,3.235108239004976],[101.77405507254755,3.235893320154821],[101.77457328093813,3.235893320154821],[101.77457328093813,3.236285860951718],[101.77560969771925,3.235893320154821],[101.77560969771925,3.235108239004976],[101.77509148932867,3.235108239004976]]],[[[101.77923715645316,3.235893320154821],[101.77923715645316,3.2355007795059127],[101.77820073967203,3.235108239004976],[101.77820073967203,3.2355007795059127],[101.77716432289093,3.235893320154821],[101.77716432289093,3.2370709429895537],[101.77820073967203,3.2374634842305277],[101.77820073967203,3.2370709429895537],[101.7787189480626,3.2370709429895537],[101.7787189480626,3.235893320154821],[101.77923715645316,3.235893320154821]]]]},"properties":{"place_id":"d0455163-cc59-5a37-82f8-83fac8b87fa5","habitat":"forest_edge_opening","habitat_label":"Forest edge or opening","resolution_m":50}},{"type":"Feature","geometry":{"type":"MultiPolygon","coordinates":[[[[101.77664611450037,3.2323604596400917],[101.77716432289093,3.2323604596400917],[101.77716311933365,3.231967920322274],[101.77664611450037,3.231967920322274],[101.77664611450037,3.2323604596400917]]],[[[101.773536864157,3.2327529991057373],[101.77405507254755,3.2327529991057373],[101.77405507254755,3.2323604596400917],[101.773536864157,3.2323604596400917],[101.773536864157,3.2327529991057373]]],[[[101.77612790610979,3.2331455387192265],[101.77664611450037,3.2331455387192265],[101.77664611450037,3.2327529991057373],[101.77612790610979,3.2327529991057373],[101.77612790610979,3.2331455387192265]]],[[[101.77405507254755,3.234715698651992],[101.77405507254755,3.234323158446944],[101.773536864157,3.234323158446944],[101.773536864157,3.234715698651992],[101.77405507254755,3.234715698651992]]],[[[101.77509148932867,3.235893320154821],[101.77509148932867,3.235108239004976],[101.77457328093813,3.235108239004976],[101.77457328093813,3.235893320154821],[101.77509148932867,3.235893320154821]]],[[[101.77820073967203,3.235893320154821],[101.7787189480626,3.235893320154821],[101.7787189480626,3.2355007795059127],[101.77820073967203,3.2355007795059127],[101.77820073967203,3.235893320154821]]],[[[101.77820073967203,3.235893320154821],[101.77768253128149,3.235893320154821],[101.77768253128149,3.2370709429895537],[101.77820073967203,3.2370709429895537],[101.77820073967203,3.235893320154821]]],[[[101.7541132,3.253466596405195],[101.75436315370625,3.253165255473141],[101.75427438848139,3.253165255473141],[101.7541132,3.253466596405195]]],[[[101.75488136209682,3.2543428978986313],[101.75487163028443,3.2543428978986313],[101.75488136209682,3.2543541421824562],[101.75488136209682,3.2543428978986313]]],[[[101.76046569537844,3.261016230293637],[101.76058165439298,3.2586609315898554],[101.76046544063213,3.2586609315898554],[101.76046569537844,3.261016230293637]]]]},"properties":{"place_id":"d0455163-cc59-5a37-82f8-83fac8b87fa5","habitat":"open_grassland","habitat_label":"Open grassland or shrubland","resolution_m":50}},{"type":"Feature","geometry":{"type":"MultiPolygon","coordinates":[[[[101.7590270292213,3.257090735435033],[101.75850882083073,3.257090735435033],[101.75850882083073,3.2566981867687907],[101.75799061244018,3.2566981867687907],[101.75799061244018,3.256305638251498],[101.75747240404962,3.256305638251498],[101.75591777887793,3.2547354456714515],[101.75521137629511,3.2547354456714515],[101.75863179999999,3.257383196400964],[101.7590270292213,3.257090735435033]]],[[[101.76058165439298,3.2606236801369075],[101.760465610463,3.260231130129309],[101.76046565292071,3.2606236801369075],[101.76058165439298,3.2606236801369075]]]]},"properties":{"place_id":"d0455163-cc59-5a37-82f8-83fac8b87fa5","habitat":"disturbed_built_edge","habitat_label":"Disturbed, bare or built edge","resolution_m":50}},{"type":"Feature","geometry":{"type":"MultiPolygon","coordinates":[[[[101.75799061244018,3.241781447657301],[101.75850882083073,3.241781447657301],[101.75850882083073,3.2409963620642452],[101.75799061244018,3.2409963620642452],[101.75799061244018,3.241781447657301]]],[[[101.75850882083073,3.2425665338434007],[101.7590270292213,3.2425665338434007],[101.7590270292213,3.2421739906762115],[101.75850882083073,3.2421739906762115],[101.75850882083073,3.2425665338434007]]],[[[101.75799061244018,3.246099429023646],[101.75850882083073,3.246099429023646],[101.75850882083073,3.2453143401670577],[101.75799061244018,3.2453143401670577],[101.75799061244018,3.246099429023646]]],[[[101.773536864157,3.245706884521131],[101.77301865576644,3.245706884521131],[101.77301865576644,3.2453143401670577],[101.77146403059476,3.2453143401670577],[101.77146403059476,3.245706884521131],[101.77250044737588,3.245706884521131],[101.77301865576644,3.246491973674621],[101.77405507254755,3.246491973674621],[101.773536864157,3.245706884521131]]],[[[101.77509148932867,3.246491973674621],[101.77405507254755,3.246491973674621],[101.77405507254755,3.247277063422024],[101.77457328093813,3.247277063422024],[101.77509148932867,3.246491973674621]]],[[[101.77560969771925,3.2476696085184886],[101.77612790610979,3.2476696085184886],[101.77612790610979,3.246491973674621],[101.77560969771925,3.246491973674621],[101.77560969771925,3.2476696085184886]]],[[[101.77494319999998,3.259021496399229],[101.77405507254755,3.2559130898831348],[101.773536864157,3.2559130898831348],[101.773536864157,3.2555205416636843],[101.77198223898532,3.2555205416636843],[101.77198223898532,3.2547354456714515],[101.77094582220418,3.2547354456714515],[101.77094582220418,3.2543428978986313],[101.77042761381364,3.2543428978986313],[101.77042761381364,3.2519876143867243],[101.76887298864195,3.251202521072803],[101.76835478025139,3.2492397903898516],[101.76939119703252,3.2492397903898516],[101.76939119703252,3.2488472446991485],[101.77042761381364,3.248454699157032],[101.77042761381364,3.2480621537634846],[101.76990940542308,3.2480621537634846],[101.76990940542308,3.246099429023646],[101.77042761381364,3.246099429023646],[101.77042761381364,3.2453143401670577],[101.77094582220418,3.2453143401670577],[101.77094582220418,3.244921795961408],[101.77042761381364,3.244921795961408],[101.77042761381364,3.2441367079953087],[101.76887298864195,3.2441367079953087],[101.76887298864195,3.244529251904165],[101.76680015507971,3.2441367079953087],[101.76731836347028,3.241781447657301],[101.76680015507971,3.241781447657301],[101.76680015507971,3.240603819490063],[101.76576373829859,3.2409963620642452],[101.76576373829859,3.2394261926566856],[101.76472732151747,3.2394261926566856],[101.76472732151747,3.2370709429895537],[101.76369090473634,3.2370709429895537],[101.76369090473634,3.2382485671566794],[101.76317269634579,3.2382485671566794],[101.76317269634579,3.2386411088418923],[101.76109986278354,3.2386411088418923],[101.76109986278354,3.2394261926566856],[101.76006344600243,3.2394261926566856],[101.76006344600243,3.2390336506752218],[101.75954523761186,3.2390336506752218],[101.75954523761186,3.2378560256195628],[101.75747240404962,3.2374634842305277],[101.75695419565906,3.236678401896623],[101.75539957048738,3.236678401896623],[101.75539957048738,3.2370709429895537],[101.75488136209682,3.2370709429895537],[101.75488136209682,3.2378560256195628],[101.75384494531569,3.2382485671566794],[101.75384494531569,3.2370709429895537],[101.75332673692513,3.2370709429895537],[101.75229032014401,3.235893320154821],[101.7503608,3.235549196424536],[101.74918106980064,3.236230780337928],[101.74918106980064,3.236678401896623],[101.74814465301954,3.2370709429895537],[101.74814465301954,3.2382485671566794],[101.74918106980064,3.2382485671566794],[101.74918106980064,3.2386411088418923],[101.75021748658178,3.2390336506752218],[101.75021748658178,3.239818734786302],[101.75125390336288,3.239818734786302],[101.75177211175345,3.244529251904165],[101.75280852853459,3.2441367079953087],[101.75280852853459,3.243744164234822],[101.75229032014401,3.243744164234822],[101.75229032014401,3.2413889047866506],[101.75384494531569,3.2413889047866506],[101.75436315370625,3.2429590771588863],[101.75539957048738,3.2429590771588863],[101.75539957048738,3.2433516206226884],[101.75591777887793,3.2433516206226884],[101.75591777887793,3.244921795961408],[101.75643598726849,3.244921795961408],[101.75643598726849,3.2453143401670577],[101.75799061244018,3.2453143401670577],[101.75799061244018,3.244921795961408],[101.75695419565906,3.244529251904165],[101.75695419565906,3.243744164234822],[101.75643598726849,3.243744164234822],[101.75643598726849,3.2425665338434007],[101.75591777887793,3.2425665338434007],[101.75591777887793,3.2421739906762115],[101.75384494531569,3.2409963620642452],[101.75384494531569,3.240211277064088],[101.75332673692513,3.240211277064088],[101.75332673692513,3.2394261926566856],[101.75488136209682,3.2394261926566856],[101.75488136209682,3.239818734786302],[101.75539957048738,3.239818734786302],[101.75591777887793,3.2390336506752218],[101.75799061244018,3.2386411088418923],[101.75799061244018,3.2390336506752218],[101.75850882083073,3.2390336506752218],[101.75850882083073,3.2409963620642452],[101.75954523761186,3.240603819490063],[101.75954523761186,3.2413889047866506],[101.76006344600243,3.2413889047866506],[101.76006344600243,3.2433516206226884],[101.76058165439298,3.2433516206226884],[101.76058165439298,3.2429590771588863],[101.7616180711741,3.2429590771588863],[101.7616180711741,3.2433516206226884],[101.76265448795523,3.243744164234822],[101.76265448795523,3.244529251904165],[101.7616180711741,3.244529251904165],[101.7616180711741,3.2453143401670577],[101.76420911312691,3.2453143401670577],[101.76369090473634,3.2480621537634846],[101.76317269634579,3.2480621537634846],[101.76265448795523,3.2488472446991485],[101.7616180711741,3.2488472446991485],[101.7616180711741,3.2492397903898516],[101.76265448795523,3.2496323362291597],[101.76420911312691,3.2480621537634846],[101.76524552990803,3.248454699157032],[101.76524552990803,3.250809974638894],[101.76472732151747,3.250809974638894],[101.76472732151747,3.251202521072803],[101.76576373829859,3.251202521072803],[101.76576373829859,3.2559130898831348],[101.76524552990803,3.2559130898831348],[101.76524552990803,3.2578758332144373],[101.76576373829859,3.2578758332144373],[101.76576373829859,3.257090735435033],[101.76628194668915,3.257090735435033],[101.76576373829859,3.256305638251498],[101.76628194668915,3.256305638251498],[101.76628194668915,3.253165255473141],[101.76680015507971,3.253165255473141],[101.76680015507971,3.251595067655407],[101.76835478025139,3.251595067655407],[101.76835478025139,3.253165255473141],[101.76887298864195,3.253165255473141],[101.76887298864195,3.253950350274652],[101.77042761381364,3.2547354456714515],[101.77042761381364,3.2555205416636843],[101.77094582220418,3.2555205416636843],[101.77146403059476,3.2569965584782654],[101.7719577,3.2568306964015763],[101.77268189999998,3.257238096401104],[101.7727836,3.258867996399376],[101.77389899999997,3.259668196398516],[101.77494319999998,3.259021496399229]],[[101.76835478025139,3.2476696085184886],[101.76835478025139,3.2480621537634846],[101.76783657186083,3.2480621537634846],[101.76783657186083,3.247277063422024],[101.76887298864195,3.247277063422024],[101.76887298864195,3.2476696085184886],[101.76835478025139,3.2476696085184886]]],[[[101.7616180711741,3.251595067655407],[101.7616180711741,3.251202521072803],[101.76109986278354,3.251202521072803],[101.76109986278354,3.251595067655407],[101.7616180711741,3.251595067655407]]],[[[101.76576373829859,3.2594460305614312],[101.76576373829859,3.259053481001114],[101.76524552990803,3.259053481001114],[101.76524552990803,3.2594460305614312],[101.76576373829859,3.2594460305614312]]]]},"properties":{"place_id":"d0455163-cc59-5a37-82f8-83fac8b87fa5","habitat":"permanent_water","habitat_label":"Permanent water","resolution_m":50}},{"type":"Feature","geometry":{"type":"MultiPolygon","coordinates":[[[[101.75799061244018,3.2374634842305277],[101.75799061244018,3.2370709429895537],[101.75747240404962,3.2370709429895537],[101.75747240404962,3.2374634842305277],[101.75799061244018,3.2374634842305277]]],[[[101.74866286141008,3.2378560256195628],[101.74814465301954,3.2378560256195628],[101.74814465301954,3.2382485671566794],[101.74866286141008,3.2382485671566794],[101.74866286141008,3.2378560256195628]]],[[[101.75954523761186,3.2378560256195628],[101.7590270292213,3.2378560256195628],[101.7590270292213,3.2382485671566794],[101.75954523761186,3.2382485671566794],[101.75954523761186,3.2378560256195628]]],[[[101.7616180711741,3.2386411088418923],[101.76109986278354,3.2386411088418923],[101.76109986278354,3.2390336506752218],[101.7616180711741,3.2390336506752218],[101.7616180711741,3.2386411088418923]]],[[[101.75591777887793,3.2390336506752218],[101.75539957048738,3.2390336506752218],[101.75539957048738,3.2394261926566856],[101.75591777887793,3.2394261926566856],[101.75591777887793,3.2390336506752218]]],[[[101.76576373829859,3.2394261926566856],[101.76524552990803,3.2394261926566856],[101.76524552990803,3.239818734786302],[101.76576373829859,3.239818734786302],[101.76576373829859,3.2394261926566856]]],[[[101.76576373829859,3.240603819490063],[101.76524552990803,3.240603819490063],[101.76524552990803,3.2409963620642452],[101.76576373829859,3.2409963620642452],[101.76576373829859,3.240603819490063]]],[[[101.76628194668915,3.2409963620642452],[101.76576373829859,3.2409963620642452],[101.76576373829859,3.2413889047866506],[101.76628194668915,3.2413889047866506],[101.76628194668915,3.2409963620642452]]],[[[101.75384494531569,3.2413889047866506],[101.75332673692513,3.2413889047866506],[101.75332673692513,3.241781447657301],[101.75384494531569,3.241781447657301],[101.75384494531569,3.2413889047866506]]],[[[101.76006344600243,3.2433516206226884],[101.75954523761186,3.2433516206226884],[101.75954523761186,3.243744164234822],[101.76006344600243,3.243744164234822],[101.76006344600243,3.2433516206226884]]],[[[101.76265448795523,3.2433516206226884],[101.76213627956467,3.2433516206226884],[101.76213627956467,3.243744164234822],[101.76265448795523,3.243744164234822],[101.76265448795523,3.2433516206226884]]],[[[101.75747240404962,3.244921795961408],[101.75695419565906,3.244921795961408],[101.75695419565906,3.2453143401670577],[101.75747240404962,3.2453143401670577],[101.75747240404962,3.244921795961408]]],[[[101.76576373829859,3.250809974638894],[101.76524552990803,3.250809974638894],[101.76524552990803,3.251202521072803],[101.76576373829859,3.251202521072803],[101.76576373829859,3.250809974638894]]],[[[101.76731836347028,3.251202521072803],[101.76680015507971,3.251202521072803],[101.76680015507971,3.251595067655407],[101.76731836347028,3.251595067655407],[101.76731836347028,3.251202521072803]]],[[[101.76576373829859,3.2555205416636843],[101.76628194668915,3.2555205416636843],[101.76628194668915,3.2547354456714515],[101.76524552990803,3.2547354456714515],[101.76576373829859,3.2555205416636843]]],[[[101.76576373829859,3.2578758332144373],[101.76524552990803,3.2578758332144373],[101.76524552990803,3.2586609315898554],[101.76576373829859,3.2586609315898554],[101.76576373829859,3.2578758332144373]]],[[[101.76731836347028,3.2425665338434007],[101.76680015507971,3.2425665338434007],[101.76680015507971,3.2429590771588863],[101.76731836347028,3.2429590771588863],[101.76731836347028,3.2425665338434007]]],[[[101.77301865576644,3.246099429023646],[101.77250044737588,3.246099429023646],[101.77250044737588,3.246491973674621],[101.77301865576644,3.246491973674621],[101.77301865576644,3.246099429023646]]],[[[101.77405507254755,3.246491973674621],[101.773536864157,3.246491973674621],[101.773536864157,3.2468845184740753],[101.77405507254755,3.2468845184740753],[101.77405507254755,3.246491973674621]]],[[[101.76783657186083,3.2468845184740753],[101.76731836347028,3.2468845184740753],[101.76731836347028,3.247277063422024],[101.76783657186083,3.247277063422024],[101.76783657186083,3.2468845184740753]]],[[[101.77457328093813,3.2468845184740753],[101.77405507254755,3.2468845184740753],[101.77405507254755,3.247277063422024],[101.77457328093813,3.247277063422024],[101.77457328093813,3.2468845184740753]]],[[[101.76990940542308,3.2468845184740753],[101.76939119703252,3.2468845184740753],[101.76939119703252,3.2476696085184886],[101.76990940542308,3.2476696085184886],[101.76990940542308,3.2468845184740753]]],[[[101.77612790610979,3.2468845184740753],[101.77560969771925,3.2468845184740753],[101.77560969771925,3.2476696085184886],[101.77612790610979,3.2476696085184886],[101.77612790610979,3.2468845184740753]]],[[[101.76887298864195,3.247277063422024],[101.76835478025139,3.247277063422024],[101.76835478025139,3.2480621537634846],[101.76887298864195,3.2480621537634846],[101.76887298864195,3.247277063422024]]],[[[101.76939119703252,3.2488472446991485],[101.76835478025139,3.2488472446991485],[101.76835478025139,3.2492397903898516],[101.76939119703252,3.2492397903898516],[101.76939119703252,3.2488472446991485]]],[[[101.76887298864195,3.250417428353663],[101.76835478025139,3.250417428353663],[101.76835478025139,3.250809974638894],[101.76887298864195,3.250809974638894],[101.76887298864195,3.250417428353663]]],[[[101.76939119703252,3.2535578027994942],[101.76887298864195,3.2535578027994942],[101.76887298864195,3.253950350274652],[101.76939119703252,3.253950350274652],[101.76939119703252,3.2535578027994942]]],[[[101.77042761381364,3.253950350274652],[101.76939119703252,3.253950350274652],[101.76939119703252,3.2543428978986313],[101.77042761381364,3.2543428978986313],[101.77042761381364,3.253950350274652]]],[[[101.77250044737588,3.2555205416636843],[101.77198223898532,3.2555205416636843],[101.77198223898532,3.2559130898831348],[101.77250044737588,3.2559130898831348],[101.77250044737588,3.2555205416636843]]],[[[101.77250044737588,3.2566981867687907],[101.77146403059476,3.2566981867687907],[101.77146403059476,3.2569965584782654],[101.77250044737588,3.257090735435033],[101.77250044737588,3.2566981867687907]]],[[[101.77405507254755,3.2594460305614312],[101.77405507254755,3.2595247679470605],[101.77433277763876,3.2594460305614312],[101.77405507254755,3.2594460305614312]]]]},"properties":{"place_id":"d0455163-cc59-5a37-82f8-83fac8b87fa5","habitat":"seasonal_water_wetland","habitat_label":"Seasonal water or wetland","resolution_m":50}},{"type":"Feature","geometry":{"type":"MultiPolygon","coordinates":[[[[101.77457328093813,3.2559130898831348],[101.773536864157,3.2547354456714515],[101.77250044737588,3.2547354456714515],[101.77250044737588,3.2543428978986313],[101.77146403059476,3.253950350274652],[101.77146403059476,3.2519876143867243],[101.76990940542308,3.251202521072803],[101.76990940542308,3.2500248822170907],[101.76939119703252,3.2500248822170907],[101.76939119703252,3.2496323362291597],[101.77146403059476,3.248454699157032],[101.77146403059476,3.2480621537634846],[101.77094582220418,3.2480621537634846],[101.77094582220418,3.246099429023646],[101.77146403059476,3.246099429023646],[101.77250044737588,3.247277063422024],[101.773536864157,3.247277063422024],[101.77405507254755,3.2480621537634846],[101.77509148932867,3.2476696085184886],[101.77560969771925,3.248454699157032],[101.77612790610979,3.248454699157032],[101.77689578062858,3.2476696085184886],[101.77660217838807,3.246099429023646],[101.77612790610979,3.246099429023646],[101.77612790610979,3.245706884521131],[101.77560969771925,3.245706884521131],[101.77560969771925,3.246099429023646],[101.77509148932867,3.246099429023646],[101.77509148932867,3.245706884521131],[101.77405507254755,3.245706884521131],[101.77301865576644,3.244529251904165],[101.77146403059476,3.244529251904165],[101.77042761381364,3.2433516206226884],[101.76783657186083,3.243744164234822],[101.76835478025139,3.241781447657301],[101.76783657186083,3.241781447657301],[101.76783657186083,3.240603819490063],[101.76680015507971,3.240211277064088],[101.76680015507971,3.2394261926566856],[101.76576373829859,3.2390336506752218],[101.76576373829859,3.2370709429895537],[101.76524552990803,3.2370709429895537],[101.76472732151747,3.236285860951718],[101.76369090473634,3.236285860951718],[101.76369090473634,3.236678401896623],[101.76265448795523,3.2370709429895537],[101.76265448795523,3.2378560256195628],[101.76109986278354,3.2378560256195628],[101.76109986278354,3.2382485671566794],[101.76058165439298,3.2382485671566794],[101.75954523761186,3.2370709429895537],[101.75850882083073,3.2370709429895537],[101.75850882083073,3.236678401896623],[101.75799061244018,3.236678401896623],[101.75799061244018,3.236285860951718],[101.75695419565906,3.236285860951718],[101.75695419565906,3.235893320154821],[101.75539957048738,3.235893320154821],[101.75488136209682,3.236678401896623],[101.75384494531569,3.236678401896623],[101.75332673692513,3.235893320154821],[101.75177211175345,3.2356746855595833],[101.75229032014401,3.236285860951718],[101.75280852853459,3.236285860951718],[101.75280852853459,3.236678401896623],[101.75332673692513,3.236678401896623],[101.75332673692513,3.2370709429895537],[101.75384494531569,3.2370709429895537],[101.75384494531569,3.2382485671566794],[101.75488136209682,3.2378560256195628],[101.75488136209682,3.2370709429895537],[101.75539957048738,3.2370709429895537],[101.75539957048738,3.236678401896623],[101.75695419565906,3.236678401896623],[101.75695419565906,3.2370709429895537],[101.75799061244018,3.2370709429895537],[101.75850882083073,3.2378560256195628],[101.75954523761186,3.2378560256195628],[101.75954523761186,3.2390336506752218],[101.76006344600243,3.2390336506752218],[101.76006344600243,3.2394261926566856],[101.76109986278354,3.2394261926566856],[101.76109986278354,3.2386411088418923],[101.76317269634579,3.2386411088418923],[101.76317269634579,3.2382485671566794],[101.76369090473634,3.2382485671566794],[101.76369090473634,3.2370709429895537],[101.76472732151747,3.2370709429895537],[101.76472732151747,3.2394261926566856],[101.76576373829859,3.2394261926566856],[101.76576373829859,3.2409963620642452],[101.76680015507971,3.240603819490063],[101.76680015507971,3.241781447657301],[101.76731836347028,3.241781447657301],[101.76680015507971,3.2441367079953087],[101.76783657186083,3.2441367079953087],[101.76783657186083,3.244529251904165],[101.77042761381364,3.2441367079953087],[101.77042761381364,3.244921795961408],[101.77094582220418,3.244921795961408],[101.77094582220418,3.2453143401670577],[101.77042761381364,3.2453143401670577],[101.77042761381364,3.246099429023646],[101.76990940542308,3.246099429023646],[101.76990940542308,3.2480621537634846],[101.77042761381364,3.2480621537634846],[101.77042761381364,3.248454699157032],[101.76990940542308,3.248454699157032],[101.76939119703252,3.2492397903898516],[101.76835478025139,3.2492397903898516],[101.76887298864195,3.251202521072803],[101.77042761381364,3.2519876143867243],[101.77042761381364,3.2543428978986313],[101.77094582220418,3.2543428978986313],[101.77094582220418,3.2547354456714515],[101.77198223898532,3.2547354456714515],[101.77198223898532,3.2555205416636843],[101.773536864157,3.2555205416636843],[101.77481985864041,3.257483284250243],[101.77457328093813,3.2559130898831348]],[[101.77612790610979,3.2476696085184886],[101.77560969771925,3.2476696085184886],[101.77560969771925,3.246491973674621],[101.77612790610979,3.246491973674621],[101.77612790610979,3.2476696085184886]],[[101.773536864157,3.246491973674621],[101.77250044737588,3.246491973674621],[101.77250044737588,3.245706884521131],[101.77146403059476,3.245706884521131],[101.77146403059476,3.2453143401670577],[101.77301865576644,3.2453143401670577],[101.77301865576644,3.245706884521131],[101.773536864157,3.245706884521131],[101.77405507254755,3.246491973674621],[101.77509148932867,3.246491973674621],[101.77509148932867,3.2468845184740753],[101.77405507254755,3.247277063422024],[101.773536864157,3.246491973674621]]],[[[101.76783657186083,3.2480621537634846],[101.76835478025139,3.2480621537634846],[101.76835478025139,3.247277063422024],[101.76783657186083,3.247277063422024],[101.76783657186083,3.2480621537634846]]],[[[101.75850882083073,3.243744164234822],[101.7590270292213,3.243744164234822],[101.75954523761186,3.244529251904165],[101.76006344600243,3.244529251904165],[101.76058165439298,3.243744164234822],[101.7616180711741,3.243744164234822],[101.7616180711741,3.2441367079953087],[101.76058165439298,3.244529251904165],[101.76058165439298,3.2453143401670577],[101.76109986278354,3.2453143401670577],[101.7616180711741,3.246099429023646],[101.76317269634579,3.246099429023646],[101.76265448795523,3.2480621537634846],[101.7616180711741,3.2480621537634846],[101.76058165439298,3.2492397903898516],[101.76109986278354,3.2492397903898516],[101.76213627956467,3.250417428353663],[101.76420911312691,3.2492397903898516],[101.76420911312691,3.250809974638894],[101.76369090473634,3.250809974638894],[101.76369090473634,3.251202521072803],[101.76472732151747,3.251595067655407],[101.76472732151747,3.2547354456714515],[101.76420911312691,3.2547354456714515],[101.76420911312691,3.2551279935931303],[101.76472732151747,3.2551279935931303],[101.76472732151747,3.2559130898831348],[101.76420911312691,3.2559130898831348],[101.76420911312691,3.2586609315898554],[101.76472732151747,3.2586609315898554],[101.76472732151747,3.259053481001114],[101.76420911312691,3.259053481001114],[101.76420911312691,3.2594460305614312],[101.76576373829859,3.260231130129309],[101.76576373829859,3.2598385802708236],[101.76680015507971,3.2594460305614312],[101.76628194668915,3.2586609315898554],[101.76680015507971,3.2586609315898554],[101.76680015507971,3.257090735435033],[101.76731836347028,3.257090735435033],[101.76731836347028,3.2566981867687907],[101.76680015507971,3.2566981867687907],[101.76680015507971,3.256305638251498],[101.76731836347028,3.256305638251498],[101.76731836347028,3.253165255473141],[101.76783657186083,3.253165255473141],[101.76783657186083,3.253950350274652],[101.76939119703252,3.2547354456714515],[101.76939119703252,3.2555205416636843],[101.76990940542308,3.2555205416636843],[101.77042761381364,3.257090735435033],[101.77094582220418,3.257318480299065],[101.77146403059476,3.2569965584782654],[101.77146403059476,3.256305638251498],[101.77094582220418,3.256305638251498],[101.77042761381364,3.2547354456714515],[101.76887298864195,3.253950350274652],[101.76887298864195,3.253165255473141],[101.76835478025139,3.253165255473141],[101.76835478025139,3.251595067655407],[101.76680015507971,3.251595067655407],[101.76680015507971,3.253165255473141],[101.76628194668915,3.253165255473141],[101.76628194668915,3.256305638251498],[101.76576373829859,3.256305638251498],[101.76628194668915,3.257090735435033],[101.76576373829859,3.257090735435033],[101.76576373829859,3.2586609315898554],[101.76524552990803,3.2586609315898554],[101.76524552990803,3.2559130898831348],[101.76576373829859,3.2559130898831348],[101.76576373829859,3.2551279935931303],[101.76524552990803,3.2551279935931303],[101.76524552990803,3.2547354456714515],[101.76576373829859,3.2547354456714515],[101.76576373829859,3.251202521072803],[101.76472732151747,3.251202521072803],[101.76472732151747,3.250809974638894],[101.76524552990803,3.250809974638894],[101.76524552990803,3.248454699157032],[101.76420911312691,3.2480621537634846],[101.76265448795523,3.2496323362291597],[101.7616180711741,3.2492397903898516],[101.7616180711741,3.2488472446991485],[101.76265448795523,3.2488472446991485],[101.76265448795523,3.248454699157032],[101.76369090473634,3.2480621537634846],[101.76420911312691,3.2453143401670577],[101.7616180711741,3.2453143401670577],[101.7616180711741,3.244529251904165],[101.76265448795523,3.244529251904165],[101.76265448795523,3.243744164234822],[101.76213627956467,3.243744164234822],[101.7616180711741,3.2429590771588863],[101.76058165439298,3.2429590771588863],[101.76058165439298,3.2433516206226884],[101.76006344600243,3.2433516206226884],[101.76006344600243,3.2413889047866506],[101.75954523761186,3.2413889047866506],[101.75954523761186,3.240603819490063],[101.75850882083073,3.2409963620642452],[101.75850882083073,3.2390336506752218],[101.75799061244018,3.2390336506752218],[101.75799061244018,3.2386411088418923],[101.75591777887793,3.2390336506752218],[101.75539957048738,3.239818734786302],[101.75488136209682,3.239818734786302],[101.75488136209682,3.2394261926566856],[101.75332673692513,3.2394261926566856],[101.75384494531569,3.2409963620642452],[101.75436315370625,3.2409963620642452],[101.75436315370625,3.2413889047866506],[101.75643598726849,3.2425665338434007],[101.75643598726849,3.243744164234822],[101.75695419565906,3.243744164234822],[101.75695419565906,3.244529251904165],[101.75747240404962,3.244529251904165],[101.75799061244018,3.2453143401670577],[101.75643598726849,3.2453143401670577],[101.75643598726849,3.244921795961408],[101.75591777887793,3.244921795961408],[101.75591777887793,3.2433516206226884],[101.75539957048738,3.2433516206226884],[101.75539957048738,3.2429590771588863],[101.75436315370625,3.2429590771588863],[101.75436315370625,3.2421739906762115],[101.75384494531569,3.2421739906762115],[101.75332673692513,3.2413889047866506],[101.75229032014401,3.2413889047866506],[101.75229032014401,3.243744164234822],[101.75280852853459,3.243744164234822],[101.75280852853459,3.2441367079953087],[101.75177211175345,3.244529251904165],[101.75125390336288,3.239818734786302],[101.75021748658178,3.239818734786302],[101.75021748658178,3.2390336506752218],[101.74969927819122,3.2390336506752218],[101.74918106980064,3.2382485671566794],[101.74814465301954,3.2382485671566794],[101.74814465301954,3.2370709429895537],[101.74918106980064,3.236678401896623],[101.74918106980064,3.236230780337928],[101.7471082362384,3.2370709429895537],[101.7471082362384,3.2382485671566794],[101.74762644462898,3.2382485671566794],[101.74814465301954,3.2390336506752218],[101.74918106980064,3.2390336506752218],[101.74918106980064,3.239818734786302],[101.75021748658178,3.240211277064088],[101.75021748658178,3.241781447657301],[101.75073569497233,3.241781447657301],[101.75073569497233,3.244529251904165],[101.75125390336288,3.244529251904165],[101.75177211175345,3.2453143401670577],[101.75384494531569,3.2441367079953087],[101.75384494531569,3.243744164234822],[101.75332673692513,3.243744164234822],[101.75332673692513,3.2429590771588863],[101.75384494531569,3.2429590771588863],[101.75384494531569,3.2433516206226884],[101.75488136209682,3.243744164234822],[101.75488136209682,3.244921795961408],[101.75539957048738,3.244921795961408],[101.75643598726849,3.246099429023646],[101.75747240404962,3.246099429023646],[101.75747240404962,3.246491973674621],[101.75850882083073,3.2468845184740753],[101.75850882083073,3.246491973674621],[101.75954523761186,3.246099429023646],[101.75954523761186,3.2453143401670577],[101.75799061244018,3.244529251904165],[101.75747240404962,3.2425665338434007],[101.75850882083073,3.2429590771588863],[101.75850882083073,3.243744164234822]],[[101.76006344600243,3.243744164234822],[101.75954523761186,3.243744164234822],[101.75954523761186,3.2433516206226884],[101.76006344600243,3.2433516206226884],[101.76006344600243,3.243744164234822]],[[101.75850882083073,3.241781447657301],[101.75799061244018,3.241781447657301],[101.75799061244018,3.2409963620642452],[101.75850882083073,3.2409963620642452],[101.75850882083073,3.241781447657301]],[[101.75850882083073,3.2453143401670577],[101.75850882083073,3.246099429023646],[101.75799061244018,3.246099429023646],[101.75799061244018,3.2453143401670577],[101.75850882083073,3.2453143401670577]],[[101.75695419565906,3.2425665338434007],[101.75695419565906,3.2421739906762115],[101.75643598726849,3.2421739906762115],[101.75488136209682,3.240603819490063],[101.75539957048738,3.240603819490063],[101.75591777887793,3.239818734786302],[101.75695419565906,3.239818734786302],[101.75695419565906,3.2394261926566856],[101.75747240404962,3.2394261926566856],[101.75747240404962,3.2409963620642452],[101.75695419565906,3.2409963620642452],[101.75747240404962,3.2425665338434007],[101.75695419565906,3.2425665338434007]],[[101.76524552990803,3.2594460305614312],[101.76524552990803,3.259053481001114],[101.76576373829859,3.259053481001114],[101.76576373829859,3.2594460305614312],[101.76524552990803,3.2594460305614312]],[[101.75850882083073,3.2425665338434007],[101.75850882083073,3.2421739906762115],[101.7590270292213,3.2421739906762115],[101.7590270292213,3.2425665338434007],[101.75850882083073,3.2425665338434007]]],[[[101.76213627956467,3.2519876143867243],[101.76265448795523,3.251202521072803],[101.76109986278354,3.250417428353663],[101.76006344600243,3.251595067655407],[101.76058165439298,3.251595067655407],[101.76109986278354,3.252380161266774],[101.76213627956467,3.2519876143867243]],[[101.7616180711741,3.251595067655407],[101.76109986278354,3.251595067655407],[101.76109986278354,3.251202521072803],[101.7616180711741,3.251202521072803],[101.7616180711741,3.251595067655407]]],[[[101.77250044737588,3.257090735435033],[101.7724801882177,3.257090735435033],[101.77250044737588,3.2571055358046186],[101.77250044737588,3.257090735435033]]],[[[101.77301865576644,3.259053481001114],[101.77297709638262,3.259053481001114],[101.77301865576644,3.2590933196094154],[101.77301865576644,3.259053481001114]]]]},"properties":{"place_id":"d0455163-cc59-5a37-82f8-83fac8b87fa5","habitat":"water_edge","habitat_label":"Water edge","resolution_m":50}}]}