{"type":"FeatureCollection","metadata":{"schema_version":1,"place_id":"d0664c84-9102-566c-b411-b4b652242231","place_name":"Padang Merdeka · OSM relation/15015872","place_type":"park","osm_reference":"relation/15015872","protection_context":"no protected status confirmed from included OSM tags","resolution_m":50,"raster_coverage":1.0,"interpretation":"Suggested search habitats, not predicted plant locations or probabilities of presence."},"features":[{"type":"Feature","geometry":{"type":"Polygon","coordinates":[[[116.07764306880237,5.980466077455782],[116.0778179657594,5.980466077455782],[116.07764306880237,5.980299799570397],[116.07764306880237,5.980466077455782]]]},"properties":{"place_id":"d0664c84-9102-566c-b411-b4b652242231","habitat":"forest_interior","habitat_label":"Forest interior","resolution_m":50}},{"type":"Feature","geometry":{"type":"Polygon","coordinates":[[[116.07660665202124,5.980466576106222],[116.076814,5.9814961935754445],[116.0776265,5.981065093575874],[116.07764306880237,5.980299799570397],[116.07660665202124,5.980466576106222]]]},"properties":{"place_id":"d0664c84-9102-566c-b411-b4b652242231","habitat":"forest_edge_opening","habitat_label":"Forest edge or opening","resolution_m":50}},{"type":"Feature","geometry":{"type":"Polygon","coordinates":[[[116.07764306880237,5.980466077455782],[116.07660665202124,5.980860096666295],[116.07665337778049,5.98125411615317],[116.0776265,5.981065093575874],[116.07764306880237,5.980466077455782]]]},"properties":{"place_id":"d0664c84-9102-566c-b411-b4b652242231","habitat":"open_grassland","habitat_label":"Open grassland or shrubland","resolution_m":50}},{"type":"Feature","geometry":{"type":"Polygon","coordinates":[[[116.0771248604118,5.980860096666295],[116.07764306880237,5.980860096666295],[116.07764306880237,5.980466077455782],[116.0771248604118,5.980236286494257],[116.0764008,5.980544993576387],[116.076814,5.9814961935754445],[116.0771248604118,5.980860096666295]]]},"properties":{"place_id":"d0664c84-9102-566c-b411-b4b652242231","habitat":"disturbed_built_edge","habitat_label":"Disturbed, bare or built edge","resolution_m":50}}]}