{"type":"FeatureCollection","metadata":{"schema_version":1,"place_id":"d0b0d96b-7efd-5f28-81d9-a454c69bc4fc","place_name":"Park Taman Matahari Indah","place_type":"park","osm_reference":"way/589052563","protection_context":"no protected status confirmed from included OSM tags","resolution_m":50,"raster_coverage":1.0,"interpretation":"Suggested search habitats, not predicted plant locations or probabilities of presence."},"features":[{"type":"Feature","geometry":{"type":"Polygon","coordinates":[[[101.9990694252598,2.6966742413023645],[102.0002512,2.696320597009679],[101.99999393083199,2.6951174881409643],[101.99895751405089,2.695985332051137],[101.9990694252598,2.6966742413023645]]]},"properties":{"place_id":"d0b0d96b-7efd-5f28-81d9-a454c69bc4fc","habitat":"forest_edge_opening","habitat_label":"Forest edge or opening","resolution_m":50}},{"type":"Feature","geometry":{"type":"Polygon","coordinates":[[[101.99895751405089,2.696281886914083],[101.99947572244143,2.696281886914083],[101.99947572244143,2.695889532648951],[101.99907192181041,2.695889532648951],[101.99895751405089,2.696281886914083]]]},"properties":{"place_id":"d0b0d96b-7efd-5f28-81d9-a454c69bc4fc","habitat":"open_grassland","habitat_label":"Open grassland or shrubland","resolution_m":50}},{"type":"Feature","geometry":{"type":"Polygon","coordinates":[[[101.9991766,2.696909697009031],[102.0002512,2.696320597009679],[102.00013089999999,2.6950027970111066],[101.9988115,2.696107597009923],[101.9991766,2.696909697009031]]]},"properties":{"place_id":"d0b0d96b-7efd-5f28-81d9-a454c69bc4fc","habitat":"disturbed_built_edge","habitat_label":"Disturbed, bare or built edge","resolution_m":50}}]}