{"type":"FeatureCollection","metadata":{"schema_version":1,"place_id":"d1a44a27-9cfa-5c68-8e4c-3c4e3260f070","place_name":"Penang Avatar Secret Garden","place_type":"wood","osm_reference":"way/520548834","protection_context":"no protected status confirmed from included OSM tags","resolution_m":50,"raster_coverage":1.0,"interpretation":"Suggested search habitats, not predicted plant locations or probabilities of presence."},"features":[{"type":"Feature","geometry":{"type":"Polygon","coordinates":[[[100.30735849999999,5.463383894092672],[100.3071469,5.4641403940919036],[100.30785399999998,5.464223894091827],[100.30735849999999,5.463383894092672]]]},"properties":{"place_id":"d1a44a27-9cfa-5c68-8e4c-3c4e3260f070","habitat":"forest_edge_opening","habitat_label":"Forest edge or opening","resolution_m":50}},{"type":"Feature","geometry":{"type":"Polygon","coordinates":[[[100.30785668693345,5.464137528371846],[100.30773709999998,5.463725594092303],[100.30705759999998,5.463404994092649],[100.30714689544129,5.464137528371846],[100.30785668693345,5.464137528371846]]]},"properties":{"place_id":"d1a44a27-9cfa-5c68-8e4c-3c4e3260f070","habitat":"disturbed_built_edge","habitat_label":"Disturbed, bare or built edge","resolution_m":50}},{"type":"Feature","geometry":{"type":"Polygon","coordinates":[[[100.30785668693345,5.464137528371846],[100.30737779999997,5.464218594091833],[100.30785399999998,5.464223894091827],[100.30785668693345,5.464137528371846]]]},"properties":{"place_id":"d1a44a27-9cfa-5c68-8e4c-3c4e3260f070","habitat":"permanent_water","habitat_label":"Permanent water","resolution_m":50}},{"type":"Feature","geometry":{"type":"Polygon","coordinates":[[[100.30785668693345,5.464137528371846],[100.30752532726093,5.4642223945598865],[100.30785399999998,5.464223894091827],[100.30785668693345,5.464137528371846]]]},"properties":{"place_id":"d1a44a27-9cfa-5c68-8e4c-3c4e3260f070","habitat":"seasonal_water_wetland","habitat_label":"Seasonal water or wetland","resolution_m":50}},{"type":"Feature","geometry":{"type":"Polygon","coordinates":[[[100.30785668693345,5.464137528371846],[100.30773709999998,5.463725594092303],[100.30705759999998,5.463404994092649],[100.30714689544129,5.464137528371846],[100.30785668693345,5.464137528371846]]]},"properties":{"place_id":"d1a44a27-9cfa-5c68-8e4c-3c4e3260f070","habitat":"water_edge","habitat_label":"Water edge","resolution_m":50}}]}