{"type":"FeatureCollection","metadata":{"schema_version":1,"place_id":"d1ffe667-6a47-528a-a450-a02146c526a8","place_name":"The Park","place_type":"park","osm_reference":"way/549106868","protection_context":"no protected status confirmed from included OSM tags","resolution_m":50,"raster_coverage":1.0,"interpretation":"Suggested search habitats, not predicted plant locations or probabilities of presence."},"features":[{"type":"Feature","geometry":{"type":"Polygon","coordinates":[[[101.6645491,3.1713475964938422],[101.66510709999999,3.1715220964936854],[101.66509029999999,3.171322096493876],[101.6645491,3.1713475964938422]]]},"properties":{"place_id":"d1ffe667-6a47-528a-a450-a02146c526a8","habitat":"forest_edge_opening","habitat_label":"Forest edge or opening","resolution_m":50}},{"type":"Feature","geometry":{"type":"Polygon","coordinates":[[[101.6645491,3.1713475964938422],[101.66510709999999,3.1715220964936854],[101.66509029999999,3.171322096493876],[101.6645491,3.1713475964938422]]]},"properties":{"place_id":"d1ffe667-6a47-528a-a450-a02146c526a8","habitat":"disturbed_built_edge","habitat_label":"Disturbed, bare or built edge","resolution_m":50}}]}