{"type":"FeatureCollection","metadata":{"schema_version":1,"place_id":"d20b9e86-844b-57b4-aaf2-1e0ea545947e","place_name":"Taman Kejiranan Central Spine SD","place_type":"park","osm_reference":"way/782809185","protection_context":"no protected status confirmed from included OSM tags","resolution_m":50,"raster_coverage":1.0,"interpretation":"Suggested search habitats, not predicted plant locations or probabilities of presence."},"features":[{"type":"Feature","geometry":{"type":"Polygon","coordinates":[[[101.6084337,3.186683896477281],[101.60889509999998,3.1863946964775858],[101.60811449999997,3.1850556964790226],[101.607621,3.1853689964786884],[101.6084337,3.186683896477281]]]},"properties":{"place_id":"d20b9e86-844b-57b4-aaf2-1e0ea545947e","habitat":"forest_edge_opening","habitat_label":"Forest edge or opening","resolution_m":50}},{"type":"Feature","geometry":{"type":"Polygon","coordinates":[[[101.6084337,3.186683896477281],[101.60889509999998,3.1863946964775858],[101.60811449999997,3.1850556964790226],[101.607621,3.1853689964786884],[101.6084337,3.186683896477281]]]},"properties":{"place_id":"d20b9e86-844b-57b4-aaf2-1e0ea545947e","habitat":"disturbed_built_edge","habitat_label":"Disturbed, bare or built edge","resolution_m":50}}]}