{"type":"FeatureCollection","metadata":{"schema_version":1,"place_id":"d2466036-da30-55f8-8f22-6edfbd21dff4","place_name":"Taman Berlian Stabil Park","place_type":"park","osm_reference":"way/1216152676","protection_context":"no protected status confirmed from included OSM tags","resolution_m":50,"raster_coverage":1.0,"interpretation":"Suggested search habitats, not predicted plant locations or probabilities of presence."},"features":[{"type":"Feature","geometry":{"type":"Polygon","coordinates":[[[110.42191669422353,1.445862651180362],[110.4219704,1.4460367983869602],[110.4219307,1.4458578983871513],[110.42191669422353,1.445862651180362]]]},"properties":{"place_id":"d2466036-da30-55f8-8f22-6edfbd21dff4","habitat":"forest_edge_opening","habitat_label":"Forest edge or opening","resolution_m":50}},{"type":"Feature","geometry":{"type":"Polygon","coordinates":[[[110.42191669422353,1.445862651180362],[110.42195889682618,1.4459849616653861],[110.4219307,1.4458578983871513],[110.42191669422353,1.445862651180362]]]},"properties":{"place_id":"d2466036-da30-55f8-8f22-6edfbd21dff4","habitat":"open_grassland","habitat_label":"Open grassland or shrubland","resolution_m":50}},{"type":"Feature","geometry":{"type":"Polygon","coordinates":[[[110.4217303,1.446023298386971],[110.4219307,1.4458578983871513],[110.4214206,1.4460309983869473],[110.4217303,1.446023298386971]]]},"properties":{"place_id":"d2466036-da30-55f8-8f22-6edfbd21dff4","habitat":"disturbed_built_edge","habitat_label":"Disturbed, bare or built edge","resolution_m":50}}]}