{"type":"FeatureCollection","metadata":{"schema_version":1,"place_id":"d274320e-3daf-5636-8bbe-17536ad40e67","place_name":"Town Park","place_type":"park","osm_reference":"relation/14088733","protection_context":"no protected status confirmed from included OSM tags","resolution_m":50,"raster_coverage":1.0,"interpretation":"Suggested search habitats, not predicted plant locations or probabilities of presence."},"features":[{"type":"Feature","geometry":{"type":"Polygon","coordinates":[[[101.7217848,3.1346539965335305],[101.72268879999999,3.1344022965337923],[101.722882,3.1337671965344667],[101.7218237,3.133948396534276],[101.7217848,3.1346539965335305]],[[101.72259089999999,3.134177696534038],[101.72264109999999,3.134062296534165],[101.7226654,3.1341618965340357],[101.72259089999999,3.134177696534038]]]},"properties":{"place_id":"d274320e-3daf-5636-8bbe-17536ad40e67","habitat":"disturbed_built_edge","habitat_label":"Disturbed, bare or built edge","resolution_m":50}}]}