{"type":"FeatureCollection","metadata":{"schema_version":1,"place_id":"d27f72f9-09a7-51d9-8b23-aefeb750deff","place_name":"Dream Forest Langkawi","place_type":"park","osm_reference":"relation/18054801","protection_context":"no protected status confirmed from included OSM tags","resolution_m":50,"raster_coverage":1.0,"interpretation":"Suggested search habitats, not predicted plant locations or probabilities of presence."},"features":[{"type":"Feature","geometry":{"type":"Polygon","coordinates":[[[99.7904688,6.36415569320068],[99.79102559999997,6.366275893198617],[99.7930953,6.36650319319836],[99.79309649999999,6.365711493199149],[99.7913906,6.36501309319983],[99.791404,6.364063793200758],[99.7904688,6.36415569320068]]]},"properties":{"place_id":"d27f72f9-09a7-51d9-8b23-aefeb750deff","habitat":"forest_interior","habitat_label":"Forest interior","resolution_m":50}}]}