{"type":"FeatureCollection","metadata":{"schema_version":1,"place_id":"d2eb6077-ce13-5b2c-b7c0-7da9abb35352","place_name":"Medan Open Space/Leisure Walk","place_type":"park","osm_reference":"way/554855855","protection_context":"no protected status confirmed from included OSM tags","resolution_m":50,"raster_coverage":1.0,"interpretation":"Suggested search habitats, not predicted plant locations or probabilities of presence."},"features":[{"type":"Feature","geometry":{"type":"Polygon","coordinates":[[[113.0580427770055,3.2029204197492414],[113.0580427770055,3.203312948178144],[113.06046881999328,3.203312948178144],[113.06047960646576,3.2029204197492414],[113.0580427770055,3.2029204197492414]]]},"properties":{"place_id":"d2eb6077-ce13-5b2c-b7c0-7da9abb35352","habitat":"open_grassland","habitat_label":"Open grassland or shrubland","resolution_m":50}},{"type":"Feature","geometry":{"type":"Polygon","coordinates":[[[113.0578577,3.203194396459459],[113.06046670000002,3.2033900964592315],[113.06048409999998,3.2027568964599133],[113.05812199999997,3.2027890964599033],[113.0578577,3.203194396459459]]]},"properties":{"place_id":"d2eb6077-ce13-5b2c-b7c0-7da9abb35352","habitat":"disturbed_built_edge","habitat_label":"Disturbed, bare or built edge","resolution_m":50}}]}