{"type":"FeatureCollection","metadata":{"schema_version":1,"place_id":"d2f71579-b596-55a5-b71a-933d817aa928","place_name":"Taman Poket","place_type":"park","osm_reference":"way/487360206","protection_context":"no protected status confirmed from included OSM tags","resolution_m":50,"raster_coverage":1.0,"interpretation":"Suggested search habitats, not predicted plant locations or probabilities of presence."},"features":[{"type":"Feature","geometry":{"type":"Polygon","coordinates":[[[103.41729387901535,4.768893772390929],[103.4174475,4.769710594801379],[103.4182673,4.769576594801543],[103.41816494183541,4.768893772390929],[103.41729387901535,4.768893772390929]]]},"properties":{"place_id":"d2f71579-b596-55a5-b71a-933d817aa928","habitat":"forest_edge_opening","habitat_label":"Forest edge or opening","resolution_m":50}},{"type":"Feature","geometry":{"type":"Polygon","coordinates":[[[103.41816494183541,4.768893772390929],[103.4178120874059,4.769287029206297],[103.418223892821,4.769287029206297],[103.41816494183541,4.768893772390929]]]},"properties":{"place_id":"d2f71579-b596-55a5-b71a-933d817aa928","habitat":"open_grassland","habitat_label":"Open grassland or shrubland","resolution_m":50}},{"type":"Feature","geometry":{"type":"Polygon","coordinates":[[[103.4174475,4.769710594801379],[103.4182673,4.769576594801543],[103.41811809999999,4.768581294802568],[103.4172779,4.76880979480233],[103.4174475,4.769710594801379]]]},"properties":{"place_id":"d2f71579-b596-55a5-b71a-933d817aa928","habitat":"disturbed_built_edge","habitat_label":"Disturbed, bare or built edge","resolution_m":50}}]}