{"type":"FeatureCollection","metadata":{"schema_version":1,"place_id":"d3966acb-676b-55b4-b272-97c9cf0bea3a","place_name":"Pulau Jala","place_type":"wood","osm_reference":"way/724550918","protection_context":"no protected status confirmed from included OSM tags","resolution_m":50,"raster_coverage":1.0,"interpretation":"Suggested search habitats, not predicted plant locations or probabilities of presence."},"features":[{"type":"Feature","geometry":{"type":"MultiPolygon","coordinates":[[[[102.71718588665365,4.987972290063787],[102.71667613497736,4.987972290063787],[102.71667613497736,4.988365671832437],[102.71719434336792,4.988365671832437],[102.71718588665365,4.987972290063787]]],[[[102.71512150980568,4.99033258411824],[102.71563971819623,4.99033258411824],[102.71563971819623,4.9907259672640425],[102.71460330141512,4.991119350639432],[102.71512150980568,4.991512734244431],[102.71512150980568,4.992299502143328],[102.71622119999999,4.991590694572757],[102.71649985896269,4.991906118079056],[102.71823076014904,4.991906118079056],[102.71823076014904,4.991119350639432],[102.71719434336792,4.9907259672640425],[102.71719434336792,4.98993920120201],[102.71771255175848,4.98993920120201],[102.71771255175848,4.989608675478635],[102.71730649999999,4.989712294574723],[102.71719434336792,4.989152436058193],[102.71667613497736,4.989152436058193],[102.71667613497736,4.988365671832437],[102.71563971819623,4.988365671832437],[102.71570179999999,4.989894294574543],[102.71512150980568,4.989815475765114],[102.71512150980568,4.99033258411824]]],[[[102.71472072134823,4.992299502143328],[102.71460330141512,4.993086270960879],[102.71512150980568,4.993086270960879],[102.71512150980568,4.992299502143328],[102.71472072134823,4.992299502143328]]],[[[102.71356688463399,4.998200290677358],[102.71253046785287,4.997806903166197],[102.71253046785287,4.997413515884953],[102.71304867624343,4.997401136449579],[102.71304867624343,4.9962333554205784],[102.71408509302456,4.9958399690588395],[102.71408509302456,4.995053197024835],[102.71460330141512,4.995053197024835],[102.71408509302456,4.993873040697229],[102.71356688463399,4.994266425910004],[102.71253046785287,4.994266425910004],[102.71253046785287,4.995446582926934],[102.71201225946233,4.9955887524481195],[102.71201225946233,4.998200290677358],[102.71253046785287,4.998200290677358],[102.71253046785287,4.998593678418463],[102.71356688463399,4.998593678418463],[102.71356688463399,4.998200290677358]]]]},"properties":{"place_id":"d3966acb-676b-55b4-b272-97c9cf0bea3a","habitat":"forest_interior","habitat_label":"Forest interior","resolution_m":50}},{"type":"Feature","geometry":{"type":"MultiPolygon","coordinates":[[[[102.71408509302456,4.989152436058193],[102.71417529999998,4.989929394574492],[102.71563971819623,4.9907259672640425],[102.71563971819623,4.99033258411824],[102.71512150980568,4.99033258411824],[102.71512150980568,4.989815475765114],[102.71408509302456,4.989152436058193]]],[[[102.71460330141512,4.991409388539912],[102.71512150980568,4.991119350639432],[102.71512150980568,4.990860214535849],[102.71420519999998,4.991262694573119],[102.71460330141512,4.991409388539912]]],[[[102.71563971819623,4.988365671832437],[102.71667613497736,4.988365671832437],[102.71702275745444,4.987972290063787],[102.71627649999998,4.988255994576192],[102.7155121,4.987905994576577],[102.71563971819623,4.989434350935147],[102.71563971819623,4.988365671832437]]],[[[102.71667613497736,4.989152436058193],[102.71719434336792,4.989152436058193],[102.71719434336792,4.989535714133373],[102.71736949999999,4.987970794576515],[102.71719434336792,4.988365671832437],[102.71667613497736,4.988365671832437],[102.71667613497736,4.989152436058193]]],[[[102.71771255175848,4.98993920120201],[102.71719434336792,4.98993920120201],[102.71719434336792,4.9907259672640425],[102.71759245648127,4.9907259672640425],[102.71823076014904,4.989340966288026],[102.71771255175848,4.98993920120201]]],[[[102.71649985896269,4.991906118079056],[102.7165444,4.992234694572115],[102.71710259999999,4.992044294572311],[102.71816880000002,4.99258069457178],[102.71821839999998,4.99198289457239],[102.71873209999998,4.99178279457258],[102.71853829999999,4.991008194573379],[102.71771255175848,4.990865156572534],[102.71823076014904,4.991119350639432],[102.71823076014904,4.991906118079056],[102.71649985896269,4.991906118079056]]],[[[102.71563971819623,4.991906118079056],[102.71563971819623,4.992258966781581],[102.71591455447209,4.991906118079056],[102.71563971819623,4.991906118079056]]],[[[102.71512150980568,4.992299502143328],[102.71512150980568,4.991512734244431],[102.71475589148628,4.991512734244431],[102.71472072134823,4.992299502143328],[102.71512150980568,4.992299502143328]]],[[[102.71356688463399,4.99399800716105],[102.71336629999999,4.994205294570077],[102.71327917868445,4.994266425910004],[102.71356688463399,4.994266425910004],[102.71356688463399,4.99399800716105]]],[[[102.71253046785287,4.995446582926934],[102.71282946550627,4.994266425910004],[102.7122961,4.99345849457086],[102.71202189999997,4.995058294569225],[102.7120894912989,4.995446582926934],[102.71253046785287,4.995446582926934]]],[[[102.71512150980568,4.992299502143328],[102.71512150980568,4.993086270960879],[102.71460330141512,4.993086270960879],[102.71460330141512,4.9923741452688715],[102.7140087,4.992882694571467],[102.71368781025464,4.993873040697229],[102.71408509302456,4.993873040697229],[102.71408509302456,4.994266425910004],[102.71495279999999,4.993736394570563],[102.71556898287145,4.992299502143328],[102.71512150980568,4.992299502143328]]],[[[102.71460330141512,4.995053197024835],[102.71408509302456,4.995053197024835],[102.71408509302456,4.9958399690588395],[102.71356688463399,4.9958399690588395],[102.71409649999998,4.996210694568039],[102.7146403,4.995714994568567],[102.71460330141512,4.994399063871886],[102.71460330141512,4.995053197024835]]],[[[102.71304867624343,4.9962333554205784],[102.71304867624343,4.997401136449579],[102.7131601,4.997408694566824],[102.71355270054568,4.9962333554205784],[102.71304867624343,4.9962333554205784]]],[[[102.71253046785287,4.997806903166197],[102.71300945939264,4.997413515884953],[102.71253046785287,4.997413515884953],[102.71253046785287,4.997806903166197]]],[[[102.71253046785287,4.998593678418463],[102.71253046785287,4.998200290677358],[102.71201225946233,4.998200290677358],[102.7117597,4.9956042945686825],[102.7114338,4.997968894566253],[102.7118193,4.998702394565486],[102.71133049999999,5.000012894564158],[102.71171739999998,5.000380294563775],[102.7119692,4.99933059456483],[102.71355909999998,4.998866294565308],[102.71412599999998,4.997884694566311],[102.7130763638446,4.998200290677358],[102.71356688463399,4.998200290677358],[102.71356688463399,4.998593678418463],[102.71253046785287,4.998593678418463]]]]},"properties":{"place_id":"d3966acb-676b-55b4-b272-97c9cf0bea3a","habitat":"forest_edge_opening","habitat_label":"Forest edge or opening","resolution_m":50}},{"type":"Feature","geometry":{"type":"MultiPolygon","coordinates":[[[[102.71408509302456,4.989152436058193],[102.7140436,4.988923994575523],[102.71408509302456,4.989658983744415],[102.71408509302456,4.989152436058193]]],[[[102.71460330141512,4.98993920120201],[102.71418978081446,4.98993920120201],[102.71460330141512,4.99003246588489],[102.71460330141512,4.98993920120201]]],[[[102.71460330141512,4.991119350639432],[102.71445929999999,4.990984194573403],[102.71427591486231,4.991119350639432],[102.71460330141512,4.991119350639432]]],[[[102.71460330141512,4.99269288643726],[102.71460330141512,4.9923741452688715],[102.7141438352894,4.99269288643726],[102.71460330141512,4.99269288643726]]],[[[102.71408509302456,4.993479655714194],[102.7140757,4.993450494570893],[102.71405453465312,4.993479655714194],[102.71408509302456,4.993479655714194]]],[[[102.71408509302456,4.99276388121516],[102.71400199999997,4.9929273945714066],[102.71408509302456,4.993284081079742],[102.71408509302456,4.99276388121516]]],[[[102.7124356806973,4.993479655714194],[102.71238059999999,4.993457094570869],[102.71224755384699,4.993479655714194],[102.7124356806973,4.993479655714194]]],[[[102.71253046785287,4.994266425910004],[102.7126354,4.994145194570166],[102.71253046785287,4.993520297214728],[102.71253046785287,4.994266425910004]]],[[[102.71149405107175,4.9958510321532765],[102.7114016,4.996265394568002],[102.71149405107175,4.996486051115137],[102.71149405107175,4.9958510321532765]]],[[[102.71149405107175,4.997764837279569],[102.7114338,4.997968894566253],[102.71149405107175,4.998083472306706],[102.71149405107175,4.997764837279569]]],[[[102.71408509302456,4.998122526752789],[102.71414149999998,4.997915394566298],[102.71408509302456,4.997851764693796],[102.71408509302456,4.998122526752789]]],[[[102.71201225946233,4.998200290677358],[102.71159153475784,4.998200290677358],[102.71168591419062,4.9989870663895255],[102.71201225946233,4.9989870663895255],[102.71201225946233,4.998200290677358]]],[[[102.71356688463399,4.998593678418463],[102.71356688463399,4.998860835467455],[102.71376395709558,4.998593678418463],[102.71356688463399,4.998593678418463]]],[[[102.71253046785287,4.9989870663895255],[102.71253046785287,4.99917225721665],[102.71281530202688,4.9989870663895255],[102.71253046785287,4.9989870663895255]]],[[[102.71149405107175,5.000167231682655],[102.71149405107175,4.999454977268918],[102.71135060000002,5.000099394564034],[102.71177239999999,5.00039039456376],[102.71200109999998,5.000197294563958],[102.71149405107175,5.000167231682655]]],[[[102.71719434336792,4.987972290063787],[102.71737295555913,4.987972290063787],[102.71723739999999,4.98795339457654],[102.71719434336792,4.987972290063787]]],[[[102.71563971819623,4.989152436058193],[102.71563971819623,4.987972290063787],[102.71598828602453,4.987972290063787],[102.71576689999999,4.987843894576644],[102.7154504,4.988013494576482],[102.71534579999998,4.989055594575404],[102.71563971819623,4.989152436058193]]],[[[102.71667613497736,4.987972290063787],[102.71667613497736,4.987890285667225],[102.71657922398559,4.987972290063787],[102.71667613497736,4.987972290063787]]],[[[102.71719434336792,4.988365671832437],[102.71719434336792,4.98854498280615],[102.7173827993117,4.988365671832437],[102.71719434336792,4.988365671832437]]],[[[102.71719434336792,4.989152436058193],[102.71740920241565,4.989152436058193],[102.71719434336792,4.98892359820038],[102.71719434336792,4.989152436058193]]],[[[102.71460330141512,4.989545818515334],[102.71469625157566,4.989545818515334],[102.71460330141512,4.9893742005306985],[102.71460330141512,4.989545818515334]]],[[[102.71785451499431,4.989545818515334],[102.7183022,4.9894183945750195],[102.71849499999999,4.989284094575139],[102.71785451499431,4.989545818515334]]],[[[102.71512150980568,4.98993920120201],[102.71560581690706,4.98993920120201],[102.71512150980568,4.989815475765114],[102.71512150980568,4.98993920120201]]],[[[102.71771255175848,4.98993920120201],[102.71771255175848,4.990279230006275],[102.71786049999999,4.990048994574365],[102.71771255175848,4.98993920120201]]],[[[102.71512150980568,4.99033258411824],[102.71510365069926,4.99033258411824],[102.71512150980568,4.990343275556046],[102.71512150980568,4.99033258411824]]],[[[102.71823076014904,4.991906118079056],[102.71823076014904,4.991967301139073],[102.71831312790636,4.991906118079056],[102.71823076014904,4.991906118079056]]],[[[102.71823076014904,4.992400460589989],[102.7182352,4.9923689945719625],[102.71823076014904,4.9923279617502665],[102.71823076014904,4.992400460589989]]],[[[102.71771255175848,4.992299502143328],[102.71734987264378,4.992299502143328],[102.717515,4.992447794571905],[102.71771255175848,4.992299502143328]]],[[[102.71512150980568,4.993086270960879],[102.71512150980568,4.99326804643622],[102.71518890000002,4.993168594571162],[102.71512150980568,4.993086270960879]]],[[[102.71460330141512,4.993479655714194],[102.71460330141512,4.993938539053895],[102.7149656,4.993699594570602],[102.71460330141512,4.993479655714194]]],[[[102.71460330141512,4.995053197024835],[102.71460330141512,4.9952093593552815],[102.71468826942056,4.995053197024835],[102.71460330141512,4.995053197024835]]],[[[102.71460330141512,4.995751909445988],[102.71465509999999,4.995660194568586],[102.71460330141512,4.995275451492659],[102.71460330141512,4.995751909445988]]]]},"properties":{"place_id":"d3966acb-676b-55b4-b272-97c9cf0bea3a","habitat":"permanent_water","habitat_label":"Permanent water","resolution_m":50}},{"type":"Feature","geometry":{"type":"MultiPolygon","coordinates":[[[[102.71563971819623,4.987972290063787],[102.71598828602453,4.987972290063787],[102.71576689999999,4.987843894576644],[102.71563971819623,4.987972290063787]]],[[[102.71667613497736,4.987972290063787],[102.71702275745444,4.987972290063787],[102.71677609999999,4.987852994576617],[102.71667613497736,4.987972290063787]]],[[[102.71719434336792,4.987972290063787],[102.71719434336792,4.987969188076631],[102.71718588665365,4.987972290063787],[102.71719434336792,4.987972290063787]]],[[[102.7161579265868,4.988215740238973],[102.71667613497736,4.988365671832437],[102.71667613497736,4.987972290063787],[102.7161579265868,4.988215740238973]]],[[[102.71460330141512,4.989545818515334],[102.71469625157566,4.989545818515334],[102.71460330141512,4.9893742005306985],[102.71460330141512,4.989545818515334]]],[[[102.71512150980568,4.98993920120201],[102.71560581690706,4.98993920120201],[102.71512150980568,4.989815475765114],[102.71512150980568,4.98993920120201]]],[[[102.71563971819623,4.987972290063787],[102.7153444,4.98910709457533],[102.71563971819623,4.989434350935147],[102.71563971819623,4.987972290063787]]],[[[102.71408509302456,4.988934469104665],[102.71394569999998,4.989089694575369],[102.71408509302456,4.989658983744415],[102.71408509302456,4.988934469104665]]],[[[102.71771255175848,4.989608675478635],[102.71782229603701,4.98993920120201],[102.71849499999999,4.989284094575139],[102.71771255175848,4.989608675478635]]],[[[102.71823076014904,4.991119350639432],[102.71858051187372,4.991119350639432],[102.71823076014904,4.9908845735461655],[102.71823076014904,4.991119350639432]]],[[[102.71667613497736,4.992221628406994],[102.7164669,4.992046294572304],[102.71659969999999,4.99225039457211],[102.71667613497736,4.992221628406994]]],[[[102.71408509302456,4.993479655714194],[102.71408509302456,4.993422446561931],[102.71405453465312,4.993479655714194],[102.71408509302456,4.993479655714194]]],[[[102.71408509302456,4.993086270960879],[102.71403825261672,4.993086270960879],[102.71408509302456,4.993284081079742],[102.71408509302456,4.993086270960879]]]]},"properties":{"place_id":"d3966acb-676b-55b4-b272-97c9cf0bea3a","habitat":"seasonal_water_wetland","habitat_label":"Seasonal water or wetland","resolution_m":50}},{"type":"Feature","geometry":{"type":"Polygon","coordinates":[[[102.71149405107175,5.000167231682655],[102.71199239920794,5.000167231682655],[102.71197959999999,4.99932089456484],[102.71355909999998,4.998866294565308],[102.71408509302456,4.998122526752789],[102.71396409999998,4.997835894566389],[102.7129217,4.998233394565981],[102.71286869999999,4.99790869456631],[102.71356209999999,4.99598149456828],[102.71421789999998,4.996194594568039],[102.71460330141512,4.995751909445988],[102.71460330141512,4.993479655714194],[102.7154966,4.992351594572023],[102.7162728,4.991595094572784],[102.71667613497736,4.992221628406994],[102.71710259999999,4.992044294572311],[102.71813729999997,4.99258739457177],[102.71823076014904,4.991906118079056],[102.71873209999998,4.99178279457258],[102.71858051187372,4.991119350639432],[102.7176116,4.9907944945736],[102.71771255175848,4.989608675478635],[102.71721119999998,4.9896394945748055],[102.717108,4.988743694575731],[102.71737295555913,4.987972290063787],[102.71667613497736,4.987972290063787],[102.71667613497736,4.988365671832437],[102.71563971819623,4.987972290063787],[102.71564449999998,4.989945094574461],[102.71408509302456,4.989152436058193],[102.7141616,4.989913994574508],[102.71532030000002,4.990721594573674],[102.71420649999999,4.991203994573185],[102.71492599999999,4.991652194572718],[102.7148134,4.9921825945721645],[102.71336629999999,4.994205294570077],[102.71253046785287,4.994266425910004],[102.71253046785287,4.993520297214728],[102.71209339999999,4.993610094570708],[102.7120788,4.99551859456875],[102.71149405107175,4.9958510321532765],[102.71149405107175,4.998083472306706],[102.71201225946233,4.998200290677358],[102.71201225946233,4.9989870663895255],[102.71156519999998,4.999244694564917],[102.71149405107175,5.000167231682655]],[[102.71253046785287,4.995446582926934],[102.71304867624343,4.995446582926934],[102.71304867624343,4.994659811352533],[102.71408509302456,4.994266425910004],[102.71408509302456,4.995053197024835],[102.71356688463399,4.995053197024835],[102.71356688463399,4.9958399690588395],[102.71304867624343,4.9958399690588395],[102.71304867624343,4.9962333554205784],[102.71253046785287,4.9962333554205784],[102.71253046785287,4.995446582926934]],[[102.71512150980568,4.991119350639432],[102.71563971819623,4.991119350639432],[102.71563971819623,4.9907259672640425],[102.7161579265868,4.9907259672640425],[102.7161579265868,4.98993920120201],[102.71667613497736,4.98993920120201],[102.71667613497736,4.9907259672640425],[102.71719434336792,4.9907259672640425],[102.71771255175848,4.991512734244431],[102.71667613497736,4.991512734244431],[102.71667613497736,4.991119350639432],[102.7161579265868,4.991119350639432],[102.7161579265868,4.991512734244431],[102.71512150980568,4.991512734244431],[102.71512150980568,4.991119350639432]]]},"properties":{"place_id":"d3966acb-676b-55b4-b272-97c9cf0bea3a","habitat":"water_edge","habitat_label":"Water edge","resolution_m":50}}]}