{"type":"FeatureCollection","metadata":{"schema_version":1,"place_id":"d3c3335a-9909-5700-b248-0ce39c4ec1b7","place_name":"Taman Awam MBIP","place_type":"park","osm_reference":"way/692801853","protection_context":"no protected status confirmed from included OSM tags","resolution_m":50,"raster_coverage":1.0,"interpretation":"Suggested search habitats, not predicted plant locations or probabilities of presence."},"features":[{"type":"Feature","geometry":{"type":"Polygon","coordinates":[[[103.62820469397353,1.5432161975814664],[103.62820469397353,1.5428241276422212],[103.62768648558296,1.5428241276422212],[103.62768648558296,1.5432161975814664],[103.62820469397353,1.5432161975814664]]]},"properties":{"place_id":"d3c3335a-9909-5700-b248-0ce39c4ec1b7","habitat":"forest_interior","habitat_label":"Forest interior","resolution_m":50}},{"type":"Feature","geometry":{"type":"Polygon","coordinates":[[[103.62808299999999,1.5438761982783602],[103.6288136,1.5431596982791866],[103.6278978,1.5422263982802153],[103.627167,1.542942998279427],[103.62808299999999,1.5438761982783602]],[[103.62768648558296,1.5428241276422212],[103.62820469397353,1.5428241276422212],[103.62820469397353,1.5432161975814664],[103.62768648558296,1.5432161975814664],[103.62768648558296,1.5428241276422212]]]},"properties":{"place_id":"d3c3335a-9909-5700-b248-0ce39c4ec1b7","habitat":"forest_edge_opening","habitat_label":"Forest edge or opening","resolution_m":50}},{"type":"Feature","geometry":{"type":"Polygon","coordinates":[[[103.62808299999999,1.5438761982783602],[103.6288136,1.5431596982791866],[103.6278978,1.5422263982802153],[103.627167,1.542942998279427],[103.62808299999999,1.5438761982783602]],[[103.62768648558296,1.5428241276422212],[103.62820469397353,1.5428241276422212],[103.62820469397353,1.5432161975814664],[103.62768648558296,1.5432161975814664],[103.62768648558296,1.5428241276422212]]]},"properties":{"place_id":"d3c3335a-9909-5700-b248-0ce39c4ec1b7","habitat":"disturbed_built_edge","habitat_label":"Disturbed, bare or built edge","resolution_m":50}}]}