{"type":"FeatureCollection","metadata":{"schema_version":1,"place_id":"d3e76f33-515f-5bac-a06d-2d3feca751c4","place_name":"Saujana Utama Park","place_type":"park","osm_reference":"way/566537781","protection_context":"no protected status confirmed from included OSM tags","resolution_m":50,"raster_coverage":1.0,"interpretation":"Suggested search habitats, not predicted plant locations or probabilities of presence."},"features":[{"type":"Feature","geometry":{"type":"Polygon","coordinates":[[[101.48230374866192,3.2021353633308256],[101.48281010238784,3.2021353633308256],[101.48280449999999,3.2016564964610974],[101.481117,3.2028934964597866],[101.48230374866192,3.2028858536243257],[101.48230374866192,3.2021353633308256]]]},"properties":{"place_id":"d3e76f33-515f-5bac-a06d-2d3feca751c4","habitat":"forest_edge_opening","habitat_label":"Forest edge or opening","resolution_m":50}},{"type":"Feature","geometry":{"type":"Polygon","coordinates":[[[101.48178554027136,3.202891073079469],[101.4828188,3.2028787964597707],[101.48280551010117,3.2017428353412747],[101.48178554027136,3.2021414601966445],[101.48178554027136,3.202891073079469]]]},"properties":{"place_id":"d3e76f33-515f-5bac-a06d-2d3feca751c4","habitat":"open_grassland","habitat_label":"Open grassland or shrubland","resolution_m":50}},{"type":"Feature","geometry":{"type":"Polygon","coordinates":[[[101.48230374866192,3.2021353633308256],[101.48230374866192,3.2025278914668087],[101.48178554027136,3.2025278914668087],[101.48178554027136,3.2021414601966445],[101.481117,3.2028934964597866],[101.4828188,3.2028787964597707],[101.48280449999999,3.2016564964610974],[101.48179284651233,3.2021353633308256],[101.48230374866192,3.2021353633308256]]]},"properties":{"place_id":"d3e76f33-515f-5bac-a06d-2d3feca751c4","habitat":"disturbed_built_edge","habitat_label":"Disturbed, bare or built edge","resolution_m":50}}]}