{"type":"FeatureCollection","metadata":{"schema_version":1,"place_id":"d42111c7-3738-5d34-8fb2-c76f88636653","place_name":"3/5 Park","place_type":"park","osm_reference":"way/468687414","protection_context":"no protected status confirmed from included OSM tags","resolution_m":50,"raster_coverage":1.0,"interpretation":"Suggested search habitats, not predicted plant locations or probabilities of presence."},"features":[{"type":"Feature","geometry":{"type":"Polygon","coordinates":[[[101.7775308,2.9484171967353325],[101.7778641,2.9486160967351247],[101.77774619999997,2.9484171967353325],[101.7775308,2.9484171967353325]]]},"properties":{"place_id":"d42111c7-3738-5d34-8fb2-c76f88636653","habitat":"disturbed_built_edge","habitat_label":"Disturbed, bare or built edge","resolution_m":50}}]}