{"type":"FeatureCollection","metadata":{"schema_version":1,"place_id":"d4b6c147-4cbc-5d98-88b7-257707c1f866","place_name":"Kawasan Lapang Fasa 1 Taman Mawar","place_type":"park","osm_reference":"way/1267282037","protection_context":"no protected status confirmed from included OSM tags","resolution_m":50,"raster_coverage":1.0,"interpretation":"Suggested search habitats, not predicted plant locations or probabilities of presence."},"features":[{"type":"Feature","geometry":{"type":"Polygon","coordinates":[[[118.03336153477822,5.8406065801183695],[118.03284332638766,5.840398983619067],[118.03252920000001,5.840991393714608],[118.0333692,5.840986493714645],[118.0334424,5.840312093715304],[118.03336153477822,5.8406065801183695]]]},"properties":{"place_id":"d4b6c147-4cbc-5d98-88b7-257707c1f866","habitat":"forest_edge_opening","habitat_label":"Forest edge or opening","resolution_m":50}},{"type":"Feature","geometry":{"type":"Polygon","coordinates":[[[118.03284332638766,5.840398983619067],[118.03336153477822,5.8406065801183695],[118.03336153477822,5.840311139718929],[118.03284332638766,5.840398983619067]]]},"properties":{"place_id":"d4b6c147-4cbc-5d98-88b7-257707c1f866","habitat":"open_grassland","habitat_label":"Open grassland or shrubland","resolution_m":50}},{"type":"Feature","geometry":{"type":"Polygon","coordinates":[[[118.0333692,5.840986493714645],[118.0334424,5.840312093715304],[118.0327389,5.840455593715138],[118.03252920000001,5.840991393714608],[118.0333692,5.840986493714645]]]},"properties":{"place_id":"d4b6c147-4cbc-5d98-88b7-257707c1f866","habitat":"disturbed_built_edge","habitat_label":"Disturbed, bare or built edge","resolution_m":50}}]}