{"type":"FeatureCollection","metadata":{"schema_version":1,"place_id":"d4bbf853-3f85-5dae-b0ae-83f1b672d9e8","place_name":"Pulau Che Hamid","place_type":"wood","osm_reference":"way/724526640","protection_context":"no protected status confirmed from included OSM tags","resolution_m":50,"raster_coverage":1.0,"interpretation":"Suggested search habitats, not predicted plant locations or probabilities of presence."},"features":[{"type":"Feature","geometry":{"type":"Polygon","coordinates":[[[102.72082180210184,5.674001402945066],[102.71978538532072,5.673607593335857],[102.71926717693017,5.674395212816074],[102.71978538532072,5.674601631913125],[102.72082180210184,5.674001402945066]]]},"properties":{"place_id":"d4bbf853-3f85-5dae-b0ae-83f1b672d9e8","habitat":"forest_edge_opening","habitat_label":"Forest edge or opening","resolution_m":50}},{"type":"Feature","geometry":{"type":"MultiPolygon","coordinates":[[[[102.72134001049241,5.674001402945066],[102.72030359371128,5.674001402945066],[102.72030359371128,5.6742879940260735],[102.721403,5.674012393881074],[102.72134001049241,5.673628838459871],[102.72134001049241,5.674001402945066]]],[[[102.71978538532072,5.674395212816074],[102.71978538532072,5.674601631913125],[102.72005853441935,5.674395212816074],[102.71978538532072,5.674395212816074]]],[[[102.71926717693017,5.674789022948899],[102.71926717693017,5.674913103770875],[102.7195237324842,5.674789022948899],[102.71926717693017,5.674789022948899]]]]},"properties":{"place_id":"d4bbf853-3f85-5dae-b0ae-83f1b672d9e8","habitat":"permanent_water","habitat_label":"Permanent water","resolution_m":50}},{"type":"Feature","geometry":{"type":"Polygon","coordinates":[[[102.72134001049241,5.672426166078838],[102.72134001049241,5.6728199749027635],[102.72082180210184,5.6728199749027635],[102.71926717693017,5.674395212816074],[102.71823076014904,5.674395212816074],[102.7183095,5.674655293880461],[102.7190404,5.675028793880072],[102.72030359371128,5.674001402945066],[102.72134001049241,5.674001402945066],[102.72153350000002,5.6731550938819275],[102.72134001049241,5.672426166078838]]]},"properties":{"place_id":"d4bbf853-3f85-5dae-b0ae-83f1b672d9e8","habitat":"water_edge","habitat_label":"Water edge","resolution_m":50}},{"type":"Feature","geometry":{"type":"Polygon","coordinates":[[[102.71978538532072,5.674001402945066],[102.72134001049241,5.674001402945066],[102.7212855,5.671690593883386],[102.7189132,5.674155293880923],[102.71783950000001,5.674184493880915],[102.7190404,5.675028793880072],[102.71978538532072,5.674601631913125],[102.71978538532072,5.674001402945066]]]},"properties":{"place_id":"d4bbf853-3f85-5dae-b0ae-83f1b672d9e8","habitat":"mangrove","habitat_label":"Mangrove","resolution_m":50}}]}