{"type":"FeatureCollection","metadata":{"schema_version":1,"place_id":"d4c3455e-6777-54c1-9bfa-7f15c8a270da","place_name":"Taman Sahabat","place_type":"park","osm_reference":"way/863725926","protection_context":"no protected status confirmed from included OSM tags","resolution_m":50,"raster_coverage":1.0,"interpretation":"Suggested search habitats, not predicted plant locations or probabilities of presence."},"features":[{"type":"Feature","geometry":{"type":"Polygon","coordinates":[[[101.84483309999999,2.960102696722618],[101.84453141366382,2.9597306724882695],[101.84447559999998,2.960328896722367],[101.84483309999999,2.960102696722618]]]},"properties":{"place_id":"d4c3455e-6777-54c1-9bfa-7f15c8a270da","habitat":"forest_edge_opening","habitat_label":"Forest edge or opening","resolution_m":50}},{"type":"Feature","geometry":{"type":"Polygon","coordinates":[[[101.84447559999998,2.960328896722367],[101.84483309999999,2.960102696722618],[101.84457119999999,2.9597085967230714],[101.84423669999997,2.9598941967228707],[101.84447559999998,2.960328896722367]]]},"properties":{"place_id":"d4c3455e-6777-54c1-9bfa-7f15c8a270da","habitat":"disturbed_built_edge","habitat_label":"Disturbed, bare or built edge","resolution_m":50}}]}