{"type":"FeatureCollection","metadata":{"schema_version":1,"place_id":"d629c73a-59cb-54ae-8852-0e083170d460","place_name":"Hutan Simpanan Kekal Gunung Lesong","place_type":"park","osm_reference":"relation/18193499","protection_context":"mapped protected boundary","resolution_m":50,"raster_coverage":1.0,"interpretation":"Suggested search habitats, not predicted plant locations or probabilities of presence."},"features":[{"type":"Feature","geometry":{"type":"MultiPolygon","coordinates":[[[[103.20016456337044,2.737087406268834],[103.20378,2.736759196965595],[103.21245959999999,2.7370699969652743],[103.2141226,2.7362447969661243],[103.21582850000001,2.736094796966306],[103.21799040000002,2.7351570969673253],[103.22270690372173,2.733948472413315],[103.222813,2.7261282969771896],[103.22204049999998,2.7220987969815735],[103.22398249999999,2.71952679698438],[103.22697039999998,2.718390796985618],[103.235119,2.7270712969761624],[103.23509749999998,2.7297075969732676],[103.23426070000001,2.732204596970559],[103.2352585,2.736662696965697],[103.2337028,2.739727696962345],[103.23386369999999,2.744024996957656],[103.23534429999998,2.744453696957203],[103.2389277,2.7439821969576967],[103.24283299999999,2.7454609969560937],[103.2457513,2.7454609969560937],[103.2495385,2.7435748969581506],[103.25229579999998,2.7411100969608446],[103.2566196,2.740606396961382],[103.2589048,2.7414637969604723],[103.2612383,2.7433551969584045],[103.26386159999998,2.741426196960502],[103.26835149999998,2.7407457969612414],[103.2709211,2.738666696963519],[103.2725465,2.739465196962644],[103.27264309999998,2.740333196961694],[103.27329749999998,2.740879796961096],[103.27566329999999,2.74130299696063],[103.27681659999999,2.742969496958839],[103.2775086,2.7430605969587045],[103.2789194,2.7424979969593295],[103.27907499999999,2.741174396960793],[103.2823795,2.739031096963107],[103.28293739999998,2.7376164969646477],[103.2829803,2.7333726969692904],[103.28424629999999,2.73186169697092],[103.2867891,2.7327832969699313],[103.2897073,2.7330190969696755],[103.29040469999998,2.7317223969710884],[103.29413829999999,2.7302863969726676],[103.2955545,2.725763896977569],[103.29615529999998,2.7252065969781714],[103.2980865,2.724927996978491],[103.2987946,2.724242096979227],[103.29983529999998,2.7192695969846445],[103.30510319999999,2.719687496984228],[103.30799999999998,2.7180156969860314],[103.31057489999999,2.7172011969869136],[103.3127743,2.7154114969888705],[103.3153492,2.714168396990217],[103.3162260609521,2.7123685180239825],[103.31572503446546,2.7123685180239825],[103.31572503446546,2.711976158694899],[103.3169907,2.711510596993119],[103.316862,2.710117396994652],[103.3159822,2.7082740969966537],[103.31611099999999,2.7049518970002735],[103.31750569999998,2.702808497002594],[103.31806359999999,2.7016510970038694],[103.3177978680277,2.700990147706554],[103.3188575,2.6993147970064246],[103.31821380000001,2.6964640970095215],[103.31875030000002,2.6951994970109308],[103.3179563,2.6925202970138162],[103.315832,2.689690997016908],[103.3165401,2.686540197020346],[103.3145875,2.683903797023256],[103.3145016,2.6829820970242353],[103.31467329999998,2.680924397026469],[103.316862,2.6781593970295074],[103.3172482,2.676851897030933],[103.31898629999998,2.6757587970321235],[103.3180422,2.6732937970347974],[103.3190507,2.671771997036493],[103.3179563,2.6689854970395235],[103.31832109999999,2.6679780970406255],[103.3200592,2.6673135970413435],[103.32190450000002,2.6679780970406255],[103.32420050000002,2.6681709970404195],[103.3256918,2.669746397038684],[103.32903919999997,2.669746397038684],[103.33023486940115,2.6692069911169742],[103.33054983207373,2.668425039043629],[103.3255649,2.6545029970553387],[103.31932449999998,2.6582791970511934],[103.3150168,2.6596686970496983],[103.31089579999998,2.6620110970471362],[103.3074324,2.6627270970463583],[103.3051717,2.6642018970447396],[103.3044134104152,2.666070967465936],[103.3048426582637,2.666070967465936],[103.3048426582637,2.6664633124243733],[103.30432444987314,2.6664633124243733],[103.30432444987314,2.666855657504591],[103.30380624148256,2.666640312211955],[103.3019443,2.6680823970404997],[103.29804229999999,2.668887497039611],[103.2963336,2.670124497038263],[103.2907787,2.672121997036092],[103.29128599999999,2.67425829703378],[103.28983419999999,2.67476959703322],[103.2881503,2.6746957970332828],[103.28723709999998,2.6780296970296487],[103.2863289,2.678632897028993],[103.2851407,2.6784355970292135],[103.2826163,2.6797049970278],[103.2811461,2.6817439970255825],[103.28029219999999,2.6870161970198296],[103.27888390000001,2.6868781970199835],[103.27819159999999,2.6872225970196193],[103.2765187,2.690683197015848],[103.2733432,2.690081297016498],[103.27162929999999,2.692107297014274],[103.2697713,2.6935168970127688],[103.2686622,2.6936314970126225],[103.26736239999998,2.6950159970111294],[103.26382619999998,2.69410359701211],[103.26261819999999,2.6943711970118014],[103.26222740000001,2.6953089970108155],[103.2625954,2.696138597009884],[103.2620967,2.696521297009446],[103.25874060000001,2.6943283970118537],[103.2579359,2.6943040970118832],[103.25758360000002,2.6951536970109555],[103.25690230000001,2.695039297011071],[103.25581089999999,2.6938872970123646],[103.2544006,2.6932723970130246],[103.25097370000002,2.6935822970126817],[103.24943859999999,2.693157697013133],[103.2459155,2.6929973970133165],[103.24177039999998,2.694771697011378],[103.23977959999999,2.694945897011168],[103.2354608,2.69193629701445],[103.23331879999999,2.6972780970086707],[103.2358217,2.7040356970012653],[103.23543549999998,2.7063290969987754],[103.234148,2.707893696997061],[103.23467409999999,2.7109074969937663],[103.2304786,2.7138995969905135],[103.2288945,2.7141604969902224],[103.228041,2.713933096990489],[103.2244597,2.7148479969894868],[103.22102960000001,2.719350996984591],[103.21931019999998,2.719487796984417],[103.2148133,2.7232783969803114],[103.21036520000001,2.725226796978152],[103.20560409999999,2.7292830969737336],[103.20392359999997,2.7301998969727297],[103.20364059999999,2.731038396971814],[103.19661370000001,2.735606296966846],[103.1971791,2.7366412969657334],[103.20016456337044,2.737087406268834]],[[103.23540273392855,2.73512557167203],[103.23540273392855,2.7343408387079817],[103.234884525538,2.7343408387079817],[103.234884525538,2.733948472413315],[103.23592094231913,2.7335561062435296],[103.23695735910026,2.73512557167203],[103.23643915070969,2.73512557167203],[103.23643915070969,2.7355179383414483],[103.23540273392855,2.73512557167203]],[[103.234884525538,2.732771374278531],[103.234884525538,2.7319866428128408],[103.23540273392855,2.7319866428128408],[103.234884525538,2.731201911846316],[103.23592094231913,2.730809546550195],[103.23592094231913,2.731201911846316],[103.23643915070969,2.731201911846316],[103.23643915070969,2.7315942772671913],[103.23592094231913,2.7315942772671913],[103.23592094231913,2.7319866428128408],[103.23643915070969,2.7319866428128408],[103.23643915070969,2.732771374278531],[103.23592094231913,2.732771374278531],[103.23592094231913,2.733163740198608],[103.234884525538,2.732771374278531]],[[103.21933827382118,2.7323790084832815],[103.21985648221174,2.7315942772671913],[103.22089289899286,2.7319866428128408],[103.2203746906023,2.732771374278531],[103.21933827382118,2.7323790084832815]],[[103.21933827382118,2.7288477219402836],[103.21985648221174,2.728062992968973],[103.22089289899286,2.728455357392314],[103.2203746906023,2.7292400866128994],[103.21933827382118,2.7288477219402836]],[[103.29603311562416,2.713153237053836],[103.29655132401471,2.7123685180239825],[103.29758774079583,2.7127608774769554],[103.29706953240527,2.713545596754643],[103.29603311562416,2.713153237053836]],[[103.30432444987314,2.7127608774769554],[103.30380624148256,2.711976158694899],[103.3048426582637,2.7115837994896883],[103.30587907504481,2.7127608774769554],[103.30536086665425,2.7127608774769554],[103.30536086665425,2.713153237053836],[103.30432444987314,2.7127608774769554]],[[103.29758774079583,2.7123685180239825],[103.29758774079583,2.7115837994896883],[103.29862415757695,2.7111914404083293],[103.29862415757695,2.7115837994896883],[103.29914236596753,2.7115837994896883],[103.29914236596753,2.7123685180239825],[103.29862415757695,2.7123685180239825],[103.29862415757695,2.7127608774769554],[103.29758774079583,2.7123685180239825]],[[103.29447849045248,2.7104067226171025],[103.29447849045248,2.710799081450807],[103.2955149072336,2.7111914404083293],[103.29499669884304,2.711976158694899],[103.2929238652808,2.7111914404083293],[103.2929238652808,2.7104067226171025],[103.29344207367136,2.7104067226171025],[103.29344207367136,2.710014363907197],[103.29447849045248,2.7104067226171025]],[[103.29396028206192,2.7096220053210724],[103.29344207367136,2.7096220053210724],[103.29344207367136,2.7092296468587116],[103.29447849045248,2.7088372885200958],[103.29499669884304,2.7096220053210724],[103.29447849045248,2.7096220053210724],[103.29447849045248,2.710014363907197],[103.29396028206192,2.710014363907197],[103.29396028206192,2.7096220053210724]],[[103.31520682607491,2.710799081450807],[103.31572503446546,2.710014363907197],[103.31676145124659,2.7104067226171025],[103.31624324285603,2.7111914404083293],[103.31520682607491,2.710799081450807]],[[103.28877819815631,2.7092296468587116],[103.28929640654687,2.7092296468587116],[103.28929640654687,2.7096220053210724],[103.28825998976575,2.710014363907197],[103.28774178137519,2.7092296468587116],[103.28825998976575,2.7092296468587116],[103.28825998976575,2.7088372885200958],[103.28877819815631,2.7088372885200958],[103.28877819815631,2.7092296468587116]],[[103.28774178137519,2.7088372885200958],[103.28722357298462,2.7080525722140294],[103.28825998976575,2.7076602142465416],[103.28877819815631,2.7084449303052085],[103.28774178137519,2.7088372885200958]],[[103.29240565689022,2.7084449303052085],[103.29240565689022,2.7080525722140294],[103.29188744849968,2.7080525722140294],[103.29188744849968,2.7072678564027277],[103.2913692401091,2.7072678564027277],[103.29085103171856,2.7064831410860464],[103.29033282332799,2.7064831410860464],[103.29033282332799,2.7068754986825683],[103.28981461493743,2.7068754986825683],[103.28981461493743,2.7064831410860464],[103.28877819815631,2.7068754986825683],[103.28877819815631,2.7064831410860464],[103.28825998976575,2.7064831410860464],[103.28825998976575,2.705698426263843],[103.28877819815631,2.705698426263843],[103.28877819815631,2.7053060690381243],[103.28929640654687,2.7053060690381243],[103.28929640654687,2.705698426263843],[103.29033282332799,2.705698426263843],[103.29033282332799,2.7053060690381243],[103.2913692401091,2.705698426263843],[103.29188744849968,2.7049137119359714],[103.29240565689022,2.7049137119359714],[103.2929238652808,2.705698426263843],[103.29396028206192,2.705698426263843],[103.29396028206192,2.7053060690381243],[103.29447849045248,2.7053060690381243],[103.29447849045248,2.705698426263843],[103.29499669884304,2.705698426263843],[103.29447849045248,2.7064831410860464],[103.29396028206192,2.7064831410860464],[103.29396028206192,2.7060907836131443],[103.2929238652808,2.7060907836131443],[103.2929238652808,2.7064831410860464],[103.29240565689022,2.7064831410860464],[103.29240565689022,2.7068754986825683],[103.2929238652808,2.7068754986825683],[103.2929238652808,2.7076602142465416],[103.29344207367136,2.7076602142465416],[103.29396028206192,2.7084449303052085],[103.29344207367136,2.7084449303052085],[103.29344207367136,2.7088372885200958],[103.29240565689022,2.7084449303052085]],[[103.3141704092938,2.7076602142465416],[103.31468861768434,2.7068754986825683],[103.31572503446546,2.7072678564027277],[103.31520682607491,2.7080525722140294],[103.3141704092938,2.7076602142465416]],[[103.29810594918641,2.7072678564027277],[103.29810594918641,2.7068754986825683],[103.29758774079583,2.7068754986825683],[103.29758774079583,2.7060907836131443],[103.29810594918641,2.7060907836131443],[103.29810594918641,2.705698426263843],[103.29914236596753,2.705698426263843],[103.29914236596753,2.7053060690381243],[103.30017878274865,2.7053060690381243],[103.30017878274865,2.705698426263843],[103.3006969911392,2.705698426263843],[103.3006969911392,2.7060907836131443],[103.29966057435809,2.7064831410860464],[103.30017878274865,2.7072678564027277],[103.29966057435809,2.7072678564027277],[103.29966057435809,2.7076602142465416],[103.29914236596753,2.7076602142465416],[103.29914236596753,2.7072678564027277],[103.29810594918641,2.7072678564027277]],[[103.30225161631088,2.7072678564027277],[103.30276982470144,2.7064831410860464],[103.30380624148256,2.7068754986825683],[103.303288033092,2.7076602142465416],[103.30225161631088,2.7072678564027277]],[[103.30691549182593,2.7064831410860464],[103.30691549182593,2.7072678564027277],[103.30587907504481,2.7076602142465416],[103.30587907504481,2.7072678564027277],[103.30536086665425,2.7072678564027277],[103.30536086665425,2.7068754986825683],[103.30587907504481,2.7068754986825683],[103.30587907504481,2.7060907836131443],[103.30795190860705,2.7049137119359714],[103.30847011699761,2.705698426263843],[103.30691549182593,2.7064831410860464]],[[103.29499669884304,2.7068754986825683],[103.2955149072336,2.7060907836131443],[103.29655132401471,2.7060907836131443],[103.29655132401471,2.7064831410860464],[103.29706953240527,2.7064831410860464],[103.29655132401471,2.7072678564027277],[103.2955149072336,2.7072678564027277],[103.2955149072336,2.7068754986825683],[103.29499669884304,2.7068754986825683]],[[103.3126157841221,2.7053060690381243],[103.3126157841221,2.704521354957365],[103.31365220090322,2.704128998102288],[103.31365220090322,2.704521354957365],[103.3141704092938,2.704521354957365],[103.3141704092938,2.7053060690381243],[103.31365220090322,2.7053060690381243],[103.31365220090322,2.705698426263843],[103.3126157841221,2.7053060690381243]],[[103.30639728343537,2.6900042334377763],[103.30691549182593,2.68921952896627],[103.30795190860705,2.6896118811406016],[103.30743370021649,2.6903965858578145],[103.30639728343537,2.6900042334377763]]],[[[103.30743370021649,2.7060907836131443],[103.30743370021649,2.705698426263843],[103.30691549182593,2.705698426263843],[103.30691549182593,2.7060907836131443],[103.30743370021649,2.7060907836131443]]]]},"properties":{"place_id":"d629c73a-59cb-54ae-8852-0e083170d460","habitat":"forest_interior","habitat_label":"Forest interior","resolution_m":50}},{"type":"Feature","geometry":{"type":"MultiPolygon","coordinates":[[[[103.29655132401471,2.7064831410860464],[103.29655132401471,2.7060907836131443],[103.2955149072336,2.7060907836131443],[103.29499669884304,2.7068754986825683],[103.2955149072336,2.7068754986825683],[103.2955149072336,2.7072678564027277],[103.29655132401471,2.7072678564027277],[103.29655132401471,2.7068754986825683],[103.29706953240527,2.7068754986825683],[103.29706953240527,2.7064831410860464],[103.29655132401471,2.7064831410860464]]],[[[103.29344207367136,2.7076602142465416],[103.2929238652808,2.7076602142465416],[103.2929238652808,2.7068754986825683],[103.29240565689022,2.7068754986825683],[103.29240565689022,2.7064831410860464],[103.2929238652808,2.7064831410860464],[103.2929238652808,2.7060907836131443],[103.29396028206192,2.7060907836131443],[103.29396028206192,2.7064831410860464],[103.29447849045248,2.7064831410860464],[103.29447849045248,2.7060907836131443],[103.29499669884304,2.7060907836131443],[103.29447849045248,2.7053060690381243],[103.29396028206192,2.7053060690381243],[103.29396028206192,2.705698426263843],[103.2929238652808,2.705698426263843],[103.2929238652808,2.7053060690381243],[103.29188744849968,2.7049137119359714],[103.2913692401091,2.705698426263843],[103.29085103171856,2.705698426263843],[103.29085103171856,2.7053060690381243],[103.29033282332799,2.7053060690381243],[103.29033282332799,2.705698426263843],[103.28929640654687,2.705698426263843],[103.28929640654687,2.7053060690381243],[103.28825998976575,2.705698426263843],[103.28825998976575,2.7064831410860464],[103.28877819815631,2.7064831410860464],[103.28877819815631,2.7068754986825683],[103.28929640654687,2.7068754986825683],[103.28929640654687,2.7064831410860464],[103.28981461493743,2.7064831410860464],[103.28981461493743,2.7068754986825683],[103.29085103171856,2.7064831410860464],[103.2929238652808,2.7088372885200958],[103.29396028206192,2.7084449303052085],[103.29344207367136,2.7076602142465416]]],[[[103.28825998976575,2.7076602142465416],[103.28722357298462,2.7080525722140294],[103.28774178137519,2.7088372885200958],[103.28877819815631,2.7084449303052085],[103.28825998976575,2.7076602142465416]]],[[[103.28877819815631,2.7088372885200958],[103.28774178137519,2.7092296468587116],[103.28825998976575,2.710014363907197],[103.28929640654687,2.7096220053210724],[103.28877819815631,2.7088372885200958]]],[[[103.29447849045248,2.7088372885200958],[103.29344207367136,2.7092296468587116],[103.29396028206192,2.710014363907197],[103.29499669884304,2.7096220053210724],[103.29447849045248,2.7088372885200958]]],[[[103.29499669884304,2.710799081450807],[103.29447849045248,2.710799081450807],[103.29396028206192,2.710014363907197],[103.2929238652808,2.7104067226171025],[103.2929238652808,2.7111914404083293],[103.29344207367136,2.7111914404083293],[103.29344207367136,2.7115837994896883],[103.29447849045248,2.7115837994896883],[103.29447849045248,2.711976158694899],[103.2955149072336,2.7115837994896883],[103.29499669884304,2.710799081450807]]],[[[103.29862415757695,2.7111914404083293],[103.29758774079583,2.7115837994896883],[103.29758774079583,2.7123685180239825],[103.29810594918641,2.7123685180239825],[103.29810594918641,2.7127608774769554],[103.29914236596753,2.7123685180239825],[103.29914236596753,2.7115837994896883],[103.29862415757695,2.7115837994896883],[103.29862415757695,2.7111914404083293]]],[[[103.29706953240527,2.7127608774769554],[103.29706953240527,2.7123685180239825],[103.29655132401471,2.7123685180239825],[103.29603311562416,2.713153237053836],[103.29706953240527,2.713545596754643],[103.29706953240527,2.713153237053836],[103.29758774079583,2.713153237053836],[103.29758774079583,2.7127608774769554],[103.29706953240527,2.7127608774769554]]],[[[103.2203746906023,2.728062992968973],[103.21933827382118,2.728455357392314],[103.21985648221174,2.7292400866128994],[103.22089289899286,2.7288477219402836],[103.2203746906023,2.728062992968973]]],[[[103.23592094231913,2.7315942772671913],[103.23643915070969,2.7315942772671913],[103.23643915070969,2.731201911846316],[103.23540273392855,2.730809546550195],[103.23540273392855,2.731201911846316],[103.234884525538,2.731201911846316],[103.234884525538,2.7315942772671913],[103.23540273392855,2.7315942772671913],[103.23540273392855,2.7319866428128408],[103.234884525538,2.7319866428128408],[103.234884525538,2.732771374278531],[103.23540273392855,2.732771374278531],[103.23540273392855,2.733163740198608],[103.23643915070969,2.732771374278531],[103.23643915070969,2.7319866428128408],[103.23592094231913,2.7319866428128408],[103.23592094231913,2.7315942772671913]]],[[[103.2203746906023,2.7315942772671913],[103.21933827382118,2.7319866428128408],[103.21985648221174,2.732771374278531],[103.22089289899286,2.7323790084832815],[103.2203746906023,2.7315942772671913]]],[[[103.22270690372173,2.733948472413315],[103.22244752416455,2.734098514570992],[103.22270570000002,2.734037196968547],[103.22270690372173,2.733948472413315]]],[[[103.22141110738343,2.7343408387079817],[103.22141110738343,2.734344666965392],[103.22142722613718,2.7343408387079817],[103.22141110738343,2.7343408387079817]]],[[[103.23643915070969,2.733948472413315],[103.23592094231913,2.733948472413315],[103.23592094231913,2.7335561062435296],[103.234884525538,2.733948472413315],[103.23592094231913,2.7355179383414483],[103.23695735910026,2.73512557167203],[103.23695735910026,2.734733205127547],[103.23643915070969,2.734733205127547],[103.23643915070969,2.733948472413315]]],[[[103.200682771761,2.7371284503630173],[103.20016456337044,2.737087406268834],[103.20016456337044,2.7371066077213744],[103.200682771761,2.7371284503630173]]],[[[103.30380624148256,2.666855657504591],[103.30432444987314,2.666855657504591],[103.3048426582637,2.666070967465936],[103.3044134104152,2.666070967465936],[103.30380624148256,2.666855657504591]]],[[[103.33023486940115,2.668425039043629],[103.33023486940115,2.6692069911169742],[103.33069679999998,2.668835497039693],[103.33023486940115,2.668425039043629]]],[[[103.32971666101061,2.669209730544299],[103.32971666101061,2.669450178017641],[103.33022903193887,2.669209730544299],[103.32971666101061,2.669209730544299]]],[[[103.30743370021649,2.68921952896627],[103.30639728343537,2.6896118811406016],[103.30691549182593,2.6903965858578145],[103.30795190860705,2.6900042334377763],[103.30743370021649,2.68921952896627]]],[[[103.31808498833516,2.700990147706554],[103.3177978680277,2.701382503574048],[103.31807229168848,2.701382503574048],[103.31808498833516,2.700990147706554]]],[[[103.31365220090322,2.704128998102288],[103.3126157841221,2.704521354957365],[103.3126157841221,2.7053060690381243],[103.31313399251266,2.7053060690381243],[103.31313399251266,2.705698426263843],[103.3141704092938,2.7053060690381243],[103.3141704092938,2.704521354957365],[103.31365220090322,2.704521354957365],[103.31365220090322,2.704128998102288]]],[[[103.30795190860705,2.7049137119359714],[103.30691549182593,2.7053060690381243],[103.30743370021649,2.7060907836131443],[103.30847011699761,2.705698426263843],[103.30795190860705,2.7049137119359714]]],[[[103.29966057435809,2.7064831410860464],[103.3006969911392,2.7060907836131443],[103.30017878274865,2.7053060690381243],[103.29914236596753,2.7053060690381243],[103.29914236596753,2.705698426263843],[103.29810594918641,2.705698426263843],[103.29810594918641,2.7060907836131443],[103.29758774079583,2.7060907836131443],[103.29758774079583,2.7068754986825683],[103.29810594918641,2.7068754986825683],[103.29810594918641,2.7072678564027277],[103.29914236596753,2.7072678564027277],[103.29914236596753,2.7076602142465416],[103.30017878274865,2.7072678564027277],[103.29966057435809,2.7064831410860464]]],[[[103.30743370021649,2.7060907836131443],[103.30639728343537,2.705698426263843],[103.30536086665425,2.7072678564027277],[103.30639728343537,2.7076602142465416],[103.30743370021649,2.7060907836131443]]],[[[103.303288033092,2.7064831410860464],[103.30225161631088,2.7068754986825683],[103.30276982470144,2.7076602142465416],[103.30380624148256,2.7072678564027277],[103.303288033092,2.7064831410860464]]],[[[103.31520682607491,2.7068754986825683],[103.3141704092938,2.7072678564027277],[103.31468861768434,2.7080525722140294],[103.31572503446546,2.7076602142465416],[103.31520682607491,2.7068754986825683]]],[[[103.31624324285603,2.710014363907197],[103.31520682607491,2.7104067226171025],[103.31572503446546,2.7111914404083293],[103.31676145124659,2.710799081450807],[103.31624324285603,2.710014363907197]]],[[[103.31572503446546,2.7123685180239825],[103.3162260609521,2.7123685180239825],[103.31676145124659,2.7115837994896883],[103.31624324285603,2.7115837994896883],[103.31572503446546,2.7123685180239825]]],[[[103.30536086665425,2.711976158694899],[103.30432444987314,2.7115837994896883],[103.30380624148256,2.7123685180239825],[103.30536086665425,2.713153237053836],[103.30536086665425,2.7127608774769554],[103.30587907504481,2.7127608774769554],[103.30536086665425,2.711976158694899]]]]},"properties":{"place_id":"d629c73a-59cb-54ae-8852-0e083170d460","habitat":"forest_edge_opening","habitat_label":"Forest edge or opening","resolution_m":50}},{"type":"Feature","geometry":{"type":"MultiPolygon","coordinates":[[[[103.29085103171856,2.705698426263843],[103.29033282332799,2.705698426263843],[103.29033282332799,2.7060907836131443],[103.29085103171856,2.7060907836131443],[103.29085103171856,2.705698426263843]]],[[[103.28929640654687,2.705698426263843],[103.28877819815631,2.705698426263843],[103.28877819815631,2.7064831410860464],[103.28929640654687,2.7064831410860464],[103.28929640654687,2.705698426263843]]],[[[103.2913692401091,2.7060907836131443],[103.2913692401091,2.7068754986825683],[103.29188744849968,2.7068754986825683],[103.29188744849968,2.7064831410860464],[103.29240565689022,2.7064831410860464],[103.29240565689022,2.7053060690381243],[103.29188744849968,2.7053060690381243],[103.29188744849968,2.7060907836131443],[103.2913692401091,2.7060907836131443]]],[[[103.29240565689022,2.7072678564027277],[103.29240565689022,2.7068754986825683],[103.29188744849968,2.7068754986825683],[103.29188744849968,2.7072678564027277],[103.29240565689022,2.7072678564027277]]],[[[103.2929238652808,2.7076602142465416],[103.29240565689022,2.7076602142465416],[103.29240565689022,2.7080525722140294],[103.2929238652808,2.7080525722140294],[103.2929238652808,2.7076602142465416]]],[[[103.28825998976575,2.7080525722140294],[103.28774178137519,2.7080525722140294],[103.28774178137519,2.7084449303052085],[103.28825998976575,2.7084449303052085],[103.28825998976575,2.7080525722140294]]],[[[103.29344207367136,2.7080525722140294],[103.2929238652808,2.7080525722140294],[103.2929238652808,2.7084449303052085],[103.29344207367136,2.7084449303052085],[103.29344207367136,2.7080525722140294]]],[[[103.28877819815631,2.7092296468587116],[103.28825998976575,2.7092296468587116],[103.28825998976575,2.7096220053210724],[103.28877819815631,2.7096220053210724],[103.28877819815631,2.7092296468587116]]],[[[103.29447849045248,2.7092296468587116],[103.29396028206192,2.7092296468587116],[103.29396028206192,2.7096220053210724],[103.29447849045248,2.7096220053210724],[103.29447849045248,2.7092296468587116]]],[[[103.29396028206192,2.7104067226171025],[103.29344207367136,2.7104067226171025],[103.29344207367136,2.7111914404083293],[103.29396028206192,2.7111914404083293],[103.29396028206192,2.7104067226171025]]],[[[103.2203746906023,2.728455357392314],[103.21985648221174,2.728455357392314],[103.21985648221174,2.7288477219402836],[103.2203746906023,2.7288477219402836],[103.2203746906023,2.728455357392314]]],[[[103.23592094231913,2.731201911846316],[103.23540273392855,2.731201911846316],[103.23540273392855,2.7315942772671913],[103.23592094231913,2.7315942772671913],[103.23592094231913,2.731201911846316]]],[[[103.2203746906023,2.7319866428128408],[103.21985648221174,2.7319866428128408],[103.21985648221174,2.7323790084832815],[103.2203746906023,2.7323790084832815],[103.2203746906023,2.7319866428128408]]],[[[103.23592094231913,2.7319866428128408],[103.23540273392855,2.7319866428128408],[103.23540273392855,2.732771374278531],[103.23592094231913,2.732771374278531],[103.23592094231913,2.7319866428128408]]],[[[103.23592094231913,2.733948472413315],[103.23540273392855,2.733948472413315],[103.23540273392855,2.7343408387079817],[103.23592094231913,2.7343408387079817],[103.23592094231913,2.733948472413315]]],[[[103.23643915070969,2.734733205127547],[103.23592094231913,2.734733205127547],[103.23592094231913,2.73512557167203],[103.23643915070969,2.73512557167203],[103.23643915070969,2.734733205127547]]],[[[103.30743370021649,2.6896118811406016],[103.30691549182593,2.6896118811406016],[103.30691549182593,2.6900042334377763],[103.30743370021649,2.6900042334377763],[103.30743370021649,2.6896118811406016]]],[[[103.31365220090322,2.704521354957365],[103.31313399251266,2.704521354957365],[103.31313399251266,2.7053060690381243],[103.31365220090322,2.7053060690381243],[103.31365220090322,2.704521354957365]]],[[[103.29966057435809,2.705698426263843],[103.29914236596753,2.705698426263843],[103.29914236596753,2.7060907836131443],[103.29966057435809,2.7060907836131443],[103.29966057435809,2.705698426263843]]],[[[103.30691549182593,2.7060907836131443],[103.30639728343537,2.7060907836131443],[103.30639728343537,2.7064831410860464],[103.30691549182593,2.7064831410860464],[103.30691549182593,2.7060907836131443]]],[[[103.29862415757695,2.7060907836131443],[103.29810594918641,2.7060907836131443],[103.29810594918641,2.7068754986825683],[103.29862415757695,2.7068754986825683],[103.29862415757695,2.7060907836131443]]],[[[103.29655132401471,2.7064831410860464],[103.2955149072336,2.7064831410860464],[103.2955149072336,2.7068754986825683],[103.29655132401471,2.7068754986825683],[103.29655132401471,2.7064831410860464]]],[[[103.29966057435809,2.7068754986825683],[103.29914236596753,2.7068754986825683],[103.29914236596753,2.7072678564027277],[103.29966057435809,2.7072678564027277],[103.29966057435809,2.7068754986825683]]],[[[103.303288033092,2.7068754986825683],[103.30276982470144,2.7068754986825683],[103.30276982470144,2.7072678564027277],[103.303288033092,2.7072678564027277],[103.303288033092,2.7068754986825683]]],[[[103.30639728343537,2.7068754986825683],[103.30587907504481,2.7068754986825683],[103.30587907504481,2.7072678564027277],[103.30639728343537,2.7072678564027277],[103.30639728343537,2.7068754986825683]]],[[[103.31520682607491,2.7072678564027277],[103.31468861768434,2.7072678564027277],[103.31468861768434,2.7076602142465416],[103.31520682607491,2.7076602142465416],[103.31520682607491,2.7072678564027277]]],[[[103.31624324285603,2.7104067226171025],[103.31572503446546,2.7104067226171025],[103.31572503446546,2.710799081450807],[103.31624324285603,2.710799081450807],[103.31624324285603,2.7104067226171025]]],[[[103.29499669884304,2.7111914404083293],[103.29447849045248,2.7111914404083293],[103.29447849045248,2.7115837994896883],[103.29499669884304,2.7115837994896883],[103.29499669884304,2.7111914404083293]]],[[[103.29862415757695,2.7115837994896883],[103.29810594918641,2.7115837994896883],[103.29810594918641,2.7123685180239825],[103.29862415757695,2.7123685180239825],[103.29862415757695,2.7115837994896883]]],[[[103.3048426582637,2.711976158694899],[103.30432444987314,2.711976158694899],[103.30432444987314,2.7123685180239825],[103.3048426582637,2.7123685180239825],[103.3048426582637,2.711976158694899]]],[[[103.31624324285603,2.711976158694899],[103.31624324285603,2.7123310672925887],[103.31640607028717,2.711976158694899],[103.31624324285603,2.711976158694899]]],[[[103.29706953240527,2.7127608774769554],[103.29655132401471,2.7127608774769554],[103.29655132401471,2.713153237053836],[103.29706953240527,2.713153237053836],[103.29706953240527,2.7127608774769554]]]]},"properties":{"place_id":"d629c73a-59cb-54ae-8852-0e083170d460","habitat":"open_grassland","habitat_label":"Open grassland or shrubland","resolution_m":50}},{"type":"Feature","geometry":{"type":"MultiPolygon","coordinates":[[[[103.30847011699761,2.705698426263843],[103.30795190860705,2.7049137119359714],[103.30691549182593,2.7053060690381243],[103.30743370021649,2.7060907836131443],[103.30847011699761,2.705698426263843]]],[[[103.29396028206192,2.7060907836131443],[103.29396028206192,2.7064831410860464],[103.29447849045248,2.7064831410860464],[103.29499669884304,2.705698426263843],[103.29447849045248,2.705698426263843],[103.29447849045248,2.7053060690381243],[103.29396028206192,2.7053060690381243],[103.29396028206192,2.705698426263843],[103.2929238652808,2.705698426263843],[103.2929238652808,2.7053060690381243],[103.29188744849968,2.705698426263843],[103.29240565689022,2.7064831410860464],[103.2929238652808,2.7064831410860464],[103.2929238652808,2.7060907836131443],[103.29396028206192,2.7060907836131443]]],[[[103.3006969911392,2.7060907836131443],[103.30017878274865,2.7053060690381243],[103.29914236596753,2.705698426263843],[103.29966057435809,2.7064831410860464],[103.3006969911392,2.7060907836131443]]],[[[103.29085103171856,2.7060907836131443],[103.28981461493743,2.705698426263843],[103.28929640654687,2.7064831410860464],[103.29033282332799,2.7068754986825683],[103.29085103171856,2.7060907836131443]]],[[[103.30587907504481,2.7123685180239825],[103.3048426582637,2.711976158694899],[103.30432444987314,2.7127608774769554],[103.30536086665425,2.713153237053836],[103.30587907504481,2.7123685180239825]]]]},"properties":{"place_id":"d629c73a-59cb-54ae-8852-0e083170d460","habitat":"disturbed_built_edge","habitat_label":"Disturbed, bare or built edge","resolution_m":50}},{"type":"Feature","geometry":{"type":"Polygon","coordinates":[[[103.30432444987314,2.6664633124243733],[103.30432444987314,2.6661573840698907],[103.30399617194212,2.6664633124243733],[103.30432444987314,2.6664633124243733]]]},"properties":{"place_id":"d629c73a-59cb-54ae-8852-0e083170d460","habitat":"permanent_water","habitat_label":"Permanent water","resolution_m":50}},{"type":"Feature","geometry":{"type":"Polygon","coordinates":[[[103.30463801393248,2.665678622629262],[103.30380624148256,2.6672480027066072],[103.30432444987314,2.6672480027066072],[103.30536086665425,2.666070967465936],[103.30463801393248,2.665678622629262]]]},"properties":{"place_id":"d629c73a-59cb-54ae-8852-0e083170d460","habitat":"water_edge","habitat_label":"Water edge","resolution_m":50}}]}