{"type":"FeatureCollection","metadata":{"schema_version":1,"place_id":"d63365b6-acb2-5e63-be7d-3b5fbf826c32","place_name":"Taman Eko Rimba Bukit Bakar","place_type":"park","osm_reference":"relation/18092717","protection_context":"mapped protected boundary","resolution_m":50,"raster_coverage":1.0,"interpretation":"Suggested search habitats, not predicted plant locations or probabilities of presence."},"features":[{"type":"Feature","geometry":{"type":"MultiPolygon","coordinates":[[[[102.26013454289344,5.7181097402081456],[102.260652751284,5.7181097402081456],[102.26090061036732,5.718503579518684],[102.260839,5.718244293836879],[102.2601926,5.7174475938376474],[102.25968125049269,5.718503579518684],[102.26013454289344,5.718503579518684],[102.26013454289344,5.7181097402081456]]],[[[102.260652751284,5.71889741909313],[102.260652751284,5.719291258931501],[102.26013454289344,5.719291258931501],[102.26013454289344,5.71889741909313],[102.25961633450288,5.718825366371351],[102.2577387,5.7202104938349025],[102.2574771,5.721059293834048],[102.25807979999998,5.721031493834113],[102.25860889999998,5.72012959383497],[102.2610985,5.7193363938357935],[102.260652751284,5.71889741909313]]]]},"properties":{"place_id":"d63365b6-acb2-5e63-be7d-3b5fbf826c32","habitat":"forest_interior","habitat_label":"Forest interior","resolution_m":50}},{"type":"Feature","geometry":{"type":"MultiPolygon","coordinates":[[[[102.26013454289344,5.717604654096282],[102.26009342057962,5.717715901161495],[102.26013454289344,5.717715901161495],[102.26013454289344,5.717604654096282]]],[[[102.260652751284,5.719291258931501],[102.26099419280969,5.71889741909313],[102.260652751284,5.7181097402081456],[102.26013454289344,5.7181097402081456],[102.25961633450288,5.71889741909313],[102.26013454289344,5.71889741909313],[102.26013454289344,5.719291258931501],[102.260652751284,5.719291258931501]]]]},"properties":{"place_id":"d63365b6-acb2-5e63-be7d-3b5fbf826c32","habitat":"forest_edge_opening","habitat_label":"Forest edge or opening","resolution_m":50}},{"type":"Feature","geometry":{"type":"Polygon","coordinates":[[[102.260652751284,5.71889741909313],[102.260652751284,5.718503579518684],[102.26013454289344,5.718503579518684],[102.26013454289344,5.71889741909313],[102.260652751284,5.71889741909313]]]},"properties":{"place_id":"d63365b6-acb2-5e63-be7d-3b5fbf826c32","habitat":"open_grassland","habitat_label":"Open grassland or shrubland","resolution_m":50}}]}