{"type":"FeatureCollection","metadata":{"schema_version":1,"place_id":"d709c589-b06c-502b-ae28-0173d6d088c8","place_name":"Taman Botani Negara Shah Alam","place_type":"park","osm_reference":"relation/17260016","protection_context":"mapped protected boundary","resolution_m":50,"raster_coverage":1.0,"interpretation":"Suggested search habitats, not predicted plant locations or probabilities of presence."},"features":[{"type":"Feature","geometry":{"type":"MultiPolygon","coordinates":[[[[101.51028700175219,3.0941956203280165],[101.51028700175219,3.0945881088767604],[101.51132341853331,3.0945881088767604],[101.51132341853331,3.0941956203280165],[101.51028700175219,3.0941956203280165]]],[[[101.51235983531443,3.095373086398692],[101.512878043705,3.095373086398692],[101.512878043705,3.0949805975669786],[101.51235983531443,3.0949805975669786],[101.51235983531443,3.095373086398692]]],[[[101.51235983531443,3.095765575371917],[101.51184162692388,3.0956712523653387],[101.51184162692388,3.095765575371917],[101.51235983531443,3.095765575371917]]],[[[101.51235983531443,3.09545974710317],[101.51184162692388,3.095373086398692],[101.51184162692388,3.09546132815997],[101.51235983531443,3.09545974710317]]],[[[101.52033700749949,3.10832529734144],[101.52040465689072,3.102830401109056],[101.51961475278229,3.1016529269639723],[101.52042398528823,3.1012604358659046],[101.52013296117285,3.0973355326802916],[101.520472306282,3.0973355326802916],[101.5205009,3.095012996576424],[101.5196773,3.0950449965763975],[101.518522,3.095795596575566],[101.512878043705,3.095663039088113],[101.51391446048612,3.0961580644866706],[101.51391446048612,3.096550553742973],[101.51443266887668,3.096550553742973],[101.51495087726724,3.095765575371917],[101.51598729404836,3.0961580644866706],[101.51495087726724,3.097728022361346],[101.51443266887668,3.097728022361346],[101.51391446048612,3.0969430431408407],[101.51339625209555,3.0969430431408407],[101.51339625209555,3.0973355326802916],[101.512878043705,3.0973355326802916],[101.512878043705,3.0969430431408407],[101.51184162692388,3.0969430431408407],[101.51184162692388,3.096550553742973],[101.51080521014275,3.0969430431408407],[101.51080521014275,3.096550553742973],[101.51028700175219,3.096550553742973],[101.51028700175219,3.095765575371917],[101.50976879336163,3.095689674542201],[101.5005449,3.0957833965755928],[101.50053929999999,3.096140496575163],[101.5014838,3.0960359965753144],[101.5015736656004,3.096550553742973],[101.50199566750322,3.096550553742973],[101.50162108082641,3.0969430431408407],[101.5027964,3.099379996571668],[101.5009186,3.099152996571937],[101.50089739999999,3.0980417965731406],[101.5004084,3.0989554965721293],[101.49667909999998,3.100269996570735],[101.49569959999998,3.0986126965725025],[101.49509219999999,3.098498596572649],[101.4939348,3.101596296569299],[101.49214970808258,3.1016529269639723],[101.49214970808258,3.1020454182038417],[101.49165961493898,3.1020454182038417],[101.49176359999998,3.10497069656562],[101.49330849999998,3.1078846965624654],[101.49316039999998,3.108782496561495],[101.49406,3.1088749965614],[101.49429699999999,3.1097789965604172],[101.49644699999999,3.110114996560085],[101.4970696,3.113875796555987],[101.4975799,3.1139996965558514],[101.4999695213796,3.1177451842830117],[101.50044104233154,3.1177451842830117],[101.5009592507221,3.1191117673542266],[101.50137639999998,3.11798399655157],[101.5038976,3.119044596550407],[101.50363622784793,3.119707671055196],[101.50562312623715,3.120100168837459],[101.50562312623715,3.120492666762374],[101.50665954301827,3.120492666762374],[101.50665954301827,3.120885164829957],[101.50769595979939,3.120885164829957],[101.50769595979939,3.121277663040227],[101.50873237658051,3.1216701613932027],[101.50873237658051,3.122062659888902],[101.50821416818995,3.122062659888902],[101.50821416818995,3.1228476573085415],[101.50873237658051,3.1228476573085415],[101.50873237658051,3.1232401562325185],[101.50821416818995,3.1232401562325185],[101.50821416818995,3.123632655299292],[101.50735065403369,3.1232401562325185],[101.50689311568296,3.124417653861297],[101.50769595979939,3.1248101533565653],[101.50769595979939,3.125595152775725],[101.50717775140883,3.125595152775725],[101.50717775140883,3.1267726529762907],[101.5061413346277,3.1271651533290394],[101.5061413346277,3.1275576538247636],[101.50717775140883,3.1279501544634836],[101.50665954301827,3.1287351561699777],[101.50925058497107,3.128342655245215],[101.50925058497107,3.1279501544634836],[101.51017891056581,3.1279501544634836],[101.51028700175219,3.1275576538247636],[101.51184162692388,3.1271651533290394],[101.51235983531443,3.1263801527665014],[101.5154690856578,3.125987652699652],[101.5154690856578,3.1252026529947026],[101.51598729404836,3.1252026529947026],[101.51598729404836,3.1248101533565653],[101.51650550243892,3.1248101533565653],[101.51650550243892,3.1252026529947026],[101.51754191922004,3.1252026529947026],[101.51754191922004,3.125595152775725],[101.51967591827564,3.125595152775725],[101.51961475278229,3.1248970897315416],[101.51909654439173,3.1248101533565653],[101.51909654439173,3.1232401562325185],[101.51857833600116,3.1232401562325185],[101.51910930000001,3.1223202965468655],[101.5164104,3.1210267965482497],[101.5176952,3.117105896552487],[101.51909654439173,3.117124206464062],[101.5180601276106,3.116567693930356],[101.5180601276106,3.114997708788231],[101.51754191922004,3.114997708788231],[101.51754191922004,3.114212717071736],[101.5180601276106,3.114212717071736],[101.5180601276106,3.1138202214270674],[101.51909654439173,3.114212717071736],[101.51909654439173,3.1153902048600934],[101.51961475278229,3.1153902048600934],[101.51961475278229,3.116567693930356],[101.52013296117285,3.116567693930356],[101.52033700749949,3.10832529734144]],[[101.52013296117285,3.1098952728072806],[101.51961475278229,3.1098952728072806],[101.51909654439173,3.1106802613932136],[101.5180601276106,3.110287767029147],[101.5180601276106,3.1095027787275953],[101.51857833600116,3.1095027787275953],[101.51857833600116,3.1091102847900705],[101.51961475278229,3.1091102847900705],[101.52013296117285,3.1098952728072806]],[[101.50665954301827,3.117352687356275],[101.50717775140883,3.117352687356275],[101.50769595979939,3.116567693930356],[101.50873237658051,3.116567693930356],[101.50873237658051,3.1169601905720623],[101.50925058497107,3.1169601905720623],[101.50821416818995,3.1181376813522914],[101.50717775140883,3.1181376813522914],[101.50665954301827,3.117352687356275]],[[101.512878043705,3.1087177909946924],[101.51235983531443,3.1087177909946924],[101.51235983531443,3.10832529734144],[101.51339625209555,3.1079328038302956],[101.51339625209555,3.10832529734144],[101.51391446048612,3.10832529734144],[101.51391446048612,3.1091102847900705],[101.51443266887668,3.1091102847900705],[101.51443266887668,3.110287767029147],[101.51391446048612,3.110287767029147],[101.51391446048612,3.1106802613932136],[101.512878043705,3.110287767029147],[101.512878043705,3.1087177909946924]],[[101.51028700175219,3.10714781723426],[101.51080521014275,3.10714781723426],[101.51080521014275,3.106755324149332],[101.51235983531443,3.106755324149332],[101.512878043705,3.107540310461242],[101.51235983531443,3.107540310461242],[101.51235983531443,3.1079328038302956],[101.51080521014275,3.1079328038302956],[101.51028700175219,3.10714781723426]],[[101.49266791647312,3.1036153845816914],[101.49370433325426,3.1032228927744367],[101.49422254164482,3.104007876530837],[101.4931861248637,3.1044003686218913],[101.49266791647312,3.1036153845816914]],[[101.49370433325426,3.1020454182038417],[101.49474075003538,3.1016529269639723],[101.49474075003538,3.1020454182038417],[101.49525895842594,3.1020454182038417],[101.49525895842594,3.102830401109056],[101.49422254164482,3.1032228927744367],[101.49422254164482,3.102830401109056],[101.49370433325426,3.102830401109056],[101.49370433325426,3.1020454182038417]],[[101.51080521014275,3.1008679449096186],[101.51132341853331,3.1008679449096186],[101.51184162692388,3.1000829634223233],[101.512878043705,3.1004754540950974],[101.51184162692388,3.1016529269639723],[101.51132341853331,3.1016529269639723],[101.51080521014275,3.1008679449096186]],[[101.5180601276106,3.1004754540950974],[101.51909654439173,3.1000829634223233],[101.51961475278229,3.1008679449096186],[101.51857833600116,3.1012604358659046],[101.5180601276106,3.1004754540950974]],[[101.51184162692388,3.09812051218402],[101.512878043705,3.097728022361346],[101.51339625209555,3.0985130021483314],[101.51235983531443,3.0989054922543002],[101.51184162692388,3.09812051218402]]],[[[101.52013296117285,3.0945881088767604],[101.51702371082949,3.0945881088767604],[101.51702371082949,3.0949805975669786],[101.51754191922004,3.0949805975669786],[101.51754191922004,3.095373086398692],[101.51702371082949,3.0954832150570293],[101.51838719999999,3.095494896575888],[101.52013296117285,3.0945881088767604]]],[[[101.51650550243892,3.095373086398692],[101.51598729404836,3.095373086398692],[101.51650550243892,3.0945881088767604],[101.51391446048612,3.0945881088767604],[101.51391446048612,3.0949805975669786],[101.512878043705,3.095458166046374],[101.51650550243892,3.095373086398692]]],[[[101.50976879336163,3.095373086398692],[101.50925058497107,3.095373086398692],[101.50925058497107,3.0945881088767604],[101.50769595979939,3.0945881088767604],[101.50769595979939,3.0949805975669786],[101.50717775140883,3.0949805975669786],[101.50716499999999,3.095475596575892],[101.50976879336163,3.095373086398692]]],[[[101.52013296117285,3.116567693930356],[101.52023070131321,3.1169601905720623],[101.52023553341259,3.116567693930356],[101.52013296117285,3.116567693930356]]],[[[101.52013296117285,3.1171377482458036],[101.51961475278229,3.1169601905720623],[101.51961475278229,3.1171309773549116],[101.52013296117285,3.1171377482458036]]]]},"properties":{"place_id":"d709c589-b06c-502b-ae28-0173d6d088c8","habitat":"forest_interior","habitat_label":"Forest interior","resolution_m":50}},{"type":"Feature","geometry":{"type":"MultiPolygon","coordinates":[[[[101.5011113204999,3.0961580644866706],[101.50111830000002,3.0961644965751693],[101.50112840756742,3.0961580644866706],[101.5011113204999,3.0961580644866706]]],[[[101.5009592507221,3.0961580644866706],[101.5009592507221,3.0961795039303466],[101.50098418256408,3.0961580644866706],[101.5009592507221,3.0961580644866706]]],[[[101.50199566750322,3.0969430431408407],[101.50199566750322,3.096550553742973],[101.5015736656004,3.096550553742973],[101.50157949999998,3.0969103965743674],[101.50199566750322,3.0969430431408407]]],[[[101.512878043705,3.097728022361346],[101.51184162692388,3.09812051218402],[101.51235983531443,3.0989054922543002],[101.51339625209555,3.0985130021483314],[101.512878043705,3.097728022361346]]],[[[101.49422254164482,3.100729553899002],[101.49417659851574,3.1008679449096186],[101.49422254164482,3.1008679449096186],[101.49422254164482,3.100729553899002]]],[[[101.512878043705,3.1004754540950974],[101.51184162692388,3.1000829634223233],[101.51080521014275,3.1012604358659046],[101.51184162692388,3.1016529269639723],[101.512878043705,3.1004754540950974]]],[[[101.49214970808258,3.1020454182038417],[101.49214970808258,3.1016529269639723],[101.4931861248637,3.1015930394573776],[101.49165919999999,3.101586396569275],[101.49165961493898,3.1020454182038417],[101.49214970808258,3.1020454182038417]]],[[[101.49474075003538,3.1016529269639723],[101.49370433325426,3.1020454182038417],[101.49370433325426,3.102830401109056],[101.49422254164482,3.102830401109056],[101.49422254164482,3.1032228927744367],[101.49525895842594,3.102830401109056],[101.49525895842594,3.1020454182038417],[101.49474075003538,3.1020454182038417],[101.49474075003538,3.1016529269639723]]],[[[101.49370433325426,3.1032228927744367],[101.49266791647312,3.1036153845816914],[101.4931861248637,3.1044003686218913],[101.49422254164482,3.104007876530837],[101.49370433325426,3.1032228927744367]]],[[[101.51235983531443,3.106755324149332],[101.51080521014275,3.106755324149332],[101.51028700175219,3.107540310461242],[101.51080521014275,3.107540310461242],[101.51080521014275,3.1079328038302956],[101.51235983531443,3.1079328038302956],[101.51235983531443,3.107540310461242],[101.512878043705,3.107540310461242],[101.51235983531443,3.106755324149332]]],[[[101.51391446048612,3.10832529734144],[101.51339625209555,3.10832529734144],[101.51339625209555,3.1079328038302956],[101.51235983531443,3.10832529734144],[101.51235983531443,3.1087177909946924],[101.512878043705,3.1087177909946924],[101.512878043705,3.110287767029147],[101.51339625209555,3.110287767029147],[101.51339625209555,3.1106802613932136],[101.51443266887668,3.110287767029147],[101.51391446048612,3.10832529734144]]],[[[101.50925058497107,3.1169601905720623],[101.50873237658051,3.1169601905720623],[101.50873237658051,3.116567693930356],[101.50769595979939,3.116567693930356],[101.50665954301827,3.1177451842830117],[101.50717775140883,3.1177451842830117],[101.50717775140883,3.1181376813522914],[101.50821416818995,3.1181376813522914],[101.50925058497107,3.1169601905720623]]],[[[101.49992283394097,3.117352687356275],[101.49971910870666,3.117352687356275],[101.49992283394097,3.117672006361674],[101.49992283394097,3.117352687356275]]],[[[101.4999695213796,3.1177451842830117],[101.50044104233154,3.1184842468042184],[101.50044104233154,3.1177451842830117],[101.4999695213796,3.1177451842830117]]],[[[101.5009592507221,3.1185301785641313],[101.50047034672552,3.1185301785641313],[101.500916,3.119228696550207],[101.5009592507221,3.1191117673542266],[101.5009592507221,3.1185301785641313]]],[[[101.50821416818995,3.122062659888902],[101.50873237658051,3.122062659888902],[101.50873237658051,3.1216701613932027],[101.50821416818995,3.1216701613932027],[101.50769595979939,3.120885164829957],[101.50665954301827,3.120885164829957],[101.50665954301827,3.120492666762374],[101.50562312623715,3.120492666762374],[101.50562312623715,3.120100168837459],[101.50363622784793,3.119707671055196],[101.50352359999998,3.1199933965493805],[101.50799679999999,3.1215387965477204],[101.50735065403369,3.1232401562325185],[101.50769595979939,3.123632655299292],[101.50873237658051,3.1232401562325185],[101.50873237658051,3.1228476573085415],[101.50821416818995,3.1228476573085415],[101.50821416818995,3.122062659888902]]],[[[101.50925058497107,3.1279501544634836],[101.50925058497107,3.128342655245215],[101.50665954301827,3.1287351561699777],[101.50717775140883,3.1279501544634836],[101.50665954301827,3.1279501544634836],[101.5061413346277,3.1271651533290394],[101.50717775140883,3.1267726529762907],[101.50717775140883,3.125595152775725],[101.50769595979939,3.125595152775725],[101.50769595979939,3.1248101533565653],[101.50689311568296,3.124417653861297],[101.5058666,3.126900096541916],[101.50616040000001,3.1288882965397447],[101.50719969999997,3.1289408965397136],[101.5089143,3.128498596540162],[101.51017891056581,3.1279501544634836],[101.50925058497107,3.1279501544634836]]],[[[101.51235983531443,3.1263801527665014],[101.51235983531443,3.1267726529762907],[101.51184162692388,3.1267726529762907],[101.51132341853331,3.1274537992700067],[101.51379906075273,3.1263801527665014],[101.51235983531443,3.1263801527665014]]],[[[101.51028700175219,3.1275576538247636],[101.51028700175219,3.1279032769978423],[101.51108394811256,3.1275576538247636],[101.51028700175219,3.1275576538247636]]],[[[101.51650550243892,3.0949805975669786],[101.51598729404836,3.0949805975669786],[101.51598729404836,3.095373086398692],[101.51702371082949,3.0954832150570293],[101.51754191922004,3.095373086398692],[101.51702371082949,3.0945881088767604],[101.52022179999999,3.0947529965767067],[101.52023259999999,3.0944128965770457],[101.51210009999998,3.0940646965774308],[101.5071439,3.0941854965773015],[101.50716332341402,3.095373086398692],[101.50769595979939,3.0945881088767604],[101.50925058497107,3.0945881088767604],[101.50925058497107,3.095373086398692],[101.50976879336163,3.095467652387191],[101.51235983531443,3.095373086398692],[101.51235983531443,3.0949805975669786],[101.51339625209555,3.095373086398692],[101.51391446048612,3.0945881088767604],[101.51650550243892,3.0945881088767604],[101.51650550243892,3.0949805975669786]],[[101.51132341853331,3.0941956203280165],[101.51132341853331,3.0945881088767604],[101.51028700175219,3.0945881088767604],[101.51028700175219,3.0941956203280165],[101.51132341853331,3.0941956203280165]]],[[[101.51650550243892,3.0956647172746354],[101.51702371082949,3.095765575371917],[101.51702371082949,3.095695143423585],[101.51650550243892,3.0956647172746354]]],[[[101.50976879336163,3.095765575371917],[101.51028700175219,3.095765575371917],[101.51028700175219,3.096550553742973],[101.51080521014275,3.096550553742973],[101.51080521014275,3.0969430431408407],[101.51132341853331,3.0969430431408407],[101.51132341853331,3.096550553742973],[101.51184162692388,3.096550553742973],[101.51184162692388,3.0969430431408407],[101.512878043705,3.0969430431408407],[101.512878043705,3.0973355326802916],[101.51391446048612,3.0969430431408407],[101.51443266887668,3.097728022361346],[101.51495087726724,3.097728022361346],[101.51495087726724,3.0973355326802916],[101.5154690856578,3.0973355326802916],[101.5154690856578,3.096550553742973],[101.51598729404836,3.096550553742973],[101.5154690856578,3.095765575371917],[101.51495087726724,3.095765575371917],[101.51443266887668,3.096550553742973],[101.51391446048612,3.096550553742973],[101.51391446048612,3.0961580644866706],[101.512878043705,3.095663039088113],[101.50976879336163,3.095765575371917]]],[[[101.512878043705,3.095458166046374],[101.51235983531443,3.095373086398692],[101.51235983531443,3.09545974710317],[101.512878043705,3.095458166046374]]],[[[101.52013296117285,3.0973355326802916],[101.52013296117285,3.0985130021483314],[101.52045780998387,3.0985130021483314],[101.520472306282,3.0973355326802916],[101.52013296117285,3.0973355326802916]]],[[[101.52044331368575,3.0996904728912775],[101.52013296117285,3.1000829634223233],[101.52043848158635,3.1000829634223233],[101.52044331368575,3.0996904728912775]]],[[[101.51909654439173,3.1000829634223233],[101.5180601276106,3.1004754540950974],[101.51857833600116,3.1012604358659046],[101.51961475278229,3.1008679449096186],[101.51909654439173,3.1000829634223233]]],[[[101.51961475278229,3.1020454182038417],[101.52013296117285,3.1020454182038417],[101.52040465689072,3.102830401109056],[101.52042398528823,3.1012604358659046],[101.51961475278229,3.1016529269639723],[101.51961475278229,3.1020454182038417]]],[[[101.52039499269199,3.1036153845816914],[101.52013296117285,3.104007876530837],[101.52039016059261,3.104007876530837],[101.52039499269199,3.1036153845816914]]],[[[101.52038532849322,3.1044003686218913],[101.52013296117285,3.106755324149332],[101.52035633589698,3.106755324149332],[101.52038532849322,3.1044003686218913]]],[[[101.52034183959886,3.1079328038302956],[101.52013296117285,3.10832529734144],[101.52033700749949,3.10832529734144],[101.52034183959886,3.1079328038302956]]],[[[101.52032734330072,3.1091102847900705],[101.52013296117285,3.1095027787275953],[101.52032251120136,3.1095027787275953],[101.52032734330072,3.1091102847900705]]],[[[101.5180601276106,3.110287767029147],[101.51909654439173,3.1106802613932136],[101.52013296117285,3.1095027787275953],[101.51961475278229,3.1095027787275953],[101.51961475278229,3.1091102847900705],[101.51857833600116,3.1091102847900705],[101.51857833600116,3.1095027787275953],[101.5180601276106,3.1095027787275953],[101.5180601276106,3.110287767029147]]],[[[101.5202935186051,3.1118577453387846],[101.52013296117285,3.1122502402718264],[101.52028868650571,3.1122502402718264],[101.5202935186051,3.1118577453387846]]],[[[101.51961475278229,3.1153902048600934],[101.51909654439173,3.1153902048600934],[101.51909654439173,3.114212717071736],[101.5180601276106,3.1138202214270674],[101.5180601276106,3.114212717071736],[101.51754191922004,3.114212717071736],[101.51754191922004,3.114997708788231],[101.5180601276106,3.114997708788231],[101.5180601276106,3.116567693930356],[101.51909654439173,3.117124206464062],[101.52013296117285,3.1169601905720623],[101.52013296117285,3.116567693930356],[101.51961475278229,3.116567693930356],[101.51961475278229,3.1153902048600934]]],[[[101.52024036551195,3.1161751974311374],[101.52013296117285,3.116567693930356],[101.52023553341259,3.116567693930356],[101.52024036551195,3.1161751974311374]]],[[[101.52023070131321,3.1169601905720623],[101.52013296117285,3.1171377482458036],[101.5202285,3.1171389965524474],[101.52023070131321,3.1169601905720623]]],[[[101.51909654439173,3.1232401562325185],[101.51909654439173,3.1248101533565653],[101.5193472747318,3.1248101533565653],[101.51911619895111,3.122455158527341],[101.51909654439173,3.1228476573085415],[101.51857833600116,3.1228476573085415],[101.51857833600116,3.1232401562325185],[101.51909654439173,3.1232401562325185]]],[[[101.51961475278229,3.1252026529947026],[101.51968,3.1249182965440565],[101.51961475278229,3.1248970897315416],[101.51961475278229,3.1252026529947026]]],[[[101.51391446048612,3.1263301057707444],[101.5196731,3.1260624965428323],[101.51967591827564,3.125595152775725],[101.51754191922004,3.125595152775725],[101.51754191922004,3.1252026529947026],[101.51650550243892,3.1252026529947026],[101.51650550243892,3.1248101533565653],[101.51598729404836,3.1248101533565653],[101.51598729404836,3.1252026529947026],[101.5154690856578,3.1252026529947026],[101.5154690856578,3.125987652699652],[101.51391446048612,3.125987652699652],[101.51391446048612,3.1263301057707444]]]]},"properties":{"place_id":"d709c589-b06c-502b-ae28-0173d6d088c8","habitat":"forest_edge_opening","habitat_label":"Forest edge or opening","resolution_m":50}},{"type":"Feature","geometry":{"type":"MultiPolygon","coordinates":[[[[101.512878043705,3.0949805975669786],[101.51339625209555,3.0949805975669786],[101.51339625209555,3.0945881088767604],[101.512878043705,3.0945881088767604],[101.512878043705,3.0949805975669786]]],[[[101.49474075003538,3.102830401109056],[101.49474075003538,3.1020454182038417],[101.49422254164482,3.1020454182038417],[101.49422254164482,3.102830401109056],[101.49474075003538,3.102830401109056]]],[[[101.49370433325426,3.104007876530837],[101.49370433325426,3.1036153845816914],[101.4931861248637,3.1036153845816914],[101.4931861248637,3.104007876530837],[101.49370433325426,3.104007876530837]]],[[[101.50769595979939,3.1232401562325185],[101.50821416818995,3.1232401562325185],[101.50821416818995,3.1228476573085415],[101.50769595979939,3.1228476573085415],[101.50769595979939,3.1232401562325185]]],[[[101.50717775140883,3.125595152775725],[101.50717775140883,3.1248101533565653],[101.50673265594652,3.1248101533565653],[101.50665954301827,3.125595152775725],[101.50717775140883,3.125595152775725]]],[[[101.50665954301827,3.1267726529762907],[101.50665954301827,3.125595152775725],[101.50641173647367,3.125595152775725],[101.5059202739245,3.1267726529762907],[101.50665954301827,3.1267726529762907]]],[[[101.51235983531443,3.1267726529762907],[101.512878043705,3.1267795830298395],[101.512878043705,3.1267726529762907],[101.51235983531443,3.1267726529762907]]],[[[101.5154690856578,3.096550553742973],[101.5154690856578,3.0961580644866706],[101.51495087726724,3.0961580644866706],[101.51495087726724,3.096550553742973],[101.5154690856578,3.096550553742973]]],[[[101.51443266887668,3.096550553742973],[101.51443266887668,3.0973355326802916],[101.51495087726724,3.0973355326802916],[101.51495087726724,3.096550553742973],[101.51443266887668,3.096550553742973]]],[[[101.52013296117285,3.1020454182038417],[101.52041915318887,3.1016529269639723],[101.52013296117285,3.1016529269639723],[101.52013296117285,3.1020454182038417]]],[[[101.51857833600116,3.1095027787275953],[101.51857833600116,3.110287767029147],[101.51909654439173,3.110287767029147],[101.51961475278229,3.1095027787275953],[101.51857833600116,3.1095027787275953]]],[[[101.51909654439173,3.1232401562325185],[101.5191362774731,3.1228476573085415],[101.51909654439173,3.1228476573085415],[101.51909654439173,3.1232401562325185]]],[[[101.51702371082949,3.125595152775725],[101.51702371082949,3.125987652699652],[101.51650550243892,3.125987652699652],[101.51650550243892,3.1252026529947026],[101.51598729404836,3.1252026529947026],[101.51598729404836,3.125987652699652],[101.5154690856578,3.1261178657630433],[101.51961475278229,3.126061652222111],[101.51754191922004,3.125987652699652],[101.51754191922004,3.125595152775725],[101.51702371082949,3.125595152775725]]]]},"properties":{"place_id":"d709c589-b06c-502b-ae28-0173d6d088c8","habitat":"open_grassland","habitat_label":"Open grassland or shrubland","resolution_m":50}},{"type":"Feature","geometry":{"type":"MultiPolygon","coordinates":[[[[101.51339625209555,3.09812051218402],[101.51235983531443,3.097728022361346],[101.51184162692388,3.0985130021483314],[101.512878043705,3.0989054922543002],[101.51339625209555,3.09812051218402]]],[[[101.51235983531443,3.1004754540950974],[101.51235983531443,3.1000829634223233],[101.51184162692388,3.1000829634223233],[101.51132341853331,3.1008679449096186],[101.51235983531443,3.1012604358659046],[101.51235983531443,3.1008679449096186],[101.512878043705,3.1008679449096186],[101.512878043705,3.1004754540950974],[101.51235983531443,3.1004754540950974]]],[[[101.49165926014108,3.1016529269639723],[101.49214970808258,3.1015885305251607],[101.49165919999999,3.101586396569275],[101.49165926014108,3.1016529269639723]]],[[[101.50821416818995,3.122062659888902],[101.50873237658051,3.122062659888902],[101.50873237658051,3.1216701613932027],[101.50821416818995,3.1216701613932027],[101.50769595979939,3.120885164829957],[101.50665954301827,3.120885164829957],[101.50665954301827,3.120492666762374],[101.50562312623715,3.120492666762374],[101.50562312623715,3.120100168837459],[101.50363622784793,3.119707671055196],[101.50352359999998,3.1199933965493805],[101.50799679999999,3.1215387965477204],[101.50749971801174,3.1228476573085415],[101.50821416818995,3.122062659888902]]],[[[101.512878043705,3.1263801527665014],[101.512878043705,3.1267726529762907],[101.51184162692388,3.1267726529762907],[101.51132341853331,3.1274537992700067],[101.51379906075273,3.1263801527665014],[101.512878043705,3.1263801527665014]]],[[[101.50925058497107,3.1279501544634836],[101.50925058497107,3.128342655245215],[101.50665954301827,3.1287351561699777],[101.50717775140883,3.1279501544634836],[101.5061413346277,3.1275576538247636],[101.5061413346277,3.1263801527665014],[101.50665954301827,3.1263801527665014],[101.50665954301827,3.125987652699652],[101.50625088350215,3.125987652699652],[101.5058666,3.126900096541916],[101.50616040000001,3.1288882965397447],[101.50719969999997,3.1289408965397136],[101.5089143,3.128498596540162],[101.51017891056581,3.1279501544634836],[101.50925058497107,3.1279501544634836]]],[[[101.51028700175219,3.1279032769978423],[101.51108394811256,3.1275576538247636],[101.51028700175219,3.1275576538247636],[101.51028700175219,3.1279032769978423]]],[[[101.50717775140883,3.095373086398692],[101.50769595979939,3.0945881088767604],[101.50925058497107,3.0945881088767604],[101.50925058497107,3.095373086398692],[101.51184162692388,3.09546132815997],[101.51235983531443,3.095373086398692],[101.51235983531443,3.0949805975669786],[101.51339625209555,3.0949805975669786],[101.51339625209555,3.0945881088767604],[101.52023259999999,3.0944128965770457],[101.51210009999998,3.0940646965774308],[101.5071439,3.0941854965773015],[101.50717775140883,3.095373086398692]],[[101.51028700175219,3.0941956203280165],[101.51132341853331,3.0941956203280165],[101.51132341853331,3.0945881088767604],[101.51028700175219,3.0945881088767604],[101.51028700175219,3.0941956203280165]]],[[[101.50976879336163,3.095765575371917],[101.51028700175219,3.095765575371917],[101.51028700175219,3.096550553742973],[101.51080521014275,3.096550553742973],[101.51080521014275,3.0969430431408407],[101.51132341853331,3.0969430431408407],[101.51132341853331,3.096550553742973],[101.51235983531443,3.0969430431408407],[101.51235983531443,3.096550553742973],[101.51339625209555,3.0961580644866706],[101.51339625209555,3.095765575371917],[101.512878043705,3.095663039088113],[101.50976879336163,3.095765575371917]]],[[[101.512878043705,3.095458166046374],[101.51235983531443,3.095373086398692],[101.51235983531443,3.09545974710317],[101.512878043705,3.095458166046374]]],[[[101.51909654439173,3.1004754540950974],[101.51909654439173,3.1000829634223233],[101.51857833600116,3.1000829634223233],[101.5180601276106,3.1008679449096186],[101.51909654439173,3.1012604358659046],[101.51909654439173,3.1008679449096186],[101.51961475278229,3.1008679449096186],[101.51961475278229,3.1004754540950974],[101.51909654439173,3.1004754540950974]]],[[[101.51857833600116,3.114212717071736],[101.51857833600116,3.1138202214270674],[101.51754191922004,3.114212717071736],[101.51754191922004,3.114997708788231],[101.5180601276106,3.114997708788231],[101.5180601276106,3.1153902048600934],[101.51909654439173,3.114997708788231],[101.51909654439173,3.114212717071736],[101.51857833600116,3.114212717071736]]],[[[101.51909654439173,3.1248101533565653],[101.5192348,3.1247735965442223],[101.51909654439173,3.1240251545088786],[101.51909654439173,3.1248101533565653]]],[[[101.51961475278229,3.1252026529947026],[101.51968,3.1249182965440565],[101.51961475278229,3.1248970897315416],[101.51961475278229,3.1252026529947026]]],[[[101.51391446048612,3.125987652699652],[101.51391446048612,3.1263301057707444],[101.5196731,3.1260624965428323],[101.51967591827564,3.125595152775725],[101.51961475278229,3.125987652699652],[101.51391446048612,3.125987652699652]]]]},"properties":{"place_id":"d709c589-b06c-502b-ae28-0173d6d088c8","habitat":"disturbed_built_edge","habitat_label":"Disturbed, bare or built edge","resolution_m":50}},{"type":"Feature","geometry":{"type":"MultiPolygon","coordinates":[[[[101.51339625209555,3.0961580644866706],[101.512878043705,3.0961580644866706],[101.512878043705,3.0969430431408407],[101.51339625209555,3.0969430431408407],[101.51339625209555,3.0961580644866706]]],[[[101.51184162692388,3.1008679449096186],[101.51132341853331,3.1008679449096186],[101.51132341853331,3.1012604358659046],[101.51184162692388,3.1012604358659046],[101.51184162692388,3.1008679449096186]]]]},"properties":{"place_id":"d709c589-b06c-502b-ae28-0173d6d088c8","habitat":"cropland","habitat_label":"Cropland","resolution_m":50}},{"type":"Feature","geometry":{"type":"MultiPolygon","coordinates":[[[[101.51650550243892,3.0945881088767604],[101.51650550243892,3.095373086398692],[101.51702371082949,3.095373086398692],[101.51702371082949,3.0945881088767604],[101.51650550243892,3.0945881088767604]]],[[[101.51080521014275,3.107540310461242],[101.51235983531443,3.107540310461242],[101.51235983531443,3.10714781723426],[101.51080521014275,3.10714781723426],[101.51080521014275,3.107540310461242]]],[[[101.512878043705,3.1087177909946924],[101.51339625209555,3.1087177909946924],[101.51339625209555,3.10832529734144],[101.512878043705,3.10832529734144],[101.512878043705,3.1087177909946924]]],[[[101.51339625209555,3.110287767029147],[101.51391446048612,3.110287767029147],[101.51391446048612,3.1091102847900705],[101.51339625209555,3.1091102847900705],[101.51339625209555,3.110287767029147]]],[[[101.51857833600116,3.116567693930356],[101.51909654439173,3.116567693930356],[101.51909654439173,3.1153902048600934],[101.51857833600116,3.1153902048600934],[101.51857833600116,3.116567693930356]]],[[[101.51909654439173,3.1169601905720623],[101.51961475278229,3.1169601905720623],[101.51961475278229,3.116567693930356],[101.51909654439173,3.116567693930356],[101.51909654439173,3.1169601905720623]]],[[[101.50873237658051,3.1169601905720623],[101.50769595979939,3.1169601905720623],[101.50717775140883,3.1177451842830117],[101.50821416818995,3.1177451842830117],[101.50873237658051,3.1169601905720623]]]]},"properties":{"place_id":"d709c589-b06c-502b-ae28-0173d6d088c8","habitat":"permanent_water","habitat_label":"Permanent water","resolution_m":50}},{"type":"Feature","geometry":{"type":"MultiPolygon","coordinates":[[[[101.51650550243892,3.0949805975669786],[101.51650550243892,3.095373086398692],[101.51702371082949,3.095373086398692],[101.51702371082949,3.0949805975669786],[101.51650550243892,3.0949805975669786]]],[[[101.51702371082949,3.096550553742973],[101.51754191922004,3.096550553742973],[101.51754191922004,3.0961580644866706],[101.51702371082949,3.0961580644866706],[101.51702371082949,3.096550553742973]]],[[[101.49525895842594,3.0985130021483314],[101.49547501621826,3.0985130021483314],[101.4954099,3.09848409657264],[101.49525895842594,3.0985130021483314]]],[[[101.51080521014275,3.107540310461242],[101.51132341853331,3.107540310461242],[101.51132341853331,3.10714781723426],[101.51080521014275,3.10714781723426],[101.51080521014275,3.107540310461242]]],[[[101.51184162692388,3.107540310461242],[101.51235983531443,3.107540310461242],[101.51235983531443,3.10714781723426],[101.51184162692388,3.10714781723426],[101.51184162692388,3.107540310461242]]],[[[101.51235983531443,3.1079328038302956],[101.512878043705,3.1079328038302956],[101.512878043705,3.107540310461242],[101.51235983531443,3.107540310461242],[101.51235983531443,3.1079328038302956]]],[[[101.51339625209555,3.110287767029147],[101.51391446048612,3.110287767029147],[101.51391446048612,3.1098952728072806],[101.51339625209555,3.1098952728072806],[101.51339625209555,3.110287767029147]]]]},"properties":{"place_id":"d709c589-b06c-502b-ae28-0173d6d088c8","habitat":"seasonal_water_wetland","habitat_label":"Seasonal water or wetland","resolution_m":50}},{"type":"Feature","geometry":{"type":"MultiPolygon","coordinates":[[[[101.51339625209555,3.0941598723647354],[101.51391446048612,3.0941956203280165],[101.51391446048612,3.0941929763612985],[101.51339625209555,3.0941598723647354]]],[[[101.5180601276106,3.096550553742973],[101.51857833600116,3.096550553742973],[101.5180601276106,3.095788591629908],[101.51598729404836,3.095660269148813],[101.51650550243892,3.095765575371917],[101.51598729404836,3.096550553742973],[101.51650550243892,3.096550553742973],[101.51702371082949,3.0973355326802916],[101.51754191922004,3.0973355326802916],[101.5180601276106,3.096550553742973]],[[101.51702371082949,3.096550553742973],[101.51702371082949,3.0961580644866706],[101.51754191922004,3.0961580644866706],[101.51754191922004,3.096550553742973],[101.51702371082949,3.096550553742973]]],[[[101.51754191922004,3.0954907294070866],[101.5180601276106,3.095373086398692],[101.5180601276106,3.0945881088767604],[101.51754191922004,3.0943278888383396],[101.51598729404836,3.094270081733952],[101.51598729404836,3.0945881088767604],[101.5154690856578,3.0945881088767604],[101.5154690856578,3.095373086398692],[101.51754191922004,3.0954907294070866]],[[101.51650550243892,3.095373086398692],[101.51650550243892,3.0945881088767604],[101.51702371082949,3.0945881088767604],[101.51702371082949,3.095373086398692],[101.51650550243892,3.095373086398692]]],[[[101.50251387589378,3.096550553742973],[101.50153227597514,3.0961580644866706],[101.5017900586759,3.0973355326802916],[101.50251387589378,3.0969430431408407],[101.50251387589378,3.096550553742973]]],[[[101.50147745911266,3.0960376538526564],[101.5009592507221,3.0957791859357644],[101.5006788,3.09619559657513],[101.50147745911266,3.0960376538526564]]],[[[101.49525895842594,3.0985130021483314],[101.49494064287069,3.0989054922543002],[101.4957771668165,3.0992979825019424],[101.49569959999998,3.0986126965725025],[101.49525895842594,3.0985130021483314]]],[[[101.51443266887668,3.110287767029147],[101.51495087726724,3.110287767029147],[101.51495087726724,3.1091102847900705],[101.51443266887668,3.1091102847900705],[101.51391446048612,3.107540310461242],[101.51339625209555,3.107540310461242],[101.51235983531443,3.1063628312064413],[101.51080521014275,3.1063628312064413],[101.50976879336163,3.107540310461242],[101.51028700175219,3.107540310461242],[101.51080521014275,3.10832529734144],[101.51184162692388,3.10832529734144],[101.51184162692388,3.1087177909946924],[101.51235983531443,3.1087177909946924],[101.51235983531443,3.110287767029147],[101.512878043705,3.110287767029147],[101.51339625209555,3.111072755899496],[101.51391446048612,3.111072755899496],[101.51443266887668,3.110287767029147]],[[101.51339625209555,3.110287767029147],[101.51339625209555,3.1091102847900705],[101.51391446048612,3.1091102847900705],[101.51391446048612,3.110287767029147],[101.51339625209555,3.110287767029147]],[[101.512878043705,3.1087177909946924],[101.512878043705,3.10832529734144],[101.51339625209555,3.10832529734144],[101.51339625209555,3.1087177909946924],[101.512878043705,3.1087177909946924]],[[101.51235983531443,3.107540310461242],[101.512878043705,3.107540310461242],[101.512878043705,3.1079328038302956],[101.51235983531443,3.1079328038302956],[101.51235983531443,3.107540310461242]],[[101.51080521014275,3.107540310461242],[101.51080521014275,3.10714781723426],[101.51235983531443,3.10714781723426],[101.51235983531443,3.107540310461242],[101.51080521014275,3.107540310461242]]],[[[101.52013296117285,3.1171377482458036],[101.52013296117285,3.1153902048600934],[101.51857833600116,3.114605212858785],[101.51857833600116,3.114997708788231],[101.51754191922004,3.1153902048600934],[101.51754191922004,3.116567693930356],[101.51857833600116,3.1171174355732547],[101.52013296117285,3.1171377482458036]],[[101.51909654439173,3.116567693930356],[101.51961475278229,3.116567693930356],[101.51961475278229,3.1169601905720623],[101.51909654439173,3.1169601905720623],[101.51909654439173,3.116567693930356]],[[101.51857833600116,3.116567693930356],[101.51857833600116,3.1153902048600934],[101.51909654439173,3.1153902048600934],[101.51909654439173,3.116567693930356],[101.51857833600116,3.116567693930356]]],[[[101.50873237658051,3.1177451842830117],[101.50976879336163,3.117352687356275],[101.50873237658051,3.1161751974311374],[101.50769595979939,3.1161751974311374],[101.50769595979939,3.116567693930356],[101.5061413346277,3.117352687356275],[101.50717775140883,3.1185301785641313],[101.50821416818995,3.1185301785641313],[101.50873237658051,3.1177451842830117]],[[101.50873237658051,3.1169601905720623],[101.50821416818995,3.1177451842830117],[101.50717775140883,3.1177451842830117],[101.50769595979939,3.1169601905720623],[101.50873237658051,3.1169601905720623]]]]},"properties":{"place_id":"d709c589-b06c-502b-ae28-0173d6d088c8","habitat":"water_edge","habitat_label":"Water edge","resolution_m":50}}]}