{"type":"FeatureCollection","metadata":{"schema_version":1,"place_id":"d75648c9-21fe-5773-ba53-0b3e136cfb8c","place_name":"Sutera Mall Park","place_type":"park","osm_reference":"way/466244788","protection_context":"no protected status confirmed from included OSM tags","resolution_m":50,"raster_coverage":1.0,"interpretation":"Suggested search habitats, not predicted plant locations or probabilities of presence."},"features":[{"type":"Feature","geometry":{"type":"Polygon","coordinates":[[[103.66862494843727,1.51694766628788],[103.66903072013382,1.517339731623932],[103.66952889999999,1.5165691983086451],[103.6688573,1.5161704983091333],[103.66862494843727,1.51694766628788]]]},"properties":{"place_id":"d75648c9-21fe-5773-ba53-0b3e136cfb8c","habitat":"forest_edge_opening","habitat_label":"Forest edge or opening","resolution_m":50}},{"type":"Feature","geometry":{"type":"Polygon","coordinates":[[[103.66914315682781,1.5165556010209738],[103.66914315682781,1.51694766628788],[103.66862494843727,1.51694766628788],[103.66892129422148,1.517339731623932],[103.66952889999999,1.5165691983086451],[103.66914315682781,1.5165556010209738]]]},"properties":{"place_id":"d75648c9-21fe-5773-ba53-0b3e136cfb8c","habitat":"open_grassland","habitat_label":"Open grassland or shrubland","resolution_m":50}},{"type":"Feature","geometry":{"type":"Polygon","coordinates":[[[103.66891739999998,1.5173375983078137],[103.66952889999999,1.5165691983086451],[103.6688573,1.5161704983091333],[103.66847559999998,1.5170956983080934],[103.66891739999998,1.5173375983078137]]]},"properties":{"place_id":"d75648c9-21fe-5773-ba53-0b3e136cfb8c","habitat":"disturbed_built_edge","habitat_label":"Disturbed, bare or built edge","resolution_m":50}}]}