{"type":"FeatureCollection","metadata":{"schema_version":1,"place_id":"d7916574-4e0f-5ed1-b676-a951a69d93bc","place_name":"Hutan Rizab Pondok Tanjung","place_type":"forest","osm_reference":"relation/3333704","protection_context":"no protected status confirmed from included OSM tags","resolution_m":50,"raster_coverage":1.0,"interpretation":"Suggested search habitats, not predicted plant locations or probabilities of presence."},"features":[{"type":"Feature","geometry":{"type":"MultiPolygon","coordinates":[[[[100.7854689964272,5.056030765889869],[100.78525899999998,5.055976994506772],[100.7852734830519,5.056030765889869],[100.7854689964272,5.056030765889869]]],[[[100.78376769999997,5.057473194505231],[100.78427704657672,5.05760445425918],[100.78427704657672,5.057477411791574],[100.78376769999997,5.057473194505231]]],[[[100.78365651489129,5.05760445425918],[100.78332326174844,5.057997876933285],[100.78375883818619,5.057997876933285],[100.78365651489129,5.05760445425918]]],[[[100.77650392071834,5.0591781463521714],[100.77598571232777,5.0591781463521714],[100.77598571232777,5.058858107709198],[100.77494929554663,5.0591781463521714],[100.77494929554663,5.058857140932072],[100.77235825359384,5.058760571300511],[100.7589716,5.058601594504099],[100.75889519999998,5.055393094507364],[100.7583666270487,5.053670240315218],[100.75868980000001,5.051516994511353],[100.75659509999998,5.049703594513208],[100.75422600000002,5.049587694513317],[100.73438389999998,5.049744994513175],[100.7335277,5.059177994503504],[100.7239028,5.057269094505462],[100.72365801626324,5.0583912998401415],[100.7241648732717,5.0583912998401415],[100.7241648732717,5.0591781463521714],[100.7234005674519,5.059571569957383],[100.7225024526182,5.06271896718224],[100.72312845649058,5.063505818817788],[100.72261024810001,5.063505818817788],[100.72261024810001,5.0638992449850635],[100.72209203970945,5.063681834921931],[100.72155591430355,5.0646860980187105],[100.72209203970945,5.06547295198461],[100.72157383131889,5.06547295198461],[100.72157383131889,5.065866379317199],[100.72105562292835,5.065599097207304],[100.719797,5.06840029449406],[100.72027854093575,5.072948111184939],[100.72105562292835,5.073341542949936],[100.72105562292835,5.074521839645816],[100.72033073488849,5.074915272344802],[100.72034463077004,5.080423354661056],[100.72105562292835,5.080816790865133],[100.72105562292835,5.081980332807891],[100.72271829999998,5.083043194479079],[100.72422889999999,5.0837281944783825],[100.7244876,5.083353494478756],[100.72504599999999,5.083798494478289],[100.72551029999997,5.085332394476709],[100.72673289999999,5.085876894476179],[100.72562199999999,5.086918994475102],[100.72838459999998,5.08836509447362],[100.7294544,5.08953609447243],[100.7307592,5.089635594472325],[100.7318173,5.091813494470109],[100.73185839999998,5.093089894468779],[100.73432119999998,5.093101594468786],[100.7340156,5.094254894467606],[100.7346798,5.094887194466954],[100.7348502,5.096321594465499],[100.73804779999999,5.097720894464058],[100.73935269999998,5.097381294464426],[100.74299109999998,5.094828694467003],[100.74376109999999,5.095841494465997],[100.74825179999999,5.0979023944638655],[100.74991519999999,5.101292194460394],[100.7512612,5.103259294458375],[100.75206649999998,5.103622294458011],[100.75388280000001,5.102515794459165],[100.7554639,5.099471394462291],[100.7581383,5.0983531944634],[100.75883189999998,5.09734029446443],[100.76352939999998,5.095915794465912],[100.76778539999998,5.095551494466258],[100.76878449999998,5.09480279446704],[100.7716059,5.09439299446747],[100.7775128,5.0919272944699685],[100.77797259999998,5.091536194470388],[100.77783460000002,5.090912094471005],[100.77664369999998,5.091104494470837],[100.7757425,5.090783894471155],[100.77577469999999,5.089683194472257],[100.7785213,5.089383994472581],[100.77974439999998,5.090142694471832],[100.7811255903397,5.089472446544182],[100.78094484455664,5.088292123189587],[100.78013137945224,5.087898682539756],[100.78013137945224,5.087111801942537],[100.78064958784282,5.087111801942537],[100.78061284568939,5.085931482802535],[100.77961317106168,5.085538043557349],[100.77961317106168,5.085144604546205],[100.78059189999999,5.084751165769084],[100.7803774,5.0832925944788],[100.77844620000002,5.081240794480927],[100.77750199999998,5.079509494482664],[100.7774162,5.078120294484091],[100.77599999999998,5.075982894486304],[100.77829599999998,5.07544859448683],[100.78009839999999,5.074486794487819],[100.7816648,5.072691394489674],[100.78265189999999,5.067497594494975],[100.7852912,5.065424294497119],[100.7848191,5.06382129449874],[100.78557009999999,5.061341894501286],[100.7850122,5.05922579450347],[100.78557009999999,5.057836494504867],[100.7866645,5.057173894505554],[100.7865786,5.056703694506032],[100.7863963,5.056393794506357],[100.78583167174843,5.056123632021192],[100.78634988013899,5.05681760960914],[100.78583167174843,5.05681760960914],[100.78531346335785,5.05760445425918],[100.78427704657672,5.05760445425918],[100.78427704657672,5.057997876933285],[100.78479525496729,5.057997876933285],[100.78427704657672,5.058784722979763],[100.78375883818619,5.058784722979763],[100.78324062979561,5.058095428288905],[100.78201889999998,5.0590013945036665],[100.77650392071834,5.058858591097762],[100.77650392071834,5.0591781463521714]],[[100.72767059999998,5.085528494476549],[100.72882874878674,5.08520980733834],[100.7282511,5.085048994477001],[100.72830338985513,5.08435772722597],[100.72779233200562,5.084751165769084],[100.7267559152245,5.08435772722597],[100.72727412361506,5.083177413000473],[100.72779233200562,5.083132327932895],[100.72737419999997,5.083136294478973],[100.72629769999998,5.083504794478628],[100.72516719999999,5.082196594479913],[100.72263329999998,5.080996894481152],[100.7227626,5.079913794482256],[100.72396750000001,5.078613994483619],[100.72468308166225,5.080029918690781],[100.72444369999998,5.08092669448122],[100.7254664,5.081119894481064],[100.7262717,5.081822494480315],[100.7287169,5.08206839448009],[100.7286287,5.084228794477845],[100.72986516556786,5.085931482802535],[100.72882874878674,5.086324922281784],[100.72767059999998,5.085528494476549]]],[[[100.72415440000002,5.053193394509635],[100.72418379999998,5.050394694512516],[100.72476393618483,5.050522885904201],[100.72529187778328,5.04894921427682],[100.72520129005282,5.048162379857145],[100.72559242760903,5.048162379857145],[100.72662592572155,5.04619529787265],[100.72623770683394,5.045801882172407],[100.7267559152245,5.045801882172407],[100.72755179999999,5.0441121945189185],[100.72727412361506,5.043047978770593],[100.72774469033769,5.042654564927238],[100.72727412361506,5.042654564927238],[100.72727412361506,5.0422611513159135],[100.72778687152412,5.0422611513159135],[100.72815816825535,5.037146795474799],[100.72779233200562,5.036753385109924],[100.72816609090907,5.036753385109924],[100.7281849,5.035819394527418],[100.7277194,5.0344944945287935],[100.7282763,5.033173794530137],[100.71643649999999,5.0331571945301405],[100.7164032,5.036212694527],[100.71158199999998,5.0369330945262725],[100.7115903,5.033447094529873],[100.7106094,5.0337616945295265],[100.709655038336,5.034786336761434],[100.70810041316432,5.03490414118884],[100.70810041316432,5.035179745967742],[100.70602757960208,5.0355777783254565],[100.70602757960208,5.035966565075404],[100.70550937121152,5.035755222506748],[100.70447295443039,5.0361101110107445],[100.70395474603984,5.036753385109924],[100.70343653764928,5.036753385109924],[100.70343653764928,5.036421871764614],[100.70181281821714,5.037146795474799],[100.7014074,5.037471394525735],[100.70274633643365,5.052883400317563],[100.70291832925871,5.053276820200128],[100.70343653764928,5.053276820200128],[100.7030091,5.054895594507874],[100.7040565,5.0555248945072355],[100.7054862,5.055350994507405],[100.7067165,5.056029994506713],[100.70756439999998,5.054522994508281],[100.70894419999999,5.0544732945082895],[100.70861169999999,5.056617894506106],[100.70960089999998,5.057007094505731],[100.71014130000002,5.058133194504555],[100.7096092,5.058803894503877],[100.7080797,5.0590439945036305],[100.7073897,5.060241194502412],[100.7078963,5.061071594501557],[100.70654578799265,5.061538691476149],[100.70654578799265,5.062934305192759],[100.70706399638318,5.06311239288352],[100.70706399638318,5.064103751510432],[100.70810041316432,5.064292671385367],[100.70861862155489,5.065079524885119],[100.709656,5.065146894497388],[100.70948189999997,5.065960394496552],[100.7102316,5.06716059449533],[100.7109747,5.067100594495393],[100.71151689999999,5.067580694494891],[100.71102819999999,5.069607694492824],[100.7122968,5.070682694491725],[100.71249910000002,5.071980494490405],[100.7100089,5.071987094490396],[100.7085491,5.07041049449201],[100.70726440000001,5.070546894491865],[100.7075121,5.0697000944927115],[100.70701000000001,5.068853294493574],[100.70648920000001,5.068819394493633],[100.70621059999998,5.067991994494466],[100.70491599999998,5.067130194495356],[100.70490830000001,5.066461894496033],[100.70369219999999,5.065357794497177],[100.69829500000002,5.070270694492151],[100.6970731,5.07044139449197],[100.6965852,5.071811494490548],[100.69442323042446,5.0737349749484],[100.69462699500973,5.074128407180356],[100.6924178,5.0750725944872395],[100.6922062,5.07582789448643],[100.6909836,5.075868894486405],[100.69116,5.076875894485384],[100.69218859999998,5.077092494485165],[100.6920416,5.0783922944838045],[100.693564,5.078901694483307],[100.69721803696254,5.086081660740742],[100.6977362453531,5.085931482802535],[100.6977362453531,5.086324922281784],[100.69877266213423,5.086718361995112],[100.69877266213423,5.087182906047772],[100.70521660000001,5.09072399447123],[100.70594809999997,5.089904294472068],[100.71127159999999,5.094681694467155],[100.7127014,5.095012894466839],[100.71733609999998,5.097848094463942],[100.71846458097554,5.09715939260086],[100.71846458097554,5.095374094947847],[100.7189827893661,5.095374094947847],[100.71934055887782,5.093800316883675],[100.7189827893661,5.093406872953755],[100.71939329999996,5.09328149446861],[100.7184117,5.087971294474003],[100.71846458097554,5.085538043557349],[100.71897557828828,5.085538043557349],[100.71929201221471,5.084751165769084],[100.7189827893661,5.08435772722597],[100.71945022917792,5.08435772722597],[100.71989828747917,5.083177413000473],[100.71950099775664,5.083177413000473],[100.71950099775664,5.082783975393196],[100.71996814003008,5.082783975393196],[100.72001920614721,5.08233599374948],[100.7200135856269,5.08199710088036],[100.71950099775664,5.08199710088036],[100.71950099775664,5.080816790865133],[100.71994723972557,5.080816790865133],[100.7195285,5.0676609944948146],[100.72272609999999,5.06100399450164],[100.72305793384676,5.0591781463521714],[100.72261024810001,5.0591781463521714],[100.72261024810001,5.0583912998401415],[100.72312845649058,5.0583912998401415],[100.7233727,5.057233394505479],[100.72299060000002,5.055687694507051],[100.72415440000002,5.053193394509635]]],[[[100.7283105403962,5.084330588281069],[100.7283176,5.084303794477771],[100.7283105403962,5.084300344825511],[100.7283105403962,5.084330588281069]]]]},"properties":{"place_id":"d7916574-4e0f-5ed1-b676-a951a69d93bc","habitat":"forest_interior","habitat_label":"Forest interior","resolution_m":50}},{"type":"Feature","geometry":{"type":"MultiPolygon","coordinates":[[[[100.71017324672655,5.034392927786785],[100.71017324672655,5.034112363406379],[100.70982428785625,5.034392927786785],[100.71017324672655,5.034392927786785]]],[[[100.709655038336,5.034786336761434],[100.709655038336,5.034529005146109],[100.70852769669322,5.034786336761434],[100.709655038336,5.034786336761434]]],[[[100.70810041316432,5.035179745967742],[100.70810041316432,5.03490414118884],[100.7071899947054,5.035179745967742],[100.70810041316432,5.035179745967742]]],[[[100.70654578799265,5.035573155405725],[100.70654578799265,5.0354003341913],[100.70604108038921,5.035573155405725],[100.70654578799265,5.035573155405725]]],[[[100.70550937121152,5.035755222506748],[100.70602757960208,5.035966565075404],[100.70602757960208,5.0355777783254565],[100.70550937121152,5.035755222506748]]],[[[100.70395474603984,5.036753385109924],[100.70395474603984,5.036359974976798],[100.70447295443039,5.0361101110107445],[100.70343653764928,5.036421871764614],[100.70343653764928,5.036753385109924],[100.70395474603984,5.036753385109924]]],[[[100.70240012086815,5.037146795474799],[100.70240012086815,5.036753385109924],[100.70291832925871,5.03657528889739],[100.7022968,5.036759294526463],[100.70181281821714,5.037146795474799],[100.70240012086815,5.037146795474799]]],[[[100.70274633643365,5.052883400317563],[100.70278709999998,5.053509094509318],[100.70291832925871,5.054505080703863],[100.70291832925871,5.054063660662857],[100.70343653764928,5.054063660662857],[100.70343653764928,5.053276820200128],[100.70291832925871,5.053276820200128],[100.70274633643365,5.052883400317563]]],[[[100.70654578799265,5.061538691476149],[100.70706399638318,5.061538691476149],[100.70706399638318,5.061145266706639],[100.70758220477376,5.061125455570413],[100.707005,5.061049794501561],[100.70701129999999,5.061382894501214],[100.70618759999999,5.0615787945010515],[100.70605979999999,5.062467294500133],[100.70654578799265,5.062934305192759],[100.70654578799265,5.061538691476149]]],[[[100.70706399638318,5.06311239288352],[100.70661542752437,5.06311239288352],[100.70691600000002,5.064155294498427],[100.70706399638318,5.064103751510432],[100.70706399638318,5.06311239288352]]],[[[100.70780810535187,5.064292671385367],[100.7077441,5.0645396944979915],[100.7088995,5.065420294497116],[100.70913682994545,5.065079524885119],[100.70861862155489,5.065079524885119],[100.70861862155489,5.0646860980187105],[100.70780810535187,5.064292671385367]]],[[[100.6941087866192,5.074521839645816],[100.6941087866192,5.074128407180356],[100.69462699500973,5.074128407180356],[100.69462699500973,5.0737349749484],[100.69442323042446,5.0737349749484],[100.69362437761502,5.074521839645816],[100.6941087866192,5.074521839645816]]],[[[100.71950099775664,5.082783975393196],[100.71950099775664,5.083177413000473],[100.71989828747917,5.083177413000473],[100.71996814003008,5.082783975393196],[100.71950099775664,5.082783975393196]]],[[[100.71950099775664,5.0839642889168415],[100.71950099775664,5.084229292506231],[100.71960108825117,5.0839642889168415],[100.71950099775664,5.0839642889168415]]],[[[100.7189827893661,5.08435772722597],[100.7189827893661,5.084751165769084],[100.71929201221471,5.084751165769084],[100.71945022917792,5.08435772722597],[100.7189827893661,5.08435772722597]]],[[[100.7189827893661,5.085144604546205],[100.7189827893661,5.085520111724515],[100.7191337952515,5.085144604546205],[100.7189827893661,5.085144604546205]]],[[[100.69721803696254,5.085931482802535],[100.6981346,5.086919394475126],[100.69877266213423,5.087182906047772],[100.69877266213423,5.086718361995112],[100.69721803696254,5.085931482802535]]],[[[100.71846458097554,5.085538043557349],[100.71846458097554,5.087549933120403],[100.71897557828828,5.085538043557349],[100.71846458097554,5.085538043557349]]],[[[100.71846458097554,5.088685564073589],[100.71850249896052,5.088685564073589],[100.71846458097554,5.088387282327565],[100.71846458097554,5.088685564073589]]],[[[100.71921507250691,5.091833099578014],[100.7189827893661,5.092226542570395],[100.71926348638539,5.092226542570395],[100.71921507250691,5.091833099578014]]],[[[100.7189827893661,5.093406872953755],[100.7189827893661,5.093800316883675],[100.71934055887782,5.093800316883675],[100.71938055459077,5.093406872953755],[100.7189827893661,5.093406872953755]]],[[[100.71846458097554,5.095374094947847],[100.71846458097554,5.09715939260086],[100.7191513986027,5.094980650080094],[100.7189827893661,5.095374094947847],[100.71846458097554,5.095374094947847]]],[[[100.72816609090907,5.036753385109924],[100.72779233200562,5.037146795474799],[100.72815816825535,5.037146795474799],[100.72816609090907,5.036753385109924]]],[[[100.72779233200562,5.041474324789269],[100.72779233200562,5.042208296532919],[100.72786815941934,5.041474324789269],[100.72779233200562,5.041474324789269]]],[[[100.72727412361506,5.0422611513159135],[100.72727412361506,5.042654564927238],[100.72774469033769,5.042654564927238],[100.72778687152412,5.0422611513159135],[100.72727412361506,5.0422611513159135]]],[[[100.72727412361506,5.043047978770593],[100.72727412361506,5.0434413928459945],[100.7276405681518,5.0434413928459945],[100.72769262924474,5.043047978770593],[100.72727412361506,5.043047978770593]]],[[[100.72727412361506,5.044621636464659],[100.72727412361506,5.044732492419655],[100.72732374826967,5.044621636464659],[100.72727412361506,5.044621636464659]]],[[[100.72662592572155,5.04619529787265],[100.72696989999999,5.045412094517583],[100.72697152398834,5.045408466704339],[100.72623770683394,5.045801882172407],[100.72662592572155,5.04619529787265]]],[[[100.72623770683394,5.046982129969735],[100.72623770683394,5.04703094860479],[100.72626777970058,5.046982129969735],[100.72623770683394,5.046982129969735]]],[[[100.72571949844338,5.047375546366617],[100.72571949844338,5.047872180120574],[100.72602543052861,5.047375546366617],[100.72571949844338,5.047375546366617]]],[[[100.72520129005282,5.048162379857145],[100.72520129005282,5.04894921427682],[100.72529187778328,5.04894921427682],[100.72559242760903,5.048162379857145],[100.72520129005282,5.048162379857145]]],[[[100.72476393618483,5.050522885904201],[100.72468308166225,5.050550150451966],[100.72474809999999,5.050570394512325],[100.72476393618483,5.050522885904201]]],[[[100.7241648732717,5.0513097231122],[100.72436685711656,5.0513097231122],[100.7241648732717,5.051211425866157],[100.7241648732717,5.0513097231122]]],[[[100.72325082206517,5.057997876933285],[100.72312845649058,5.0583912998401415],[100.72261024810001,5.0583912998401415],[100.72261024810001,5.0591781463521714],[100.72305793384676,5.0591781463521714],[100.72325082206517,5.057997876933285]]],[[[100.7234005674519,5.059571569957383],[100.72364666488113,5.0591781463521714],[100.7241648732717,5.0591781463521714],[100.7241648732717,5.0583912998401415],[100.72365801626324,5.0583912998401415],[100.7234005674519,5.059571569957383]]],[[[100.7225024526182,5.06271896718224],[100.72209203970945,5.063681834921931],[100.72209203970945,5.0638992449850635],[100.72312845649058,5.063505818817788],[100.7225024526182,5.06271896718224]]],[[[100.7219287129765,5.06311239288352],[100.72157383131889,5.063505818817788],[100.72179457234652,5.063505818817788],[100.7219287129765,5.06311239288352]]],[[[100.72155591430355,5.0646860980187105],[100.72105562292835,5.065599097207304],[100.72105562292835,5.065866379317199],[100.72209203970945,5.06547295198461],[100.72155591430355,5.0646860980187105]]],[[[100.72105562292835,5.0646860980187105],[100.72105562292835,5.064809169164776],[100.72112669036791,5.0646860980187105],[100.72105562292835,5.0646860980187105]]],[[[100.72089950605009,5.065079524885119],[100.72053741453777,5.06547295198461],[100.72067232173227,5.06547295198461],[100.72089950605009,5.065079524885119]]],[[[100.72027854093575,5.072948111184939],[100.72033073488849,5.074915272344802],[100.72053741453777,5.074915272344802],[100.72053741453777,5.074521839645816],[100.72105562292835,5.074521839645816],[100.72105562292835,5.073341542949936],[100.72027854093575,5.072948111184939]]],[[[100.71950099775664,5.073341542949936],[100.71950099775664,5.074521839645816],[100.71986018965819,5.074521839645816],[100.71992617040354,5.073341542949936],[100.71950099775664,5.073341542949936]]],[[[100.72468308166225,5.080029918690781],[100.72448642204189,5.080423354661056],[100.72468308166225,5.080423354661056],[100.72468308166225,5.080029918690781]]],[[[100.71950099775664,5.080816790865133],[100.71950099775664,5.08199710088036],[100.7200135856269,5.08199710088036],[100.71994723972557,5.080816790865133],[100.71950099775664,5.080816790865133]]],[[[100.72105562292835,5.080816790865133],[100.72034463077004,5.080423354661056],[100.72105562292835,5.081980332807891],[100.72105562292835,5.080816790865133]]],[[[100.72001920614721,5.08233599374948],[100.72002819999999,5.082257094479869],[100.72001920614721,5.082097091425489],[100.72001920614721,5.08233599374948]]],[[[100.72779233200562,5.083159745248102],[100.7278064,5.083132194478993],[100.72779233200562,5.083132327932895],[100.72779233200562,5.083159745248102]]],[[[100.72882874878674,5.083570850841682],[100.72857155991352,5.083177413000473],[100.72863139014734,5.083570850841682],[100.72882874878674,5.083570850841682]]],[[[100.72727412361506,5.083177413000473],[100.72727412361506,5.083702703053269],[100.72778331048498,5.083177413000473],[100.72727412361506,5.083177413000473]]],[[[100.7267559152245,5.0839642889168415],[100.7267559152245,5.08435772722597],[100.72779233200562,5.084751165769084],[100.72779233200562,5.08447949544541],[100.7267559152245,5.0839642889168415]]],[[[100.72830338985513,5.08435772722597],[100.72809739999998,5.084196194477897],[100.72792345609697,5.08435772722597],[100.72830338985513,5.08435772722597]]],[[[100.72915473855306,5.085144604546205],[100.72945621471618,5.085931482802535],[100.72986516556786,5.085931482802535],[100.72986516556786,5.085538043557349],[100.72915473855306,5.085144604546205]]],[[[100.72882874878674,5.085445406837649],[100.72895349999999,5.0854049944766695],[100.72882874878674,5.08520980733834],[100.72882874878674,5.085445406837649]]],[[[100.7283105403962,5.085538043557349],[100.72844229999998,5.085570594476469],[100.72854278326207,5.085538043557349],[100.7283105403962,5.085538043557349]]],[[[100.72882874878674,5.086169090631093],[100.7293469571773,5.086324922281784],[100.7293469571773,5.08610688670197],[100.72882874878674,5.086169090631093]]],[[[100.74178395855076,5.049688763081886],[100.74489320889413,5.049736049625788],[100.74489320889413,5.049645694513238],[100.74178395855076,5.049688763081886]]],[[[100.74592962567525,5.049645694513238],[100.74644783406582,5.049736049625788],[100.74644783406582,5.049645694513238],[100.74592962567525,5.049645694513238]]],[[[100.74955708440918,5.049678338710958],[100.75007529279974,5.049736049625788],[100.75007529279974,5.049686468185909],[100.74955708440918,5.049678338710958]]],[[[100.75845073388244,5.053276820200128],[100.7583666270487,5.053670240315218],[100.75846372974216,5.053670240315218],[100.75845073388244,5.053276820200128]]],[[[100.78634988013899,5.056424187633167],[100.7852734830519,5.056030765889869],[100.7851624,5.056906694505813],[100.78427704657672,5.05760445425918],[100.78531346335785,5.05760445425918],[100.78531346335785,5.057211031817802],[100.78634988013899,5.05681760960914],[100.78634988013899,5.056424187633167]]],[[[100.75904549694309,5.05681760960914],[100.75888483543928,5.057997876933285],[100.7590140595701,5.057997876933285],[100.75904549694309,5.05681760960914]]],[[[100.78375883818619,5.05760445425918],[100.78375883818619,5.057483656332428],[100.78365651489129,5.05760445425918],[100.78375883818619,5.05760445425918]]],[[[100.78427704657672,5.0583912998401415],[100.78479525496729,5.0583912998401415],[100.78479525496729,5.057997876933285],[100.78427704657672,5.057997876933285],[100.78427704657672,5.05760445425918],[100.78375883818619,5.05760445425918],[100.78324062979561,5.0583912998401415],[100.78375883818619,5.0583912998401415],[100.78375883818619,5.058784722979763],[100.78427704657672,5.058784722979763],[100.78427704657672,5.0583912998401415]]],[[[100.75992125222038,5.058701017683413],[100.76043946061094,5.058784722979763],[100.76043946061094,5.0586176800721665],[100.75992125222038,5.058701017683413]]],[[[100.76147587739207,5.058639024151056],[100.76303050256375,5.058784722979763],[100.76303050256375,5.058686926602516],[100.76147587739207,5.058639024151056]]],[[[100.76406691934488,5.058659132652284],[100.76510333612599,5.058784722979763],[100.76510333612599,5.058631338703217],[100.76406691934488,5.058659132652284]]],[[[100.76613975290712,5.058641358661724],[100.76821258646936,5.058784722979763],[100.76821258646936,5.058726761807541],[100.76613975290712,5.058641358661724]]],[[[100.76924900325048,5.0587285135454225],[100.77235825359384,5.058784722979763],[100.77235825359384,5.058760571300511],[100.76924900325048,5.0587285135454225]]],[[[100.77494929554663,5.0591781463521714],[100.77546750393721,5.0591781463521714],[100.77546750393721,5.058857624320635],[100.77494929554663,5.058857140932072],[100.77494929554663,5.0591781463521714]]],[[[100.77598571232777,5.0591781463521714],[100.77650392071834,5.0591781463521714],[100.77650392071834,5.058858591097762],[100.77598571232777,5.058858107709198],[100.77598571232777,5.0591781463521714]]],[[[100.78531346335785,5.060751842170028],[100.78541214342141,5.060751842170028],[100.78531346335785,5.0603832196025715],[100.78531346335785,5.060751842170028]]],[[[100.78013137945224,5.085538043557349],[100.78013137945224,5.085931482802535],[100.78061284568939,5.085931482802535],[100.78059189999999,5.084751165769084],[100.77961317106168,5.085144604546205],[100.77961317106168,5.085538043557349],[100.78013137945224,5.085538043557349]]],[[[100.78013137945224,5.087898682539756],[100.78094484455664,5.088292123189587],[100.78064958784282,5.0867362730782775],[100.78064958784282,5.087111801942537],[100.78013137945224,5.087111801942537],[100.78013137945224,5.087898682539756]]],[[[100.77650392071834,5.089472446544182],[100.77650392071834,5.089536646793565],[100.77682338097763,5.089472446544182],[100.77650392071834,5.089472446544182]]],[[[100.78064958784282,5.089472446544182],[100.78064958784282,5.089865888130811],[100.78013137945224,5.090079278415979],[100.78059199999998,5.0900037944719525],[100.78112839999999,5.089490794472488],[100.78064958784282,5.089472446544182]]]]},"properties":{"place_id":"d7916574-4e0f-5ed1-b676-a951a69d93bc","habitat":"forest_edge_opening","habitat_label":"Forest edge or opening","resolution_m":50}},{"type":"Feature","geometry":{"type":"MultiPolygon","coordinates":[[[[100.70286016861257,5.054063660662857],[100.70291832925871,5.053276820200128],[100.7027719674855,5.053276820200128],[100.70286016861257,5.054063660662857]]],[[[100.70693719999998,5.061145266706639],[100.70706399638318,5.061059380255899],[100.70693719999998,5.061095694501522],[100.70693719999998,5.061145266706639]]],[[[100.6941087866192,5.074128407180356],[100.6941087866192,5.074044699891126],[100.69402380401975,5.074128407180356],[100.6941087866192,5.074128407180356]]],[[[100.6977362453531,5.086324922281784],[100.6974841891157,5.086324922281784],[100.6977362453531,5.086555300319203],[100.6977362453531,5.086324922281784]]],[[[100.69825445374367,5.086718361995112],[100.6979146508154,5.086718361995112],[100.69825445374367,5.086968892543844],[100.69825445374367,5.086718361995112]]],[[[100.7189827893661,5.095374094947847],[100.7189827893661,5.095565021652232],[100.71903787759732,5.095374094947847],[100.7189827893661,5.095374094947847]]],[[[100.78531346335785,5.057211031817802],[100.78531346335785,5.0565606425264376],[100.7848202482619,5.057211031817802],[100.78531346335785,5.057211031817802]]],[[[100.78427704657672,5.0583912998401415],[100.78427704657672,5.057997876933285],[100.78375883818619,5.057997876933285],[100.78375883818619,5.0583912998401415],[100.78427704657672,5.0583912998401415]]],[[[100.72727412361506,5.08435772722597],[100.72729929999998,5.084303794477771],[100.72727412361506,5.084276528104621],[100.72727412361506,5.08435772722597]]],[[[100.78013137945224,5.085538043557349],[100.78059488347162,5.085538043557349],[100.78059189999999,5.085144604546205],[100.78013137945224,5.085144604546205],[100.78013137945224,5.085538043557349]]],[[[100.7293469571773,5.085538043557349],[100.72933467932803,5.085538043557349],[100.7293469571773,5.085577789894092],[100.7293469571773,5.085538043557349]]],[[[100.78064958784282,5.087898682539756],[100.78070364766978,5.087111801942537],[100.78064958784282,5.087111801942537],[100.78064958784282,5.087898682539756]]]]},"properties":{"place_id":"d7916574-4e0f-5ed1-b676-a951a69d93bc","habitat":"open_grassland","habitat_label":"Open grassland or shrubland","resolution_m":50}},{"type":"Feature","geometry":{"type":"MultiPolygon","coordinates":[[[[100.70654578799265,5.035573155405725],[100.70654578799265,5.0354003341913],[100.70604108038921,5.035573155405725],[100.70654578799265,5.035573155405725]]],[[[100.70602757960208,5.0355777783254565],[100.70550937121152,5.035755222506748],[100.70550937121152,5.035966565075404],[100.70602757960208,5.035966565075404],[100.70602757960208,5.0355777783254565]]],[[[100.70343653764928,5.036753385109924],[100.70395474603984,5.036753385109924],[100.70447295443039,5.0361101110107445],[100.70343653764928,5.036421871764614],[100.70343653764928,5.036753385109924]]],[[[100.70240012086815,5.037146795474799],[100.70240012086815,5.036753385109924],[100.70291832925871,5.03657528889739],[100.7022968,5.036759294526463],[100.70181281821714,5.037146795474799],[100.70240012086815,5.037146795474799]]],[[[100.70291832925871,5.054457081243057],[100.70286016861257,5.054063660662857],[100.70291200494498,5.054457081243057],[100.70291832925871,5.054457081243057]]],[[[100.72157383131889,5.0646860980187105],[100.72105562292835,5.065599097207304],[100.72105562292835,5.065866379317199],[100.72209203970945,5.06547295198461],[100.72157383131889,5.0646860980187105]]],[[[100.72105562292835,5.0646860980187105],[100.72105562292835,5.064809169164776],[100.72112669036791,5.0646860980187105],[100.72105562292835,5.0646860980187105]]],[[[100.72089950605009,5.065079524885119],[100.72053741453777,5.06547295198461],[100.72067232173227,5.06547295198461],[100.72089950605009,5.065079524885119]]],[[[100.72105562292835,5.073341542949936],[100.72027854093575,5.072948111184939],[100.72033073488849,5.074915272344802],[100.72105562292835,5.074521839645816],[100.72105562292835,5.073341542949936]]],[[[100.71950099775664,5.073341542949936],[100.71950099775664,5.074521839645816],[100.71986018965819,5.074521839645816],[100.71992617040354,5.073341542949936],[100.71950099775664,5.073341542949936]]],[[[100.71950099775664,5.080816790865133],[100.71950099775664,5.08199710088036],[100.7200135856269,5.08199710088036],[100.71994723972557,5.080816790865133],[100.71950099775664,5.080816790865133]]],[[[100.72105562292835,5.080816790865133],[100.72034463077004,5.080423354661056],[100.72105562292835,5.081980332807891],[100.72105562292835,5.080816790865133]]],[[[100.72001920614721,5.08233599374948],[100.72002819999999,5.082257094479869],[100.72001920614721,5.082097091425489],[100.72001920614721,5.08233599374948]]],[[[100.71950099775664,5.083177413000473],[100.71996814003008,5.082783975393196],[100.71950099775664,5.082783975393196],[100.71950099775664,5.083177413000473]]],[[[100.71846458097554,5.085931482802535],[100.71846458097554,5.087111801942537],[100.71851956660474,5.087111801942537],[100.71881736132504,5.085931482802535],[100.71846458097554,5.085931482802535]]],[[[100.71846458097554,5.087505242124079],[100.71846458097554,5.087549933120403],[100.71847018971086,5.087505242124079],[100.71846458097554,5.087505242124079]]],[[[100.71850249896052,5.088685564073589],[100.71846458097554,5.088387282327565],[100.71846458097554,5.088685564073589],[100.71850249896052,5.088685564073589]]],[[[100.72816609090907,5.036753385109924],[100.72779233200562,5.037146795474799],[100.72815816825535,5.037146795474799],[100.72816609090907,5.036753385109924]]],[[[100.72727412361506,5.043047978770593],[100.72727412361506,5.0434413928459945],[100.7276405681518,5.0434413928459945],[100.72769262924474,5.043047978770593],[100.72727412361506,5.043047978770593]]],[[[100.72623770683394,5.045801882172407],[100.72662592572155,5.04619529787265],[100.72697152398834,5.045408466704339],[100.7267559152245,5.045801882172407],[100.72623770683394,5.045801882172407]]],[[[100.72623770683394,5.046982129969735],[100.72623770683394,5.04703094860479],[100.72626777970058,5.046982129969735],[100.72623770683394,5.046982129969735]]],[[[100.72571949844338,5.047872180120574],[100.72602543052861,5.047375546366617],[100.72571949844338,5.047375546366617],[100.72571949844338,5.047872180120574]]],[[[100.72529187778328,5.04894921427682],[100.72559242760903,5.048162379857145],[100.72520129005282,5.048162379857145],[100.72529187778328,5.04894921427682]]],[[[100.72476393618483,5.050522885904201],[100.72468308166225,5.050550150451966],[100.72474809999999,5.050570394512325],[100.72476393618483,5.050522885904201]]],[[[100.7241648732717,5.0513097231122],[100.72436685711656,5.0513097231122],[100.7241648732717,5.051211425866157],[100.7241648732717,5.0513097231122]]],[[[100.72325082206517,5.057997876933285],[100.72312845649058,5.0583912998401415],[100.72261024810001,5.0583912998401415],[100.72261024810001,5.0591781463521714],[100.72305793384676,5.0591781463521714],[100.72325082206517,5.057997876933285]]],[[[100.7234005674519,5.059571569957383],[100.72364666488113,5.0591781463521714],[100.7241648732717,5.0591781463521714],[100.7241648732717,5.0583912998401415],[100.72365801626324,5.0583912998401415],[100.7234005674519,5.059571569957383]]],[[[100.78531346335785,5.060751842170028],[100.78541214342141,5.060751842170028],[100.78531346335785,5.0603832196025715],[100.78531346335785,5.060751842170028]]],[[[100.72312845649058,5.063505818817788],[100.7225024526182,5.06271896718224],[100.72209203970945,5.0638992449850635],[100.72312845649058,5.063505818817788]]],[[[100.7219287129765,5.06311239288352],[100.72157383131889,5.063505818817788],[100.72179457234652,5.063505818817788],[100.7219287129765,5.06311239288352]]],[[[100.78013137945224,5.090079278415979],[100.78059199999998,5.0900037944719525],[100.7811255903397,5.089472446544182],[100.78064958784282,5.089472446544182],[100.78013137945224,5.090079278415979]]]]},"properties":{"place_id":"d7916574-4e0f-5ed1-b676-a951a69d93bc","habitat":"disturbed_built_edge","habitat_label":"Disturbed, bare or built edge","resolution_m":50}},{"type":"Feature","geometry":{"type":"MultiPolygon","coordinates":[[[[100.78537303054162,5.056424187633167],[100.78531346335785,5.05681760960914],[100.78583167174843,5.05681760960914],[100.78583167174843,5.056424187633167],[100.78537303054162,5.056424187633167]]],[[[100.70602757960208,5.061881518847812],[100.7059575,5.06201409450058],[100.70602757960208,5.062324554639606],[100.70602757960208,5.061881518847812]]],[[[100.70810041316432,5.0646860980187105],[100.70799638465336,5.0646860980187105],[100.70810041316432,5.0647464669013615],[100.70810041316432,5.0646860980187105]]],[[[100.70861862155489,5.065079524885119],[100.70851448726434,5.065079524885119],[100.70861862155489,5.0651712559028],[100.70861862155489,5.065079524885119]]]]},"properties":{"place_id":"d7916574-4e0f-5ed1-b676-a951a69d93bc","habitat":"cropland","habitat_label":"Cropland","resolution_m":50}},{"type":"Feature","geometry":{"type":"MultiPolygon","coordinates":[[[[100.70706399638318,5.061145266706639],[100.70693719999998,5.061095694501522],[100.70693719999998,5.061145266706639],[100.70706399638318,5.061145266706639]]],[[[100.70602757960208,5.061932116478574],[100.70602757960208,5.061881518847812],[100.70600083365007,5.061932116478574],[100.70602757960208,5.061932116478574]]],[[[100.70861862155489,5.065079524885119],[100.70852369999999,5.06508709449747],[100.70861862155489,5.0651712559028],[100.70861862155489,5.065079524885119]]]]},"properties":{"place_id":"d7916574-4e0f-5ed1-b676-a951a69d93bc","habitat":"seasonal_water_wetland","habitat_label":"Seasonal water or wetland","resolution_m":50}},{"type":"Feature","geometry":{"type":"MultiPolygon","coordinates":[[[[100.70706399638318,5.06311239288352],[100.70706399638318,5.06232554171393],[100.70654578799265,5.06232554171393],[100.70654578799265,5.061932116478574],[100.70758220477376,5.061538691476149],[100.7073656,5.061050694501579],[100.70644059999998,5.061288494501311],[100.7059575,5.06201409450058],[100.70691600000002,5.064155294498427],[100.70758220477376,5.064040041492145],[100.70758220477376,5.06311239288352],[100.70706399638318,5.06311239288352]]],[[[100.70810041316432,5.061145266706639],[100.70810041316432,5.060358417866292],[100.70758220477376,5.060358417866292],[100.70754888673238,5.0599649937954165],[100.7073897,5.060241194502412],[100.70810041316432,5.061145266706639]]],[[[100.70913682994545,5.065079524885119],[100.70861862155489,5.064292671385367],[100.70780810535187,5.064292671385367],[100.7088995,5.065420294497116],[100.709655038336,5.065147047314303],[100.70913682994545,5.065079524885119]]],[[[100.709655038336,5.06547295198461],[100.709655038336,5.065151387967684],[100.70958621926316,5.06547295198461],[100.709655038336,5.06547295198461]]],[[[100.70343653764928,5.065588484740914],[100.70395474603984,5.065866379317199],[100.70369219999999,5.065357794497177],[100.70343653764928,5.065588484740914]]]]},"properties":{"place_id":"d7916574-4e0f-5ed1-b676-a951a69d93bc","habitat":"water_edge","habitat_label":"Water edge","resolution_m":50}}]}