{"type":"FeatureCollection","metadata":{"schema_version":1,"place_id":"d7a0f021-ebde-56bf-a0be-e890c3cc6d00","place_name":"The Qiu","place_type":"park","osm_reference":"relation/21181158","protection_context":"no protected status confirmed from included OSM tags","resolution_m":50,"raster_coverage":1.0,"interpretation":"Suggested search habitats, not predicted plant locations or probabilities of presence."},"features":[{"type":"Feature","geometry":{"type":"Polygon","coordinates":[[[101.8177259,3.3654894962845203],[101.8171487,3.366753796283169],[101.81810278574521,3.3661517617919263],[101.8177259,3.3654894962845203]]]},"properties":{"place_id":"d7a0f021-ebde-56bf-a0be-e890c3cc6d00","habitat":"forest_interior","habitat_label":"Forest interior","resolution_m":50}},{"type":"Feature","geometry":{"type":"MultiPolygon","coordinates":[[[[101.81810278574521,3.3661517617919263],[101.81851029999999,3.3659672962840173],[101.81854069999999,3.3651498962848807],[101.81810278574521,3.3656066668819147],[101.81810278574521,3.3661517617919263]]],[[[101.81758457735465,3.3662251066029754],[101.8174656,3.36584689628414],[101.81734615488064,3.3662251066029754],[101.81758457735465,3.3662251066029754]]]]},"properties":{"place_id":"d7a0f021-ebde-56bf-a0be-e890c3cc6d00","habitat":"forest_edge_opening","habitat_label":"Forest edge or opening","resolution_m":50}},{"type":"Feature","geometry":{"type":"Polygon","coordinates":[[[101.81862099413577,3.3654399252038316],[101.81862099413577,3.3656673552425027],[101.81870492789186,3.3654399252038316],[101.81862099413577,3.3654399252038316]]]},"properties":{"place_id":"d7a0f021-ebde-56bf-a0be-e890c3cc6d00","habitat":"open_grassland","habitat_label":"Open grassland or shrubland","resolution_m":50}},{"type":"Feature","geometry":{"type":"Polygon","coordinates":[[[101.81810278574521,3.3656066668819147],[101.81856004112568,3.365832515826411],[101.81854069999999,3.3651498962848807],[101.81810278574521,3.3656066668819147]]]},"properties":{"place_id":"d7a0f021-ebde-56bf-a0be-e890c3cc6d00","habitat":"disturbed_built_edge","habitat_label":"Disturbed, bare or built edge","resolution_m":50}}]}