{"type":"FeatureCollection","metadata":{"schema_version":1,"place_id":"d7a5eb7c-2b00-5681-962c-bf7f61ced5e5","place_name":"1 Krubong Leisure Park","place_type":"park","osm_reference":"way/946140694","protection_context":"no protected status confirmed from included OSM tags","resolution_m":50,"raster_coverage":1.0,"interpretation":"Suggested search habitats, not predicted plant locations or probabilities of presence."},"features":[{"type":"Feature","geometry":{"type":"MultiPolygon","coordinates":[[[[102.24450385309753,2.3114387155877782],[102.24354929999998,2.310572997431915],[102.24349479999997,2.3124393974298694],[102.24407008278607,2.3122232001631065],[102.24407008278607,2.3114387155877782],[102.24450385309753,2.3114387155877782]]],[[[102.24510649956719,2.3118081320630375],[102.2447123,2.311651797430754],[102.24458829117663,2.3115193269057626],[102.24458829117663,2.311830957822688],[102.24510649956719,2.3118081320630375]]],[[[102.2461429163483,2.3122232001631065],[102.24632076746317,2.3122232001631065],[102.2461429163483,2.3120797112565246],[102.2461429163483,2.3122232001631065]]],[[[102.24632521762426,2.3126154426090517],[102.2461429163483,2.313007685160541],[102.24562470795773,2.313007685160541],[102.24562470795773,2.3149688995017823],[102.24510649956719,2.3149688995017823],[102.24510649956719,2.315753385977718],[102.24458829117663,2.315753385977718],[102.24458829117663,2.3137921705802253],[102.24510649956719,2.3137921705802253],[102.24458829117663,2.313007685160541],[102.2445379,2.313841997428353],[102.2436136,2.314175597427972],[102.24407008278607,2.3163398702153244],[102.2456157,2.315592997426439],[102.24632521762426,2.3126154426090517]]]]},"properties":{"place_id":"d7a5eb7c-2b00-5681-962c-bf7f61ced5e5","habitat":"forest_edge_opening","habitat_label":"Forest edge or opening","resolution_m":50}},{"type":"Feature","geometry":{"type":"MultiPolygon","coordinates":[[[[102.2435518743955,2.3106542314344107],[102.2435518743955,2.310572812223606],[102.2435252195638,2.3106542314344107],[102.2435518743955,2.3106542314344107]]],[[[102.24562470795773,2.3122232001631065],[102.24458829117663,2.311830957822688],[102.24458829117663,2.3122232001631065],[102.24562470795773,2.3122232001631065]]],[[[102.24450385309753,2.3114387155877782],[102.24396478150808,2.3106542314344107],[102.2435518743955,2.3106542314344107],[102.2435518743955,2.312434778938526],[102.24448379999998,2.3124681974298587],[102.24458829117663,2.3133999278175934],[102.24458829117663,2.3122232001631065],[102.24407008278607,2.3122232001631065],[102.24407008278607,2.3114387155877782],[102.24450385309753,2.3114387155877782]]],[[[102.24562470795773,2.3141844134484555],[102.24632076746317,2.3122232001631065],[102.24562470795773,2.3122232001631065],[102.24562470795773,2.3141844134484555]]],[[[102.24407008278607,2.313999770189848],[102.24458829117663,2.3141844134484555],[102.24458829117663,2.3137921705802253],[102.24407008278607,2.313999770189848]]],[[[102.24562470795773,2.314576656422302],[102.24458829117663,2.314576656422302],[102.24458829117663,2.3161456293742093],[102.24552829999999,2.3157369974262543],[102.24562470795773,2.314576656422302]]]]},"properties":{"place_id":"d7a5eb7c-2b00-5681-962c-bf7f61ced5e5","habitat":"open_grassland","habitat_label":"Open grassland or shrubland","resolution_m":50}},{"type":"Feature","geometry":{"type":"MultiPolygon","coordinates":[[[[102.2435518743955,2.3106542314344107],[102.2435518743955,2.311046473458358],[102.24407008278607,2.311046473458358],[102.24407008278607,2.311830957822688],[102.24458829117663,2.311830957822688],[102.24458829117663,2.3122232001631065],[102.24562470795773,2.3122232001631065],[102.24562470795773,2.313007685160541],[102.2461429163483,2.3131374031919263],[102.24626860000001,2.3121492974301963],[102.2447123,2.311651797430754],[102.24411229999998,2.3107749974317287],[102.2435518743955,2.3106542314344107]]],[[[102.24407008278607,2.312360109910701],[102.24346658574592,2.311830957822688],[102.24349479999997,2.3124393974298694],[102.24407008278607,2.312360109910701]]],[[[102.24599400041443,2.3137921705802253],[102.24562470795773,2.3141844134484555],[102.24510649956719,2.3141844134484555],[102.24510649956719,2.3149688995017823],[102.24562470795773,2.3149688995017823],[102.24570209145273,2.315361142686916],[102.24599400041443,2.3137921705802253]]],[[[102.24458829117663,2.3161456293742093],[102.24458829117663,2.315753385977718],[102.24407008278607,2.315753385977718],[102.24407008278607,2.3141844134484555],[102.24458829117663,2.3141844134484555],[102.24452049138279,2.3133999278175934],[102.2444188,2.3139789974281944],[102.2436136,2.314175597427972],[102.24386429999998,2.316321097425625],[102.24458829117663,2.3161456293742093]]]]},"properties":{"place_id":"d7a5eb7c-2b00-5681-962c-bf7f61ced5e5","habitat":"disturbed_built_edge","habitat_label":"Disturbed, bare or built edge","resolution_m":50}},{"type":"Feature","geometry":{"type":"MultiPolygon","coordinates":[[[[102.24407008278607,2.3114387155877782],[102.24407008278607,2.3122232001631065],[102.24458829117663,2.3122232001631065],[102.24458829117663,2.3115193269057626],[102.24407008278607,2.3114387155877782]]],[[[102.24407008278607,2.3141844134484555],[102.24407008278607,2.315753385977718],[102.24458829117663,2.315753385977718],[102.24458829117663,2.314576656422302],[102.24562470795773,2.314576656422302],[102.24562470795773,2.3122232001631065],[102.24458829117663,2.3122232001631065],[102.24458829117663,2.3141844134484555],[102.24407008278607,2.3141844134484555]]]]},"properties":{"place_id":"d7a5eb7c-2b00-5681-962c-bf7f61ced5e5","habitat":"permanent_water","habitat_label":"Permanent water","resolution_m":50}},{"type":"Feature","geometry":{"type":"MultiPolygon","coordinates":[[[[102.24458829117663,2.311830957822688],[102.24458829117663,2.3122232001631065],[102.24510649956719,2.3122232001631065],[102.24510649956719,2.311830957822688],[102.24458829117663,2.311830957822688]]],[[[102.24562470795773,2.3126154426090517],[102.24562470795773,2.3133999278175934],[102.24613612423948,2.3133999278175934],[102.2461429163483,2.3126154426090517],[102.24562470795773,2.3126154426090517]]],[[[102.24510649956719,2.3141844134484555],[102.24510649956719,2.314576656422302],[102.24562470795773,2.314576656422302],[102.24562470795773,2.3141844134484555],[102.24510649956719,2.3141844134484555]]],[[[102.24407008278607,2.315361142686916],[102.24407008278607,2.3161456293742093],[102.24458829117663,2.3161456293742093],[102.24458829117663,2.315361142686916],[102.24407008278607,2.315361142686916]]]]},"properties":{"place_id":"d7a5eb7c-2b00-5681-962c-bf7f61ced5e5","habitat":"seasonal_water_wetland","habitat_label":"Seasonal water or wetland","resolution_m":50}},{"type":"Feature","geometry":{"type":"MultiPolygon","coordinates":[[[[102.24510649956719,2.311830957822688],[102.24510649956719,2.3122232001631065],[102.2461429163483,2.3126154426090517],[102.2461429163483,2.3131374031919263],[102.24632076746317,2.3122232001631065],[102.24458829117663,2.3115193269057626],[102.24458829117663,2.311830957822688],[102.24510649956719,2.311830957822688]]],[[[102.24407008278607,2.311046473458358],[102.2435518743955,2.311046473458358],[102.24346269999998,2.311880797430509],[102.2435518743955,2.312434778938526],[102.24448379999998,2.3124681974298587],[102.2445379,2.313841997428353],[102.2436136,2.314175597427972],[102.24396079999998,2.3163649974255818],[102.2450933,2.316039797425923],[102.24552829999999,2.3157369974262543],[102.24614240000001,2.3134070974288212],[102.24562470795773,2.3133999278175934],[102.24562470795773,2.314576656422302],[102.24458829117663,2.314576656422302],[102.24458829117663,2.3161456293742093],[102.24407008278607,2.3161456293742093],[102.24407008278607,2.3141844134484555],[102.24458829117663,2.3141844134484555],[102.24458829117663,2.3122232001631065],[102.24407008278607,2.3122232001631065],[102.24407008278607,2.3114387155877782],[102.24450385309753,2.3114387155877782],[102.24407008278607,2.310740436313128],[102.24407008278607,2.311046473458358]]]]},"properties":{"place_id":"d7a5eb7c-2b00-5681-962c-bf7f61ced5e5","habitat":"water_edge","habitat_label":"Water edge","resolution_m":50}}]}