{"type":"FeatureCollection","metadata":{"schema_version":1,"place_id":"d86b4956-9bd1-52c9-bd01-3e00ccfd38cd","place_name":"Avenue Park","place_type":"park","osm_reference":"way/1244291177","protection_context":"no protected status confirmed from included OSM tags","resolution_m":50,"raster_coverage":1.0,"interpretation":"Suggested search habitats, not predicted plant locations or probabilities of presence."},"features":[{"type":"Feature","geometry":{"type":"Polygon","coordinates":[[[101.7515432,3.154565196511982],[101.75218739999997,3.154407896512178],[101.7516652,3.1539190965126744],[101.7514495,3.1539835965126026],[101.7515432,3.154565196511982]]]},"properties":{"place_id":"d86b4956-9bd1-52c9-bd01-3e00ccfd38cd","habitat":"disturbed_built_edge","habitat_label":"Disturbed, bare or built edge","resolution_m":50}}]}