{"type":"FeatureCollection","metadata":{"schema_version":1,"place_id":"d96b4ddf-ee17-5150-acd6-134a926cf07f","place_name":"Playground","place_type":"park","osm_reference":"way/685550032","protection_context":"no protected status confirmed from included OSM tags","resolution_m":50,"raster_coverage":1.0,"interpretation":"Suggested search habitats, not predicted plant locations or probabilities of presence."},"features":[{"type":"Feature","geometry":{"type":"Polygon","coordinates":[[[102.30592514689378,2.2004383344406384],[102.30625508965333,2.200121277382405],[102.30580229999998,2.2001079975533364],[102.30592514689378,2.2004383344406384]]]},"properties":{"place_id":"d96b4ddf-ee17-5150-acd6-134a926cf07f","habitat":"open_grassland","habitat_label":"Open grassland or shrubland","resolution_m":50}},{"type":"Feature","geometry":{"type":"Polygon","coordinates":[[[102.30596339999997,2.200541197552867],[102.30649420000002,2.2005835975528147],[102.3064058,2.200125697553315],[102.30580229999998,2.2001079975533364],[102.30596339999997,2.200541197552867]]]},"properties":{"place_id":"d96b4ddf-ee17-5150-acd6-134a926cf07f","habitat":"disturbed_built_edge","habitat_label":"Disturbed, bare or built edge","resolution_m":50}}]}