{"type":"FeatureCollection","metadata":{"schema_version":1,"place_id":"d9b837e4-96cb-5a74-9e76-66b3548ef8e3","place_name":"Padang Rakyat","place_type":"park","osm_reference":"way/682800399","protection_context":"no protected status confirmed from included OSM tags","resolution_m":50,"raster_coverage":1.0,"interpretation":"Suggested search habitats, not predicted plant locations or probabilities of presence."},"features":[{"type":"Feature","geometry":{"type":"Polygon","coordinates":[[[101.51857833600116,2.9722132856689742],[101.51868389999998,2.9724751967092065],[101.51869189999998,2.972216796709487],[101.51857833600116,2.9722132856689742]]]},"properties":{"place_id":"d9b837e4-96cb-5a74-9e76-66b3548ef8e3","habitat":"forest_edge_opening","habitat_label":"Forest edge or opening","resolution_m":50}},{"type":"Feature","geometry":{"type":"Polygon","coordinates":[[[101.5180601276106,2.972197264300791],[101.51857833600116,2.9724719528070676],[101.51857833600116,2.9722132856689742],[101.5180601276106,2.972197264300791]]]},"properties":{"place_id":"d9b837e4-96cb-5a74-9e76-66b3548ef8e3","habitat":"open_grassland","habitat_label":"Open grassland or shrubland","resolution_m":50}},{"type":"Feature","geometry":{"type":"Polygon","coordinates":[[[101.51802689999998,2.9725502967091226],[101.51868389999998,2.9724751967092065],[101.51869189999998,2.972216796709487],[101.51775390000002,2.9721877967095063],[101.51802689999998,2.9725502967091226]]]},"properties":{"place_id":"d9b837e4-96cb-5a74-9e76-66b3548ef8e3","habitat":"disturbed_built_edge","habitat_label":"Disturbed, bare or built edge","resolution_m":50}}]}