{"type":"FeatureCollection","metadata":{"schema_version":1,"place_id":"d9db2bf2-fe89-5d1b-8b80-7d10b34f4287","place_name":"Park of Temple De Fu","place_type":"park","osm_reference":"way/1172656169","protection_context":"no protected status confirmed from included OSM tags","resolution_m":50,"raster_coverage":1.0,"interpretation":"Suggested search habitats, not predicted plant locations or probabilities of presence."},"features":[{"type":"Feature","geometry":{"type":"Polygon","coordinates":[[[103.6440513,2.6220426970907798],[103.64461699999998,2.6224029970903837],[103.64465799999999,2.6221818970906052],[103.6440513,2.6220426970907798]]]},"properties":{"place_id":"d9db2bf2-fe89-5d1b-8b80-7d10b34f4287","habitat":"forest_edge_opening","habitat_label":"Forest edge or opening","resolution_m":50}},{"type":"Feature","geometry":{"type":"Polygon","coordinates":[[[103.64426915408092,2.62216507396267],[103.6439693,2.622194197090611],[103.64426915408092,2.6223309815171385],[103.64426915408092,2.62216507396267]]]},"properties":{"place_id":"d9db2bf2-fe89-5d1b-8b80-7d10b34f4287","habitat":"disturbed_built_edge","habitat_label":"Disturbed, bare or built edge","resolution_m":50}}]}