{"type":"FeatureCollection","metadata":{"schema_version":1,"place_id":"da6eed5c-cc98-5797-afb2-191ce4f41e3e","place_name":"Pulau Melaka","place_type":"wood","osm_reference":"way/724518192","protection_context":"no protected status confirmed from included OSM tags","resolution_m":50,"raster_coverage":1.0,"interpretation":"Suggested search habitats, not predicted plant locations or probabilities of presence."},"features":[{"type":"Feature","geometry":{"type":"Polygon","coordinates":[[[102.72600388600746,4.94863526889775],[102.72600388600746,4.949028627811729],[102.72652209439802,4.949028627811729],[102.72648217840636,4.94863526889775],[102.72600388600746,4.94863526889775]]]},"properties":{"place_id":"da6eed5c-cc98-5797-afb2-191ce4f41e3e","habitat":"forest_interior","habitat_label":"Forest interior","resolution_m":50}},{"type":"Feature","geometry":{"type":"Polygon","coordinates":[[[102.72652209439802,4.949028627811729],[102.72600388600746,4.949028627811729],[102.72649569999999,4.948322994617227],[102.72590559999999,4.947561394618019],[102.7254724,4.947877394617675],[102.725278,4.949407294616121],[102.7267117,4.949387194616135],[102.72652209439802,4.948727281536691],[102.72652209439802,4.949028627811729]]]},"properties":{"place_id":"da6eed5c-cc98-5797-afb2-191ce4f41e3e","habitat":"forest_edge_opening","habitat_label":"Forest edge or opening","resolution_m":50}},{"type":"Feature","geometry":{"type":"MultiPolygon","coordinates":[[[[102.72600388600746,4.947848551752618],[102.72590559999999,4.947561394618019],[102.72549044138701,4.947848551752618],[102.72600388600746,4.947848551752618]]],[[[102.72548567761689,4.9494219869533405],[102.72548567761689,4.948499802275285],[102.72532759999999,4.949455394616075],[102.72648301916757,4.9494219869533405],[102.72548567761689,4.9494219869533405]]],[[[102.72548567761689,4.9478561676180774],[102.7254724,4.947877394617675],[102.72548567761689,4.947959880310105],[102.72548567761689,4.9478561676180774]]]]},"properties":{"place_id":"da6eed5c-cc98-5797-afb2-191ce4f41e3e","habitat":"permanent_water","habitat_label":"Permanent water","resolution_m":50}},{"type":"Feature","geometry":{"type":"Polygon","coordinates":[[[102.72524853970722,4.949028627811729],[102.72548567761689,4.94863526889775],[102.72543214747327,4.94863526889775],[102.72524853970722,4.949028627811729]]]},"properties":{"place_id":"da6eed5c-cc98-5797-afb2-191ce4f41e3e","habitat":"seasonal_water_wetland","habitat_label":"Seasonal water or wetland","resolution_m":50}},{"type":"Feature","geometry":{"type":"Polygon","coordinates":[[[102.72548567761689,4.9494219869533405],[102.726886,4.949190794616355],[102.72603439999999,4.947548694617999],[102.72548567761689,4.9478561676180774],[102.72548567761689,4.9494219869533405]]]},"properties":{"place_id":"da6eed5c-cc98-5797-afb2-191ce4f41e3e","habitat":"water_edge","habitat_label":"Water edge","resolution_m":50}}]}