{"type":"FeatureCollection","metadata":{"schema_version":1,"place_id":"da8ef737-16cf-5da2-ba26-2e1f5cc5aab0","place_name":"Bayan Park","place_type":"park","osm_reference":"way/405043380","protection_context":"no protected status confirmed from included OSM tags","resolution_m":50,"raster_coverage":1.0,"interpretation":"Suggested search habitats, not predicted plant locations or probabilities of presence."},"features":[{"type":"Feature","geometry":{"type":"Polygon","coordinates":[[[103.85212209999999,1.497534798329784],[103.85275029999998,1.497354298330008],[103.85257329999997,1.497057098330335],[103.85212209999999,1.497534798329784]]]},"properties":{"place_id":"da8ef737-16cf-5da2-ba26-2e1f5cc5aab0","habitat":"forest_edge_opening","habitat_label":"Forest edge or opening","resolution_m":50}},{"type":"Feature","geometry":{"type":"Polygon","coordinates":[[[103.85230185370202,1.4973444872729682],[103.85258892708629,1.4970833377075283],[103.85257329999997,1.497057098330335],[103.85230185370202,1.4973444872729682]]]},"properties":{"place_id":"da8ef737-16cf-5da2-ba26-2e1f5cc5aab0","habitat":"open_grassland","habitat_label":"Open grassland or shrubland","resolution_m":50}},{"type":"Feature","geometry":{"type":"Polygon","coordinates":[[[103.85212209999999,1.497534798329784],[103.85275029999998,1.497354298330008],[103.85257329999997,1.497057098330335],[103.85212209999999,1.497534798329784]]]},"properties":{"place_id":"da8ef737-16cf-5da2-ba26-2e1f5cc5aab0","habitat":"disturbed_built_edge","habitat_label":"Disturbed, bare or built edge","resolution_m":50}}]}