{"type":"FeatureCollection","metadata":{"schema_version":1,"place_id":"db281cf2-fbd6-5529-849d-b761e6dc5292","place_name":"Taman Canseri","place_type":"park","osm_reference":"way/1245476896","protection_context":"no protected status confirmed from included OSM tags","resolution_m":50,"raster_coverage":1.0,"interpretation":"Suggested search habitats, not predicted plant locations or probabilities of presence."},"features":[{"type":"Feature","geometry":{"type":"MultiPolygon","coordinates":[[[[101.72689810900654,2.9416798139869185],[101.72637990061597,2.9419205626505978],[101.72637990061597,2.942312997670962],[101.72689810900654,2.942312997670962],[101.72689810900654,2.9434903035389057],[101.72733238762982,2.9434903035389057],[101.72689810900654,2.9416798139869185]]],[[[101.7274163173971,2.9446676106175103],[101.72689810900654,2.9446676106175103],[101.72731791370255,2.9438827390972317],[101.72637990061597,2.9438827390972317],[101.72637990061597,2.945060046579498],[101.7274163173971,2.945060046579498],[101.7274163173971,2.9446676106175103]]]]},"properties":{"place_id":"db281cf2-fbd6-5529-849d-b761e6dc5292","habitat":"forest_interior","habitat_label":"Forest interior","resolution_m":50}},{"type":"Feature","geometry":{"type":"Polygon","coordinates":[[[101.7255804386039,2.945060046579498],[101.72633009999998,2.9451921967388315],[101.7258915,2.945938796738006],[101.72762110000001,2.9452339967387693],[101.7274163173971,2.9442209551465988],[101.72689810900654,2.9442751747900937],[101.7274163173971,2.945060046579498],[101.72637990061597,2.945060046579498],[101.72637990061597,2.9438827390972317],[101.72734720000001,2.943772696740336],[101.72689810900654,2.9434903035389057],[101.72689810900654,2.942312997670962],[101.72637990061597,2.942312997670962],[101.72677879999999,2.9415692967427467],[101.72612549999997,2.9417784967425464],[101.72643329999998,2.943244796740915],[101.7255804386039,2.945060046579498]]]},"properties":{"place_id":"db281cf2-fbd6-5529-849d-b761e6dc5292","habitat":"forest_edge_opening","habitat_label":"Forest edge or opening","resolution_m":50}},{"type":"Feature","geometry":{"type":"MultiPolygon","coordinates":[[[[101.72637990061597,2.942312997670962],[101.72637498304728,2.942312997670962],[101.72637990061597,2.9423403325658226],[101.72637990061597,2.942312997670962]]],[[[101.72637990061597,2.9434903035389057],[101.72637990061597,2.9433554496166776],[101.7263148221844,2.9434903035389057],[101.72637990061597,2.9434903035389057]]],[[[101.72637990061597,2.945060046579498],[101.72633009999998,2.9451921967388315],[101.72637990061597,2.945452482676076],[101.72637990061597,2.945060046579498]]],[[[101.72555728886752,2.945060046579498],[101.7255549,2.9450649967389704],[101.7255804386039,2.945060046579498],[101.72555728886752,2.945060046579498]]]]},"properties":{"place_id":"db281cf2-fbd6-5529-849d-b761e6dc5292","habitat":"open_grassland","habitat_label":"Open grassland or shrubland","resolution_m":50}},{"type":"Feature","geometry":{"type":"MultiPolygon","coordinates":[[[[101.72637990061597,2.9419205626505978],[101.72689810900654,2.9419205626505978],[101.72677879999999,2.9415692967427467],[101.72612549999997,2.9417784967425464],[101.72637498304728,2.942312997670962],[101.72637990061597,2.9419205626505978]]],[[[101.72689810900654,2.9446676106175103],[101.7274163173971,2.9446676106175103],[101.72767300872555,2.945060046579498],[101.7274163173971,2.9442209551465988],[101.72689810900654,2.9442751747900937],[101.72689810900654,2.9446676106175103]]],[[[101.72637990061597,2.9433554496166776],[101.7255549,2.9450649967389704],[101.72633009999998,2.9451921967388315],[101.7258915,2.945938796738006],[101.7274163173971,2.945359498541764],[101.7274163173971,2.945060046579498],[101.72689810900654,2.945060046579498],[101.72689810900654,2.945452482676076],[101.72637990061597,2.945452482676076],[101.72637990061597,2.9438827390972317],[101.72734720000001,2.943772696740336],[101.72733238762982,2.9434903035389057],[101.72637990061597,2.9433554496166776]]]]},"properties":{"place_id":"db281cf2-fbd6-5529-849d-b761e6dc5292","habitat":"disturbed_built_edge","habitat_label":"Disturbed, bare or built edge","resolution_m":50}}]}