{"type":"FeatureCollection","metadata":{"schema_version":1,"place_id":"db9977f0-2af9-59eb-8518-b64864dac52d","place_name":"Linear Park","place_type":"park","osm_reference":"way/417486416","protection_context":"no protected status confirmed from included OSM tags","resolution_m":50,"raster_coverage":1.0,"interpretation":"Suggested search habitats, not predicted plant locations or probabilities of presence."},"features":[{"type":"Feature","geometry":{"type":"MultiPolygon","coordinates":[[[[100.48599259999999,5.3022436942557185],[100.4862569,5.302183994255771],[100.48622249999998,5.30208729425585],[100.48599259999999,5.3022436942557185]]],[[[100.48630722200436,5.303933332330275],[100.4859883183251,5.303539760580375],[100.48619875266755,5.303933332330275],[100.48630722200436,5.303933332330275]]]]},"properties":{"place_id":"db9977f0-2af9-59eb-8518-b64864dac52d","habitat":"forest_edge_opening","habitat_label":"Forest edge or opening","resolution_m":50}},{"type":"Feature","geometry":{"type":"Polygon","coordinates":[[[100.4859097,5.303370894254558],[100.48636849999998,5.303935294253993],[100.48622249999998,5.30208729425585],[100.48599259999999,5.3022436942557185],[100.4859097,5.303370894254558]]]},"properties":{"place_id":"db9977f0-2af9-59eb-8518-b64864dac52d","habitat":"disturbed_built_edge","habitat_label":"Disturbed, bare or built edge","resolution_m":50}}]}