{"type":"FeatureCollection","metadata":{"schema_version":1,"place_id":"dc1c0400-4898-50cf-ab67-31df2259e309","place_name":"Pandan Damai Park","place_type":"park","osm_reference":"way/461302882","protection_context":"no protected status confirmed from included OSM tags","resolution_m":50,"raster_coverage":1.0,"interpretation":"Suggested search habitats, not predicted plant locations or probabilities of presence."},"features":[{"type":"Feature","geometry":{"type":"Polygon","coordinates":[[[103.2316048,3.774972995846092],[103.23225231211526,3.774606281130524],[103.23224509999999,3.774002595847145],[103.23159329999999,3.774010395847138],[103.2316048,3.774972995846092]]]},"properties":{"place_id":"dc1c0400-4898-50cf-ab67-31df2259e309","habitat":"forest_edge_opening","habitat_label":"Forest edge or opening","resolution_m":50}},{"type":"Feature","geometry":{"type":"Polygon","coordinates":[[[103.23177527519465,3.774213520384022],[103.23177527519465,3.774970955793129],[103.2322566,3.774965195846098],[103.23224761987657,3.774213520384022],[103.23177527519465,3.774213520384022]]]},"properties":{"place_id":"dc1c0400-4898-50cf-ab67-31df2259e309","habitat":"open_grassland","habitat_label":"Open grassland or shrubland","resolution_m":50}},{"type":"Feature","geometry":{"type":"Polygon","coordinates":[[[103.2316048,3.774972995846092],[103.2322566,3.774965195846098],[103.23224509999999,3.774002595847145],[103.23159329999999,3.774010395847138],[103.2316048,3.774972995846092]]]},"properties":{"place_id":"dc1c0400-4898-50cf-ab67-31df2259e309","habitat":"disturbed_built_edge","habitat_label":"Disturbed, bare or built edge","resolution_m":50}}]}