{"type":"FeatureCollection","metadata":{"schema_version":1,"place_id":"dc44a4ba-f4ce-59a2-aad8-56a1d33d40a0","place_name":"Taman Asean park","place_type":"park","osm_reference":"way/591307909","protection_context":"no protected status confirmed from included OSM tags","resolution_m":50,"raster_coverage":1.0,"interpretation":"Suggested search habitats, not predicted plant locations or probabilities of presence."},"features":[{"type":"Feature","geometry":{"type":"Polygon","coordinates":[[[102.21919608003914,2.234558171178337],[102.2201789,2.234379697515652],[102.21919608003914,2.234169029783215],[102.21919608003914,2.234558171178337]]]},"properties":{"place_id":"dc44a4ba-f4ce-59a2-aad8-56a1d33d40a0","habitat":"forest_edge_opening","habitat_label":"Forest edge or opening","resolution_m":50}},{"type":"Feature","geometry":{"type":"Polygon","coordinates":[[[102.21919608003914,2.234169029783215],[102.21919608003914,2.234558171178337],[102.21971428842971,2.2345612515835693],[102.21971428842971,2.2343265039297773],[102.21919608003914,2.234169029783215]]]},"properties":{"place_id":"dc44a4ba-f4ce-59a2-aad8-56a1d33d40a0","habitat":"open_grassland","habitat_label":"Open grassland or shrubland","resolution_m":50}},{"type":"Feature","geometry":{"type":"Polygon","coordinates":[[[102.21957419999998,2.2348081975151857],[102.2201789,2.234379697515652],[102.21857849999999,2.233952197516137],[102.2184879,2.23408989751598],[102.21957419999998,2.2348081975151857]]]},"properties":{"place_id":"dc44a4ba-f4ce-59a2-aad8-56a1d33d40a0","habitat":"disturbed_built_edge","habitat_label":"Disturbed, bare or built edge","resolution_m":50}}]}