{"type":"FeatureCollection","metadata":{"schema_version":1,"place_id":"dc4c464d-c38e-5cb1-a99c-f18265ff7d5b","place_name":"Rimba Ilmu","place_type":"park","osm_reference":"way/996053354","protection_context":"mapped protected boundary","resolution_m":50,"raster_coverage":1.0,"interpretation":"Suggested search habitats, not predicted plant locations or probabilities of presence."},"features":[{"type":"Feature","geometry":{"type":"MultiPolygon","coordinates":[[[[101.65745818467141,3.128342655245215],[101.6558041,3.128394496540272],[101.65486809999999,3.1304060965381013],[101.65533069999996,3.1307442965377628],[101.65592529999999,3.1303723965381507],[101.65745818467141,3.1306976629398866],[101.65745818467141,3.1303051612996984],[101.65901280984309,3.129912659802632],[101.65901280984309,3.1287351561699777],[101.65797639306199,3.1287351561699777],[101.65745818467141,3.128342655245215]]],[[[101.65693997628085,3.1310047196509534],[101.65693120000002,3.131250996537215],[101.65693997628085,3.131266247555748],[101.65693997628085,3.1310047196509534]]]]},"properties":{"place_id":"dc4c464d-c38e-5cb1-a99c-f18265ff7d5b","habitat":"forest_interior","habitat_label":"Forest interior","resolution_m":50}},{"type":"Feature","geometry":{"type":"MultiPolygon","coordinates":[[[[101.65745818467141,3.128342655245215],[101.65747274199379,3.128342655245215],[101.65745818467141,3.128338621028011],[101.65745818467141,3.128342655245215]]],[[[101.65797639306199,3.1287351561699777],[101.65901280984309,3.1287351561699777],[101.65901280984309,3.129912659802632],[101.65849460145255,3.130121176595995],[101.65928679999999,3.1300342965385326],[101.65927499999997,3.1285243965401675],[101.65797639306199,3.1284822302224873],[101.65797639306199,3.1287351561699777]]],[[[101.65745818467141,3.1303051612996984],[101.6570639,3.1314815965369522],[101.6583403,3.1317826965366065],[101.65831369586628,3.1303051612996984],[101.65745818467141,3.1303051612996984]]]]},"properties":{"place_id":"dc4c464d-c38e-5cb1-a99c-f18265ff7d5b","habitat":"forest_edge_opening","habitat_label":"Forest edge or opening","resolution_m":50}},{"type":"Feature","geometry":{"type":"MultiPolygon","coordinates":[[[[101.65745818467141,3.128342655245215],[101.65747274199379,3.128342655245215],[101.65745818467141,3.128338621028011],[101.65745818467141,3.128342655245215]]],[[[101.65797639306199,3.1287351561699777],[101.65901280984309,3.1287351561699777],[101.65928679999999,3.1300342965385326],[101.65927499999997,3.1285243965401675],[101.65797639306199,3.1284822302224873],[101.65797639306199,3.1287351561699777]]],[[[101.65829945411465,3.1306976629398866],[101.65797639306199,3.1303051612996984],[101.65745818467141,3.1303051612996984],[101.65693997628085,3.131266247555748],[101.6583403,3.1317826965366065],[101.65829945411465,3.1306976629398866]]]]},"properties":{"place_id":"dc4c464d-c38e-5cb1-a99c-f18265ff7d5b","habitat":"disturbed_built_edge","habitat_label":"Disturbed, bare or built edge","resolution_m":50}}]}