{"type":"FeatureCollection","metadata":{"schema_version":1,"place_id":"dca331ec-4f77-5d6b-ac6a-e4dfb8294209","place_name":"Kok Lian Garden Community Garden","place_type":"park","osm_reference":"way/1016522100","protection_context":"no protected status confirmed from included OSM tags","resolution_m":50,"raster_coverage":1.0,"interpretation":"Suggested search habitats, not predicted plant locations or probabilities of presence."},"features":[{"type":"Feature","geometry":{"type":"Polygon","coordinates":[[[101.67558119999998,3.1997462964631733],[101.6758616,3.1993634964635675],[101.6757078,3.1993114964636375],[101.6755848,3.1993486964635944],[101.67558119999998,3.1997462964631733]]]},"properties":{"place_id":"dca331ec-4f77-5d6b-ac6a-e4dfb8294209","habitat":"disturbed_built_edge","habitat_label":"Disturbed, bare or built edge","resolution_m":50}}]}