{"type":"FeatureCollection","metadata":{"schema_version":1,"place_id":"dd88c448-3105-5748-ac6b-b57851179dd8","place_name":"Taman Awam Miri","place_type":"park","osm_reference":"way/351755556","protection_context":"no protected status confirmed from included OSM tags","resolution_m":50,"raster_coverage":1.0,"interpretation":"Suggested search habitats, not predicted plant locations or probabilities of presence."},"features":[{"type":"Feature","geometry":{"type":"MultiPolygon","coordinates":[[[[113.97993550381288,4.363627372272128],[113.98032962484211,4.363952286941881],[113.9803068,4.363720995224054],[113.97993550381288,4.363627372272128]]],[[[113.98045371220344,4.364738368717717],[113.9809421,4.364654695223043],[113.98073969999999,4.364086995223666],[113.98045371220344,4.364145002252368],[113.98045371220344,4.364738368717717]]],[[[113.97956884521714,4.366310534673303],[113.97993550381288,4.365917492883871],[113.97962987583995,4.365917492883871],[113.97956884521714,4.366310534673303]]],[[[113.98075221299455,4.365917492883871],[113.98045371220344,4.366310534673303],[113.97993550381288,4.366310534673303],[113.97993550381288,4.367096618853345],[113.98035528754762,4.367096618853345],[113.98075221299455,4.365917492883871]]]]},"properties":{"place_id":"dd88c448-3105-5748-ac6b-b57851179dd8","habitat":"forest_interior","habitat_label":"Forest interior","resolution_m":50}},{"type":"Feature","geometry":{"type":"MultiPolygon","coordinates":[[[[113.98045371220344,4.366310534673303],[113.98075845160724,4.364738368717717],[113.97987689999998,4.363612595224148],[113.97962987583995,4.365917492883871],[113.98045371220344,4.366310534673303]]],[[[113.97956884521714,4.366310534673303],[113.9790766,4.36810009521946],[113.98038939999999,4.367846995219711],[113.97993550381288,4.366310534673303],[113.97956884521714,4.366310534673303]]]]},"properties":{"place_id":"dd88c448-3105-5748-ac6b-b57851179dd8","habitat":"forest_edge_opening","habitat_label":"Forest edge or opening","resolution_m":50}},{"type":"Feature","geometry":{"type":"MultiPolygon","coordinates":[[[[113.98045371220344,4.364738368717717],[113.97993550381288,4.364738368717717],[113.97993550381288,4.365917492883871],[113.98045371220344,4.365917492883871],[113.98045371220344,4.364738368717717]]],[[[113.97993550381288,4.367489661243992],[113.97941729542232,4.367489661243992],[113.97941729542232,4.367882703835082],[113.97993550381288,4.367863500535529],[113.97993550381288,4.367489661243992]]]]},"properties":{"place_id":"dd88c448-3105-5748-ac6b-b57851179dd8","habitat":"open_grassland","habitat_label":"Open grassland or shrubland","resolution_m":50}},{"type":"Feature","geometry":{"type":"MultiPolygon","coordinates":[[[[113.97962987583995,4.365917492883871],[113.98045371220344,4.365524451294808],[113.98045371220344,4.364145002252368],[113.97987689999998,4.363612595224148],[113.97962987583995,4.365917492883871]]],[[[113.97993550381288,4.367096618853345],[113.97993550381288,4.366310534673303],[113.97956884521714,4.366310534673303],[113.9790766,4.36810009521946],[113.98038939999999,4.367846995219711],[113.98035528754762,4.367096618853345],[113.97993550381288,4.367096618853345]]]]},"properties":{"place_id":"dd88c448-3105-5748-ac6b-b57851179dd8","habitat":"disturbed_built_edge","habitat_label":"Disturbed, bare or built edge","resolution_m":50}}]}