{"type":"FeatureCollection","metadata":{"schema_version":1,"place_id":"dd9f480a-c9c8-5620-8ed2-a778ed465d23","place_name":"Gunung Mesah","place_type":"forest","osm_reference":"way/788346516","protection_context":"no protected status confirmed from included OSM tags","resolution_m":50,"raster_coverage":1.0,"interpretation":"Suggested search habitats, not predicted plant locations or probabilities of presence."},"features":[{"type":"Feature","geometry":{"type":"Polygon","coordinates":[[[101.16153275490488,4.442564454441468],[101.16205096329543,4.442564454441468],[101.16205096329543,4.442957535652985],[101.16153275490488,4.442957535652985],[101.16141621368307,4.44374369868792],[101.1623561,4.444981295139018],[101.1630964,4.444655095139349],[101.1637187,4.444933195139056],[101.16380449999998,4.444376995139623],[101.1651564,4.445478695138493],[101.16602539999998,4.445596395138368],[101.1669481,4.445136395138833],[101.167181628692,4.442957535652985],[101.16671483881049,4.442957535652985],[101.16671483881049,4.441908592648881],[101.1660361,4.440772195143416],[101.16521,4.44036579514384],[101.16417999999999,4.440237395143959],[101.16308738007656,4.44099213163464],[101.1620235,4.4409968951431855],[101.16153275490488,4.442564454441468]]]},"properties":{"place_id":"dd9f480a-c9c8-5620-8ed2-a778ed465d23","habitat":"forest_interior","habitat_label":"Forest interior","resolution_m":50}},{"type":"Feature","geometry":{"type":"MultiPolygon","coordinates":[[[[101.16360558846714,4.440599051442651],[101.16360558846714,4.4404828394203],[101.16334724789706,4.440599051442651],[101.16360558846714,4.440599051442651]]],[[[101.162569171686,4.44099213163464],[101.16308738007656,4.44072860470684],[101.162569171686,4.440943370127957],[101.162569171686,4.44099213163464]]],[[[101.16671483881049,4.442957535652985],[101.167181628692,4.442957535652985],[101.1669373,4.442323195141793],[101.16728069999999,4.4422162951419075],[101.16671483881049,4.441908592648881],[101.16671483881049,4.442957535652985]]],[[[101.16205096329543,4.442957535652985],[101.16205096329543,4.442564454441468],[101.16153275490488,4.4425270872762175],[101.16141621368307,4.44374369868792],[101.16153275490488,4.442957535652985],[101.16205096329543,4.442957535652985]]],[[[101.16153275490488,4.441688795047719],[101.16136910000002,4.442130695141991],[101.16153275490488,4.44242986748438],[101.16153275490488,4.441688795047719]]]]},"properties":{"place_id":"dd9f480a-c9c8-5620-8ed2-a778ed465d23","habitat":"forest_edge_opening","habitat_label":"Forest edge or opening","resolution_m":50}},{"type":"Feature","geometry":{"type":"Polygon","coordinates":[[[101.16128714041444,4.442957535652985],[101.16153275490488,4.442564454441468],[101.1615073982432,4.442564454441468],[101.16128714041444,4.442957535652985]]]},"properties":{"place_id":"dd9f480a-c9c8-5620-8ed2-a778ed465d23","habitat":"open_grassland","habitat_label":"Open grassland or shrubland","resolution_m":50}},{"type":"Feature","geometry":{"type":"Polygon","coordinates":[[[101.16671483881049,4.442957535652985],[101.167181628692,4.442957535652985],[101.1669373,4.442323195141793],[101.16728069999999,4.4422162951419075],[101.16671483881049,4.441908592648881],[101.16671483881049,4.442957535652985]]]},"properties":{"place_id":"dd9f480a-c9c8-5620-8ed2-a778ed465d23","habitat":"disturbed_built_edge","habitat_label":"Disturbed, bare or built edge","resolution_m":50}},{"type":"Feature","geometry":{"type":"Polygon","coordinates":[[[101.16128714041444,4.442957535652985],[101.16153275490488,4.442564454441468],[101.1615073982432,4.442564454441468],[101.16128714041444,4.442957535652985]]]},"properties":{"place_id":"dd9f480a-c9c8-5620-8ed2-a778ed465d23","habitat":"seasonal_water_wetland","habitat_label":"Seasonal water or wetland","resolution_m":50}},{"type":"Feature","geometry":{"type":"Polygon","coordinates":[[[101.16149961003357,4.441778292630243],[101.16119739999999,4.443307295140752],[101.16141621368307,4.44374369868792],[101.16205096329543,4.442957535652985],[101.162569171686,4.442957535652985],[101.16149961003357,4.441778292630243]]]},"properties":{"place_id":"dd9f480a-c9c8-5620-8ed2-a778ed465d23","habitat":"water_edge","habitat_label":"Water edge","resolution_m":50}}]}