{"type":"FeatureCollection","metadata":{"schema_version":1,"place_id":"ddbeee36-480d-53c7-9893-aab9d8212b6a","place_name":"Pangsapuri Alora Playground and Field","place_type":"park","osm_reference":"way/1458627822","protection_context":"no protected status confirmed from included OSM tags","resolution_m":50,"raster_coverage":1.0,"interpretation":"Suggested search habitats, not predicted plant locations or probabilities of presence."},"features":[{"type":"Feature","geometry":{"type":"Polygon","coordinates":[[[101.5385325,3.0314857966452027],[101.539866,3.0312990966453985],[101.5385731,3.03121949664552],[101.5385325,3.0314857966452027]]]},"properties":{"place_id":"ddbeee36-480d-53c7-9893-aab9d8212b6a","habitat":"forest_edge_opening","habitat_label":"Forest edge or opening","resolution_m":50}},{"type":"Feature","geometry":{"type":"Polygon","coordinates":[[[101.5385325,3.0314857966452027],[101.539866,3.0312990966453985],[101.5385731,3.03121949664552],[101.5385325,3.0314857966452027]]]},"properties":{"place_id":"ddbeee36-480d-53c7-9893-aab9d8212b6a","habitat":"disturbed_built_edge","habitat_label":"Disturbed, bare or built edge","resolution_m":50}}]}