{"type":"FeatureCollection","metadata":{"schema_version":1,"place_id":"de8b876c-3fc4-521b-82b2-210281e144e0","place_name":"Pulau Kerbat","place_type":"wood","osm_reference":"way/724669598","protection_context":"no protected status confirmed from included OSM tags","resolution_m":50,"raster_coverage":1.0,"interpretation":"Suggested search habitats, not predicted plant locations or probabilities of presence."},"features":[{"type":"Feature","geometry":{"type":"MultiPolygon","coordinates":[[[[102.65241829454784,5.0383270279601176],[102.65138187776672,5.0383270279601176],[102.65086366937616,5.037540206071445],[102.64982725259505,5.037540206071445],[102.64982725259505,5.0383270279601176],[102.65086366937616,5.0383270279601176],[102.65086366937616,5.038720439252182],[102.65190008615728,5.038720439252182],[102.65190008615728,5.039113850776088],[102.65241829454784,5.039113850776088],[102.65241829454784,5.0383270279601176]]],[[[102.65500933650065,5.037933616899878],[102.65449112811008,5.037933616899878],[102.65449112811008,5.0383270279601176],[102.65345471132896,5.0383270279601176],[102.65449112811008,5.039507262531855],[102.65500933650065,5.039507262531855],[102.65500933650065,5.037933616899878]]]]},"properties":{"place_id":"de8b876c-3fc4-521b-82b2-210281e144e0","habitat":"forest_interior","habitat_label":"Forest interior","resolution_m":50}},{"type":"Feature","geometry":{"type":"Polygon","coordinates":[[[102.65397291971954,5.038720439252182],[102.65345471132896,5.038720439252182],[102.65345471132896,5.0383270279601176],[102.65449112811008,5.0383270279601176],[102.65449112811008,5.037933616899878],[102.65500933650065,5.037933616899878],[102.65500933650065,5.039507262531855],[102.65423552289981,5.039113850776088],[102.65423299999999,5.039610794523546],[102.65456559999998,5.039893994523236],[102.65561830000001,5.0395920945235515],[102.6558276,5.037236194525959],[102.6551798,5.03721819452598],[102.6548056,5.0379047945252875],[102.65443409999997,5.037860794525337],[102.65397409999997,5.038312294524857],[102.6535745,5.038194694525],[102.65284539999999,5.038746594524432],[102.6522338,5.038137394525059],[102.65156550000002,5.038119894525063],[102.65065359999998,5.037044494526183],[102.65025623012859,5.037540206071445],[102.65086366937616,5.037540206071445],[102.65138187776672,5.0383270279601176],[102.65241829454784,5.0383270279601176],[102.65241829454784,5.039113850776088],[102.65190008615728,5.039113850776088],[102.65190008615728,5.038720439252182],[102.64982725259505,5.0383270279601176],[102.64983693369288,5.037540206071445],[102.6491864,5.037037794526186],[102.6490912,5.037892794525309],[102.649743,5.038583494524582],[102.65036659999998,5.0385527945246205],[102.65165139999999,5.039363694523793],[102.6534256,5.039160594523991],[102.65397291971954,5.038720439252182]]]},"properties":{"place_id":"de8b876c-3fc4-521b-82b2-210281e144e0","habitat":"forest_edge_opening","habitat_label":"Forest edge or opening","resolution_m":50}},{"type":"Feature","geometry":{"type":"MultiPolygon","coordinates":[[[[102.64949631424493,5.037146795474799],[102.64924809999998,5.0370017945262235],[102.6491519791043,5.037146795474799],[102.64949631424493,5.037146795474799]]],[[[102.65076252776252,5.037146795474799],[102.65071529999999,5.037037794526186],[102.65054231032622,5.037146795474799],[102.65076252776252,5.037146795474799]]],[[[102.65144530680752,5.037933616899878],[102.65138187776672,5.037727733477544],[102.65138187776672,5.037933616899878],[102.65144530680752,5.037933616899878]]],[[[102.64930904420447,5.037540206071445],[102.6490912,5.037892794525309],[102.64930904420447,5.038079960347132],[102.64930904420447,5.037540206071445]]],[[[102.65190008615728,5.0383270279601176],[102.65244829481144,5.0383270279601176],[102.65216769999998,5.03811729452508],[102.65190008615728,5.0383270279601176]]],[[[102.65449112811008,5.0383270279601176],[102.65449112811008,5.037933616899878],[102.65500933650065,5.037933616899878],[102.65500933650065,5.037599697448667],[102.65343434924955,5.0383270279601176],[102.65449112811008,5.0383270279601176]]],[[[102.64982725259505,5.0383270279601176],[102.64960441376,5.0383270279601176],[102.64982725259505,5.038618664185531],[102.64982725259505,5.0383270279601176]]],[[[102.65552754489121,5.039628215261051],[102.6555942,5.037530794525667],[102.65579,5.037228894525989],[102.65552754489121,5.037237177525384],[102.65552754489121,5.039628215261051]]],[[[102.65086366937616,5.038720439252182],[102.65046201055776,5.038720439252182],[102.65086366937616,5.038905764838877],[102.65086366937616,5.038720439252182]]],[[[102.65190008615728,5.039113850776088],[102.6511185873678,5.039113850776088],[102.6517801,5.039401094523762],[102.65190008615728,5.039113850776088]]],[[[102.65449112811008,5.039113850776088],[102.6542182,5.0395693945235855],[102.65449112811008,5.03986800237346],[102.65449112811008,5.039113850776088]]],[[[102.65303906814867,5.039113850776088],[102.6531722,5.0391725945240085],[102.65355550642305,5.039113850776088],[102.65303906814867,5.039113850776088]]],[[[102.65241829454784,5.039113850776088],[102.65241829454784,5.039213279808675],[102.652521267667,5.039113850776088],[102.65241829454784,5.039113850776088]]]]},"properties":{"place_id":"de8b876c-3fc4-521b-82b2-210281e144e0","habitat":"permanent_water","habitat_label":"Permanent water","resolution_m":50}},{"type":"Feature","geometry":{"type":"MultiPolygon","coordinates":[[[[102.6491519791043,5.037146795474799],[102.64930904420447,5.037013043393242],[102.64924809999998,5.0370017945262235],[102.6491519791043,5.037146795474799]]],[[[102.65086366937616,5.037540206071445],[102.65088547832299,5.037540206071445],[102.65086366937616,5.037523575332313],[102.65086366937616,5.037540206071445]]],[[[102.65449112811008,5.037933616899878],[102.65500933650065,5.037933616899878],[102.65500933650065,5.037599697448667],[102.6548056,5.0379047945252875],[102.65449112811008,5.037933616899878]]],[[[102.65190008615728,5.0383270279601176],[102.65241829454784,5.0383270279601176],[102.65241829454784,5.038300494113156],[102.65208719999998,5.03811729452508],[102.65190008615728,5.0383270279601176]]],[[[102.65345471132896,5.0383270279601176],[102.65449112811008,5.0383270279601176],[102.65449112811008,5.037933616899878],[102.65397409999997,5.038312294524857],[102.65345471132896,5.0383270279601176]]],[[[102.65086366937616,5.038720439252182],[102.65046201055776,5.038720439252182],[102.65086366937616,5.038905764838877],[102.65086366937616,5.038720439252182]]],[[[102.65190008615728,5.039376623290979],[102.6520718,5.039168594524001],[102.65241829454784,5.039113850776088],[102.65190008615728,5.039113850776088],[102.65190008615728,5.039376623290979]]]]},"properties":{"place_id":"de8b876c-3fc4-521b-82b2-210281e144e0","habitat":"seasonal_water_wetland","habitat_label":"Seasonal water or wetland","resolution_m":50}},{"type":"Feature","geometry":{"type":"Polygon","coordinates":[[[102.65449112811008,5.039113850776088],[102.65449112811008,5.03986800237346],[102.65552754489121,5.039628215261051],[102.65552754489121,5.037237177525384],[102.65449112811008,5.0383270279601176],[102.65343434924955,5.0383270279601176],[102.65284539999999,5.038746594524432],[102.65156550000002,5.038119894525063],[102.65076252776252,5.037146795474799],[102.6500796,5.037633594525585],[102.6491519791043,5.037146795474799],[102.64982725259505,5.038618664185531],[102.65086366937616,5.038720439252182],[102.6511185873678,5.039113850776088],[102.65355550642305,5.039113850776088],[102.6539037,5.038813894524352],[102.65449112811008,5.039113850776088]]]},"properties":{"place_id":"de8b876c-3fc4-521b-82b2-210281e144e0","habitat":"water_edge","habitat_label":"Water edge","resolution_m":50}}]}