{"type":"FeatureCollection","metadata":{"schema_version":1,"place_id":"de9b8791-1e4e-5fd0-9155-a1535db299e9","place_name":"Tanjung Emas","place_type":"park","osm_reference":"way/739544577","protection_context":"no protected status confirmed from included OSM tags","resolution_m":50,"raster_coverage":1.0,"interpretation":"Suggested search habitats, not predicted plant locations or probabilities of presence."},"features":[{"type":"Feature","geometry":{"type":"Polygon","coordinates":[[[102.55089440000002,2.0478989977209654],[102.55218469999998,2.0485550977202296],[102.55344049195077,2.0479720491417197],[102.5523232,2.0464075977226104],[102.5512396,2.0473994977215026],[102.55158649999998,2.0477492977210945],[102.55089440000002,2.0478989977209654]]]},"properties":{"place_id":"de9b8791-1e4e-5fd0-9155-a1535db299e9","habitat":"forest_edge_opening","habitat_label":"Forest edge or opening","resolution_m":50}},{"type":"Feature","geometry":{"type":"MultiPolygon","coordinates":[[[[102.55240407516963,2.0470905285796737],[102.55188586677907,2.0470905285796737],[102.55188586677907,2.047874879092808],[102.55240407516963,2.047874879092808],[102.55240407516963,2.0470905285796737]]],[[[102.55328443383334,2.0474827037895404],[102.55292228356019,2.047874879092808],[102.55363507086697,2.047874879092808],[102.55328443383334,2.0474827037895404]]]]},"properties":{"place_id":"de9b8791-1e4e-5fd0-9155-a1535db299e9","habitat":"open_grassland","habitat_label":"Open grassland or shrubland","resolution_m":50}},{"type":"Feature","geometry":{"type":"Polygon","coordinates":[[[102.55136765838851,2.0474827037895404],[102.55188586677907,2.0474827037895404],[102.55188586677907,2.0470905285796737],[102.55292228356019,2.0470905285796737],[102.55292228356019,2.047874879092808],[102.55240407516963,2.047874879092808],[102.55240407516963,2.0482670544894934],[102.55188586677907,2.0482670544894934],[102.55188586677907,2.047874879092808],[102.55089440000002,2.0478989977209654],[102.5512698,2.0485301977202415],[102.55229659999999,2.0485303977202576],[102.5536468,2.0478879977209683],[102.5523232,2.0464075977226104],[102.55136765838851,2.0474827037895404]]]},"properties":{"place_id":"de9b8791-1e4e-5fd0-9155-a1535db299e9","habitat":"disturbed_built_edge","habitat_label":"Disturbed, bare or built edge","resolution_m":50}},{"type":"Feature","geometry":{"type":"MultiPolygon","coordinates":[[[[102.55136765838851,2.0472822762844776],[102.5512396,2.0473994977215026],[102.55136765838851,2.0475117354525287],[102.55136765838851,2.0472822762844776]]],[[[102.55114051151442,2.0482670544894934],[102.55136765838851,2.04779663277122],[102.55089440000002,2.0478989977209654],[102.55114051151442,2.0482670544894934]]]]},"properties":{"place_id":"de9b8791-1e4e-5fd0-9155-a1535db299e9","habitat":"permanent_water","habitat_label":"Permanent water","resolution_m":50}},{"type":"Feature","geometry":{"type":"MultiPolygon","coordinates":[[[[102.55136765838851,2.0472822762844776],[102.5512396,2.0473994977215026],[102.55136765838851,2.0475117354525287],[102.55136765838851,2.0472822762844776]]],[[[102.55136765838851,2.047874879092808],[102.55136765838851,2.04779663277122],[102.5510059063589,2.047874879092808],[102.55136765838851,2.047874879092808]]]]},"properties":{"place_id":"de9b8791-1e4e-5fd0-9155-a1535db299e9","habitat":"seasonal_water_wetland","habitat_label":"Seasonal water or wetland","resolution_m":50}},{"type":"Feature","geometry":{"type":"Polygon","coordinates":[[[102.55136765838851,2.0472822762844776],[102.5512698,2.0485301977202415],[102.55218469999998,2.0485550977202296],[102.5536468,2.0478879977209683],[102.55240407516963,2.047874879092808],[102.55240407516963,2.0470905285796737],[102.55188586677907,2.046807921406118],[102.55136765838851,2.0472822762844776]]]},"properties":{"place_id":"de9b8791-1e4e-5fd0-9155-a1535db299e9","habitat":"water_edge","habitat_label":"Water edge","resolution_m":50}}]}