{"type":"FeatureCollection","metadata":{"schema_version":1,"place_id":"df755639-bdf3-5280-95a9-84797e283391","place_name":"Spanish Villa Park and Playground","place_type":"park","osm_reference":"way/659760888","protection_context":"no protected status confirmed from included OSM tags","resolution_m":50,"raster_coverage":1.0,"interpretation":"Suggested search habitats, not predicted plant locations or probabilities of presence."},"features":[{"type":"Feature","geometry":{"type":"Polygon","coordinates":[[[101.99584826370752,2.7174692005825802],[101.9964963,2.7174258969866942],[101.9967236,2.7166924969874633],[101.99548969999998,2.7161686969880336],[101.99584826370752,2.7174692005825802]]]},"properties":{"place_id":"df755639-bdf3-5280-95a9-84797e283391","habitat":"forest_edge_opening","habitat_label":"Forest edge or opening","resolution_m":50}},{"type":"Feature","geometry":{"type":"Polygon","coordinates":[[[101.99636647209807,2.7174692005825802],[101.99636647209807,2.717076839641526],[101.99584826370752,2.717076839641526],[101.99584826370752,2.7174692005825802],[101.99636647209807,2.7174692005825802]]]},"properties":{"place_id":"df755639-bdf3-5280-95a9-84797e283391","habitat":"open_grassland","habitat_label":"Open grassland or shrubland","resolution_m":50}},{"type":"Feature","geometry":{"type":"Polygon","coordinates":[[[101.99548969999998,2.7161686969880336],[101.9956313,2.7174620969866203],[101.99624679999998,2.717641596986408],[101.9967236,2.7166924969874633],[101.99548969999998,2.7161686969880336]]]},"properties":{"place_id":"df755639-bdf3-5280-95a9-84797e283391","habitat":"disturbed_built_edge","habitat_label":"Disturbed, bare or built edge","resolution_m":50}}]}