{"type":"FeatureCollection","metadata":{"schema_version":1,"place_id":"e014f15a-4697-507e-91b3-b7251293ce79","place_name":"Bandar Puteri Klang Lake Garden","place_type":"park","osm_reference":"way/395486153","protection_context":"no protected status confirmed from included OSM tags","resolution_m":50,"raster_coverage":1.0,"interpretation":"Suggested search habitats, not predicted plant locations or probabilities of presence."},"features":[{"type":"Feature","geometry":{"type":"Polygon","coordinates":[[[101.46492089999998,2.995085796684683],[101.4664713,2.9953153966844557],[101.467731,2.9946817966851063],[101.46751819999999,2.994303396685543],[101.46492089999998,2.9942905966855466],[101.46492089999998,2.995085796684683]]]},"properties":{"place_id":"e014f15a-4697-507e-91b3-b7251293ce79","habitat":"forest_edge_opening","habitat_label":"Forest edge or opening","resolution_m":50}},{"type":"Feature","geometry":{"type":"Polygon","coordinates":[[[101.46492089999998,2.9942905966855466],[101.46492089999998,2.995085796684683],[101.4664713,2.9953153966844557],[101.467731,2.9946817966851063],[101.46751819999999,2.994303396685543],[101.46492089999998,2.9942905966855466]],[[101.46623928855453,2.994508060666313],[101.46727570533567,2.994508060666313],[101.46727570533567,2.9949005138657583],[101.46623928855453,2.9949005138657583],[101.46623928855453,2.994508060666313]]]},"properties":{"place_id":"e014f15a-4697-507e-91b3-b7251293ce79","habitat":"disturbed_built_edge","habitat_label":"Disturbed, bare or built edge","resolution_m":50}},{"type":"Feature","geometry":{"type":"Polygon","coordinates":[[[101.46727570533567,2.9949005138657583],[101.46727570533567,2.994508060666313],[101.4667574969451,2.994508060666313],[101.4667574969451,2.9949005138657583],[101.46727570533567,2.9949005138657583]]]},"properties":{"place_id":"e014f15a-4697-507e-91b3-b7251293ce79","habitat":"permanent_water","habitat_label":"Permanent water","resolution_m":50}},{"type":"Feature","geometry":{"type":"Polygon","coordinates":[[[101.46751819999999,2.994303396685543],[101.46492089999998,2.9942905966855466],[101.46492089999998,2.995085796684683],[101.46623928855453,2.9949005138657583],[101.46653612578632,2.995292967202086],[101.467731,2.9946817966851063],[101.46751819999999,2.994303396685543]],[[101.4667574969451,2.994508060666313],[101.46727570533567,2.994508060666313],[101.46727570533567,2.9949005138657583],[101.4667574969451,2.9949005138657583],[101.4667574969451,2.994508060666313]]]},"properties":{"place_id":"e014f15a-4697-507e-91b3-b7251293ce79","habitat":"water_edge","habitat_label":"Water edge","resolution_m":50}}]}