{"type":"FeatureCollection","metadata":{"schema_version":1,"place_id":"e072e8af-882e-5114-8884-6e4bf23a99a4","place_name":"DRB Hicom","place_type":"park","osm_reference":"way/896135317","protection_context":"no protected status confirmed from included OSM tags","resolution_m":50,"raster_coverage":1.0,"interpretation":"Suggested search habitats, not predicted plant locations or probabilities of presence."},"features":[{"type":"Feature","geometry":{"type":"Polygon","coordinates":[[[101.5794624,3.093507596578045],[101.5801048,3.0931962965783697],[101.57939269999999,3.0925186965791154],[101.57910239999998,3.0927168965788985],[101.5794624,3.093507596578045]]]},"properties":{"place_id":"e072e8af-882e-5114-8884-6e4bf23a99a4","habitat":"forest_edge_opening","habitat_label":"Forest edge or opening","resolution_m":50}},{"type":"Feature","geometry":{"type":"Polygon","coordinates":[[[101.5794624,3.093507596578045],[101.5801048,3.0931962965783697],[101.57939269999999,3.0925186965791154],[101.57910239999998,3.0927168965788985],[101.5794624,3.093507596578045]]]},"properties":{"place_id":"e072e8af-882e-5114-8884-6e4bf23a99a4","habitat":"disturbed_built_edge","habitat_label":"Disturbed, bare or built edge","resolution_m":50}}]}