{"type":"FeatureCollection","metadata":{"schema_version":1,"place_id":"e0e96642-0872-554e-97a3-792a07fcb97c","place_name":"Playground BSP 2","place_type":"park","osm_reference":"way/467064376","protection_context":"no protected status confirmed from included OSM tags","resolution_m":50,"raster_coverage":1.0,"interpretation":"Suggested search habitats, not predicted plant locations or probabilities of presence."},"features":[{"type":"Feature","geometry":{"type":"Polygon","coordinates":[[[101.78494369999999,2.8841528968051255],[101.78557879999998,2.883406596805932],[101.78487369999998,2.8828235968065914],[101.78424319999999,2.8835931968057538],[101.78494369999999,2.8841528968051255]]]},"properties":{"place_id":"e0e96642-0872-554e-97a3-792a07fcb97c","habitat":"forest_edge_opening","habitat_label":"Forest edge or opening","resolution_m":50}},{"type":"Feature","geometry":{"type":"Polygon","coordinates":[[[101.78494369999999,2.8841528968051255],[101.78557879999998,2.883406596805932],[101.78487369999998,2.8828235968065914],[101.78424319999999,2.8835931968057538],[101.78494369999999,2.8841528968051255]]]},"properties":{"place_id":"e0e96642-0872-554e-97a3-792a07fcb97c","habitat":"disturbed_built_edge","habitat_label":"Disturbed, bare or built edge","resolution_m":50}}]}