{"type":"FeatureCollection","metadata":{"schema_version":1,"place_id":"e10d0746-36ed-5b6e-b6a0-0b02a6e44cef","place_name":"Medan Athinahapan Park","place_type":"park","osm_reference":"way/366611164","protection_context":"no protected status confirmed from included OSM tags","resolution_m":50,"raster_coverage":1.0,"interpretation":"Suggested search habitats, not predicted plant locations or probabilities of presence."},"features":[{"type":"Feature","geometry":{"type":"MultiPolygon","coordinates":[[[[101.62584747284721,3.152677983770128],[101.62584747284721,3.152314126354807],[101.6250309,3.1519470965148324],[101.62532926445665,3.1530598834242904],[101.62584747284721,3.1532736124139604],[101.62636568123779,3.153070493598131],[101.62636568123779,3.152677983770128],[101.62584747284721,3.152677983770128]]],[[[101.62636568123779,3.153070493598131],[101.62636568123779,3.1531165832399157],[101.6263861700711,3.153070493598131],[101.62636568123779,3.153070493598131]]]]},"properties":{"place_id":"e10d0746-36ed-5b6e-b6a0-0b02a6e44cef","habitat":"forest_interior","habitat_label":"Forest interior","resolution_m":50}},{"type":"Feature","geometry":{"type":"MultiPolygon","coordinates":[[[[101.62532926445665,3.152285474086278],[101.62578372691094,3.152285474086278],[101.62532926445665,3.1520812041418766],[101.62532926445665,3.152285474086278]]],[[[101.62636568123779,3.153070493598131],[101.62657669999999,3.1526418965140643],[101.62584747284721,3.152314126354807],[101.62584747284721,3.152677983770128],[101.62636568123779,3.152677983770128],[101.62636568123779,3.153070493598131]]],[[[101.62532926445665,3.152677983770128],[101.62515229999998,3.152986896513721],[101.62532926445665,3.1530598834242904],[101.62532926445665,3.152677983770128]]],[[[101.62636568123779,3.153070493598131],[101.62584747284721,3.1532736124139604],[101.62622639999998,3.1534298965132117],[101.62636568123779,3.153070493598131]]]]},"properties":{"place_id":"e10d0746-36ed-5b6e-b6a0-0b02a6e44cef","habitat":"forest_edge_opening","habitat_label":"Forest edge or opening","resolution_m":50}},{"type":"Feature","geometry":{"type":"MultiPolygon","coordinates":[[[[101.62532926445665,3.152285474086278],[101.62578372691094,3.152285474086278],[101.62532926445665,3.1520812041418766],[101.62532926445665,3.152285474086278]]],[[[101.62636568123779,3.153070493598131],[101.62657669999999,3.1526418965140643],[101.62584747284721,3.152314126354807],[101.62584747284721,3.152677983770128],[101.62636568123779,3.152677983770128],[101.62636568123779,3.153070493598131]]],[[[101.62532926445665,3.152677983770128],[101.62515229999998,3.152986896513721],[101.62532926445665,3.1530598834242904],[101.62532926445665,3.152677983770128]]],[[[101.62636568123779,3.153070493598131],[101.62584747284721,3.1532736124139604],[101.62622639999998,3.1534298965132117],[101.62636568123779,3.153070493598131]]]]},"properties":{"place_id":"e10d0746-36ed-5b6e-b6a0-0b02a6e44cef","habitat":"disturbed_built_edge","habitat_label":"Disturbed, bare or built edge","resolution_m":50}}]}