{"type":"FeatureCollection","metadata":{"schema_version":1,"place_id":"e172683b-3e50-557b-87d6-4fc4fe720984","place_name":"Agathis Forest Reserve","place_type":"park","osm_reference":"way/1497998817","protection_context":"mapped protected boundary","resolution_m":50,"raster_coverage":1.0,"interpretation":"Suggested search habitats, not predicted plant locations or probabilities of presence."},"features":[{"type":"Feature","geometry":{"type":"Polygon","coordinates":[[[115.85555950000001,4.629009794947263],[115.85571529999997,4.631682094944469],[115.85699999999996,4.633029794943054],[115.8676304,4.632914194943195],[115.86728930000001,4.615402894961377],[115.8645071,4.616598094960135],[115.86283129999995,4.616740194959985],[115.86126019999999,4.6189180949577295],[115.8590274,4.619075994957569],[115.85723669999999,4.623143994953333],[115.85764049999999,4.626380394949965],[115.85555950000001,4.629009794947263]]]},"properties":{"place_id":"e172683b-3e50-557b-87d6-4fc4fe720984","habitat":"forest_interior","habitat_label":"Forest interior","resolution_m":50}}]}