{"type":"FeatureCollection","metadata":{"schema_version":1,"place_id":"e1a3fbf9-831d-50b0-a4b7-846dcd09cc67","place_name":"Peace Park","place_type":"park","osm_reference":"way/28847747","protection_context":"no protected status confirmed from included OSM tags","resolution_m":50,"raster_coverage":1.0,"interpretation":"Suggested search habitats, not predicted plant locations or probabilities of presence."},"features":[{"type":"Feature","geometry":{"type":"MultiPolygon","coordinates":[[[[115.19513417967761,5.33187755215903],[115.19461597128704,5.33187755215903],[115.19497180702096,5.33148396301638],[115.19409776289648,5.330951181681586],[115.19323932675464,5.33187755215903],[115.19409776289648,5.33187755215903],[115.19461597128704,5.332645863507083],[115.19513417967761,5.33187755215903]]],[[[115.19409776289648,5.332664731181255],[115.1943195841467,5.33305832106087],[115.19460241319435,5.332664731181255],[115.19409776289648,5.332664731181255]]]]},"properties":{"place_id":"e1a3fbf9-831d-50b0-a4b7-846dcd09cc67","habitat":"forest_interior","habitat_label":"Forest interior","resolution_m":50}},{"type":"Feature","geometry":{"type":"MultiPolygon","coordinates":[[[[115.19409776289648,5.3310903741193485],[115.19461244986124,5.3310903741193485],[115.19429300000002,5.330740494226812],[115.19409776289648,5.3310903741193485]]],[[[115.19497180702096,5.33148396301638],[115.19461597128704,5.33187755215903],[115.19513417967761,5.331924716251001],[115.19497180702096,5.33148396301638]]],[[[115.19403029999998,5.333460894224042],[115.19461597128704,5.332271141547316],[115.19323932675464,5.33187755215903],[115.19272989999996,5.332427294225105],[115.19403029999998,5.333460894224042]]]]},"properties":{"place_id":"e1a3fbf9-831d-50b0-a4b7-846dcd09cc67","habitat":"forest_edge_opening","habitat_label":"Forest edge or opening","resolution_m":50}},{"type":"Feature","geometry":{"type":"MultiPolygon","coordinates":[[[[115.19409776289648,5.332271141547316],[115.1935795545059,5.332271141547316],[115.1935795545059,5.332664731181255],[115.19409776289648,5.332664731181255],[115.19409776289648,5.332271141547316]]],[[[115.19306134611534,5.332664731181255],[115.19302862601879,5.332664731181255],[115.19306134611534,5.332690738161798],[115.19306134611534,5.332664731181255]]],[[[115.1935795545059,5.33305832106087],[115.19352381211301,5.33305832106087],[115.1935795545059,5.333102626928063],[115.1935795545059,5.33305832106087]]]]},"properties":{"place_id":"e1a3fbf9-831d-50b0-a4b7-846dcd09cc67","habitat":"open_grassland","habitat_label":"Open grassland or shrubland","resolution_m":50}},{"type":"Feature","geometry":{"type":"MultiPolygon","coordinates":[[[[115.19409776289648,5.3310903741193485],[115.19461244986124,5.3310903741193485],[115.19429300000002,5.330740494226812],[115.19409776289648,5.3310903741193485]]],[[[115.19461597128704,5.33187755215903],[115.19513417967761,5.331924716251001],[115.19523989999999,5.33177759422574],[115.19461597128704,5.33148396301638],[115.19461597128704,5.33187755215903]]],[[[115.1935795545059,5.33187755215903],[115.19272989999996,5.332427294225105],[115.19306134611534,5.332690738161798],[115.19306134611534,5.332271141547316],[115.1935795545059,5.332271141547316],[115.1935795545059,5.33187755215903]]],[[[115.1935795545059,5.33305832106087],[115.19352381211301,5.33305832106087],[115.1935795545059,5.333102626928063],[115.1935795545059,5.33305832106087]]],[[[115.19409776289648,5.333367011587904],[115.1943195841467,5.33305832106087],[115.19409776289648,5.33305832106087],[115.19409776289648,5.333367011587904]]],[[[115.19401899820724,5.333451911186175],[115.19403029999998,5.333460894224042],[115.19403675509899,5.333451911186175],[115.19401899820724,5.333451911186175]]]]},"properties":{"place_id":"e1a3fbf9-831d-50b0-a4b7-846dcd09cc67","habitat":"disturbed_built_edge","habitat_label":"Disturbed, bare or built edge","resolution_m":50}},{"type":"Feature","geometry":{"type":"Polygon","coordinates":[[[115.19409776289648,5.33305832106087],[115.19306134611534,5.332664731181255],[115.19306134611534,5.332069617879412],[115.19272989999996,5.332427294225105],[115.19403029999998,5.333460894224042],[115.19409776289648,5.33305832106087]]]},"properties":{"place_id":"e1a3fbf9-831d-50b0-a4b7-846dcd09cc67","habitat":"water_edge","habitat_label":"Water edge","resolution_m":50}}]}