{"type":"FeatureCollection","metadata":{"schema_version":1,"place_id":"e1c24fb5-be55-591e-baf5-a4700d66f5b3","place_name":"International Maritime Square","place_type":"park","osm_reference":"way/1132960342","protection_context":"no protected status confirmed from included OSM tags","resolution_m":50,"raster_coverage":1.0,"interpretation":"Suggested search habitats, not predicted plant locations or probabilities of presence."},"features":[{"type":"Feature","geometry":{"type":"Polygon","coordinates":[[[101.4740911,3.0578556966166555],[101.4745975,3.0573809966171717],[101.47426379999999,3.0571538966173977],[101.4740911,3.0578556966166555]]]},"properties":{"place_id":"e1c24fb5-be55-591e-baf5-a4700d66f5b3","habitat":"disturbed_built_edge","habitat_label":"Disturbed, bare or built edge","resolution_m":50}}]}