{"type":"FeatureCollection","metadata":{"schema_version":1,"place_id":"e3af936c-5d65-5d01-ad96-8cd756b52a8d","place_name":"Taman D.R Seenivasagam","place_type":"park","osm_reference":"way/180208957","protection_context":"no protected status confirmed from included OSM tags","resolution_m":50,"raster_coverage":1.0,"interpretation":"Suggested search habitats, not predicted plant locations or probabilities of presence."},"features":[{"type":"Feature","geometry":{"type":"MultiPolygon","coordinates":[[[[101.0848379131019,4.601779232738349],[101.0848379131019,4.6025655635829805],[101.08587432988303,4.6025655635829805],[101.08587432988303,4.601779232738349],[101.0848379131019,4.601779232738349]]],[[[101.08044902879598,4.6025655635829805],[101.08069224597742,4.602934261019096],[101.08069224597742,4.6025655635829805],[101.08044902879598,4.6025655635829805]]],[[[101.08431970471136,4.6025655635829805],[101.08431970471136,4.602958729322404],[101.0848379131019,4.602958729322404],[101.0848379131019,4.6025655635829805],[101.08431970471136,4.6025655635829805]]],[[[101.08431970471136,4.604531394394593],[101.08431970471136,4.604138227809337],[101.0848379131019,4.604138227809337],[101.0848379131019,4.603745061435565],[101.08431970471136,4.603745061435565],[101.08431970471136,4.602958729322404],[101.0822468711491,4.602958729322404],[101.0822468711491,4.6025655635829805],[101.08121045436799,4.6025655635829805],[101.08121045436799,4.602958729322404],[101.08070838688208,4.602958729322404],[101.08148646114034,4.604138227809337],[101.08172866275855,4.603745061435565],[101.08276507953966,4.603745061435565],[101.08276507953966,4.604138227809337],[101.08328328793023,4.604138227809337],[101.08328328793023,4.604531394394593],[101.0822468711491,4.604924561191355],[101.08328328793023,4.60633533962732],[101.08328328793023,4.605317728199639],[101.08380149632079,4.605317728199639],[101.08380149632079,4.604531394394593],[101.08431970471136,4.604531394394593]]],[[[101.08345036974148,4.606497230493806],[101.08380149632079,4.606837448290607],[101.08380149632079,4.606497230493806],[101.08345036974148,4.606497230493806]]]]},"properties":{"place_id":"e3af936c-5d65-5d01-ad96-8cd756b52a8d","habitat":"forest_interior","habitat_label":"Forest interior","resolution_m":50}},{"type":"Feature","geometry":{"type":"MultiPolygon","coordinates":[[[[101.0848379131019,4.603745061435565],[101.0848379131019,4.604138227809337],[101.08380149632079,4.604531394394593],[101.08380149632079,4.605317728199639],[101.08328328793023,4.605317728199639],[101.08328328793023,4.60633533962732],[101.084301,4.60707339497005],[101.0836534,4.606279694970854],[101.084232,4.60629019497087],[101.0848524,4.6054834949717],[101.08536869999999,4.605763694971376],[101.0858264802275,4.604924561191355],[101.08535612149247,4.604924561191355],[101.08535612149247,4.604531394394593],[101.08587432988303,4.604531394394593],[101.08587432988303,4.604833135268296],[101.0866654,4.6032033949740505],[101.08606670000002,4.6012695949760865],[101.0842278,4.601445694975888],[101.0842622,4.602196794975118],[101.08348451980555,4.602958729322404],[101.08431970471136,4.602958729322404],[101.08431970471136,4.603745061435565],[101.0848379131019,4.603745061435565]],[[101.08431970471136,4.6025655635829805],[101.0848379131019,4.6025655635829805],[101.0848379131019,4.602958729322404],[101.08431970471136,4.602958729322404],[101.08431970471136,4.6025655635829805]],[[101.0848379131019,4.601779232738349],[101.08587432988303,4.601779232738349],[101.08587432988303,4.6025655635829805],[101.0848379131019,4.6025655635829805],[101.0848379131019,4.601779232738349]],[[101.08587432988303,4.60335189527326],[101.08587432988303,4.603745061435565],[101.08535612149247,4.603745061435565],[101.08535612149247,4.60335189527326],[101.08587432988303,4.60335189527326]]],[[[101.08024639999998,4.6022583949750695],[101.08070838688208,4.602958729322404],[101.08121045436799,4.602958729322404],[101.08121045436799,4.6025655635829805],[101.0831694084671,4.602958729322404],[101.08288589999998,4.601938194975402],[101.08024639999998,4.6022583949750695]]],[[[101.0822468711491,4.605187469855769],[101.08328328793023,4.604531394394593],[101.08276507953966,4.603745061435565],[101.08172866275855,4.603745061435565],[101.08148646114034,4.604138227809337],[101.0822468711491,4.605187469855769]]]]},"properties":{"place_id":"e3af936c-5d65-5d01-ad96-8cd756b52a8d","habitat":"forest_edge_opening","habitat_label":"Forest edge or opening","resolution_m":50}},{"type":"Feature","geometry":{"type":"MultiPolygon","coordinates":[[[[101.08431970471136,4.601779232738349],[101.08426108263397,4.602172398054967],[101.08431970471136,4.602172398054967],[101.08431970471136,4.601779232738349]]],[[[101.0822468711491,4.602172398054967],[101.0822468711491,4.6025655635829805],[101.0830601855207,4.6025655635829805],[101.08295096257427,4.602172398054967],[101.0822468711491,4.602172398054967]]],[[[101.08587432988303,4.604138227809337],[101.08653386450817,4.60335189527326],[101.0848379131019,4.602958729322404],[101.08535612149247,4.604531394394593],[101.08431970471136,4.604531394394593],[101.08431970471136,4.604924561191355],[101.0856139657434,4.605317728199639],[101.08587432988303,4.604138227809337]]],[[[101.08431970471136,4.605710895419462],[101.08431970471136,4.605317728199639],[101.08380149632079,4.605317728199639],[101.08380149632079,4.606104062850846],[101.08472187227547,4.605710895419462],[101.08431970471136,4.605710895419462]]]]},"properties":{"place_id":"e3af936c-5d65-5d01-ad96-8cd756b52a8d","habitat":"open_grassland","habitat_label":"Open grassland or shrubland","resolution_m":50}},{"type":"Feature","geometry":{"type":"MultiPolygon","coordinates":[[[[101.08024639999998,4.6022583949750695],[101.08070838688208,4.602958729322404],[101.08121045436799,4.602958729322404],[101.08172866275855,4.602172398054967],[101.08276507953966,4.601945319426392],[101.08024639999998,4.6022583949750695]]],[[[101.08295096257427,4.602172398054967],[101.08276507953966,4.6025655635829805],[101.0830601855207,4.6025655635829805],[101.08295096257427,4.602172398054967]]],[[[101.08431970471136,4.602958729322404],[101.08431970471136,4.6025655635829805],[101.0848379131019,4.6025655635829805],[101.08431970471136,4.601779232738349],[101.08587432988303,4.601779232738349],[101.08587432988303,4.602958729322404],[101.0863925382736,4.602958729322404],[101.0863925382736,4.603511449111195],[101.0866654,4.6032033949740505],[101.08606670000002,4.6012695949760865],[101.0842278,4.601445694975888],[101.0842622,4.602196794975118],[101.08348451980555,4.602958729322404],[101.08431970471136,4.602958729322404]]],[[[101.08276507953966,4.604531394394593],[101.08328328793023,4.604531394394593],[101.08328328793023,4.604138227809337],[101.08276507953966,4.604138227809337],[101.08276507953966,4.603745061435565],[101.08172866275855,4.603745061435565],[101.08148646114034,4.604138227809337],[101.0822468711491,4.605187469855769],[101.08276507953966,4.604531394394593]]],[[[101.08587432988303,4.603745061435565],[101.08587432988303,4.604531394394593],[101.08535612149247,4.604531394394593],[101.08535612149247,4.605317728199639],[101.0848379131019,4.605317728199639],[101.08536869999999,4.605763694971376],[101.08635019999998,4.603923894973322],[101.08587432988303,4.603745061435565]]],[[[101.08380149632079,4.605710895419462],[101.08328328793023,4.60633533962732],[101.084301,4.60707339497005],[101.0836534,4.606279694970854],[101.084232,4.60629019497087],[101.08472187227547,4.605710895419462],[101.08380149632079,4.605710895419462]]]]},"properties":{"place_id":"e3af936c-5d65-5d01-ad96-8cd756b52a8d","habitat":"disturbed_built_edge","habitat_label":"Disturbed, bare or built edge","resolution_m":50}}]}