{"type":"FeatureCollection","metadata":{"schema_version":1,"place_id":"e3ccbf45-fb38-5f17-a1eb-1306d8c0123c","place_name":"Pulau Hulu Alu","place_type":"wood","osm_reference":"way/724705440","protection_context":"no protected status confirmed from included OSM tags","resolution_m":50,"raster_coverage":1.0,"interpretation":"Suggested search habitats, not predicted plant locations or probabilities of presence."},"features":[{"type":"Feature","geometry":{"type":"Polygon","coordinates":[[[102.61598679810602,4.964369803193041],[102.61562549881803,4.964763171226738],[102.6161437072086,4.964763171226738],[102.61598679810602,4.964369803193041]]]},"properties":{"place_id":"e3ccbf45-fb38-5f17-a1eb-1306d8c0123c","habitat":"forest_interior","habitat_label":"Forest interior","resolution_m":50}},{"type":"Feature","geometry":{"type":"Polygon","coordinates":[[[102.61821654077085,4.965943276698133],[102.6168483,4.964849794600249],[102.6161437072086,4.964555514668467],[102.61562549881803,4.964763171226738],[102.61598679810602,4.964369803193041],[102.6155998,4.9640574946010565],[102.61494929999999,4.964969994600123],[102.61523159999999,4.9653801945996845],[102.6162408,4.965209194599892],[102.61821654077085,4.965943276698133]]]},"properties":{"place_id":"e3ccbf45-fb38-5f17-a1eb-1306d8c0123c","habitat":"forest_edge_opening","habitat_label":"Forest edge or opening","resolution_m":50}},{"type":"Feature","geometry":{"type":"MultiPolygon","coordinates":[[[[102.61562549881803,4.964369803193041],[102.61562549881803,4.9640473228122595],[102.6155676,4.964122994600987],[102.61562549881803,4.964369803193041]]],[[[102.61510729042749,4.96472902328113],[102.614944,4.96506359460002],[102.61510729042749,4.965280759343444],[102.61510729042749,4.96472902328113]]],[[[102.61718012398973,4.965156539488806],[102.61725737968261,4.965156539488806],[102.61718012398973,4.965087500682636],[102.61718012398973,4.965156539488806]]],[[[102.61562549881803,4.965156539488806],[102.61666191559915,4.965452506204287],[102.61666191559915,4.965156539488806],[102.61562549881803,4.965156539488806]]],[[[102.61769833238029,4.965549907979265],[102.61806071821066,4.965549907979265],[102.61769833238029,4.965416688034937],[102.61769833238029,4.965549907979265]]],[[[102.61718012398973,4.965549907979265],[102.61705282776036,4.965549907979265],[102.61718012398973,4.965584607165293],[102.61718012398973,4.965549907979265]]],[[[102.61821654077085,4.965697137460015],[102.61790117608177,4.965943276698133],[102.61837449999999,4.965950694599133],[102.61821654077085,4.965697137460015]]]]},"properties":{"place_id":"e3ccbf45-fb38-5f17-a1eb-1306d8c0123c","habitat":"permanent_water","habitat_label":"Permanent water","resolution_m":50}},{"type":"Feature","geometry":{"type":"MultiPolygon","coordinates":[[[[102.6161437072086,4.964763171226738],[102.61650763481275,4.964763171226738],[102.6161437072086,4.964555514668467],[102.6161437072086,4.964763171226738]]],[[[102.61718012398973,4.965087500682636],[102.6168483,4.964849794600249],[102.61666191559915,4.964817113468222],[102.61666191559915,4.965156539488806],[102.61718012398973,4.965087500682636]]],[[[102.61510729042749,4.964763171226738],[102.614944,4.96506359460002],[102.61510729042749,4.965280759343444],[102.61510729042749,4.964763171226738]]],[[[102.61718012398973,4.965549907979265],[102.61769833238029,4.965549907979265],[102.61769833238029,4.965416688034937],[102.61718012398973,4.965156539488806],[102.61718012398973,4.965549907979265]]],[[[102.61821654077085,4.965943276698133],[102.61790117608177,4.965943276698133],[102.61805939999999,4.966040194599024],[102.61821654077085,4.965943276698133]]]]},"properties":{"place_id":"e3ccbf45-fb38-5f17-a1eb-1306d8c0123c","habitat":"seasonal_water_wetland","habitat_label":"Seasonal water or wetland","resolution_m":50}},{"type":"Feature","geometry":{"type":"MultiPolygon","coordinates":[[[[102.6161437072086,4.964763171226738],[102.61568089999999,4.964025394601101],[102.61510729042749,4.965280759343444],[102.61666191559915,4.965156539488806],[102.61666191559915,4.964817113468222],[102.6161437072086,4.964763171226738]]],[[[102.61666191559915,4.965156539488806],[102.61718012398973,4.965549907979265],[102.61718012398973,4.965156539488806],[102.61666191559915,4.965156539488806]]],[[[102.61790117608177,4.965943276698133],[102.61806071821066,4.965549907979265],[102.61718012398973,4.965549907979265],[102.61790117608177,4.965943276698133]]]]},"properties":{"place_id":"e3ccbf45-fb38-5f17-a1eb-1306d8c0123c","habitat":"water_edge","habitat_label":"Water edge","resolution_m":50}}]}