{"type":"FeatureCollection","metadata":{"schema_version":1,"place_id":"e40cf101-5665-5a31-8b76-9d1b10fbfbb7","place_name":"Desajaya Public Park","place_type":"park","osm_reference":"way/696744742","protection_context":"no protected status confirmed from included OSM tags","resolution_m":50,"raster_coverage":1.0,"interpretation":"Suggested search habitats, not predicted plant locations or probabilities of presence."},"features":[{"type":"Feature","geometry":{"type":"Polygon","coordinates":[[[101.99792109726975,2.7210004546398108],[101.99792109726975,2.7213928168229162],[101.99843930566031,2.7213609929339357],[101.99843930566031,2.720215730646441],[101.99668445242551,2.720215730646441],[101.99663050922592,2.7210004546398108],[101.99792109726975,2.7210004546398108]]]},"properties":{"place_id":"e40cf101-5665-5a31-8b76-9d1b10fbfbb7","habitat":"forest_interior","habitat_label":"Forest interior","resolution_m":50}},{"type":"Feature","geometry":{"type":"MultiPolygon","coordinates":[[[[101.99843930566031,2.720215730646441],[101.99865219999998,2.7213813969823586],[101.99851649999997,2.720157196983701],[101.99668445242551,2.720215730646441],[101.99843930566031,2.720215730646441]]],[[[101.99792109726975,2.7210004546398108],[101.99663050922592,2.7210004546398108],[101.9967826,2.721462796982254],[101.9979027,2.7216414969820515],[101.99834488571166,2.7213928168229162],[101.99792109726975,2.7213928168229162],[101.99792109726975,2.7210004546398108]]]]},"properties":{"place_id":"e40cf101-5665-5a31-8b76-9d1b10fbfbb7","habitat":"forest_edge_opening","habitat_label":"Forest edge or opening","resolution_m":50}},{"type":"Feature","geometry":{"type":"MultiPolygon","coordinates":[[[[101.99843930566031,2.720215730646441],[101.99865219999998,2.7213813969823586],[101.99851649999997,2.720157196983701],[101.99668445242551,2.720215730646441],[101.99843930566031,2.720215730646441]]],[[[101.99792109726975,2.7210004546398108],[101.99663050922592,2.7210004546398108],[101.9967826,2.721462796982254],[101.9979027,2.7216414969820515],[101.99834488571166,2.7213928168229162],[101.99792109726975,2.7213928168229162],[101.99792109726975,2.7210004546398108]]]]},"properties":{"place_id":"e40cf101-5665-5a31-8b76-9d1b10fbfbb7","habitat":"disturbed_built_edge","habitat_label":"Disturbed, bare or built edge","resolution_m":50}},{"type":"Feature","geometry":{"type":"Polygon","coordinates":[[[101.9974028888792,2.7210004546398108],[101.9974028888792,2.720608092580992],[101.99688468048865,2.720608092580992],[101.99688468048865,2.7210004546398108],[101.9974028888792,2.7210004546398108]]]},"properties":{"place_id":"e40cf101-5665-5a31-8b76-9d1b10fbfbb7","habitat":"seasonal_water_wetland","habitat_label":"Seasonal water or wetland","resolution_m":50}},{"type":"Feature","geometry":{"type":"Polygon","coordinates":[[[101.99688468048865,2.7213928168229162],[101.99792109726975,2.7213928168229162],[101.99843930566031,2.720608092580992],[101.99688468048865,2.720015747466517],[101.99661189999998,2.720936896982852],[101.99688468048865,2.7213928168229162]],[[101.99688468048865,2.720608092580992],[101.9974028888792,2.720608092580992],[101.9974028888792,2.7210004546398108],[101.99688468048865,2.7210004546398108],[101.99688468048865,2.720608092580992]]]},"properties":{"place_id":"e40cf101-5665-5a31-8b76-9d1b10fbfbb7","habitat":"water_edge","habitat_label":"Water edge","resolution_m":50}}]}