{"type":"FeatureCollection","metadata":{"schema_version":1,"place_id":"e4889920-8122-5abc-a8e8-995f50a3633c","place_name":"EcoWorld Eco Sanctuary Recreational Park · OSM way/629359302","place_type":"park","osm_reference":"way/629359302","protection_context":"no protected status confirmed from included OSM tags","resolution_m":50,"raster_coverage":1.0,"interpretation":"Suggested search habitats, not predicted plant locations or probabilities of presence."},"features":[{"type":"Feature","geometry":{"type":"Polygon","coordinates":[[[101.54345233874807,2.948199539122159],[101.5446001,2.948969896734728],[101.5451363,2.948821396734884],[101.5463183,2.9480296967357473],[101.54632463642808,2.9474146651784485],[101.5450609,2.948465196735273],[101.54345233874807,2.948199539122159]]]},"properties":{"place_id":"e4889920-8122-5abc-a8e8-995f50a3633c","habitat":"forest_edge_opening","habitat_label":"Forest edge or opening","resolution_m":50}},{"type":"Feature","geometry":{"type":"MultiPolygon","coordinates":[[[[101.54291410549268,2.9474146651784485],[101.5425956099479,2.9470222284086494],[101.54244832306404,2.9470222284086494],[101.54250942412119,2.9474146651784485],[101.54291410549268,2.9474146651784485]]],[[[101.54345233874807,2.948199539122159],[101.54345233874807,2.9478992301275895],[101.54293413035751,2.9474326933205828],[101.54280620993755,2.947807102082945],[101.54345233874807,2.948199539122159]]],[[[101.54345233874807,2.948199539122159],[101.54345233874807,2.9484177425826563],[101.54397054713864,2.948591976296107],[101.54397054713864,2.948302886417472],[101.54378590854623,2.948199539122159],[101.54345233874807,2.948199539122159]]],[[[101.54535634862647,2.948199539122159],[101.54500696391975,2.948591976296107],[101.54612320223897,2.948199539122159],[101.54535634862647,2.948199539122159]]],[[[101.54500696391975,2.9488748867804],[101.5444887555292,2.948591976296107],[101.5444887555292,2.9489024539868605],[101.54500696391975,2.9488748867804]]]]},"properties":{"place_id":"e4889920-8122-5abc-a8e8-995f50a3633c","habitat":"open_grassland","habitat_label":"Open grassland or shrubland","resolution_m":50}},{"type":"Feature","geometry":{"type":"Polygon","coordinates":[[[101.5455251723103,2.948591976296107],[101.5455251723103,2.948199539122159],[101.5463183,2.9480296967357473],[101.5462847,2.947364796736454],[101.5450609,2.948465196735273],[101.5441376,2.9483900967353533],[101.54252759999999,2.9467068967371723],[101.54248499999999,2.9473797967364344],[101.54395949999997,2.9487754967349162],[101.54467789999997,2.9489769967347295],[101.5455251723103,2.948591976296107]]]},"properties":{"place_id":"e4889920-8122-5abc-a8e8-995f50a3633c","habitat":"disturbed_built_edge","habitat_label":"Disturbed, bare or built edge","resolution_m":50}},{"type":"Feature","geometry":{"type":"Polygon","coordinates":[[[101.5425956099479,2.9470222284086494],[101.54250942412119,2.9474146651784485],[101.54291410549268,2.9474146651784485],[101.5425956099479,2.9470222284086494]]]},"properties":{"place_id":"e4889920-8122-5abc-a8e8-995f50a3633c","habitat":"water_edge","habitat_label":"Water edge","resolution_m":50}}]}