{"type":"FeatureCollection","metadata":{"schema_version":1,"place_id":"e56ae54c-ca04-5fbf-b2c2-01b6e7fbdf46","place_name":"Taman Tasik Titiwangsa","place_type":"park","osm_reference":"way/487114579","protection_context":"no protected status confirmed from included OSM tags","resolution_m":50,"raster_coverage":1.0,"interpretation":"Suggested search habitats, not predicted plant locations or probabilities of presence."},"features":[{"type":"Feature","geometry":{"type":"MultiPolygon","coordinates":[[[[101.70876081533692,3.1762288292512233],[101.70876081533692,3.175443792666403],[101.70927902372748,3.175443792666403],[101.70927902372748,3.1750512745918043],[101.70840089298781,3.1750512745918043],[101.70720619016522,3.1760301455863793],[101.7077243985558,3.1766213477614813],[101.70824260694636,3.1766213477614813],[101.70824260694636,3.177013866416996],[101.70927902372748,3.177013866416996],[101.70927902372748,3.1762288292512233],[101.70876081533692,3.1762288292512233]]],[[[101.71083364889917,3.1766213477614813],[101.7109797,3.1764268964883695],[101.71083364889917,3.176074209040584],[101.71083364889917,3.1766213477614813]]],[[[101.71083364889917,3.1781914232552575],[101.71101852830978,3.1781914232552575],[101.71083364889917,3.17771553181526],[101.71083364889917,3.1781914232552575]]],[[[101.7077243985558,3.1781914232552575],[101.7077243985558,3.178583942491977],[101.70824260694636,3.178583942491977],[101.70824260694636,3.1781914232552575],[101.7077243985558,3.1781914232552575]]]]},"properties":{"place_id":"e56ae54c-ca04-5fbf-b2c2-01b6e7fbdf46","habitat":"forest_interior","habitat_label":"Forest interior","resolution_m":50}},{"type":"Feature","geometry":{"type":"MultiPolygon","coordinates":[[[[101.7077243985558,3.1758363108862038],[101.70766319999998,3.1757204964891224],[101.70749226998996,3.1758363108862038],[101.7077243985558,3.1758363108862038]]],[[[101.70306052304075,3.1766213477614813],[101.70313979999999,3.1782054964864677],[101.7055391,3.180185296484332],[101.70598179999998,3.1810358964833676],[101.70692049999997,3.1809922964834496],[101.70979723211804,3.179680586798676],[101.70979723211804,3.179368981401476],[101.70927902372748,3.179368981401476],[101.70927902372748,3.178583942491977],[101.7103154405086,3.178583942491977],[101.7103154405086,3.179368981401476],[101.71091790000001,3.179312996485267],[101.71083364889917,3.176074209040584],[101.70916779999999,3.174636796490291],[101.70840089298781,3.1750512745918043],[101.70927902372748,3.1750512745918043],[101.70927902372748,3.175443792666403],[101.70876081533692,3.175443792666403],[101.70927902372748,3.177013866416996],[101.70824260694636,3.177013866416996],[101.70824260694636,3.1766213477614813],[101.7077243985558,3.1766213477614813],[101.70720619016522,3.1760301455863793],[101.70306052304075,3.1766213477614813]],[[101.70824260694636,3.179368981401476],[101.70824260694636,3.1797615010742897],[101.7077243985558,3.1797615010742897],[101.7077243985558,3.179368981401476],[101.70824260694636,3.179368981401476]],[[101.70513335660299,3.1789764618740444],[101.70513335660299,3.178583942491977],[101.70409693982187,3.1781914232552575],[101.70409693982187,3.177013866416996],[101.70565156499356,3.177013866416996],[101.70565156499356,3.1766213477614813],[101.7061697733841,3.1766213477614813],[101.70668798177468,3.179368981401476],[101.70565156499356,3.179368981401476],[101.70565156499356,3.1789764618740444],[101.70513335660299,3.1789764618740444]],[[101.70824260694636,3.1781914232552575],[101.70824260694636,3.178583942491977],[101.7077243985558,3.178583942491977],[101.7077243985558,3.1781914232552575],[101.70824260694636,3.1781914232552575]],[[101.7103154405086,3.177013866416996],[101.7103154405086,3.1774063852177847],[101.70979723211804,3.1774063852177847],[101.70979723211804,3.177013866416996],[101.7103154405086,3.177013866416996]]]]},"properties":{"place_id":"e56ae54c-ca04-5fbf-b2c2-01b6e7fbdf46","habitat":"forest_edge_opening","habitat_label":"Forest edge or opening","resolution_m":50}},{"type":"Feature","geometry":{"type":"MultiPolygon","coordinates":[[[[101.70979723211804,3.1762288292512233],[101.70979723211804,3.1766213477614813],[101.7103154405086,3.1766213477614813],[101.7103154405086,3.1755902591457703],[101.70927902372748,3.175443792666403],[101.70927902372748,3.1762288292512233],[101.70979723211804,3.1762288292512233]]],[[[101.7103154405086,3.1766213477614813],[101.7103154405086,3.177013866416996],[101.71076591940006,3.177013866416996],[101.71083364889917,3.1766213477614813],[101.7103154405086,3.1766213477614813]]],[[[101.7061697733841,3.1774063852177847],[101.70668798177468,3.1774063852177847],[101.70668798177468,3.177013866416996],[101.7061697733841,3.177013866416996],[101.7061697733841,3.1774063852177847]]],[[[101.7077243985558,3.1774063852177847],[101.7077243985558,3.177013866416996],[101.70720619016522,3.177013866416996],[101.70720619016522,3.1774063852177847],[101.7077243985558,3.1774063852177847]]],[[[101.70357873143132,3.1774063852177847],[101.70357873143132,3.1781914232552575],[101.70409693982187,3.1781914232552575],[101.70461514821243,3.1774063852177847],[101.70357873143132,3.1774063852177847]]],[[[101.70979723211804,3.178583942491977],[101.71083364889917,3.178583942491977],[101.71083364889917,3.1781914232552575],[101.70979723211804,3.1781914232552575],[101.70979723211804,3.178583942491977]]],[[[101.70720619016522,3.1789764618740444],[101.70668798177468,3.1789764618740444],[101.70668798177468,3.1797615010742897],[101.7077243985558,3.1797615010742897],[101.70720619016522,3.1789764618740444]]],[[[101.7077243985558,3.1805465408561395],[101.70824260694636,3.180443977588592],[101.70824260694636,3.1801540208925045],[101.7077243985558,3.1801540208925045],[101.7077243985558,3.1805465408561395]]],[[[101.70876081533692,3.1801540208925045],[101.70876081533692,3.180194043149949],[101.70883890604023,3.1801540208925045],[101.70876081533692,3.1801540208925045]]],[[[101.70705363611235,3.1809390609652093],[101.70720619016522,3.1801540208925045],[101.70668798177468,3.1801540208925045],[101.70668798177468,3.1809390609652093],[101.70705363611235,3.1809390609652093]]]]},"properties":{"place_id":"e56ae54c-ca04-5fbf-b2c2-01b6e7fbdf46","habitat":"open_grassland","habitat_label":"Open grassland or shrubland","resolution_m":50}},{"type":"Feature","geometry":{"type":"MultiPolygon","coordinates":[[[[101.70927902372748,3.1750512745918043],[101.70927902372748,3.175443792666403],[101.70979723211804,3.175443792666403],[101.70916779999999,3.174636796490291],[101.70840089298781,3.1750512745918043],[101.70927902372748,3.1750512745918043]]],[[[101.7077243985558,3.1758363108862038],[101.7077243985558,3.175720217927781],[101.70749226998996,3.1758363108862038],[101.7077243985558,3.1758363108862038]]],[[[101.70461514821243,3.1766213477614813],[101.70565156499356,3.1766213477614813],[101.7061697733841,3.1774063852177847],[101.7077243985558,3.1774063852177847],[101.7077243985558,3.177013866416996],[101.70824260694636,3.177013866416996],[101.70824260694636,3.1766213477614813],[101.7077243985558,3.1766213477614813],[101.70720619016522,3.1760301455863793],[101.70461514821243,3.1766213477614813]]],[[[101.70927902372748,3.1789764618740444],[101.70927902372748,3.178583942491977],[101.71083364889917,3.1777989041638657],[101.71083364889917,3.1766213477614813],[101.7103154405086,3.1766213477614813],[101.7103154405086,3.1762288292512233],[101.70979723211804,3.1762288292512233],[101.70927902372748,3.177013866416996],[101.70824260694636,3.177013866416996],[101.70824260694636,3.1774063852177847],[101.7077243985558,3.1774063852177847],[101.7077243985558,3.1781914232552575],[101.70927902372748,3.1789764618740444]]],[[[101.70565156499356,3.1797615010742897],[101.70409693982187,3.1789764618740444],[101.70409693982187,3.1777989041638657],[101.70357873143132,3.1777989041638657],[101.70357873143132,3.177013866416996],[101.70409693982187,3.177013866416996],[101.70409693982187,3.1765600773012315],[101.70293089999998,3.1766073964881696],[101.7032094,3.1783035964863187],[101.7055391,3.180185296484332],[101.70598179999998,3.1810358964833676],[101.70705363611235,3.1809390609652093],[101.7061697733841,3.1809390609652093],[101.7061697733841,3.1801540208925045],[101.70565156499356,3.1801540208925045],[101.70565156499356,3.1797615010742897]]],[[[101.7103154405086,3.1789764618740444],[101.7103154405086,3.179368981401476],[101.70876081533692,3.179368981401476],[101.70876081533692,3.1789764618740444],[101.7077243985558,3.178583942491977],[101.7077243985558,3.1789764618740444],[101.70720619016522,3.1789764618740444],[101.70720619016522,3.1801540208925045],[101.7077243985558,3.1801540208925045],[101.7077243985558,3.1805465408561395],[101.70720619016522,3.1805465408561395],[101.70720619016522,3.1808780610345204],[101.7107457,3.179452596485091],[101.71104103634212,3.1789764618740444],[101.7103154405086,3.1789764618740444]]]]},"properties":{"place_id":"e56ae54c-ca04-5fbf-b2c2-01b6e7fbdf46","habitat":"disturbed_built_edge","habitat_label":"Disturbed, bare or built edge","resolution_m":50}},{"type":"Feature","geometry":{"type":"MultiPolygon","coordinates":[[[[101.7061697733841,3.1797615010742897],[101.70720619016522,3.179368981401476],[101.70720619016522,3.1777989041638657],[101.7061697733841,3.1774063852177847],[101.7061697733841,3.1766213477614813],[101.70357873143132,3.1766213477614813],[101.70357873143132,3.1774063852177847],[101.70461514821243,3.1774063852177847],[101.70461514821243,3.1777989041638657],[101.70409693982187,3.1777989041638657],[101.70461514821243,3.179368981401476],[101.70565156499356,3.179368981401476],[101.70565156499356,3.1801540208925045],[101.7061697733841,3.1801540208925045],[101.7061697733841,3.1797615010742897]]],[[[101.70927902372748,3.1797615010742897],[101.71083364889917,3.179368981401476],[101.71083364889917,3.178583942491977],[101.70979723211804,3.178583942491977],[101.70979723211804,3.1781914232552575],[101.70927902372748,3.1781914232552575],[101.70927902372748,3.178583942491977],[101.70876081533692,3.178583942491977],[101.70876081533692,3.179368981401476],[101.70927902372748,3.179368981401476],[101.70927902372748,3.1797615010742897]]]]},"properties":{"place_id":"e56ae54c-ca04-5fbf-b2c2-01b6e7fbdf46","habitat":"permanent_water","habitat_label":"Permanent water","resolution_m":50}},{"type":"Feature","geometry":{"type":"MultiPolygon","coordinates":[[[[101.70565156499356,3.1766213477614813],[101.70565156499356,3.177013866416996],[101.7061697733841,3.177013866416996],[101.7061697733841,3.1766213477614813],[101.70565156499356,3.1766213477614813]]],[[[101.70409693982187,3.1789764618740444],[101.70461514821243,3.1789764618740444],[101.70461514821243,3.178583942491977],[101.70409693982187,3.178583942491977],[101.70409693982187,3.1789764618740444]]],[[[101.70927902372748,3.1789764618740444],[101.70979723211804,3.1789764618740444],[101.70979723211804,3.178583942491977],[101.70927902372748,3.178583942491977],[101.70927902372748,3.1789764618740444]]],[[[101.7103154405086,3.1789764618740444],[101.71083364889917,3.1789764618740444],[101.71083364889917,3.178583942491977],[101.7103154405086,3.178583942491977],[101.7103154405086,3.1789764618740444]]],[[[101.70461514821243,3.179368981401476],[101.70513335660299,3.179368981401476],[101.70513335660299,3.1789764618740444],[101.70461514821243,3.1789764618740444],[101.70461514821243,3.179368981401476]]],[[[101.7061697733841,3.1797615010742897],[101.70668798177468,3.1797615010742897],[101.70668798177468,3.179368981401476],[101.7061697733841,3.179368981401476],[101.7061697733841,3.1797615010742897]]],[[[101.70927902372748,3.1797615010742897],[101.70979723211804,3.179680586798676],[101.70979723211804,3.179368981401476],[101.70927902372748,3.179368981401476],[101.70927902372748,3.1797615010742897]]]]},"properties":{"place_id":"e56ae54c-ca04-5fbf-b2c2-01b6e7fbdf46","habitat":"seasonal_water_wetland","habitat_label":"Seasonal water or wetland","resolution_m":50}},{"type":"Feature","geometry":{"type":"Polygon","coordinates":[[[101.70290903903017,3.1766213477614813],[101.7032094,3.1783035964863187],[101.70596815342903,3.1809390609652093],[101.70668798177468,3.1801540208925045],[101.70720619016522,3.1801540208925045],[101.70720619016522,3.1797615010742897],[101.7077243985558,3.1797615010742897],[101.7077243985558,3.179368981401476],[101.70824260694636,3.179368981401476],[101.70876081533692,3.1801540208925045],[101.70962928307809,3.1797615010742897],[101.70876081533692,3.179368981401476],[101.70876081533692,3.178583942491977],[101.70927902372748,3.178583942491977],[101.70927902372748,3.1781914232552575],[101.70979723211804,3.1781914232552575],[101.70979723211804,3.178583942491977],[101.71083364889917,3.178583942491977],[101.71083364889917,3.179368981401476],[101.7103154405086,3.1795462290068017],[101.7107457,3.179452596485091],[101.71091790000001,3.179312996485267],[101.71099669999998,3.1791541964854333],[101.71083364889917,3.1777989041638657],[101.70979723211804,3.1777989041638657],[101.70979723211804,3.1774063852177847],[101.70927902372748,3.1774063852177847],[101.70927902372748,3.1777989041638657],[101.70824260694636,3.1781914232552575],[101.70824260694636,3.1777989041638657],[101.70720619016522,3.1774063852177847],[101.70720619016522,3.1766213477614813],[101.70668798177468,3.1766213477614813],[101.70668798177468,3.1762288292512233],[101.70290903903017,3.1766213477614813]],[[101.70565156499356,3.179368981401476],[101.70461514821243,3.179368981401476],[101.70461514821243,3.1789764618740444],[101.70409693982187,3.1789764618740444],[101.70409693982187,3.1777989041638657],[101.70461514821243,3.1777989041638657],[101.70461514821243,3.1774063852177847],[101.70357873143132,3.1774063852177847],[101.70357873143132,3.1766213477614813],[101.7061697733841,3.1766213477614813],[101.7061697733841,3.1774063852177847],[101.70720619016522,3.1777989041638657],[101.70720619016522,3.179368981401476],[101.70668798177468,3.179368981401476],[101.7061697733841,3.1801540208925045],[101.70565156499356,3.1801540208925045],[101.70565156499356,3.179368981401476]]]},"properties":{"place_id":"e56ae54c-ca04-5fbf-b2c2-01b6e7fbdf46","habitat":"water_edge","habitat_label":"Water edge","resolution_m":50}}]}