{"type":"FeatureCollection","metadata":{"schema_version":1,"place_id":"e5cdd0ef-2055-5ec1-bb78-457c12a564b5","place_name":"Resident's Playground","place_type":"park","osm_reference":"way/262506942","protection_context":"no protected status confirmed from included OSM tags","resolution_m":50,"raster_coverage":1.0,"interpretation":"Suggested search habitats, not predicted plant locations or probabilities of presence."},"features":[{"type":"Feature","geometry":{"type":"Polygon","coordinates":[[[100.2845423,5.2846802942735325],[100.2848592,5.284653994273558],[100.28501679999998,5.284814894273402],[100.28490709999998,5.284416494273822],[100.2845423,5.2846802942735325]]]},"properties":{"place_id":"e5cdd0ef-2055-5ec1-bb78-457c12a564b5","habitat":"forest_edge_opening","habitat_label":"Forest edge or opening","resolution_m":50}},{"type":"Feature","geometry":{"type":"Polygon","coordinates":[[[100.2845423,5.2846802942735325],[100.2848592,5.284653994273558],[100.28501679999998,5.284814894273402],[100.28490709999998,5.284416494273822],[100.2845423,5.2846802942735325]]]},"properties":{"place_id":"e5cdd0ef-2055-5ec1-bb78-457c12a564b5","habitat":"disturbed_built_edge","habitat_label":"Disturbed, bare or built edge","resolution_m":50}}]}