{"type":"FeatureCollection","metadata":{"schema_version":1,"place_id":"e5f59340-681b-54ad-a8c9-01ea17830bbc","place_name":"Waterfront Kemaman","place_type":"park","osm_reference":"way/471137912","protection_context":"no protected status confirmed from included OSM tags","resolution_m":50,"raster_coverage":1.0,"interpretation":"Suggested search habitats, not predicted plant locations or probabilities of presence."},"features":[{"type":"Feature","geometry":{"type":"MultiPolygon","coordinates":[[[[103.42817625521712,4.2138810190407066],[103.42789977068144,4.214218152402383],[103.42817625521712,4.214218152402383],[103.42817625521712,4.2138810190407066]]],[[[103.42765804682656,4.214512900200135],[103.4276519,4.214520395380684],[103.42765804682656,4.2145252726072036],[103.42765804682656,4.214512900200135]]],[[[103.43128550556048,4.218540786919498],[103.43126829999997,4.217776595377279],[103.43076729716994,4.217754851630097],[103.4306164329834,4.216968917114569],[103.42981915631411,4.216575950146963],[103.43124659999998,4.218848595376161],[103.43180371395104,4.218665721588295],[103.43128550556048,4.218540786919498]]]]},"properties":{"place_id":"e5f59340-681b-54ad-a8c9-01ea17830bbc","habitat":"forest_edge_opening","habitat_label":"Forest edge or opening","resolution_m":50}},{"type":"Feature","geometry":{"type":"MultiPolygon","coordinates":[[[[103.42817625521712,4.214218152402383],[103.42817625521712,4.2146111182097785],[103.42869446360768,4.2146111182097785],[103.42857919233867,4.214218152402383],[103.42817625521712,4.214218152402383]]],[[[103.42921267199823,4.215397050404557],[103.42907414693721,4.215004084210497],[103.42826149859945,4.215004084210497],[103.42875675814506,4.215397050404557],[103.42921267199823,4.215397050404557]]],[[[103.4297308803888,4.215837446250836],[103.42925201769064,4.215790016791975],[103.4297308803888,4.216449886414179],[103.4297308803888,4.215837446250836]]],[[[103.43009433070917,4.216968917114569],[103.43024908877936,4.216575950146963],[103.42981915631411,4.216575950146963],[103.43009433070917,4.216968917114569]]],[[[103.43024908877936,4.217189921808451],[103.43059726313473,4.217754851630097],[103.43076729716994,4.217754851630097],[103.4306164329834,4.216968917114569],[103.43024908877936,4.217189921808451]]],[[[103.43175428359886,4.218540786919498],[103.4314691741556,4.218147819178053],[103.43083056131695,4.218147819178053],[103.43106385949916,4.218540786919498],[103.43175428359886,4.218540786919498]]]]},"properties":{"place_id":"e5f59340-681b-54ad-a8c9-01ea17830bbc","habitat":"open_grassland","habitat_label":"Open grassland or shrubland","resolution_m":50}},{"type":"Feature","geometry":{"type":"Polygon","coordinates":[[[103.43024908877936,4.216968917114569],[103.43124659999998,4.218848595376161],[103.43183699999997,4.218654795376336],[103.4281871,4.213867795381389],[103.4276519,4.214520395380684],[103.43024908877936,4.216968917114569]]]},"properties":{"place_id":"e5f59340-681b-54ad-a8c9-01ea17830bbc","habitat":"disturbed_built_edge","habitat_label":"Disturbed, bare or built edge","resolution_m":50}},{"type":"Feature","geometry":{"type":"MultiPolygon","coordinates":[[[[103.42869446360768,4.214407446951898],[103.4288275,4.214544595380664],[103.42872080000001,4.214387395380822],[103.42869446360768,4.214407446951898]]],[[[103.42921267199823,4.215397050404557],[103.42940594601299,4.215397050404557],[103.42921267199823,4.215171769773094],[103.42921267199823,4.215397050404557]]],[[[103.42945899298938,4.215397050404557],[103.42945039999998,4.215385495379772],[103.42943575150386,4.215397050404557],[103.42945899298938,4.215397050404557]]],[[[103.4297308803888,4.2161829833727715],[103.42998504771508,4.2161829833727715],[103.4297308803888,4.215837446250836],[103.4297308803888,4.2161829833727715]]],[[[103.43024908877936,4.2165158959143145],[103.43032630223576,4.216575950146963],[103.4302859,4.2165220953786],[103.43024908877936,4.2165158959143145]]],[[[103.43076729716994,4.217361884275607],[103.43089958031621,4.217361884275607],[103.43076729716994,4.217177593985995],[103.43076729716994,4.217361884275607]]],[[[103.43128550556048,4.217864835600707],[103.43131659999999,4.217844795377223],[103.43128550556048,4.217800889770506],[103.43128550556048,4.217864835600707]]],[[[103.43128550556048,4.218147819178053],[103.4314691741556,4.218147819178053],[103.43128550556048,4.217891275524899],[103.43128550556048,4.218147819178053]]],[[[103.43180371395104,4.218665721588295],[103.43183699999997,4.218654795376336],[103.43180371395104,4.21860891703559],[103.43180371395104,4.218665721588295]]]]},"properties":{"place_id":"e5f59340-681b-54ad-a8c9-01ea17830bbc","habitat":"permanent_water","habitat_label":"Permanent water","resolution_m":50}},{"type":"Feature","geometry":{"type":"Polygon","coordinates":[[[103.42817625521712,4.2146111182097785],[103.43124659999998,4.218848595376161],[103.43180371395104,4.218665721588295],[103.4281871,4.213867795381389],[103.42765804682656,4.214512900200135],[103.42817625521712,4.2146111182097785]]]},"properties":{"place_id":"e5f59340-681b-54ad-a8c9-01ea17830bbc","habitat":"water_edge","habitat_label":"Water edge","resolution_m":50}}]}