{"type":"FeatureCollection","metadata":{"schema_version":1,"place_id":"e6ee81cf-1100-5fe8-bf62-4a78623de93b","place_name":"Pulau Bedaling","place_type":"wood","osm_reference":"way/724676815","protection_context":"no protected status confirmed from included OSM tags","resolution_m":50,"raster_coverage":1.0,"interpretation":"Suggested search habitats, not predicted plant locations or probabilities of presence."},"features":[{"type":"Feature","geometry":{"type":"Polygon","coordinates":[[[102.6410177099555,3.0588722280122704],[102.63959619999999,3.059326596615073],[102.6397195,3.0602907966140096],[102.6402453,3.060697896613554],[102.6410177099555,3.0601144861157397],[102.6410177099555,3.0588722280122704]]]},"properties":{"place_id":"e6ee81cf-1100-5fe8-bf62-4a78623de93b","habitat":"forest_interior","habitat_label":"Forest interior","resolution_m":50}},{"type":"Feature","geometry":{"type":"MultiPolygon","coordinates":[[[[102.64049950156495,3.0592647039022687],[102.64049950156495,3.0588722280122704],[102.6410177099555,3.0588722280122704],[102.6410177099555,3.0601144861157397],[102.64121620000002,3.0592328966151574],[102.6410338,3.0588605966155615],[102.64092389999998,3.0587881966156343],[102.640311,3.0587065966157287],[102.63963430969832,3.0592647039022687],[102.64049950156495,3.0592647039022687]]],[[[102.64049950156495,3.0604421324114233],[102.6405564,3.0606068966136757],[102.64072672082624,3.0604421324114233],[102.64049950156495,3.0604421324114233]]]]},"properties":{"place_id":"e6ee81cf-1100-5fe8-bf62-4a78623de93b","habitat":"forest_edge_opening","habitat_label":"Forest edge or opening","resolution_m":50}},{"type":"Feature","geometry":{"type":"Polygon","coordinates":[[[102.64049950156495,3.0588722280122704],[102.64049950156495,3.05867673114145],[102.64000654057519,3.0588722280122704],[102.64049950156495,3.0588722280122704]]]},"properties":{"place_id":"e6ee81cf-1100-5fe8-bf62-4a78623de93b","habitat":"open_grassland","habitat_label":"Open grassland or shrubland","resolution_m":50}},{"type":"Feature","geometry":{"type":"MultiPolygon","coordinates":[[[[102.63998129317439,3.059657179932115],[102.63998129317439,3.0592647039022687],[102.64049950156495,3.0592647039022687],[102.64105216744683,3.0600496561018264],[102.6410338,3.0588605966155615],[102.6398966,3.0589515966154686],[102.63955630005702,3.059657179932115],[102.63998129317439,3.059657179932115]]],[[[102.64049950156495,3.0604421324114233],[102.64049950156495,3.0600496561018264],[102.63998129317439,3.0600496561018264],[102.63994619999997,3.0605438966137295],[102.64049950156495,3.0604421324114233]]]]},"properties":{"place_id":"e6ee81cf-1100-5fe8-bf62-4a78623de93b","habitat":"water_edge","habitat_label":"Water edge","resolution_m":50}}]}