{"type":"FeatureCollection","metadata":{"schema_version":1,"place_id":"e744322a-f961-5e7d-a0c8-672cc471ead3","place_name":"Hutan Simpan Kekal Bukit Sedanan","place_type":"wood","osm_reference":"relation/12741446","protection_context":"mapped protected boundary","resolution_m":50,"raster_coverage":1.0,"interpretation":"Suggested search habitats, not predicted plant locations or probabilities of presence."},"features":[{"type":"Feature","geometry":{"type":"MultiPolygon","coordinates":[[[[102.36688547134894,2.4459841104343085],[102.36636726295836,2.4459841104343085],[102.36636726295836,2.4455918310668596],[102.36688547134894,2.4455918310668596],[102.36688547134894,2.4451995518110525],[102.36792188813006,2.4451995518110525],[102.3684400965206,2.4459841104343085],[102.36792188813006,2.4459841104343085],[102.36777508973562,2.446376389913418],[102.36947651330173,2.4463135840614787],[102.36947651330173,2.4459841104343085],[102.36895830491117,2.4459841104343085],[102.36895830491117,2.4451995518110525],[102.3684400965206,2.4451995518110525],[102.3684400965206,2.444414993634291],[102.36740367973948,2.4440227147133013],[102.36740367973948,2.443254801072212],[102.3664966,2.443720397285891],[102.3662658,2.4431857972864774],[102.36688547134894,2.4416690435296995],[102.36792188813006,2.441136222520995],[102.36792188813006,2.4394750972905284],[102.36740367973948,2.4393153763587283],[102.36792188813006,2.438138544276764],[102.36740367973948,2.438138544276764],[102.36740367973948,2.438530821526095],[102.3658490545678,2.438530821526095],[102.3652885490932,2.437746267138733],[102.36481263778668,2.437746267138733],[102.36481263778668,2.4369617131964993],[102.36533084617724,2.436569436392261],[102.36688547134894,2.4369617131964993],[102.36688547134894,2.436569436392261],[102.36533084617724,2.43578488311745],[102.36636726295836,2.4342157779019864],[102.36740367973948,2.4342157779019864],[102.36792188813006,2.4350003302874055],[102.3684400965206,2.4350003302874055],[102.3684400965206,2.434608054039127],[102.36947651330173,2.434608054039127],[102.36947651330173,2.4338665122597476],[102.36792188813006,2.4334312259610473],[102.36718489999998,2.431885697298854],[102.3684400965206,2.4327604836272343],[102.36964626095842,2.4326466744644444],[102.36964179999998,2.431403297299383],[102.37015644305602,2.4326466744644444],[102.37103113847341,2.4330389501572127],[102.37103113847341,2.433823501875966],[102.37154934686397,2.433823501875966],[102.37154934686397,2.434608054039127],[102.37258576364509,2.434608054039127],[102.37310397203565,2.4326466744644444],[102.37214429999999,2.432512697298148],[102.37206755525455,2.4319301722924127],[102.37154934686397,2.431862123412034],[102.37154934686397,2.431077572803672],[102.37103113847341,2.431077572803672],[102.3704406040245,2.429900747723405],[102.36947651330173,2.4295084729185166],[102.36970434465091,2.428723923641436],[102.369218,2.428391197302688],[102.37076829999998,2.428064297303053],[102.37103113847341,2.428723923641436],[102.37154934686397,2.428723923641436],[102.37154934686397,2.429900747723405],[102.37206755525455,2.429900747723405],[102.37258576364509,2.430685297665964],[102.37362218042621,2.430685297665964],[102.37266999999999,2.425589497305743],[102.37345050000002,2.426300997304975],[102.37362218042621,2.4259780046630555],[102.37465859720734,2.4259780046630555],[102.37470049999999,2.4246983973067056],[102.3738589,2.4235899973079302],[102.37482379999999,2.424165197307302],[102.375088,2.4230712973085105],[102.37521009999999,2.4247841973066167],[102.37580549999998,2.425153997306222],[102.3760684,2.4248860973065023],[102.37621322237902,2.4259780046630555],[102.3767336,2.425759697305563],[102.37673143076958,2.4263702784704533],[102.37724963916014,2.4263702784704533],[102.37724963916014,2.4279393748078273],[102.3777678475507,2.4279393748078273],[102.37829729999999,2.4286779973023855],[102.3794211,2.4284286973026337],[102.3788056,2.4289218973020983],[102.37931689999999,2.4299494973009637],[102.37816049999999,2.4290289973019825],[102.37740949999998,2.4293290973016552],[102.37621322237902,2.4291161982245333],[102.37621322237902,2.431862123412034],[102.37673143076958,2.431862123412034],[102.37769919999998,2.430813797300028],[102.37778458505392,2.431469848052356],[102.37828605594126,2.431469848052356],[102.3777678475507,2.4330389501572127],[102.37673143076958,2.4334312259610473],[102.37673143076958,2.4350003302874055],[102.3777678475507,2.4353926066468405],[102.3777678475507,2.436569436392261],[102.37724963916014,2.436569436392261],[102.37724963916014,2.4369617131964993],[102.37828605594126,2.4373539901119843],[102.37828605594126,2.43578488311745],[102.3793224727224,2.4352611027384072],[102.37880426433182,2.433823501875966],[102.37985289999997,2.432062597298634],[102.3798655663827,2.4326466744644444],[102.38087709789406,2.4330389501572127],[102.38155019999999,2.4319325972988115],[102.38139930924166,2.4330389501572127],[102.38191351467519,2.4330389501572127],[102.38191351467519,2.433823501875966],[102.38139530628463,2.433823501875966],[102.38139530628463,2.434608054039127],[102.38191351467519,2.434608054039127],[102.38304775006787,2.43578488311745],[102.38398634823743,2.43578488311745],[102.38398634823743,2.433045183880495],[102.38327679999999,2.432776797297882],[102.38339349999998,2.4321643972985396],[102.384504556628,2.4322543988827245],[102.384504556628,2.4299092552383326],[102.38346813984687,2.4295084729185166],[102.383938,2.4287770973022487],[102.3829499314563,2.4283316491692064],[102.3829499314563,2.4279315076038825],[102.3821114,2.4282464973028475],[102.3818116,2.428009397303111],[102.38261735586137,2.427547100557281],[102.38167149999997,2.425486297305851],[102.38354982461335,2.4271548264175484],[102.38424651442568,2.4271548264175484],[102.3843349,2.4268476973043644],[102.38403319999998,2.4246086973068244],[102.38502276501855,2.4271548264175484],[102.3855409734091,2.4271548264175484],[102.3855409734091,2.4267625523886114],[102.38619099999998,2.4269066973043056],[102.38698159999998,2.425990797305292],[102.38657739019024,2.427547100557281],[102.38605918179967,2.427547100557281],[102.38605918179967,2.428723923641436],[102.38657739019024,2.428723923641436],[102.38657739019024,2.4295084729185166],[102.38752074908012,2.4295084729185166],[102.38824289999997,2.4278873973032065],[102.38911329999999,2.427313897303844],[102.38944739999998,2.42749169730366],[102.3899376,2.4268658973043467],[102.39049600000001,2.426974697304235],[102.3897878,2.4260358973052703],[102.38944739999998,2.426974697304235],[102.38884819999998,2.427273997303881],[102.38815369999999,2.4260766973052252],[102.38839879999998,2.4253963973059665],[102.38884819999998,2.424892997306511],[102.3910543,2.424947397306467],[102.39041429999999,2.4232194973083496],[102.3932877,2.424239897307246],[102.3940094,2.4239949973075126],[102.39383230765809,2.421450856326961],[102.39312429999998,2.420090097311792],[102.3870778,2.415845097316412],[102.38590669999999,2.4141578973182685],[102.3860429,2.4122122973203894],[102.38547089999997,2.4103345973224837],[102.38139530628463,2.410679412375684],[102.38139530628463,2.4110716818774676],[102.3793224727224,2.4110716818774676],[102.3793224727224,2.410704916951391],[102.37465859720734,2.4110716818774676],[102.37185279999998,2.410824497321916],[102.3716894,2.398565397335397],[102.34879729999999,2.3982513973357213],[102.3488774926585,2.3993036446185303],[102.34926638606987,2.3993036446185303],[102.34885534021694,2.4016572441694195],[102.34926638606987,2.4016572441694195],[102.34926638606987,2.4028340454245822],[102.34874817767931,2.4028340454245822],[102.34874817767931,2.403618580143064],[102.34822996928875,2.403618580143064],[102.34822996928875,2.4044031153004135],[102.34771176089818,2.4044031153004135],[102.34771176089818,2.4055799188596274],[102.34719355250763,2.4055799188596274],[102.34719355250763,2.405972186932288],[102.34771176089818,2.405972186932288],[102.34771176089818,2.4071489918092897],[102.34727644391982,2.4071489918092897],[102.34719355250763,2.4083257976751993],[102.34667534411706,2.4083257976751993],[102.34667534411706,2.4091103354687715],[102.34626449999999,2.4091103354687715],[102.34665939999996,2.4101985973226094],[102.34763469999999,2.4113084973214103],[102.3482663,2.411368697321365],[102.3485115,2.4106067973221554],[102.34978459446043,2.409502604530502],[102.35082101124155,2.409249112620127],[102.3516164,2.408388997324606],[102.35316879999999,2.4079807973250515],[102.3536727,2.408674697324306],[102.35289384480379,2.4088460146734536],[102.35289384480379,2.409502604530502],[102.35237563641323,2.409502604530502],[102.35237563641323,2.41028714298394],[102.35164019414856,2.410679412375684],[102.3519841,2.4108788973218775],[102.35082101124155,2.4110716818774676],[102.35065417617554,2.4114639514893104],[102.35037709999999,2.4124163973201753],[102.3509763,2.413532097318975],[102.3516436,2.414225997318218],[102.3522428,2.4142667973181493],[102.3524607,2.4137633973187143],[102.3543536,2.4138177973186505],[102.3569138,2.412770097319824],[102.3571317,2.4130149973195505],[102.35620570000002,2.413940197318526],[102.35485749999998,2.4140626973183674],[102.3542991,2.4146340973177693],[102.3544489,2.416756697315426],[102.3554848867566,2.4178873180447478],[102.3564099,2.41751859731459],[102.3567368,2.4178587973142003],[102.3573904,2.417681897314394],[102.3578807,2.416987997315151],[102.35963055388109,2.418524823342998],[102.35911234549052,2.4212707276070233],[102.35859413709996,2.4212707276070233],[102.3580759287094,2.422055272676926],[102.35755772031884,2.422055272676926],[102.35703951192828,2.4212707276070233],[102.35552479999998,2.42136909731036],[102.3553205,2.4220629973096237],[102.35458509999998,2.4222398973094124],[102.3539302615849,2.423624364143623],[102.3529237,2.424335197307118],[102.35341205319436,2.4244089105407047],[102.35312477521896,2.4248011839052417],[102.35368629999998,2.425872597305435],[102.35216581299701,2.425193457380467],[102.35130319999999,2.426811397304434],[102.3525697,2.4271379973040568],[102.353019,2.427709397303439],[102.350418,2.42749169730366],[102.350418,2.427804697303322],[102.35229729999999,2.427845497303289],[102.35316879999999,2.4282399973028324],[102.35423109999999,2.4299815973009116],[102.35386339999998,2.4311516972996317],[102.35240619999999,2.432525897298138],[102.35247429999998,2.43287959729775],[102.35361819999997,2.433192597297409],[102.3533867,2.4351925972952295],[102.35247429999998,2.4348796972955564],[102.3520113,2.4357912972945783],[102.3523245,2.437927397292233],[102.3545443,2.438947797291084],[102.35511151827932,2.439707653942067],[102.35705000000002,2.43960089729038],[102.3585207,2.4406484972892493],[102.35952849999998,2.438512397291566],[102.35898379999999,2.4416144972881866],[102.35940589999998,2.442662197287031],[102.36174819999997,2.443995497285555],[102.36124440000002,2.4447573972847283],[102.3596732723169,2.444807272666868],[102.35950443632073,2.446376389913418],[102.36688547134894,2.4463498460612736],[102.36688547134894,2.4459841104343085]]],[[[102.38398634823743,2.4369617131964993],[102.38317933493465,2.4369617131964993],[102.3829499314563,2.4373539901119843],[102.38398634823743,2.437746267138733],[102.38398634823743,2.4369617131964993]]]]},"properties":{"place_id":"e744322a-f961-5e7d-a0c8-672cc471ead3","habitat":"forest_interior","habitat_label":"Forest interior","resolution_m":50}},{"type":"Feature","geometry":{"type":"MultiPolygon","coordinates":[[[[102.35444846997548,2.398328911728074],[102.3554848867566,2.398519112311243],[102.3554848867566,2.398343127761212],[102.35444846997548,2.398328911728074]]],[[[102.35859413709996,2.3983857758614855],[102.35911234549052,2.398519112311243],[102.35911234549052,2.3983928838783233],[102.35859413709996,2.3983857758614855]]],[[[102.3488774926585,2.3993036446185303],[102.34897115590768,2.3996959109364426],[102.34926638606987,2.3996959109364426],[102.34926638606987,2.3993036446185303],[102.3488774926585,2.3993036446185303]]],[[[102.34822996928875,2.4044031153004135],[102.34822996928875,2.403618580143064],[102.34874817767931,2.403618580143064],[102.34874817767931,2.4028340454245822],[102.34926638606987,2.4028340454245822],[102.34926638606987,2.4016572441694195],[102.34885534021694,2.4016572441694195],[102.34701829999999,2.405501697327755],[102.34727644391982,2.4071489918092897],[102.34771176089818,2.4071489918092897],[102.34771176089818,2.405972186932288],[102.34719355250763,2.405972186932288],[102.34719355250763,2.4055799188596274],[102.34771176089818,2.4055799188596274],[102.34771176089818,2.4044031153004135],[102.34822996928875,2.4044031153004135]]],[[[102.34667534411706,2.4091103354687715],[102.34667534411706,2.4083257976751993],[102.34719355250763,2.4083257976751993],[102.34719355250763,2.4075050840907406],[102.34626449999999,2.408960397323961],[102.34667534411706,2.4091103354687715]]],[[[102.35185742802267,2.4083257976751993],[102.35185742802267,2.4083305906665964],[102.3518772073647,2.4083257976751993],[102.35185742802267,2.4083257976751993]]],[[[102.35082101124155,2.4091103354687715],[102.35082101124155,2.409249112620127],[102.35091449007137,2.4091103354687715],[102.35082101124155,2.4091103354687715]]],[[[102.34978459446043,2.409502604530502],[102.34978459446043,2.4097995946287516],[102.35030280285099,2.409524353597364],[102.35030280285099,2.409502604530502],[102.34978459446043,2.409502604530502]]],[[[102.35156189999998,2.4106339973221615],[102.35185742802267,2.41028714298394],[102.35237563641323,2.41028714298394],[102.35237563641323,2.409502604530502],[102.35289384480379,2.409502604530502],[102.35289384480379,2.4088460146734536],[102.3526377,2.408865197324088],[102.35156189999998,2.4106339973221615]]],[[[102.34926638606987,2.4098948737022186],[102.34926638606987,2.410126038646093],[102.34962936077855,2.4098948737022186],[102.34926638606987,2.4098948737022186]]],[[[102.35065417617554,2.4114639514893104],[102.35082101124155,2.4110716818774676],[102.35133921963211,2.4110716818774676],[102.35100359999998,2.410769997321994],[102.35084019999998,2.410824497321916],[102.35065417617554,2.4114639514893104]]],[[[102.35911234549052,2.417740280261435],[102.35859413709996,2.417740280261435],[102.35859413709996,2.417348008886209],[102.35811219999998,2.417348008886209],[102.3585207,2.4178587973142003],[102.35911234549052,2.418059537101116],[102.35911234549052,2.417740280261435]]],[[[102.355243122009,2.417740280261435],[102.3549937,2.4181988973138453],[102.3554848867566,2.4178873180447478],[102.355243122009,2.417740280261435]]],[[[102.3580759287094,2.4212707276070233],[102.35755772031884,2.4212707276070233],[102.3574177,2.4200492973118237],[102.35686938411811,2.4212707276070233],[102.35755772031884,2.422055272676926],[102.3580759287094,2.422055272676926],[102.3580759287094,2.4216630000867028],[102.35911234549052,2.4212707276070233],[102.35911234549052,2.4198373975902965],[102.3580759287094,2.4200815216110363],[102.3580759287094,2.4212707276070233]]],[[[102.3554848867566,2.4216630000867028],[102.3554848867566,2.4215046616471687],[102.35543826830104,2.4216630000867028],[102.3554848867566,2.4216630000867028]]],[[[102.35444846997548,2.4228398181890785],[102.35444846997548,2.4224322403258314],[102.35415894887682,2.4228398181890785],[102.35444846997548,2.4228398181890785]]],[[[102.3539302615849,2.4231617563919925],[102.35368629999998,2.4235051973080437],[102.35357681005766,2.423624364143623],[102.3539302615849,2.423624364143623],[102.3539302615849,2.4231617563919925]]],[[[102.35341205319436,2.4240166372868384],[102.35341205319436,2.42380368249678],[102.35321639135792,2.4240166372868384],[102.35341205319436,2.4240166372868384]]],[[[102.35295550758146,2.4244089105407047],[102.35312477521896,2.4248011839052417],[102.35341205319436,2.4248011839052417],[102.35341205319436,2.4244089105407047],[102.35295550758146,2.4244089105407047]]],[[[102.35265456198749,2.425193457380467],[102.3525288,2.425110697306259],[102.35216581299701,2.425193457380467],[102.35265456198749,2.425193457380467]]],[[[102.3548186906967,2.4393153763587283],[102.35496667836603,2.4395136235344066],[102.35496667836603,2.4393153763587283],[102.3548186906967,2.4393153763587283]]],[[[102.35511151827932,2.439707653942067],[102.3551435,2.4397504972902375],[102.35540749061813,2.439707653942067],[102.35511151827932,2.439707653942067]]],[[[102.35963055388109,2.4459841104343085],[102.35963055388109,2.445940881968868],[102.35955665656671,2.4459841104343085],[102.35963055388109,2.4459841104343085]]],[[[102.36066697066221,2.3984142079290542],[102.36118517905275,2.398519112311243],[102.36118517905275,2.398421315946036],[102.36066697066221,2.3984142079290542]]],[[[102.363258012615,2.3984497480143223],[102.36377622100557,2.398519112311243],[102.36377622100557,2.3984568560314843],[102.363258012615,2.3984497480143223]]],[[[102.36429442939612,2.398463964048682],[102.36481263778668,2.398519112311243],[102.36481263778668,2.3984710720659153],[102.36429442939612,2.398463964048682]]],[[[102.36740367973948,2.398519112311243],[102.36831500095026,2.398519112311243],[102.36740367973948,2.3985066121526217],[102.36740367973948,2.398519112311243]]],[[[102.37154934686397,2.4083257976751993],[102.37173029999998,2.407286897325833],[102.37154934686397,2.406157264631419],[102.37154934686397,2.4083257976751993]]],[[[102.37170738409762,2.409502604530502],[102.37154934686397,2.4098948737022186],[102.37170332706624,2.4098948737022186],[102.37170738409762,2.409502604530502]]],[[[102.37362218042621,2.4108875351579266],[102.37465859720734,2.4110716818774676],[102.37465859720734,2.4109218240271018],[102.37362218042621,2.4108875351579266]]],[[[102.35963055388109,2.418524823342998],[102.35949437734588,2.418917095049371],[102.35963055388109,2.418917095049371],[102.35963055388109,2.418524823342998]]],[[[102.37310397203565,2.4263702784704533],[102.37310397203565,2.42787452494454],[102.3735632,2.4271477973040536],[102.37310397203565,2.4263702784704533]]],[[[102.37310397203565,2.4295084729185166],[102.37362218042621,2.4295084729185166],[102.37362218042621,2.430685297665964],[102.37258576364509,2.430685297665964],[102.37258576364509,2.430293022639214],[102.37154934686397,2.429900747723405],[102.37154934686397,2.428723923641436],[102.37103113847341,2.428518350604185],[102.3708139,2.428774397302271],[102.37159980000001,2.430047397300844],[102.37234009999999,2.430593997300279],[102.3737617,2.431322997299462],[102.37413179999997,2.430840497299999],[102.37371339999999,2.428787897302249],[102.37310397203565,2.4281445783829048],[102.37310397203565,2.4295084729185166]]],[[[102.37103113847341,2.4283316491692064],[102.37086560955073,2.4283316491692064],[102.37103113847341,2.4284014569967],[102.37103113847341,2.4283316491692064]]],[[[102.37007169363734,2.4283316491692064],[102.37032299999998,2.428621697302431],[102.3704733,2.42861099730244],[102.3706106149586,2.4283316491692064],[102.37007169363734,2.4283316491692064]]],[[[102.36970434465091,2.428723923641436],[102.36947651330173,2.4295084729185166],[102.3704406040245,2.429900747723405],[102.36970434465091,2.428723923641436]]],[[[102.37051293008285,2.430685297665964],[102.37154934686397,2.431077572803672],[102.37154934686397,2.431862123412034],[102.37198423165725,2.431862123412034],[102.371691,2.4312049972995933],[102.37051293008285,2.4300014991248875],[102.37051293008285,2.430685297665964]]],[[[102.37206755525455,2.4322543988827245],[102.372147,2.4319606972987917],[102.37206755525455,2.4319301722924127],[102.37206755525455,2.4322543988827245]]],[[[102.37103113847341,2.433823501875966],[102.37103113847341,2.4330389501572127],[102.37015644305602,2.4326466744644444],[102.37144959999999,2.434774497295689],[102.3722596,2.4350799972953614],[102.3731877,2.4341849972963314],[102.37329500000001,2.4327110972979638],[102.37258576364509,2.4323637678640297],[102.37310397203565,2.4326466744644444],[102.37258576364509,2.434608054039127],[102.37154934686397,2.434608054039127],[102.37154934686397,2.433823501875966],[102.37103113847341,2.433823501875966]]],[[[102.3684400965206,2.4326466744644444],[102.3691911,2.4329789972976563],[102.36964626095842,2.4326466744644444],[102.3684400965206,2.4326466744644444]]],[[[102.36805189746735,2.4330389501572127],[102.3684400965206,2.433823501875966],[102.36942041861066,2.433823501875966],[102.36805189746735,2.4330389501572127]]],[[[102.36740367973948,2.438138544276764],[102.36792188813006,2.438138544276764],[102.3681228,2.4387832972912973],[102.36822769999999,2.438112397292032],[102.36645460000001,2.438164797291976],[102.3658490545678,2.438530821526095],[102.36740367973948,2.438530821526095],[102.36740367973948,2.438138544276764]]],[[[102.36740367973948,2.4350003302874055],[102.3683221,2.4351442972952744],[102.36968470000001,2.434978097295454],[102.36987779999997,2.434174197296347],[102.36947651330173,2.4338665122597476],[102.36947651330173,2.434608054039127],[102.3684400965206,2.434608054039127],[102.3684400965206,2.4350003302874055],[102.36792188813006,2.4350003302874055],[102.36740367973948,2.4342157779019864],[102.36636726295836,2.4342157779019864],[102.36636726295836,2.434608054039127],[102.3658490545678,2.434608054039127],[102.3658490545678,2.4353926066468405],[102.36533084617724,2.4353926066468405],[102.36533084617724,2.43578488311745],[102.36688547134894,2.436569436392261],[102.36688547134894,2.4369617131964993],[102.36597114023085,2.4369617131964993],[102.36708409999999,2.4370641972931892],[102.36772409999999,2.4378712972922862],[102.36820670000002,2.4378712972922862],[102.36800739999998,2.4370326972932097],[102.365951,2.4358900972944335],[102.3664966,2.4343911972960997],[102.36740367973948,2.4350003302874055]]],[[[102.36533084617724,2.436569436392261],[102.3658490545678,2.4369428091341425],[102.3658490545678,2.436569436392261],[102.36533084617724,2.436569436392261]]],[[[102.36481263778668,2.437746267138733],[102.3652885490932,2.437746267138733],[102.36515610427263,2.4369617131964993],[102.36481263778668,2.4369617131964993],[102.36481263778668,2.437746267138733]]],[[[102.36533084617724,2.438138544276764],[102.36557358059484,2.438138544276764],[102.36533084617724,2.437804478869656],[102.36533084617724,2.438138544276764]]],[[[102.36740367973948,2.4389230988867427],[102.36770589247391,2.4393153763587283],[102.36766117445457,2.4389230988867427],[102.36740367973948,2.4389230988867427]]],[[[102.36792188813006,2.4394750972905284],[102.3680808,2.441036997288809],[102.36822769999999,2.4394750972905284],[102.36792188813006,2.4394750972905284]]],[[[102.36740367973948,2.441276765389321],[102.36740367973948,2.4413375915802193],[102.3676968049775,2.441276765389321],[102.36740367973948,2.441276765389321]]],[[[102.36688547134894,2.4416690435296995],[102.36688547134894,2.4420274301197495],[102.36707719123714,2.4416690435296995],[102.36688547134894,2.4416690435296995]]],[[[102.3596732723169,2.444807272666868],[102.36014876227163,2.444589538214727],[102.35976,2.4444852972850426],[102.3596732723169,2.444807272666868]]],[[[102.36740367973948,2.4440227147133013],[102.3684400965206,2.444414993634291],[102.36895830491117,2.4459841104343085],[102.369791,2.446267597283073],[102.36764019999997,2.443133397286506],[102.36740367973948,2.4440227147133013]]],[[[102.36688547134894,2.4451995518110525],[102.36636726295836,2.4459841104343085],[102.36792188813006,2.446376389913418],[102.3684400965206,2.4455918310668596],[102.36792188813006,2.4455918310668596],[102.36792188813006,2.4451995518110525],[102.36688547134894,2.4451995518110525]]],[[[102.36035152222252,2.446376389913418],[102.36066697066221,2.4464223040730593],[102.36066697066221,2.446376389913418],[102.36035152222252,2.446376389913418]]],[[[102.35950443632073,2.446376389913418],[102.3596244,2.446456297282882],[102.36004841228821,2.446376389913418],[102.35950443632073,2.446376389913418]]],[[[102.3793224727224,2.4110716818774676],[102.38139530628463,2.4110716818774676],[102.38139530628463,2.410679412375684],[102.38191351467519,2.4106281050887945],[102.3793224727224,2.410704916951391],[102.3793224727224,2.4110716818774676]]],[[[102.39175947409585,2.4193093668661625],[102.39199275770234,2.4193093668661625],[102.39175947409585,2.419172416496318],[102.39175947409585,2.4193093668661625]]],[[[102.3922776824864,2.419701638793389],[102.39262441051483,2.419701638793389],[102.3922776824864,2.419476633479515],[102.3922776824864,2.419701638793389]]],[[[102.39331409926753,2.420486182979226],[102.39354246934045,2.4208784552378697],[102.39334384013961,2.420486182979226],[102.39331409926753,2.420486182979226]]],[[[102.39383230765809,2.422055272676926],[102.39392299010788,2.422055272676926],[102.39383230765809,2.421450856326961],[102.39383230765809,2.422055272676926]]],[[[102.37523055698122,2.4248011839052417],[102.3755909,2.4251003973062715],[102.37569501398845,2.425126401545421],[102.37569501398845,2.4248011839052417],[102.37523055698122,2.4248011839052417]]],[[[102.37465859720734,2.425193457380467],[102.37465859720734,2.4259780046630555],[102.37362218042621,2.4259780046630555],[102.37362218042621,2.4263264036369363],[102.37444839999999,2.4260758973052137],[102.37467890000002,2.4263170973049673],[102.37465859720734,2.425193457380467]]],[[[102.38296820420972,2.4267625523886114],[102.3831655,2.4269655973042465],[102.38346813984687,2.42711460745622],[102.38346813984687,2.4267625523886114],[102.38296820420972,2.4267625523886114]]],[[[102.38243172306575,2.427547100557281],[102.38257375227099,2.4271548264175484],[102.38243172306575,2.4271548264175484],[102.38243172306575,2.427547100557281]]],[[[102.3829499314563,2.4283316491692064],[102.38346813984687,2.4283316491692064],[102.38346813984687,2.428723923641436],[102.38389258934549,2.428723923641436],[102.38321369999998,2.4280320973030856],[102.3829499314563,2.4279315076038825],[102.3829499314563,2.4283316491692064]]],[[[102.38657739019024,2.4295084729185166],[102.38657739019024,2.428723923641436],[102.38605918179967,2.428723923641436],[102.38643302326876,2.4271548264175484],[102.38546679999999,2.428391197302688],[102.38626079999999,2.428980797302023],[102.38588520000002,2.4296881973012536],[102.38668989999998,2.429849097301084],[102.38752074908012,2.4295084729185166],[102.38657739019024,2.4295084729185166]]],[[[102.38605918179967,2.4267625523886114],[102.3855409734091,2.4267625523886114],[102.3855409734091,2.4271548264175484],[102.38475879047272,2.4267625523886114],[102.38482309999998,2.427228197303959],[102.38538640000002,2.427410497303776],[102.38605918179967,2.4267625523886114]]],[[[102.38354982461335,2.4271548264175484],[102.38390579999998,2.4273300973038396],[102.38424651442568,2.4271548264175484],[102.38354982461335,2.4271548264175484]]],[[[102.38346813984687,2.4295084729185166],[102.38403989999999,2.429120197301894],[102.38398634823743,2.428939887088009],[102.38346813984687,2.4291161982245333],[102.38346813984687,2.4295084729185166]]],[[[102.38398634823743,2.429900747723405],[102.38449825057347,2.429900747723405],[102.38398634823743,2.4296227094993528],[102.38398634823743,2.429900747723405]]],[[[102.38761380697134,2.4291161982245333],[102.38761380697134,2.4294395048826054],[102.38782067645901,2.4291161982245333],[102.38761380697134,2.4291161982245333]]],[[[102.3777678475507,2.4330389501572127],[102.37828605594126,2.431469848052356],[102.37778458505392,2.431469848052356],[102.3776509,2.4326788972979743],[102.37648679999998,2.4334077972971846],[102.37607369999999,2.4339865972965433],[102.3761542,2.434929897295527],[102.37724963916014,2.4353285493660906],[102.37724963916014,2.4350003302874055],[102.37673143076958,2.4350003302874055],[102.37673143076958,2.4334312259610473],[102.3777678475507,2.4330389501572127]]],[[[102.37755276632758,2.431077572803672],[102.37724963916014,2.431469848052356],[102.37621322237902,2.431862123412034],[102.37621322237902,2.4291161982245333],[102.3772938569433,2.4291161982245333],[102.37657259999999,2.428787897302249],[102.3760898,2.4290450973019433],[102.3758431,2.4296774973012663],[102.37624009999999,2.432057197298669],[102.37717340000002,2.4316926972990713],[102.37755276632758,2.431077572803672]]],[[[102.3777678475507,2.4291161982245333],[102.3777678475507,2.4290289973019825],[102.37757692479398,2.4291161982245333],[102.3777678475507,2.4291161982245333]]],[[[102.37828605594126,2.4283316491692064],[102.37724963916014,2.4279393748078273],[102.37724963916014,2.4263702784704533],[102.37673143076958,2.4263702784704533],[102.37667920147847,2.4259780046630555],[102.37661019999999,2.426574397304648],[102.37710369999999,2.426761997304465],[102.37684079999998,2.4277480973033674],[102.37768839999998,2.42847699730259],[102.37828605594126,2.428666761800311],[102.37828605594126,2.4283316491692064]]],[[[102.3762293,2.4263331973049143],[102.37621322237902,2.425193457380467],[102.376045504421,2.425193457380467],[102.3762293,2.4263331973049143]]],[[[102.384504556628,2.4322543988827245],[102.38398634823743,2.4322846379153167],[102.3843832,2.432475297298204],[102.38491429999999,2.43217509729854],[102.38510199999999,2.430942397299878],[102.384504556628,2.4299092552383326],[102.384504556628,2.4322543988827245]]],[[[102.38346813984687,2.4330389501572127],[102.38397960651153,2.4330389501572127],[102.38357319999999,2.4328128972978065],[102.38346813984687,2.4330389501572127]]],[[[102.38191351467519,2.433823501875966],[102.38191351467519,2.4330389501572127],[102.38139930924166,2.4330389501572127],[102.38098759999998,2.4345225972959694],[102.38243172306575,2.4353652092707674],[102.38191351467519,2.434608054039127],[102.38139530628463,2.434608054039127],[102.38139530628463,2.433823501875966],[102.38191351467519,2.433823501875966]]],[[[102.38087709789406,2.4326466744644444],[102.38087709789406,2.4330389501572127],[102.3803588895035,2.4330389501572127],[102.3803588895035,2.4326466744644444],[102.3798655663827,2.4326466744644444],[102.3804135,2.4333006972973],[102.3809017,2.433075597297554],[102.3811055,2.4328611972977776],[102.38087709789406,2.4326466744644444]]],[[[102.3793224727224,2.4330389501572127],[102.3793224727224,2.4335077747904044],[102.37961092052078,2.4330389501572127],[102.3793224727224,2.4330389501572127]]],[[[102.3793224727224,2.434608054039127],[102.3793224727224,2.4352611027384072],[102.37951229999999,2.4348816972955527],[102.37880426433182,2.433823501875966],[102.37880426433182,2.434608054039127],[102.3793224727224,2.434608054039127]]],[[[102.37880426433182,2.4353926066468405],[102.37880426433182,2.4356066619067844],[102.37901940731044,2.4353926066468405],[102.37880426433182,2.4353926066468405]]],[[[102.3829499314563,2.4353926066468405],[102.38252002662351,2.4353926066468405],[102.3829499314563,2.4357099121705708],[102.3829499314563,2.4353926066468405]]],[[[102.38398634823743,2.43578488311745],[102.38304775006787,2.43578488311745],[102.3836912,2.4362751972940315],[102.38317933493465,2.4369617131964993],[102.38398634823743,2.4369617131964993],[102.38398634823743,2.437746267138733],[102.38240369999998,2.4370576972931812],[102.38213020000002,2.43752389729266],[102.3824628,2.4379580972922037],[102.3830796,2.437770497292383],[102.38375019999998,2.438279697291859],[102.38417400000002,2.4376043972925845],[102.3839112,2.436050097294266],[102.3844583,2.4343939972960937],[102.38453339999998,2.433836597296711],[102.38398634823743,2.433045183880495],[102.38398634823743,2.43578488311745]]],[[[102.37724963916014,2.436569436392261],[102.3777678475507,2.436569436392261],[102.3777678475507,2.4353926066468405],[102.37731264564917,2.4353926066468405],[102.37755429999999,2.4361304972942093],[102.37681400000001,2.4370576972931812],[102.37683019999999,2.4373148972929113],[102.37835899999999,2.437556197292624],[102.3787250002468,2.43578488311745],[102.37828605594126,2.43578488311745],[102.37828605594126,2.4373539901119843],[102.3777678475507,2.4373539901119843],[102.37724963916014,2.436569436392261]]]]},"properties":{"place_id":"e744322a-f961-5e7d-a0c8-672cc471ead3","habitat":"forest_edge_opening","habitat_label":"Forest edge or opening","resolution_m":50}},{"type":"Feature","geometry":{"type":"MultiPolygon","coordinates":[[[[102.34874817767931,2.4028340454245822],[102.34874817767931,2.4020287363198807],[102.34851587416779,2.4028340454245822],[102.34874817767931,2.4028340454245822]]],[[[102.34822996928875,2.403618580143064],[102.34822996928875,2.4035690701442447],[102.3482029685188,2.403618580143064],[102.34822996928875,2.403618580143064]]],[[[102.34771176089818,2.4044031153004135],[102.34771176089818,2.404352003630642],[102.34767598233105,2.4044031153004135],[102.34771176089818,2.4044031153004135]]],[[[102.34719355250763,2.4055799188596274],[102.34719355250763,2.405116294638431],[102.34701829999999,2.405501697327755],[102.34719355250763,2.4055799188596274]]],[[[102.34667534411706,2.4083257976751993],[102.34667534411706,2.408320527394371],[102.34667196020376,2.4083257976751993],[102.34667534411706,2.4083257976751993]]],[[[102.35859413709996,2.417740280261435],[102.35838892479099,2.417740280261435],[102.35859413709996,2.4178837138344895],[102.35859413709996,2.417740280261435]]],[[[102.35755772031884,2.4208784552378697],[102.35755772031884,2.420486182979226],[102.3583289967476,2.420093910831071],[102.3574155762901,2.420093910831071],[102.35703951192828,2.4211665567076155],[102.3580759287094,2.4216630000867028],[102.35859413709996,2.4208784552378697],[102.35755772031884,2.4208784552378697]]],[[[102.36740367973948,2.4350003302874055],[102.36714712162092,2.434608054039127],[102.3671795,2.4349888972954505],[102.36740367973948,2.4350003302874055]]],[[[102.36636726295836,2.434608054039127],[102.36636726295836,2.434723388344138],[102.36641216783083,2.434608054039127],[102.36636726295836,2.434608054039127]]],[[[102.36602213172392,2.4353926066468405],[102.3658490545678,2.43578488311745],[102.36596604362897,2.43578488311745],[102.36602213172392,2.4353926066468405]]],[[[102.36656246430609,2.43617715969925],[102.36636726295836,2.4360020940083653],[102.36636726295836,2.43617715969925],[102.36656246430609,2.43617715969925]]],[[[102.38139530628463,2.410679412375684],[102.38139530628463,2.410669322001302],[102.38126844291097,2.410679412375684],[102.38139530628463,2.410679412375684]]],[[[102.36693627414296,2.436569436392261],[102.36688547134894,2.4365127899253616],[102.36688547134894,2.436569436392261],[102.36693627414296,2.436569436392261]]],[[[102.36800739999998,2.4370326972932097],[102.36792188813006,2.437746267138733],[102.36817759935306,2.437746267138733],[102.36800739999998,2.4370326972932097]]],[[[102.36740367973948,2.4381310093197337],[102.36735464499894,2.438138544276764],[102.36740367973948,2.438138544276764],[102.36740367973948,2.4381310093197337]]],[[[102.36740367973948,2.4373539901119843],[102.3671807897805,2.4373539901119843],[102.36740367973948,2.437501135726081],[102.36740367973948,2.4373539901119843]]],[[[102.36772266940511,2.443238157206013],[102.36764019999997,2.443133397286506],[102.36743610551105,2.443238157206013],[102.36772266940511,2.443238157206013]]],[[[102.36792188813006,2.4440227147133013],[102.36834029082351,2.4440227147133013],[102.36792188813006,2.4434912224519247],[102.36792188813006,2.4440227147133013]]],[[[102.36910377927295,2.4451995518110525],[102.36895830491117,2.444973462645901],[102.36895830491117,2.4451995518110525],[102.36910377927295,2.4451995518110525]]],[[[102.36792188813006,2.4455918310668596],[102.36688547134894,2.4455918310668596],[102.36688547134894,2.4459841104343085],[102.36792188813006,2.4459841104343085],[102.36792188813006,2.4455918310668596]]],[[[102.36947651330173,2.4459841104343085],[102.36960859392462,2.4459841104343085],[102.36947651330173,2.445778837047153],[102.36947651330173,2.4459841104343085]]]]},"properties":{"place_id":"e744322a-f961-5e7d-a0c8-672cc471ead3","habitat":"open_grassland","habitat_label":"Open grassland or shrubland","resolution_m":50}},{"type":"Feature","geometry":{"type":"MultiPolygon","coordinates":[[[[102.34719355250763,2.405972186932288],[102.34703515310333,2.4055799188596274],[102.34727644391982,2.4071489918092897],[102.34771176089818,2.4071489918092897],[102.34771176089818,2.405972186932288],[102.34719355250763,2.405972186932288]]],[[[102.34719355250763,2.407541260321357],[102.34719355250763,2.4075050840907406],[102.34717569182847,2.407541260321357],[102.34719355250763,2.407541260321357]]],[[[102.35883223761634,2.420093910831071],[102.3574177,2.4200492973118237],[102.35755772031884,2.4212707276070233],[102.35859413709996,2.4212707276070233],[102.35859413709996,2.4208784552378697],[102.35911234549052,2.4208784552378697],[102.35883223761634,2.420093910831071]]],[[[102.36636726295836,2.434608054039127],[102.36636726295836,2.434723388344138],[102.36641216783083,2.434608054039127],[102.36636726295836,2.434608054039127]]],[[[102.36614086601402,2.4350003302874055],[102.3658490545678,2.4353926066468405],[102.36602213172392,2.4353926066468405],[102.36614086601402,2.4350003302874055]]],[[[102.36636726295836,2.43617715969925],[102.36656246430609,2.43617715969925],[102.36636726295836,2.4360020940083653],[102.36636726295836,2.43617715969925]]],[[[102.36688547134894,2.436569436392261],[102.36693627414296,2.436569436392261],[102.36688547134894,2.4365127899253616],[102.36688547134894,2.436569436392261]]],[[[102.36688547134894,2.4416690435296995],[102.36688547134894,2.4420274301197495],[102.36707719123714,2.4416690435296995],[102.36688547134894,2.4416690435296995]]],[[[102.39199275770234,2.4193093668661625],[102.39175947409585,2.419172416496318],[102.39175947409585,2.4193093668661625],[102.39199275770234,2.4193093668661625]]],[[[102.3922776824864,2.419701638793389],[102.3925115,2.419613897312311],[102.3922776824864,2.419476633479515],[102.3922776824864,2.419701638793389]]],[[[102.36740367973948,2.4350003302874055],[102.36726356265963,2.4350003302874055],[102.36740367973948,2.435019386994299],[102.36740367973948,2.4350003302874055]]],[[[102.36792188813006,2.4369617131964993],[102.36764019999997,2.436718197293564],[102.36740367973948,2.4366237544820843],[102.36740367973948,2.4369617131964993],[102.36792188813006,2.4369617131964993]]],[[[102.3680855903657,2.4373539901119843],[102.36792188813006,2.4378712972922862],[102.36820670000002,2.4378712972922862],[102.3680855903657,2.4373539901119843]]],[[[102.36792188813006,2.438112397292032],[102.3681228,2.4387832972912973],[102.36822769999999,2.438112397292032],[102.36792188813006,2.438112397292032]]],[[[102.36792188813006,2.4400999316367775],[102.36822769999999,2.4394750972905284],[102.36792188813006,2.4394750972905284],[102.36792188813006,2.4400999316367775]]],[[[102.36740367973948,2.441276765389321],[102.36740367973948,2.4413375915802193],[102.3676968049775,2.441276765389321],[102.36740367973948,2.441276765389321]]]]},"properties":{"place_id":"e744322a-f961-5e7d-a0c8-672cc471ead3","habitat":"disturbed_built_edge","habitat_label":"Disturbed, bare or built edge","resolution_m":50}},{"type":"Feature","geometry":{"type":"MultiPolygon","coordinates":[[[[102.35237563641323,2.409296074671269],[102.35225002307175,2.409502604530502],[102.35237563641323,2.409502604530502],[102.35237563641323,2.409296074671269]]],[[[102.35185742802267,2.4101480982650205],[102.35177285980765,2.41028714298394],[102.35185742802267,2.41028714298394],[102.35185742802267,2.4101480982650205]]],[[[102.35082101124155,2.410890458383996],[102.35076829144867,2.4110716818774676],[102.35082101124155,2.4110716818774676],[102.35082101124155,2.410890458383996]]],[[[102.3699947216923,2.4295084729185166],[102.37002270000002,2.429189797301799],[102.3699947216923,2.4291488545041933],[102.3699947216923,2.4295084729185166]]],[[[102.37103113847341,2.428723923641436],[102.37080050000002,2.429179097301828],[102.37103113847341,2.4294589499013695],[102.37103113847341,2.428723923641436]]],[[[102.37145457676687,2.429900747723405],[102.37154934686397,2.429996448625656],[102.37154934686397,2.429900747723405],[102.37145457676687,2.429900747723405]]],[[[102.37103113847341,2.430685297665964],[102.37116562784635,2.430685297665964],[102.37103113847341,2.4305522604257774],[102.37103113847341,2.430685297665964]]],[[[102.37154934686397,2.431077572803672],[102.37156218468431,2.431077572803672],[102.37154934686397,2.431064873594028],[102.37154934686397,2.431077572803672]]],[[[102.37258576364509,2.430685297665964],[102.37249558524455,2.430685297665964],[102.37258576364509,2.430738250094982],[102.37258576364509,2.430685297665964]]],[[[102.37206755525455,2.430293022639214],[102.37193246823621,2.430293022639214],[102.37206755525455,2.430392764048541],[102.37206755525455,2.430293022639214]]],[[[102.37362218042621,2.431077572803672],[102.37316363278879,2.431077572803672],[102.37362218042621,2.4313154063100515],[102.37362218042621,2.431077572803672]]],[[[102.37310397203565,2.4326466744644444],[102.37318716584234,2.4326466744644444],[102.37310397203565,2.432596972397378],[102.37310397203565,2.4326466744644444]]],[[[102.3684400965206,2.4334312259610473],[102.3685832135808,2.4334312259610473],[102.3684400965206,2.433335322312946],[102.3684400965206,2.4334312259610473]]],[[[102.37051293008285,2.4330389501572127],[102.37022140028414,2.4330389501572127],[102.37051293008285,2.43341642126842],[102.37051293008285,2.4330389501572127]]],[[[102.37090532204608,2.433823501875966],[102.37103113847341,2.4340465360644292],[102.37103113847341,2.433823501875966],[102.37090532204608,2.433823501875966]]],[[[102.37310397203565,2.433823501875966],[102.37310397203565,2.434300375548384],[102.3733415855636,2.433823501875966],[102.37310397203565,2.433823501875966]]],[[[102.37154934686397,2.434608054039127],[102.3713535223306,2.434608054039127],[102.37154934686397,2.4348705260388304],[102.37154934686397,2.434608054039127]]],[[[102.37258576364509,2.434608054039127],[102.37258576364509,2.434833497911859],[102.37288069521087,2.434608054039127],[102.37258576364509,2.434608054039127]]],[[[102.36726356265963,2.4350003302874055],[102.36792188813006,2.4350898662373477],[102.36792188813006,2.4350003302874055],[102.36726356265963,2.4350003302874055]]],[[[102.3684400965206,2.4350003302874055],[102.3684400965206,2.4351353322835996],[102.36960557746444,2.4350003302874055],[102.3684400965206,2.4350003302874055]]],[[[102.37168417697053,2.4350003302874055],[102.37197,2.435176497295223],[102.3723650139762,2.4350003302874055],[102.37168417697053,2.4350003302874055]]],[[[102.37621322237902,2.4259780046630555],[102.3761488,2.42613489730514],[102.37621322237902,2.4262935924301376],[102.37621322237902,2.4259780046630555]]],[[[102.37673143076958,2.4265777765595575],[102.37659138115393,2.4263702784704533],[102.37661019999999,2.426574397304648],[102.37673143076958,2.4265777765595575]]],[[[102.37724963916014,2.4279393748078273],[102.37702511710737,2.4279393748078273],[102.37724963916014,2.4281723755592326],[102.37724963916014,2.4279393748078273]]],[[[102.3777678475507,2.4283316491692064],[102.37747802771317,2.4283316491692064],[102.3777678475507,2.4284885941490018],[102.3777678475507,2.4283316491692064]]],[[[102.37362218042621,2.4295084729185166],[102.37372211894102,2.4295084729185166],[102.37362218042621,2.4285279089035807],[102.37362218042621,2.4295084729185166]]],[[[102.37621322237902,2.4291161982245333],[102.37621322237902,2.4289793470160346],[102.376062063439,2.4291161982245333],[102.37621322237902,2.4291161982245333]]],[[[102.37724963916014,2.431469848052356],[102.37724963916014,2.4315784569861054],[102.37732212018145,2.431469848052356],[102.37724963916014,2.431469848052356]]],[[[102.3777678475507,2.4322543988827245],[102.3777678475507,2.4315404210830938],[102.37759851654401,2.4322543988827245],[102.3777678475507,2.4322543988827245]]],[[[102.37621322237902,2.431862123412034],[102.37607509059616,2.431862123412034],[102.37621322237902,2.432025422610838],[102.37621322237902,2.431862123412034]]],[[[102.37724963916014,2.4330389501572127],[102.37724963916014,2.4327944896348033],[102.37696576186431,2.4330389501572127],[102.37724963916014,2.4330389501572127]]],[[[102.37673143076958,2.4334312259610473],[102.37673143076958,2.433219407840083],[102.3764642892482,2.4334312259610473],[102.37673143076958,2.4334312259610473]]],[[[102.37621322237902,2.4337079112049462],[102.37597979999998,2.434474297296028],[102.37621322237902,2.4349659382285878],[102.37621322237902,2.4337079112049462]]],[[[102.3793224727224,2.434608054039127],[102.37940273274026,2.434608054039127],[102.3793224727224,2.4344855192203885],[102.3793224727224,2.434608054039127]]],[[[102.37673143076958,2.4350003302874055],[102.3764439,2.435106797295336],[102.37673143076958,2.4351033330691854],[102.37673143076958,2.4350003302874055]]],[[[102.37724963916014,2.436481393126565],[102.37718312240173,2.436569436392261],[102.37724963916014,2.436569436392261],[102.37724963916014,2.436481393126565]]],[[[102.37692781064244,2.4373539901119843],[102.37753279999997,2.43737389729283],[102.3777678475507,2.4374824820652736],[102.3777678475507,2.4373539901119843],[102.37692781064244,2.4373539901119843]]],[[[102.37828605594126,2.4373539901119843],[102.37828605594126,2.4375796054390704],[102.37848165025052,2.4373539901119843],[102.37828605594126,2.4373539901119843]]],[[[102.38502276501855,2.4271548264175484],[102.38481296685733,2.4271548264175484],[102.38502276501855,2.427407761813116],[102.38502276501855,2.4271548264175484]]],[[[102.3855409734091,2.4271548264175484],[102.3855409734091,2.427223335442778],[102.38559755371081,2.4271548264175484],[102.3855409734091,2.4271548264175484]]],[[[102.38605918179967,2.427547100557281],[102.38605918179967,2.4274924982401838],[102.38601380088748,2.427547100557281],[102.38605918179967,2.427547100557281]]],[[[102.38346813984687,2.4283316491692064],[102.3835273524765,2.4283316491692064],[102.38346813984687,2.428275098506981],[102.38346813984687,2.4283316491692064]]],[[[102.3855409734091,2.428141390928606],[102.38546679999999,2.428391197302688],[102.3855409734091,2.428722005859476],[102.3855409734091,2.428141390928606]]],[[[102.38398634823743,2.4291161982245333],[102.38398634823743,2.429296570456403],[102.38403989999999,2.429120197301894],[102.38398634823743,2.4291161982245333]]],[[[102.38605918179967,2.428723923641436],[102.38575379999999,2.4288333973022094],[102.38605918179967,2.4288081063249765],[102.38605918179967,2.428723923641436]]],[[[102.38605918179967,2.429072614931098],[102.38573499999998,2.429388097301591],[102.38605918179967,2.429740184558764],[102.38605918179967,2.429072614931098]]],[[[102.38502276501855,2.431567490945629],[102.38510199999999,2.430942397299878],[102.38502276501855,2.4307755923377816],[102.38502276501855,2.431567490945629]]],[[[102.3803588895035,2.4330389501572127],[102.38024189999999,2.4332362972973858],[102.3803588895035,2.4332605545067354],[102.3803588895035,2.4330389501572127]]],[[[102.38087709789406,2.4330389501572127],[102.38087709789406,2.4330869408731566],[102.38093653529258,2.4330389501572127],[102.38087709789406,2.4330389501572127]]],[[[102.38139530628463,2.433823501875966],[102.38139530628463,2.433433520744409],[102.38113643580247,2.433823501875966],[102.38139530628463,2.433823501875966]]],[[[102.38139530628463,2.4330867738854733],[102.38137919999998,2.433279197297325],[102.38139530628463,2.4332935010129377],[102.38139530628463,2.4330867738854733]]],[[[102.384504556628,2.434050675772643],[102.38453339999998,2.433836597296711],[102.384504556628,2.4337750240208136],[102.384504556628,2.434050675772643]]],[[[102.38140319977619,2.4350003302874055],[102.38191351467519,2.4351898688476825],[102.38191351467519,2.4350003302874055],[102.38140319977619,2.4350003302874055]]],[[[102.38398634823743,2.43578488311745],[102.38398634823743,2.435873937161473],[102.38402433784937,2.43578488311745],[102.38398634823743,2.43578488311745]]],[[[102.38398634823743,2.4369617131964993],[102.38404643493595,2.4369617131964993],[102.38398634823743,2.4366589911885845],[102.38398634823743,2.4369617131964993]]],[[[102.38243172306575,2.43706375633428],[102.38213020000002,2.43752389729266],[102.38243172306575,2.4379175272177602],[102.38243172306575,2.43706375633428]]],[[[102.38346813984687,2.438138544276764],[102.38346813984687,2.437746267138733],[102.3829499314563,2.437746267138733],[102.3833318,2.437840197292328],[102.38346049999998,2.4381403972919817],[102.38375019999998,2.438279697291859],[102.383956630373,2.438138544276764],[102.38346813984687,2.438138544276764]]]]},"properties":{"place_id":"e744322a-f961-5e7d-a0c8-672cc471ead3","habitat":"permanent_water","habitat_label":"Permanent water","resolution_m":50}},{"type":"Feature","geometry":{"type":"MultiPolygon","coordinates":[[[[102.37369095419206,2.428723923641436],[102.37362218042621,2.4285279089035807],[102.37362218042621,2.428723923641436],[102.37369095419206,2.428723923641436]]],[[[102.37621322237902,2.4291161982245333],[102.37673143076958,2.4288256486892386],[102.37621322237902,2.4289793470160346],[102.37621322237902,2.4291161982245333]]],[[[102.37316363278879,2.431077572803672],[102.3737617,2.431322997299462],[102.37407191772417,2.431077572803672],[102.37316363278879,2.431077572803672]]],[[[102.37206755525455,2.4322543988827245],[102.372147,2.4319606972987917],[102.37206755525455,2.4319301722924127],[102.37206755525455,2.4322543988827245]]],[[[102.37621322237902,2.431862123412034],[102.37607509059616,2.431862123412034],[102.37621322237902,2.432025422610838],[102.37621322237902,2.431862123412034]]],[[[102.37318716584234,2.4326466744644444],[102.37310397203565,2.432596972397378],[102.37310397203565,2.4326466744644444],[102.37318716584234,2.4326466744644444]]],[[[102.37673143076958,2.4334312259610473],[102.37673143076958,2.433219407840083],[102.3764642892482,2.4334312259610473],[102.37673143076958,2.4334312259610473]]],[[[102.37103113847341,2.433823501875966],[102.37090532204608,2.433823501875966],[102.37103113847341,2.4340465360644292],[102.37103113847341,2.433823501875966]]],[[[102.38297056101393,2.4279393748078273],[102.3829499314563,2.4279315076038825],[102.3829499314563,2.4279393748078273],[102.38297056101393,2.4279393748078273]]],[[[102.37724963916014,2.4279393748078273],[102.37702511710737,2.4279393748078273],[102.37724963916014,2.4281723755592326],[102.37724963916014,2.4279393748078273]]],[[[102.3835273524765,2.4283316491692064],[102.38346813984687,2.428275098506981],[102.38346813984687,2.4283316491692064],[102.3835273524765,2.4283316491692064]]],[[[102.38502276501855,2.431077572803672],[102.38510199999999,2.430942397299878],[102.38502276501855,2.4307755923377816],[102.38502276501855,2.431077572803672]]],[[[102.38502276501855,2.431469848052356],[102.38502276501855,2.431567490945629],[102.38504019545009,2.431469848052356],[102.38502276501855,2.431469848052356]]],[[[102.37688662126743,2.4369617131964993],[102.37724963916014,2.436569436392261],[102.37718312240173,2.436569436392261],[102.37688662126743,2.4369617131964993]]],[[[102.38243172306575,2.437746267138733],[102.38243172306575,2.4373539901119843],[102.38224249428359,2.4373539901119843],[102.38213020000002,2.43752389729266],[102.38243172306575,2.437746267138733]]],[[[102.38346813984687,2.438138544276764],[102.38375019999998,2.438279697291859],[102.383956630373,2.438138544276764],[102.38346813984687,2.438138544276764]]]]},"properties":{"place_id":"e744322a-f961-5e7d-a0c8-672cc471ead3","habitat":"seasonal_water_wetland","habitat_label":"Seasonal water or wetland","resolution_m":50}},{"type":"Feature","geometry":{"type":"MultiPolygon","coordinates":[[[[102.35237563641323,2.4079335289433206],[102.35133921963211,2.408612075779326],[102.35237563641323,2.40814657098367],[102.35237563641323,2.4079335289433206]]],[[[102.35120752359606,2.4087180665170096],[102.35082101124155,2.4091103354687715],[102.35030280285099,2.4091103354687715],[102.35030280285099,2.409524353597364],[102.3508265,2.409246197323662],[102.35120752359606,2.4087180665170096]]],[[[102.35185742802267,2.4110716818774676],[102.35084019999998,2.410824497321916],[102.35054006090242,2.4118562212112304],[102.35133921963211,2.4114639514893104],[102.35133921963211,2.4110716818774676],[102.35185742802267,2.4110716818774676]]],[[[102.35185742802267,2.410679412375684],[102.35289384480379,2.41028714298394],[102.35341205319436,2.4087542950921184],[102.3526377,2.408865197324088],[102.35185742802267,2.410679412375684]]],[[[102.35341205319436,2.4244089105407047],[102.35341205319436,2.42380368249678],[102.3529237,2.424335197307118],[102.35341205319436,2.4244089105407047]]],[[[102.35237563641323,2.4259780046630555],[102.35237563641323,2.425134227662142],[102.35191996483917,2.4259780046630555],[102.35237563641323,2.4259780046630555]]],[[[102.35185742802267,2.4263702784704533],[102.35185742802267,2.426177571368154],[102.35179704076026,2.4263702784704533],[102.35185742802267,2.4263702784704533]]],[[[102.35133921963211,2.4278366382517427],[102.35059500000001,2.4273148973038667],[102.350418,2.427804697303322],[102.35133921963211,2.4278366382517427]]],[[[102.35444846997548,2.438530821526095],[102.3539302615849,2.438530821526095],[102.3539302615849,2.43862215817757],[102.35444846997548,2.438896976354524],[102.35444846997548,2.438530821526095]]],[[[102.3544977276849,2.4389230988867427],[102.3551435,2.4397504972902375],[102.3554848867566,2.439695093231899],[102.3554848867566,2.4393153763587283],[102.3544977276849,2.4389230988867427]]],[[[102.35600309514716,2.4176177664703697],[102.3554848867566,2.4169557376213295],[102.35445197699444,2.416563466466778],[102.35533409999998,2.4175729973145392],[102.3549937,2.4181988973138453],[102.35600309514716,2.4176177664703697]]],[[[102.35703951192828,2.417740280261435],[102.35703951192828,2.41777686686457],[102.35717469001779,2.417740280261435],[102.35703951192828,2.417740280261435]]],[[[102.35911234549052,2.417740280261435],[102.35838892479099,2.417740280261435],[102.35911234549052,2.418059537101116],[102.35911234549052,2.417740280261435]]],[[[102.36014876227163,2.418524823342998],[102.35925287041346,2.4181325517470253],[102.3594628006917,2.4193093668661625],[102.35963055388109,2.418917095049371],[102.36014876227163,2.418917095049371],[102.36014876227163,2.418524823342998]]],[[[102.35755772031884,2.420486182979226],[102.35755772031884,2.420093910831071],[102.3580759287094,2.4200815216110363],[102.3574177,2.4200492973118237],[102.35755772031884,2.420486182979226]]],[[[102.37621322237902,2.4349659382285878],[102.37761870000001,2.4357927972945626],[102.37683019999999,2.4373148972929113],[102.37828605594126,2.4375796054390704],[102.37883110000001,2.4355462972948247],[102.3795069,2.4350424972953975],[102.3790242,2.433611497296944],[102.37967329999996,2.4328182972978385],[102.3793224727224,2.4326466744644444],[102.3793224727224,2.4330389501572127],[102.37880426433182,2.4330389501572127],[102.37880426433182,2.433823501875966],[102.37828605594126,2.433823501875966],[102.37880426433182,2.4353926066468405],[102.3777678475507,2.4353926066468405],[102.3777678475507,2.4350003302874055],[102.37724963916014,2.4350003302874055],[102.37724963916014,2.4334312259610473],[102.3777678475507,2.4334312259610473],[102.3777678475507,2.4330389501572127],[102.37828605594126,2.4330389501572127],[102.37828605594126,2.4322543988827245],[102.37880426433182,2.4322543988827245],[102.37880426433182,2.431469848052356],[102.37828605594126,2.431469848052356],[102.37828605594126,2.431077572803672],[102.37778624839649,2.431077572803672],[102.3776509,2.4326788972979743],[102.3762293,2.4336757972968877],[102.37621322237902,2.4349659382285878]]],[[[102.3798538203205,2.4322543988827245],[102.3804135,2.4333006972973],[102.38087709789406,2.4330869408731566],[102.3813328909399,2.4322543988827245],[102.38087709789406,2.4322543988827245],[102.38087709789406,2.4326466744644444],[102.3798538203205,2.4322543988827245]]],[[[102.38143214363252,2.4326466744644444],[102.38098759999998,2.4345225972959694],[102.3813148,2.4349674972954722],[102.38191351467519,2.4350003302874055],[102.3836912,2.4362751972940315],[102.3830528,2.4371219972931057],[102.38243172306575,2.43706375633428],[102.38243172306575,2.4379175272177602],[102.38346813984687,2.437746267138733],[102.38346813984687,2.438138544276764],[102.383956630373,2.438138544276764],[102.38429739999998,2.433332797297281],[102.3829499314563,2.4326466744644444],[102.3829499314563,2.4330389501572127],[102.38346813984687,2.4330389501572127],[102.38346813984687,2.4353926066468405],[102.3829499314563,2.4353926066468405],[102.3829499314563,2.4350003302874055],[102.38191351467519,2.434608054039127],[102.38243172306575,2.4330389501572127],[102.38143214363252,2.4326466744644444]]],[[[102.38502276501855,2.4307755923377816],[102.3838951,2.4295970973013534],[102.3837824,2.4285948973024682],[102.3824789,2.4279302973031847],[102.38243172306575,2.4283316491692064],[102.38346813984687,2.428723923641436],[102.3829499314563,2.4295084729185166],[102.38398634823743,2.429900747723405],[102.38394484902646,2.4322543988827245],[102.3843832,2.432475297298204],[102.38491429999999,2.43217509729854],[102.38502276501855,2.4307755923377816]]],[[[102.38470326500985,2.4263702784704533],[102.38538640000002,2.427410497303776],[102.38619099999998,2.4269066973043056],[102.38605918179967,2.4263702784704533],[102.3855409734091,2.4263702784704533],[102.3855409734091,2.4267625523886114],[102.38470326500985,2.4263702784704533]]],[[[102.3855409734091,2.428722005859476],[102.38626079999999,2.428980797302023],[102.38605918179967,2.429740184558764],[102.38761799999999,2.4294363973015285],[102.38786606041619,2.428723923641436],[102.38761380697134,2.4291161982245333],[102.38657739019024,2.428723923641436],[102.38657739019024,2.427547100557281],[102.3870955985808,2.427547100557281],[102.3870955985808,2.4271548264175484],[102.38657739019024,2.4269379260202086],[102.38555270000002,2.428101897303007],[102.3855409734091,2.428722005859476]]],[[[102.38346813984687,2.4267625523886114],[102.38346813984687,2.4263702784704533],[102.3829499314563,2.4263702784704533],[102.3831655,2.4269655973042465],[102.38421149999999,2.4272764973038994],[102.38433295746201,2.4267625523886114],[102.38346813984687,2.4267625523886114]]],[[[102.38243172306575,2.4267625523886114],[102.38243172306575,2.4271548264175484],[102.38191351467519,2.4271548264175484],[102.38191351467519,2.4279393748078273],[102.3826505,2.4275014973036386],[102.38243172306575,2.4267625523886114]]],[[[102.38346813984687,2.4326289474525087],[102.38351350000002,2.432593897298059],[102.38346813984687,2.432478369952584],[102.38346813984687,2.4326289474525087]]],[[[102.3777678475507,2.430685297665964],[102.37673143076958,2.431077572803672],[102.37673143076958,2.4295084729185166],[102.3777678475507,2.4295084729185166],[102.3777678475507,2.4291161982245333],[102.37828605594126,2.429106422846473],[102.37764549999999,2.4290289973019825],[102.37740949999998,2.4293290973016552],[102.37673143076958,2.4288256486892386],[102.37673143076958,2.4291161982245333],[102.376062063439,2.4291161982245333],[102.3758162,2.430813697300018],[102.37624009999999,2.432057197298669],[102.37717340000002,2.4316926972990713],[102.3777678475507,2.430685297665964]]],[[[102.37880426433182,2.4283316491692064],[102.3777678475507,2.4279393748078273],[102.3777678475507,2.4263702784704533],[102.37724963916014,2.4263702784704533],[102.37673143076958,2.4257684026693833],[102.37659138115393,2.4263702784704533],[102.37710369999999,2.426761997304465],[102.37684079999998,2.4277480973033674],[102.37829729999999,2.4286779973023855],[102.37880426433182,2.4283316491692064]]],[[[102.37673143076958,2.425193457380467],[102.37621322237902,2.425193457380467],[102.37621322237902,2.4248011839052417],[102.3751768055979,2.4244089105407047],[102.3755909,2.4251003973062715],[102.3760684,2.4248860973065023],[102.3762293,2.4263331973049143],[102.37673143076958,2.425193457380467]]],[[[102.37465859720734,2.4248011839052417],[102.37465859720734,2.425193457380467],[102.37310397203565,2.4259780046630555],[102.37345050000002,2.426300997304975],[102.37444839999999,2.4260758973052137],[102.37467890000002,2.4263170973049673],[102.37465859720734,2.4248011839052417]]],[[[102.37310397203565,2.4263702784704533],[102.37258576364509,2.4263702784704533],[102.37258576364509,2.4295084729185166],[102.37310397203565,2.4295084729185166],[102.37310397203565,2.430293022639214],[102.37206755525455,2.429900747723405],[102.37206755525455,2.428723923641436],[102.37154934686397,2.428723923641436],[102.37103113847341,2.4279393748078273],[102.3699947216923,2.428184746337955],[102.3704733,2.42861099730244],[102.37076829999998,2.428064297303053],[102.37103113847341,2.4294589499013695],[102.37234009999999,2.430593997300279],[102.37316363278879,2.431077572803672],[102.37407191772417,2.431077572803672],[102.37362218042621,2.4285279089035807],[102.3730268,2.4279999973030915],[102.37355779999999,2.4274693973037014],[102.37310397203565,2.4263702784704533]]],[[[102.36947651330173,2.428723923641436],[102.36895830491117,2.428723923641436],[102.36895830491117,2.4295084729185166],[102.36947651330173,2.4295084729185166],[102.36947651330173,2.429900747723405],[102.3699947216923,2.429900747723405],[102.3699947216923,2.430685297665964],[102.37103113847341,2.431077572803672],[102.37103113847341,2.4322543988827245],[102.37258576364509,2.4330389501572127],[102.37258576364509,2.433823501875966],[102.37154934686397,2.433823501875966],[102.37154934686397,2.4330389501572127],[102.37103113847341,2.4330389501572127],[102.37051293008285,2.4322543988827245],[102.37014851451684,2.4322543988827245],[102.37016749999997,2.432957597297683],[102.37168417697053,2.4350003302874055],[102.3723650139762,2.4350003302874055],[102.37338620000001,2.433718697296833],[102.37329500000001,2.4327110972979638],[102.37214429999999,2.432512697298148],[102.371691,2.4312049972995933],[102.36947651330173,2.428723923641436]]],[[[102.3684400965206,2.4322543988827245],[102.36821455790039,2.4326466744644444],[102.36871380000001,2.4328985972977137],[102.36958279999999,2.4328128972978065],[102.36972191850377,2.4322543988827245],[102.3684400965206,2.4322543988827245]]],[[[102.36987779999997,2.434174197296347],[102.36740367973948,2.4330389501572127],[102.36740367973948,2.4334312259610473],[102.3684400965206,2.433823501875966],[102.3684400965206,2.434608054039127],[102.36792188813006,2.434608054039127],[102.36792188813006,2.4342157779019864],[102.36688547134894,2.4342157779019864],[102.3671795,2.4349888972954505],[102.36968470000001,2.434978097295454],[102.36987779999997,2.434174197296347]]],[[[102.36636726295836,2.434608054039127],[102.36636726295836,2.434723388344138],[102.36641216783083,2.434608054039127],[102.36636726295836,2.434608054039127]]],[[[102.3658490545678,2.4350003302874055],[102.3658490545678,2.43617715969925],[102.36636726295836,2.43617715969925],[102.36636726295836,2.436569436392261],[102.36688547134894,2.436569436392261],[102.36688547134894,2.4369617131964993],[102.36740367973948,2.4369617131964993],[102.36820670000002,2.4378712972922862],[102.36800739999998,2.4370326972932097],[102.365951,2.4358900972944335],[102.3658490545678,2.4350003302874055]]],[[[102.36792188813006,2.438138544276764],[102.36740367973948,2.438138544276764],[102.36740367973948,2.4389230988867427],[102.3681228,2.4387832972912973],[102.36792188813006,2.438138544276764]]],[[[102.36792188813006,2.4394750972905284],[102.36809514387417,2.4408844873603868],[102.36822769999999,2.4394750972905284],[102.36792188813006,2.4394750972905284]]]]},"properties":{"place_id":"e744322a-f961-5e7d-a0c8-672cc471ead3","habitat":"water_edge","habitat_label":"Water edge","resolution_m":50}}]}