{"type":"FeatureCollection","metadata":{"schema_version":1,"place_id":"e765d3a6-e393-547f-afff-b0bc617098a0","place_name":"Taman Cabaran","place_type":"park","osm_reference":"way/486754479","protection_context":"no protected status confirmed from included OSM tags","resolution_m":50,"raster_coverage":1.0,"interpretation":"Suggested search habitats, not predicted plant locations or probabilities of presence."},"features":[{"type":"Feature","geometry":{"type":"MultiPolygon","coordinates":[[[[101.67093160282599,2.8858037301890276],[101.67093160282599,2.885018898628611],[101.6705233,2.8853103968038667],[101.66989518604487,2.8843302476021098],[101.66885876926374,2.884235996805036],[101.66885876926374,2.8846264830461523],[101.66834056087319,2.8846264830461523],[101.66834056087319,2.884234067595503],[101.66782235248263,2.884234067595503],[101.66795702042714,2.882664407110638],[101.6673771,2.8823991968070666],[101.66559579999999,2.883900996805399],[101.66593130000001,2.88457099680468],[101.66533688533028,2.8854113143428965],[101.66574951892039,2.8854113143428965],[101.66574951892039,2.8861961461670225],[101.66523131052983,2.8861961461670225],[101.66523131052983,2.8873733948923683],[101.66574951892039,2.8873733948923683],[101.66626772731095,2.88815822803558],[101.66834056087319,2.8877658113979976],[101.66909843157396,2.888550644805135],[101.67041339443544,2.887786640054967],[101.67041339443544,2.886980978518675],[101.67093160282599,2.886980978518675],[101.67093160282599,2.8865885622768985],[101.6719680196071,2.8865885622768985],[101.6719680196071,2.8861961461670225],[101.67093160282599,2.8858037301890276]],[[101.66782235248263,2.8861961461670225],[101.66834056087319,2.8861961461670225],[101.66834056087319,2.8858037301890276],[101.66989518604487,2.8858037301890276],[101.67041339443544,2.8865885622768985],[101.66989518604487,2.8865885622768985],[101.66989518604487,2.886980978518675],[101.66834056087319,2.886980978518675],[101.66782235248263,2.8861961461670225]]],[[[101.6719680196071,2.8858037301890276],[101.6719680196071,2.8861961461670225],[101.67248622799768,2.8861961461670225],[101.67248622799768,2.8858037301890276],[101.6719680196071,2.8858037301890276]]],[[[101.6719680196071,2.8865885622768985],[101.6719680196071,2.886971362973507],[101.67248622799768,2.88679739811703],[101.67248622799768,2.8865885622768985],[101.6719680196071,2.8865885622768985]]],[[[101.6667859357015,2.890120313203431],[101.6667859357015,2.8897278959058097],[101.66626772731095,2.8897278959058097],[101.66626772731095,2.890120313203431],[101.6667859357015,2.890120313203431]]],[[[101.6667859357015,2.890120313203431],[101.6667859357015,2.8901449718840455],[101.66683002350308,2.890120313203431],[101.6667859357015,2.890120313203431]]]]},"properties":{"place_id":"e765d3a6-e393-547f-afff-b0bc617098a0","habitat":"forest_interior","habitat_label":"Forest interior","resolution_m":50}},{"type":"Feature","geometry":{"type":"MultiPolygon","coordinates":[[[[101.66782235248263,2.882664407110638],[101.66782235248263,2.884234067595503],[101.66885876926374,2.8846264830461523],[101.66885876926374,2.884235996805036],[101.6680133,2.884166696805128],[101.6681637,2.8827572968066466],[101.66782235248263,2.882664407110638]]],[[[101.67248622799768,2.88679739811703],[101.67265159999998,2.8857954968033575],[101.6722851,2.8854664968037125],[101.67155020000001,2.885692196803464],[101.6709282,2.884998396804201],[101.67093160282599,2.8858037301890276],[101.67144981121655,2.8858037301890276],[101.67144981121655,2.8861961461670225],[101.6719680196071,2.8861961461670225],[101.67248622799768,2.88679739811703]],[[101.6719680196071,2.8858037301890276],[101.67248622799768,2.8858037301890276],[101.67248622799768,2.8861961461670225],[101.6719680196071,2.8861961461670225],[101.6719680196071,2.8858037301890276]]],[[[101.66989518604487,2.8846264830461523],[101.67041339443544,2.8846264830461523],[101.6705444666727,2.885018898628611],[101.6704886,2.8846287968046163],[101.66989518604487,2.8843302476021098],[101.66989518604487,2.8846264830461523]]],[[[101.67041339443544,2.8865885622768985],[101.66989518604487,2.8858037301890276],[101.66834056087319,2.8858037301890276],[101.66834056087319,2.8861961461670225],[101.66782235248263,2.8861961461670225],[101.66834056087319,2.886980978518675],[101.66989518604487,2.886980978518675],[101.66989518604487,2.8865885622768985],[101.67041339443544,2.8865885622768985]]],[[[101.6719680196071,2.8865885622768985],[101.67093160282599,2.8865885622768985],[101.67093160282599,2.886980978518675],[101.67041339443544,2.886980978518675],[101.67041339443544,2.887786640054967],[101.6719680196071,2.886971362973507],[101.6719680196071,2.8865885622768985]]],[[[101.66885876926374,2.888550644805135],[101.66834056087319,2.8877658113979976],[101.66626772731095,2.88815822803558],[101.66626772731095,2.8877658113979976],[101.66523131052983,2.8873733948923683],[101.66523131052983,2.8861961461670225],[101.66574951892039,2.8861961461670225],[101.66574951892039,2.8854113143428965],[101.66533688533028,2.8854113143428965],[101.6646821,2.888417896800495],[101.66591969999999,2.8902661967985117],[101.66624359999999,2.890358696798401],[101.66677569999999,2.890150696798619],[101.66764319999999,2.889665496799138],[101.66885876926374,2.888550644805135]],[[101.66626772731095,2.890120313203431],[101.66626772731095,2.8897278959058097],[101.6667859357015,2.8897278959058097],[101.6667859357015,2.890120313203431],[101.66626772731095,2.890120313203431]],[[101.66523131052983,2.8889430617066787],[101.66523131052983,2.888550644805135],[101.66574951892039,2.888550644805135],[101.66574951892039,2.8889430617066787],[101.66523131052983,2.8889430617066787]]]]},"properties":{"place_id":"e765d3a6-e393-547f-afff-b0bc617098a0","habitat":"forest_edge_opening","habitat_label":"Forest edge or opening","resolution_m":50}},{"type":"Feature","geometry":{"type":"MultiPolygon","coordinates":[[[[101.67048469201345,2.8846264830461523],[101.67041339443544,2.8845842706768345],[101.67041339443544,2.8846264830461523],[101.67048469201345,2.8846264830461523]]],[[[101.67093160282599,2.885018898628611],[101.67106858303126,2.885018898628611],[101.67106189999998,2.8849902968042285],[101.67093160282599,2.885018898628611]]],[[[101.67248622799768,2.8858037301890276],[101.67265343316097,2.8858037301890276],[101.67248622799768,2.885647045526657],[101.67248622799768,2.8858037301890276]]],[[[101.66834056087319,2.8865885622768985],[101.66989518604487,2.8865885622768985],[101.66989518604487,2.8861961461670225],[101.66834056087319,2.8861961461670225],[101.66834056087319,2.8865885622768985]]],[[[101.67248622799768,2.8861961461670225],[101.67266861998655,2.8865885622768985],[101.67274080445144,2.8861961461670225],[101.67248622799768,2.8861961461670225]]],[[[101.66523131052983,2.888550644805135],[101.66574951892039,2.888550644805135],[101.66574951892039,2.8877658113979976],[101.66523131052983,2.8877658113979976],[101.66523131052983,2.888550644805135]]],[[[101.66730414409207,2.8889430617066787],[101.66782235248263,2.8889430617066787],[101.66782235248263,2.88815822803558],[101.66730414409207,2.88815822803558],[101.66730414409207,2.8889430617066787]]],[[[101.66523131052983,2.8889430617066787],[101.66523131052983,2.888550644805135],[101.66471310213926,2.888550644805135],[101.66478069272765,2.8889430617066787],[101.66523131052983,2.8889430617066787]]],[[[101.66730414409207,2.8897278959058097],[101.66730414409207,2.889335478740231],[101.6667859357015,2.889335478740231],[101.6667859357015,2.8897278959058097],[101.66730414409207,2.8897278959058097]]]]},"properties":{"place_id":"e765d3a6-e393-547f-afff-b0bc617098a0","habitat":"open_grassland","habitat_label":"Open grassland or shrubland","resolution_m":50}},{"type":"Feature","geometry":{"type":"MultiPolygon","coordinates":[[[[101.66782235248263,2.882664407110638],[101.66782235248263,2.884234067595503],[101.66885876926374,2.8846264830461523],[101.66885876926374,2.884235996805036],[101.6680133,2.884166696805128],[101.6681637,2.8827572968066466],[101.66782235248263,2.882664407110638]]],[[[101.67248622799768,2.8861961461670225],[101.67265159999998,2.8857954968033575],[101.6722851,2.8854664968037125],[101.67155020000001,2.885692196803464],[101.67093160282599,2.884998190649448],[101.67093160282599,2.8858037301890276],[101.67144981121655,2.8858037301890276],[101.67144981121655,2.8861961461670225],[101.67248622799768,2.8858037301890276],[101.67248622799768,2.8861961461670225]]],[[[101.66574951892039,2.8854113143428965],[101.6652257,2.885541396803626],[101.66481149315257,2.8865885622768985],[101.66574951892039,2.8861961461670225],[101.66574951892039,2.8854113143428965]]],[[[101.6719680196071,2.8865885622768985],[101.67093160282599,2.8865885622768985],[101.67093160282599,2.886980978518675],[101.67041339443544,2.886980978518675],[101.67041339443544,2.887786640054967],[101.6719680196071,2.886971362973507],[101.6719680196071,2.8865885622768985]]],[[[101.66885876926374,2.888550644805135],[101.66834056087319,2.8877658113979976],[101.66730414409207,2.88815822803558],[101.66782235248263,2.889504466048826],[101.66885876926374,2.888550644805135]]],[[[101.6667859357015,2.88815822803558],[101.66574951892039,2.8877658113979976],[101.66523131052983,2.888550644805135],[101.6646821,2.888417896800495],[101.66624359999999,2.890358696798401],[101.66626772731095,2.8897278959058097],[101.6667859357015,2.8897278959058097],[101.6667859357015,2.88815822803558]]],[[[101.66730414409207,2.8898551335778127],[101.66753163521246,2.8897278959058097],[101.66730414409207,2.8897278959058097],[101.66730414409207,2.8898551335778127]]]]},"properties":{"place_id":"e765d3a6-e393-547f-afff-b0bc617098a0","habitat":"disturbed_built_edge","habitat_label":"Disturbed, bare or built edge","resolution_m":50}}]}