{"type":"FeatureCollection","metadata":{"schema_version":1,"place_id":"e821c745-fdfc-5c71-9578-d53d1d8543d4","place_name":"Oil Palm","place_type":"forest","osm_reference":"way/233262651","protection_context":"no protected status confirmed from included OSM tags","resolution_m":50,"raster_coverage":1.0,"interpretation":"Suggested search habitats, not predicted plant locations or probabilities of presence."},"features":[{"type":"Feature","geometry":{"type":"Polygon","coordinates":[[[101.87840389999998,2.9409997967433568],[101.8800447,2.9419356967423718],[101.88017409999999,2.941899796742395],[101.8794446,2.9407533967436614],[101.8788974,2.9411336967432313],[101.87852819999998,2.9406327967437567],[101.87840389999998,2.9409997967433568]]]},"properties":{"place_id":"e821c745-fdfc-5c71-9578-d53d1d8543d4","habitat":"forest_edge_opening","habitat_label":"Forest edge or opening","resolution_m":50}},{"type":"Feature","geometry":{"type":"MultiPolygon","coordinates":[[[[101.87976958422193,2.9415281277646796],[101.8794446,2.9407533967436614],[101.8788974,2.9411336967432313],[101.8784043,2.940702196743697],[101.87840389999998,2.9409997967433568],[101.87976958422193,2.9415281277646796]]],[[[101.87976958422193,2.9415281277646796],[101.87976958422193,2.94177877271509],[101.88017409999999,2.941899796742395],[101.88003107141562,2.9415281277646796],[101.87976958422193,2.9415281277646796]]]]},"properties":{"place_id":"e821c745-fdfc-5c71-9578-d53d1d8543d4","habitat":"disturbed_built_edge","habitat_label":"Disturbed, bare or built edge","resolution_m":50}},{"type":"Feature","geometry":{"type":"Polygon","coordinates":[[[101.88001816724241,2.9419205626505978],[101.8800447,2.9419356967423718],[101.88009925017992,2.9419205626505978],[101.88001816724241,2.9419205626505978]]]},"properties":{"place_id":"e821c745-fdfc-5c71-9578-d53d1d8543d4","habitat":"water_edge","habitat_label":"Water edge","resolution_m":50}}]}