{"type":"FeatureCollection","metadata":{"schema_version":1,"place_id":"e87d452a-7595-51b0-8e0e-bcfed9c81b7f","place_name":"Kompartment 7 HSK Kurong Batang","place_type":"park","osm_reference":"relation/18072596","protection_context":"mapped protected boundary","resolution_m":50,"raster_coverage":1.0,"interpretation":"Suggested search habitats, not predicted plant locations or probabilities of presence."},"features":[{"type":"Feature","geometry":{"type":"MultiPolygon","coordinates":[[[[100.12459776539305,6.422733836832388],[100.12459776539305,6.421945155525543],[100.12511597378361,6.421945155525543],[100.12511597378361,6.421156475408314],[100.12407955700247,6.421156475408314],[100.12407955700247,6.422339496030254],[100.12356134861191,6.422339496030254],[100.12407955700247,6.423039508429755],[100.12407955700247,6.422733836832388],[100.12459776539305,6.422733836832388]]],[[[100.12926164090808,6.42431120301555],[100.12856839999998,6.423078893143529],[100.12899890000001,6.421178493145385],[100.12718880734585,6.420762135795762],[100.12667059895529,6.421550815318234],[100.12563418217415,6.421550815318234],[100.12563418217415,6.421945155525543],[100.12615239056471,6.421945155525543],[100.12615239056471,6.422733836832388],[100.12563418217415,6.422733836832388],[100.12563418217415,6.423522519329008],[100.12511597378361,6.423522519329008],[100.12488299999998,6.425224993141455],[100.126219,6.425816993140873],[100.126968,6.424977993141702],[100.12874343251752,6.426097066670623],[100.12874343251752,6.42431120301555],[100.12926164090808,6.42431120301555]]],[[[100.1448078926249,6.427860294334327],[100.14528710121228,6.427860294334327],[100.1451331516162,6.427071605291265],[100.1448078926249,6.427071605291265],[100.1448078926249,6.427860294334327]]],[[[100.14532610101546,6.428254639302379],[100.14548535909023,6.428254639302379],[100.14532610101546,6.427937866896073],[100.14532610101546,6.428254639302379]]],[[[100.1448601,6.431050993135786],[100.14584430940602,6.429043330131626],[100.14532610101546,6.429043330131626],[100.14532610101546,6.429437675992859],[100.14428968423435,6.429043330131626],[100.14428968423435,6.431151759080992],[100.1452142,6.433857593133116],[100.1449245,6.434156093132812],[100.1445651,6.433726993133216],[100.1438382,6.434867693132111],[100.14221685067211,6.432144704690553],[100.1407135,6.432154393134737],[100.13910760032874,6.43140940976585],[100.13910760032874,6.430620715363211],[100.14014401710986,6.430226368608632],[100.1396258087193,6.429218781434818],[100.1385194,6.42897199313782],[100.1366204,6.427674593139085],[100.13599834998537,6.426677261216221],[100.13444372481369,6.426677261216221],[100.13340730803256,6.4258885739590035],[100.13340730803256,6.426282917438805],[100.132889099642,6.426282917438805],[100.132889099642,6.426677261216221],[100.13237089125145,6.426677261216221],[100.13237089125145,6.427071605291265],[100.13081626607976,6.427936563066448],[100.133569,6.429246993137576],[100.13490500000002,6.432677993134238],[100.13522499999999,6.435317993131673],[100.134424,6.436206993130822],[100.134183,6.439068993128057],[100.13554599999998,6.4405009931266815],[100.136481,6.4405009931266815],[100.13583999999999,6.44449899312279],[100.138111,6.445954993121401],[100.14003499999998,6.448397993119037],[100.14232109999999,6.447540293119848],[100.1438382,6.443135393124119],[100.1452866,6.44182149312538],[100.14581229999997,6.439329393127775],[100.14395889999999,6.43786879312921],[100.1449674,6.436498893130518],[100.1450318,6.435661993131366],[100.14586329999999,6.435454093131556],[100.14658749999998,6.434678493132289],[100.14573989999998,6.434673093132319],[100.1471615,6.4330499931338645],[100.14677519999998,6.430994993135851],[100.14565140000002,6.43171729313517],[100.1448601,6.431050993135786]],[[100.14169864228154,6.445606112894726],[100.14169864228154,6.445211754809695],[100.14221685067211,6.445211754809695],[100.14273505906264,6.446000471278292],[100.14169864228154,6.446394829960415],[100.14169864228154,6.446000471278292],[100.14118043389098,6.446000471278292],[100.14118043389098,6.445606112894726],[100.14169864228154,6.445606112894726]]]]},"properties":{"place_id":"e87d452a-7595-51b0-8e0e-bcfed9c81b7f","habitat":"forest_interior","habitat_label":"Forest interior","resolution_m":50}},{"type":"Feature","geometry":{"type":"MultiPolygon","coordinates":[[[[100.12874343251752,6.421156475408314],[100.1289405514823,6.421156475408314],[100.12874343251752,6.421082092830843],[100.12874343251752,6.421156475408314]]],[[[100.12874343251752,6.421550815318234],[100.12874343251752,6.422601591984347],[100.12909279999997,6.421648893144915],[100.12874343251752,6.421550815318234]]],[[[100.12615239056471,6.422733836832388],[100.12615239056471,6.421945155525543],[100.12563418217415,6.421945155525543],[100.12563418217415,6.421550815318234],[100.12667059895529,6.421550815318234],[100.12718880734585,6.420762135795762],[100.12789552396886,6.420762135795762],[100.12711999999999,6.420469493146067],[100.12541009999998,6.4215942931449765],[100.1251701,6.420891993145638],[100.12402469999999,6.421082493145462],[100.12321809999999,6.422275993144314],[100.12356134861191,6.422765321924474],[100.12356134861191,6.422339496030254],[100.12407955700247,6.422339496030254],[100.12407955700247,6.421156475408314],[100.12511597378361,6.421156475408314],[100.12511597378361,6.421945155525543],[100.12459776539305,6.421945155525543],[100.12459776539305,6.422733836832388],[100.12407955700247,6.422733836832388],[100.124963,6.4242129931424214],[100.12482355377267,6.42470554530509],[100.12563418217415,6.422733836832388],[100.12615239056471,6.422733836832388]]],[[[100.12874343251752,6.42391686102353],[100.12924969999999,6.423643993142991],[100.12874343251752,6.4232240727058905],[100.12874343251752,6.42391686102353]]],[[[100.1318526828609,6.42746594966396],[100.1318526828609,6.427071605291265],[100.13340730803256,6.426282917438805],[100.13355259999999,6.425770293140921],[100.1323825,6.425877493140812],[100.13088644794465,6.427860294334327],[100.1318526828609,6.42746594966396]]],[[[100.12926164090808,6.424024280503919],[100.12874343251752,6.42431120301555],[100.12874343251752,6.426097066670623],[100.12988099999998,6.427815993138927],[100.13081626607976,6.428191926074401],[100.13000339999999,6.427729993139014],[100.12915040000001,6.426261293140425],[100.1288635,6.4250258931416395],[100.12927919999998,6.424583493142054],[100.12926164090808,6.424024280503919]]],[[[100.13599834998537,6.426677261216221],[100.13627897309912,6.427071605291265],[100.13598299999998,6.426548893140176],[100.13444372481369,6.42644243232004],[100.13599834998537,6.426677261216221]]],[[[100.14001213760885,6.429832022151854],[100.1396882,6.429222893137557],[100.1396258087193,6.429218781434818],[100.1396258087193,6.429832022151854],[100.14001213760885,6.429832022151854]]],[[[100.14532610101546,6.429437675992859],[100.14532610101546,6.429043330131626],[100.14602689999998,6.42933179313748],[100.14528710121228,6.427860294334327],[100.1448078926249,6.427860294334327],[100.14514309999998,6.427004993139715],[100.1445504,6.427063593139667],[100.1444967,6.428820093137959],[100.14403129999998,6.428935993137862],[100.14428968423435,6.431151759080992],[100.14428968423435,6.429043330131626],[100.14532610101546,6.429437675992859]]],[[[100.14014401710986,6.430226368608632],[100.13910760032874,6.430620715363211],[100.13910760032874,6.43140940976585],[100.13960186284689,6.43140940976585],[100.139778,6.430679793136174],[100.1406685,6.43091699313592],[100.14014401710986,6.430226368608632]]],[[[100.1396258087193,6.431803757413949],[100.1397063,6.431638693135229],[100.1396258087193,6.431461980993767],[100.1396258087193,6.431803757413949]]],[[[100.1404625166462,6.431803757413949],[100.14044929999999,6.431785293135096],[100.14038340453963,6.431803757413949],[100.1404625166462,6.431803757413949]]],[[[100.14265928897794,6.432592453603794],[100.1425464,6.43222899313465],[100.14221685067211,6.432144704690553],[100.14221685067211,6.432592453603794],[100.14265928897794,6.432592453603794]]],[[[100.14273505906264,6.433381150985298],[100.142827,6.433308493133624],[100.14273505906264,6.432836405201694],[100.14273505906264,6.433381150985298]]],[[[100.14221685067211,6.445606112894726],[100.14221685067211,6.445211754809695],[100.14169864228154,6.445211754809695],[100.14118043389098,6.446000471278292],[100.14221685067211,6.446394829960415],[100.14221685067211,6.446000471278292],[100.14273505906264,6.446000471278292],[100.14273505906264,6.445606112894726],[100.14221685067211,6.445606112894726]]]]},"properties":{"place_id":"e87d452a-7595-51b0-8e0e-bcfed9c81b7f","habitat":"forest_edge_opening","habitat_label":"Forest edge or opening","resolution_m":50}},{"type":"Feature","geometry":{"type":"MultiPolygon","coordinates":[[[[100.12718880734585,6.420762135795762],[100.12711999999999,6.420469493146067],[100.1267383268317,6.420762135795762],[100.12718880734585,6.420762135795762]]],[[[100.13599834998537,6.426677261216221],[100.1360556853423,6.426677261216221],[100.13599834998537,6.426576002428475],[100.13599834998537,6.426677261216221]]],[[[100.1448078926249,6.428648984568141],[100.1448078926249,6.429043330131626],[100.14532610101546,6.429043330131626],[100.14532610101546,6.428648984568141],[100.1448078926249,6.428648984568141]]],[[[100.14169864228154,6.445606112894726],[100.14169864228154,6.446000471278292],[100.14221685067211,6.446000471278292],[100.14221685067211,6.445606112894726],[100.14169864228154,6.445606112894726]]]]},"properties":{"place_id":"e87d452a-7595-51b0-8e0e-bcfed9c81b7f","habitat":"open_grassland","habitat_label":"Open grassland or shrubland","resolution_m":50}},{"type":"Feature","geometry":{"type":"MultiPolygon","coordinates":[[[[100.12354033293103,6.422733836832388],[100.12356134861191,6.422765321924474],[100.12356134861191,6.422733836832388],[100.12354033293103,6.422733836832388]]],[[[100.1448078926249,6.427038134951229],[100.1451331516162,6.427071605291265],[100.14514309999998,6.427004993139715],[100.1448078926249,6.427038134951229]]],[[[100.14532610101546,6.429043330131626],[100.14568361696816,6.428648984568141],[100.14528710121228,6.427860294334327],[100.1448078926249,6.427860294334327],[100.1448078926249,6.428254639302379],[100.14428968423435,6.428254639302379],[100.14443608324238,6.428648984568141],[100.14532610101546,6.429043330131626]]],[[[100.14404651345842,6.429043330131626],[100.14428968423435,6.4288716469105],[100.14403129999998,6.428935993137862],[100.14404651345842,6.429043330131626]]],[[[100.14273505906264,6.43298680214558],[100.14293039409738,6.433381150985298],[100.14278177154567,6.43298680214558],[100.14273505906264,6.43298680214558]]]]},"properties":{"place_id":"e87d452a-7595-51b0-8e0e-bcfed9c81b7f","habitat":"disturbed_built_edge","habitat_label":"Disturbed, bare or built edge","resolution_m":50}},{"type":"Feature","geometry":{"type":"MultiPolygon","coordinates":[[[[100.12407955700247,6.421156475408314],[100.12407955700247,6.421065263572666],[100.12398653825936,6.421156475408314],[100.12407955700247,6.421156475408314]]],[[[100.12526048269923,6.421156475408314],[100.1251701,6.420891993145638],[100.12511597378361,6.421156475408314],[100.12526048269923,6.421156475408314]]],[[[100.12667059895529,6.421156475408314],[100.12667059895529,6.420814065230132],[100.126154969778,6.421156475408314],[100.12667059895529,6.421156475408314]]],[[[100.12356134861191,6.422339496030254],[100.12356134861191,6.421976986528668],[100.12340109999997,6.421992093144571],[100.12321809999999,6.422275993144314],[100.12356134861191,6.422339496030254]]],[[[100.12563418217415,6.422733836832388],[100.12563418217415,6.421945155525543],[100.12511597378361,6.421945155525543],[100.12511597378361,6.422733836832388],[100.12563418217415,6.422733836832388]]],[[[100.12511597378361,6.423522519329008],[100.12511597378361,6.422733836832388],[100.12459776539305,6.422733836832388],[100.12459776539305,6.423522519329008],[100.12511597378361,6.423522519329008]]],[[[100.12926164090808,6.42431120301555],[100.12926164090808,6.424602180029479],[100.12927919999998,6.424583493142054],[100.12926164090808,6.42431120301555]]],[[[100.12939198856571,6.426677261216221],[100.12926164090808,6.426452828101564],[100.12926164090808,6.426677261216221],[100.12939198856571,6.426677261216221]]],[[[100.132889099642,6.4258885739590035],[100.13340730803256,6.425769823447059],[100.132889099642,6.42576814820441],[100.132889099642,6.4258885739590035]]],[[[100.13237089125145,6.426677261216221],[100.13237089125145,6.425962071153719],[100.13195377618885,6.426677261216221],[100.13237089125145,6.426677261216221]]],[[[100.1318526828609,6.427071605291265],[100.1318526828609,6.426821350319599],[100.13167710332165,6.427071605291265],[100.1318526828609,6.427071605291265]]],[[[100.12985004749454,6.42746594966396],[100.12977984929866,6.427345081937005],[100.12977984929866,6.42746594966396],[100.12985004749454,6.42746594966396]]],[[[100.13133447447032,6.42746594966396],[100.13133447447032,6.427341939928457],[100.13121650312469,6.42746594966396],[100.13133447447032,6.42746594966396]]],[[[100.13051614370316,6.427860294334327],[100.13029805768919,6.427804873136248],[100.13029805768919,6.427860294334327],[100.13051614370316,6.427860294334327]]],[[[100.139778,6.430679793136174],[100.14064377403916,6.430620715363211],[100.1396258087193,6.430620715363211],[100.1396258087193,6.430959222641645],[100.139778,6.430679793136174]]]]},"properties":{"place_id":"e87d452a-7595-51b0-8e0e-bcfed9c81b7f","habitat":"cropland","habitat_label":"Cropland","resolution_m":50}},{"type":"Feature","geometry":{"type":"MultiPolygon","coordinates":[[[[100.12459776539305,6.423522519329008],[100.12454293203591,6.423522519329008],[100.12459776539305,6.423596418331828],[100.12459776539305,6.423522519329008]]],[[[100.14426744442653,6.428254639302379],[100.14443608324238,6.428648984568141],[100.1448078926249,6.428648984568141],[100.1448078926249,6.428254639302379],[100.14426744442653,6.428254639302379]]],[[[100.14584430940602,6.429043330131626],[100.14588187484611,6.429043330131626],[100.14584430940602,6.428968610431577],[100.14584430940602,6.429043330131626]]]]},"properties":{"place_id":"e87d452a-7595-51b0-8e0e-bcfed9c81b7f","habitat":"permanent_water","habitat_label":"Permanent water","resolution_m":50}},{"type":"Feature","geometry":{"type":"Polygon","coordinates":[[[100.12563418217415,6.422339496030254],[100.12563418217415,6.421945155525543],[100.12511597378361,6.421945155525543],[100.12511597378361,6.422339496030254],[100.12563418217415,6.422339496030254]]]},"properties":{"place_id":"e87d452a-7595-51b0-8e0e-bcfed9c81b7f","habitat":"seasonal_water_wetland","habitat_label":"Seasonal water or wetland","resolution_m":50}},{"type":"Feature","geometry":{"type":"MultiPolygon","coordinates":[[[[100.12459776539305,6.420961346494932],[100.12511597378361,6.421156475408314],[100.12511597378361,6.420913861687836],[100.12459776539305,6.420961346494932]]],[[[100.12407955700247,6.421945155525543],[100.12407955700247,6.421156475408314],[100.12398653825936,6.421156475408314],[100.12357971938012,6.421945155525543],[100.12407955700247,6.421945155525543]]],[[[100.12356134861191,6.422339496030254],[100.12356134861191,6.421976986528668],[100.12340109999997,6.421992093144571],[100.12321809999999,6.422275993144314],[100.12356134861191,6.422339496030254]]],[[[100.12563418217415,6.422733836832388],[100.12615239056471,6.422733836832388],[100.12667059895529,6.421945155525543],[100.12541009999998,6.4215942931449765],[100.12511597378361,6.421156475408314],[100.12511597378361,6.421550815318234],[100.12459776539305,6.421550815318234],[100.12459776539305,6.421945155525543],[100.12407955700247,6.421945155525543],[100.12407955700247,6.422339496030254],[100.12459776539305,6.422339496030254],[100.12511597378361,6.42312817793197],[100.12563418217415,6.42312817793197],[100.12563418217415,6.422733836832388]],[[100.12511597378361,6.422339496030254],[100.12511597378361,6.421945155525543],[100.12563418217415,6.421945155525543],[100.12563418217415,6.422339496030254],[100.12511597378361,6.422339496030254]]],[[[100.12511597378361,6.42312817793197],[100.12459776539305,6.42312817793197],[100.12459776539305,6.422733836832388],[100.12354033293103,6.422733836832388],[100.12459776539305,6.423522519329008],[100.12511597378361,6.425362083152135],[100.12511597378361,6.42470554530509],[100.12563418217415,6.42470554530509],[100.12563418217415,6.423522519329008],[100.12511597378361,6.423522519329008],[100.12511597378361,6.42312817793197]]],[[[100.12563418217415,6.425494230776797],[100.12539345977524,6.425494230776797],[100.12563418217415,6.4256012555529605],[100.12563418217415,6.425494230776797]]],[[[100.12874343251752,6.421156475408314],[100.12907322197138,6.421550815318234],[100.12899890000001,6.421178493145385],[100.12711999999999,6.420469493146067],[100.126154969778,6.421156475408314],[100.12874343251752,6.421156475408314]]],[[[100.12926164090808,6.42431120301555],[100.12926164090808,6.424602180029479],[100.12927919999998,6.424583493142054],[100.12926164090808,6.42431120301555]]],[[[100.12874343251752,6.42470554530509],[100.12874343251752,6.425099887892165],[100.12888472416991,6.425099887892165],[100.12916451396978,6.42470554530509],[100.12874343251752,6.42470554530509]]],[[[100.13340730803256,6.425769823447059],[100.13359948761179,6.4258885739590035],[100.13355259999999,6.425770293140921],[100.13340730803256,6.425769823447059]]],[[[100.13627897309912,6.427071605291265],[100.13598299999998,6.426548893140176],[100.13444372481369,6.42644243232004],[100.13496193320427,6.427071605291265],[100.1354801415948,6.427071605291265],[100.1354801415948,6.426677261216221],[100.13627897309912,6.427071605291265]]],[[[100.14532610101546,6.428254639302379],[100.14443877137968,6.42746594966396],[100.1442339,6.42820439313855],[100.1448078926249,6.428254639302379],[100.1448078926249,6.428648984568141],[100.14403129999998,6.428935993137862],[100.14410240622458,6.429437675992859],[100.14532610101546,6.429043330131626],[100.14584430940602,6.42957257434592],[100.14532610101546,6.428254639302379]]]]},"properties":{"place_id":"e87d452a-7595-51b0-8e0e-bcfed9c81b7f","habitat":"water_edge","habitat_label":"Water edge","resolution_m":50}},{"type":"Feature","geometry":{"type":"MultiPolygon","coordinates":[[[[100.12926164090808,6.426677261216221],[100.1291273995923,6.426677261216221],[100.12926164090808,6.42688010709201],[100.12926164090808,6.426677261216221]]],[[[100.12977984929866,6.42746594966396],[100.1296493452083,6.42746594966396],[100.12977984929866,6.427663148686971],[100.12977984929866,6.42746594966396]]],[[[100.13029805768919,6.427860294334327],[100.1299912148363,6.427860294334327],[100.13029805768919,6.427983630790811],[100.13029805768919,6.427860294334327]]]]},"properties":{"place_id":"e87d452a-7595-51b0-8e0e-bcfed9c81b7f","habitat":"mangrove","habitat_label":"Mangrove","resolution_m":50}}]}