{"type":"FeatureCollection","metadata":{"schema_version":1,"place_id":"e8a79eaf-b29c-5389-bd3d-2ccb1c27cb3b","place_name":"Ujana Elopura","place_type":"park","osm_reference":"way/1082147275","protection_context":"no protected status confirmed from included OSM tags","resolution_m":50,"raster_coverage":1.0,"interpretation":"Suggested search habitats, not predicted plant locations or probabilities of presence."},"features":[{"type":"Feature","geometry":{"type":"MultiPolygon","coordinates":[[[[118.09710116681717,5.8610908970320885],[118.09761937520773,5.8610908970320885],[118.09727069999998,5.860644493695087],[118.09710116681717,5.860775294242264],[118.09710116681717,5.8610908970320885]]],[[[118.0969932650519,5.860696960967021],[118.09686499999998,5.8605577936951665],[118.09671482364561,5.860696960967021],[118.0969932650519,5.860696960967021]]]]},"properties":{"place_id":"e8a79eaf-b29c-5389-bd3d-2ccb1c27cb3b","habitat":"forest_edge_opening","habitat_label":"Forest edge or opening","resolution_m":50}},{"type":"Feature","geometry":{"type":"Polygon","coordinates":[[[118.09658295842662,5.862666643999241],[118.09791480000001,5.863745593691998],[118.09932240000002,5.862830593692941],[118.0991740003794,5.8625052231258925],[118.09841209999999,5.862497293693238],[118.0982779,5.861253993694487],[118.09779860000002,5.861302393694454],[118.09731279984418,5.860696960967021],[118.09671482364561,5.860696960967021],[118.0959077,5.8614449936943105],[118.09658295842662,5.862666643999241]]]},"properties":{"place_id":"e8a79eaf-b29c-5389-bd3d-2ccb1c27cb3b","habitat":"open_grassland","habitat_label":"Open grassland or shrubland","resolution_m":50}},{"type":"Feature","geometry":{"type":"MultiPolygon","coordinates":[[[[118.09710116681717,5.8610908970320885],[118.09686499999998,5.8605577936951665],[118.09628934562593,5.8610908970320885],[118.09710116681717,5.8610908970320885]]],[[[118.09731279984418,5.860696960967021],[118.09727069999998,5.860644493695087],[118.09720269612384,5.860696960967021],[118.09731279984418,5.860696960967021]]],[[[118.09762889480969,5.8610908970320885],[118.09761937520773,5.861079033142454],[118.09761937520773,5.8610908970320885],[118.09762889480969,5.8610908970320885]]],[[[118.09813758359829,5.861268162928025],[118.09835015310091,5.861878769974251],[118.0982779,5.861253993694487],[118.09813758359829,5.861268162928025]]],[[[118.09658295842662,5.861878769974251],[118.09606475003605,5.861878769974251],[118.09606475003605,5.861298322807449],[118.09604640000002,5.862166793693574],[118.0967671,5.862931493692841],[118.09710116681717,5.8630475265749675],[118.09710116681717,5.862666643999241],[118.09658295842662,5.862666643999241],[118.09658295842662,5.861878769974251]]],[[[118.09865579198886,5.862666643999241],[118.0991740003794,5.862666643999241],[118.09932240000002,5.862830593692941],[118.09931530000001,5.862506693693262],[118.09865579198886,5.862666643999241]]],[[[118.09761937520773,5.863060581417845],[118.09713875262248,5.863060581417845],[118.09761937520773,5.863227518198006],[118.09761937520773,5.863060581417845]]],[[[118.09813758359829,5.863060581417845],[118.09791480000001,5.863745593691998],[118.09912889999997,5.863133493692624],[118.09912430690402,5.863060581417845],[118.09813758359829,5.863060581417845]]]]},"properties":{"place_id":"e8a79eaf-b29c-5389-bd3d-2ccb1c27cb3b","habitat":"disturbed_built_edge","habitat_label":"Disturbed, bare or built edge","resolution_m":50}},{"type":"Feature","geometry":{"type":"Polygon","coordinates":[[[118.09813758359829,5.86345451910721],[118.09813758359829,5.8636332945129395],[118.09849224548117,5.86345451910721],[118.09813758359829,5.86345451910721]]]},"properties":{"place_id":"e8a79eaf-b29c-5389-bd3d-2ccb1c27cb3b","habitat":"water_edge","habitat_label":"Water edge","resolution_m":50}}]}