{"type":"FeatureCollection","metadata":{"schema_version":1,"place_id":"e8bbd850-2b8c-5c18-804b-9e41b33b75d1","place_name":"Dataran Pekan","place_type":"park","osm_reference":"way/655875240","protection_context":"no protected status confirmed from included OSM tags","resolution_m":50,"raster_coverage":1.0,"interpretation":"Suggested search habitats, not predicted plant locations or probabilities of presence."},"features":[{"type":"Feature","geometry":{"type":"Polygon","coordinates":[[[103.39209779999997,3.490332996150392],[103.39102369999999,3.490917996149744],[103.3912713,3.4915518961490726],[103.39240839999997,3.4909365961497443],[103.39209779999997,3.490332996150392]]]},"properties":{"place_id":"e8bbd850-2b8c-5c18-804b-9e41b33b75d1","habitat":"forest_edge_opening","habitat_label":"Forest edge or opening","resolution_m":50}},{"type":"Feature","geometry":{"type":"Polygon","coordinates":[[[103.39190166787787,3.490439817920133],[103.39227854346396,3.490684241290374],[103.39209779999997,3.490332996150392],[103.39190166787787,3.490439817920133]]]},"properties":{"place_id":"e8bbd850-2b8c-5c18-804b-9e41b33b75d1","habitat":"open_grassland","habitat_label":"Open grassland or shrubland","resolution_m":50}},{"type":"Feature","geometry":{"type":"Polygon","coordinates":[[[103.39098869999998,3.49111609614954],[103.3912713,3.4915518961490726],[103.39240839999997,3.4909365961497443],[103.39209779999997,3.490332996150392],[103.39098869999998,3.49111609614954]]]},"properties":{"place_id":"e8bbd850-2b8c-5c18-804b-9e41b33b75d1","habitat":"disturbed_built_edge","habitat_label":"Disturbed, bare or built edge","resolution_m":50}}]}