{"type":"FeatureCollection","metadata":{"schema_version":1,"place_id":"e8d2da0a-2860-5b39-8f04-3d3fc4503770","place_name":"NAYC Basketball Court","place_type":"park","osm_reference":"way/546848579","protection_context":"no protected status confirmed from included OSM tags","resolution_m":50,"raster_coverage":1.0,"interpretation":"Suggested search habitats, not predicted plant locations or probabilities of presence."},"features":[{"type":"Feature","geometry":{"type":"Polygon","coordinates":[[[101.76391169999997,3.1380634965298375],[101.76408729999999,3.137573196530372],[101.7634644,3.1372654965306723],[101.76322339999999,3.137815896530103],[101.76391169999997,3.1380634965298375]]]},"properties":{"place_id":"e8d2da0a-2860-5b39-8f04-3d3fc4503770","habitat":"disturbed_built_edge","habitat_label":"Disturbed, bare or built edge","resolution_m":50}}]}