{"type":"FeatureCollection","metadata":{"schema_version":1,"place_id":"e923e724-571a-562d-9c0f-fc2c20840dbb","place_name":"Pusat Kecemerlangan Orang Asli Perak (PKPOAP)","place_type":"park","osm_reference":"way/743772584","protection_context":"no protected status confirmed from included OSM tags","resolution_m":50,"raster_coverage":1.0,"interpretation":"Suggested search habitats, not predicted plant locations or probabilities of presence."},"features":[{"type":"Feature","geometry":{"type":"Polygon","coordinates":[[[101.21076255200813,4.568360951522982],[101.21024434361759,4.568360951522982],[101.21024434361759,4.567574657321839],[101.21076255200813,4.567574657321839],[101.21076255200813,4.567181510535941],[101.2093781,4.566818995011903],[101.21027650000002,4.568679995009993],[101.21076255200813,4.568360951522982]]]},"properties":{"place_id":"e923e724-571a-562d-9c0f-fc2c20840dbb","habitat":"forest_interior","habitat_label":"Forest interior","resolution_m":50}},{"type":"Feature","geometry":{"type":"Polygon","coordinates":[[[101.21024434361759,4.567181510535941],[101.21076255200813,4.567181510535941],[101.21076255200813,4.567574657321839],[101.21024434361759,4.567574657321839],[101.21024434361759,4.568360951522982],[101.21076255200813,4.568412920214026],[101.2114922,4.568011995010672],[101.2110664,4.567141295011583],[101.21024434361759,4.567181510535941]]]},"properties":{"place_id":"e923e724-571a-562d-9c0f-fc2c20840dbb","habitat":"forest_edge_opening","habitat_label":"Forest edge or opening","resolution_m":50}},{"type":"Feature","geometry":{"type":"Polygon","coordinates":[[[101.21024434361759,4.567181510535941],[101.21076255200813,4.567181510535941],[101.21076255200813,4.567574657321839],[101.21024434361759,4.567574657321839],[101.21024434361759,4.568360951522982],[101.21076255200813,4.568412920214026],[101.2114922,4.568011995010672],[101.2110664,4.567141295011583],[101.21024434361759,4.567181510535941]]]},"properties":{"place_id":"e923e724-571a-562d-9c0f-fc2c20840dbb","habitat":"disturbed_built_edge","habitat_label":"Disturbed, bare or built edge","resolution_m":50}}]}