{"type":"FeatureCollection","metadata":{"schema_version":1,"place_id":"e9b569eb-26ed-5cf3-a177-b5cbb31c1b7d","place_name":"Pulau Dulang Kiri","place_type":"wood","osm_reference":"way/724711263","protection_context":"no protected status confirmed from included OSM tags","resolution_m":50,"raster_coverage":1.0,"interpretation":"Suggested search habitats, not predicted plant locations or probabilities of presence."},"features":[{"type":"Feature","geometry":{"type":"Polygon","coordinates":[[[102.60371544663673,5.0304588507774435],[102.6041454,5.02970089453368],[102.60392010000001,5.029293394534093],[102.6034346,5.029690194533726],[102.60371544663673,5.0304588507774435]]]},"properties":{"place_id":"e9b569eb-26ed-5cf3-a177-b5cbb31c1b7d","habitat":"forest_edge_opening","habitat_label":"Forest edge or opening","resolution_m":50}},{"type":"Feature","geometry":{"type":"MultiPolygon","coordinates":[[[[102.60370670583514,5.029672038153627],[102.60352049999999,5.029459094533952],[102.60343784534315,5.029672038153627],[102.60370670583514,5.029672038153627]]],[[[102.60389829639719,5.030065444349815],[102.60355399999999,5.030546494532835],[102.60361569999999,5.030618694532747],[102.60389829639719,5.030065444349815]]]]},"properties":{"place_id":"e9b569eb-26ed-5cf3-a177-b5cbb31c1b7d","habitat":"permanent_water","habitat_label":"Permanent water","resolution_m":50}},{"type":"Feature","geometry":{"type":"Polygon","coordinates":[[[102.60370670583514,5.029672038153627],[102.60415033208504,5.029672038153627],[102.60402069999998,5.029314794534105],[102.60344939999999,5.029607394533781],[102.60361569999999,5.030618694532747],[102.60370670583514,5.029672038153627]]]},"properties":{"place_id":"e9b569eb-26ed-5cf3-a177-b5cbb31c1b7d","habitat":"seasonal_water_wetland","habitat_label":"Seasonal water or wetland","resolution_m":50}},{"type":"Feature","geometry":{"type":"Polygon","coordinates":[[[102.60370670583514,5.029672038153627],[102.60370670583514,5.030065444349815],[102.60389829639719,5.030065444349815],[102.60415033208504,5.029672038153627],[102.60370670583514,5.029672038153627]]]},"properties":{"place_id":"e9b569eb-26ed-5cf3-a177-b5cbb31c1b7d","habitat":"water_edge","habitat_label":"Water edge","resolution_m":50}}]}