{"type":"FeatureCollection","metadata":{"schema_version":1,"place_id":"eacf99b2-da9a-5905-9e60-61773a904e11","place_name":"Madai Forest Reserve","place_type":"forest","osm_reference":"way/842288642","protection_context":"no protected status confirmed from included OSM tags","resolution_m":50,"raster_coverage":1.0,"interpretation":"Suggested search habitats, not predicted plant locations or probabilities of presence."},"features":[{"type":"Feature","geometry":{"type":"MultiPolygon","coordinates":[[[[118.18218389053621,4.686707880128716],[118.18225979999998,4.686774294887275],[118.1823003927322,4.686707880128716],[118.18218389053621,4.686707880128716]]],[[[118.18208734286912,4.686623408588503],[118.18468450000002,4.682807194891397],[118.1855857,4.680101794894188],[118.18423390000001,4.679663394894655],[118.18181989999998,4.681384994892854],[118.18208734286912,4.681989360067592],[118.18260555125968,4.681989360067592],[118.18260555125968,4.683168987177447],[118.18208734286912,4.683168987177447],[118.18119760000002,4.684935094889186],[118.18054319999999,4.685009894889118],[118.17935229999998,4.6834914948906965],[118.1785369,4.684004794890168],[118.1761014,4.68319209489099],[118.1752109,4.68417589488996],[118.17804340000002,4.689276394884692],[118.17562939999999,4.690580894883352],[118.1744707,4.68854929488543],[118.16582319999998,4.692687394881157],[118.16185350000002,4.686720794887358],[118.14282059999998,4.698097994875548],[118.12798260000001,4.707935294865355],[118.11429259999997,4.7079459948653515],[118.11423899999997,4.710383894862796],[118.11137439999999,4.709410894863817],[118.10652490000001,4.709581994863627],[118.1063747,4.7116776948614625],[118.1083166,4.711249994861896],[118.11049459999997,4.711410394861726],[118.1128013,4.712704194860395],[118.11286359448104,4.724850391802565],[118.1136838353151,4.725243624182919],[118.1136838353151,4.725636856780424],[118.11316562692456,4.725636856780424],[118.11316562692456,4.726030089595094],[118.1136838353151,4.726030089595094],[118.1136838353151,4.72838949104465],[118.11316562692456,4.72838949104465],[118.11316562692456,4.72917595993267],[118.1136838353151,4.72917595993267],[118.1136838353151,4.729569194702669],[118.11289109550447,4.729962429690019],[118.11294398208805,4.739793375066605],[118.1136838353151,4.740186615711534],[118.11295032847809,4.740973097654955],[118.11297300000001,4.74518749482677],[118.12212469999999,4.744620794827339],[118.1248283,4.745518894826435],[118.14373992196762,4.739400134639504],[118.14373992196762,4.739006894430213],[118.14421541770803,4.739006894430213],[118.1450844,4.733597194838757],[118.14800259999998,4.735928094836369],[118.1469726,4.732271294840153],[118.14991230000001,4.730603294841849],[118.14888239999998,4.727502594845077],[118.1504917,4.72639059484624],[118.1502986,4.725214394847465],[118.15306767299774,4.717539236409805],[118.15254946460716,4.71698578976828],[118.15306767299774,4.71698578976828],[118.15306767299774,4.716592561943791],[118.15388475888649,4.71698578976828],[118.15962190000002,4.713099794859995],[118.16188570000001,4.712714894860393],[118.16254019999997,4.7119129948612315],[118.16390269999997,4.712757694860352],[118.1616926,4.717077494855878],[118.1633930796775,4.718165474542396],[118.16343184080893,4.717772246067566],[118.16395004919949,4.717772246067566],[118.16395004919949,4.718165474542396],[118.16446825759006,4.718165474542396],[118.16446825759006,4.718558703234043],[118.16400768371165,4.718558703234043],[118.165319,4.719397694853477],[118.16849469999998,4.717579994855363],[118.17060830000001,4.720445594852381],[118.1806505,4.713014294860096],[118.18067189999996,4.712148194860988],[118.18234559999998,4.709047294864175],[118.1844485,4.709581994863627],[118.1873774,4.707058494866243],[118.18694829999997,4.706395594866916],[118.1901562,4.703829294869617],[118.19098229999999,4.705839594867504],[118.19276329999998,4.7049413948684515],[118.1891262,4.700375594873173],[118.18890089999998,4.698482994875147],[118.18751689999998,4.6973601948763],[118.1800711,4.686656594887422],[118.1808543,4.685544594888553],[118.18208734286912,4.686623408588503]],[[118.11679308565847,4.74333254871503],[118.11679308565847,4.741759580469913],[118.1178295024396,4.7413663389534815],[118.1178295024396,4.741759580469913],[118.11834771083016,4.741759580469913],[118.11834771083016,4.74333254871503],[118.1178295024396,4.74333254871503],[118.1178295024396,4.743725791321251],[118.11679308565847,4.74333254871503]],[[118.11472025209623,4.7413663389534815],[118.1152384604868,4.740579856574311],[118.1162748772679,4.740973097654955],[118.11575666887737,4.741759580469913],[118.11472025209623,4.7413663389534815]],[[118.1333757541564,4.740973097654955],[118.13389396254696,4.740186615711534],[118.1349303793281,4.740579856574311],[118.13441217093754,4.7413663389534815],[118.1333757541564,4.740973097654955]],[[118.12612083668856,4.739400134639504],[118.12663904507912,4.738613654438717],[118.12767546186025,4.739006894430213],[118.12715725346969,4.739793375066605],[118.12612083668856,4.739400134639504]],[[118.11731129404903,4.738613654438717],[118.11731129404903,4.738220414664995],[118.1178295024396,4.738220414664995],[118.1178295024396,4.737040696650285],[118.11886591922071,4.736647457747474],[118.11886591922071,4.737040696650285],[118.11938412761127,4.737040696650285],[118.11886591922071,4.738613654438717],[118.11834771083016,4.738613654438717],[118.11834771083016,4.739006894430213],[118.11731129404903,4.738613654438717]],[[118.12456621151688,4.738220414664995],[118.12508441990745,4.737433935770798],[118.12612083668856,4.737827175109027],[118.12560262829801,4.738613654438717],[118.12456621151688,4.738220414664995]],[[118.12974829542249,4.727603023025811],[118.13078471220362,4.726030089595094],[118.13130292059417,4.726030089595094],[118.13130292059417,4.72642332262695],[118.13182112898473,4.72642332262695],[118.13182112898473,4.72720978934229],[118.1323393373753,4.72720978934229],[118.13182112898473,4.727996256926591],[118.13130292059417,4.727996256926591],[118.13130292059417,4.727603023025811],[118.13078471220362,4.727603023025811],[118.13078471220362,4.727996256926591],[118.12974829542249,4.727603023025811]],[[118.14373992196762,4.722884233157369],[118.14425813035818,4.722097771218685],[118.14529454713932,4.722491002079518],[118.14477633874876,4.7232774644522575],[118.14373992196762,4.722884233157369]],[[118.14581275552986,4.720918079938123],[118.14581275552986,4.7205248499451855],[118.14633096392042,4.7205248499451855],[118.146849172311,4.7197383906100745],[118.14788558909213,4.7197383906100745],[118.14788558909213,4.719345161267864],[118.14892200587323,4.719345161267864],[118.14892200587323,4.7197383906100745],[118.14944021426379,4.7197383906100745],[118.14892200587323,4.7205248499451855],[118.14788558909213,4.7205248499451855],[118.14788558909213,4.720918079938123],[118.146849172311,4.720918079938123],[118.146849172311,4.721311310148007],[118.14581275552986,4.720918079938123]],[[118.14995842265436,4.720131620169175],[118.15047663104492,4.719345161267864],[118.15151304782603,4.7197383906100745],[118.15099483943547,4.7205248499451855],[118.14995842265436,4.720131620169175]]]]},"properties":{"place_id":"eacf99b2-da9a-5905-9e60-61773a904e11","habitat":"forest_interior","habitat_label":"Forest interior","resolution_m":50}},{"type":"Feature","geometry":{"type":"MultiPolygon","coordinates":[[[[118.13182112898473,4.727996256926591],[118.1323393373753,4.72720978934229],[118.13182112898473,4.72720978934229],[118.13182112898473,4.72642332262695],[118.13078471220362,4.726030089595094],[118.12974829542249,4.727603023025811],[118.13026650381306,4.727603023025811],[118.13026650381306,4.727996256926591],[118.13078471220362,4.727996256926591],[118.13078471220362,4.727603023025811],[118.13182112898473,4.727996256926591]]],[[[118.11316562692456,4.72917595993267],[118.11316562692456,4.72838949104465],[118.1136838353151,4.72838949104465],[118.1136838353151,4.726030089595094],[118.11316562692456,4.726030089595094],[118.11316562692456,4.725636856780424],[118.1136838353151,4.725636856780424],[118.1136838353151,4.725243624182919],[118.11286359448104,4.724850391802565],[118.11289109550447,4.729962429690019],[118.1136838353151,4.729569194702669],[118.1136838353151,4.72917595993267],[118.11316562692456,4.72917595993267]]],[[[118.11938412761127,4.737827175109027],[118.11938412761127,4.737040696650285],[118.11834771083016,4.736647457747474],[118.11731129404903,4.738613654438717],[118.11834771083016,4.739006894430213],[118.11834771083016,4.738613654438717],[118.11886591922071,4.738613654438717],[118.11886591922071,4.737827175109027],[118.11938412761127,4.737827175109027]]],[[[118.12560262829801,4.737433935770798],[118.12456621151688,4.737827175109027],[118.12508441990745,4.738613654438717],[118.12612083668856,4.738220414664995],[118.12560262829801,4.737433935770798]]],[[[118.12715725346969,4.738613654438717],[118.12612083668856,4.739006894430213],[118.12663904507912,4.739793375066605],[118.12767546186025,4.739400134639504],[118.12715725346969,4.738613654438717]]],[[[118.14421541770803,4.739006894430213],[118.14322171357708,4.73958157141661],[118.14417239999997,4.739274694832898],[118.14421541770803,4.739006894430213]]],[[[118.1136838353151,4.740186615711534],[118.11294398208805,4.739793375066605],[118.11295032847809,4.740973097654955],[118.1136838353151,4.740579856574311],[118.1136838353151,4.740186615711534]]],[[[118.13441217093754,4.740579856574311],[118.13441217093754,4.740186615711534],[118.13389396254696,4.740186615711534],[118.1333757541564,4.740973097654955],[118.13441217093754,4.7413663389534815],[118.13441217093754,4.740973097654955],[118.1349303793281,4.740973097654955],[118.1349303793281,4.740579856574311],[118.13441217093754,4.740579856574311]]],[[[118.11575666887737,4.740579856574311],[118.11472025209623,4.740973097654955],[118.1152384604868,4.741759580469913],[118.1162748772679,4.7413663389534815],[118.11575666887737,4.740579856574311]]],[[[118.1178295024396,4.7413663389534815],[118.11679308565847,4.741759580469913],[118.11679308565847,4.74333254871503],[118.11731129404903,4.74333254871503],[118.11731129404903,4.743725791321251],[118.11834771083016,4.74333254871503],[118.11834771083016,4.741759580469913],[118.1178295024396,4.741759580469913],[118.1178295024396,4.7413663389534815]]],[[[118.1853437213621,4.680023319186758],[118.1851965932125,4.679975604294614],[118.1851965932125,4.680023319186758],[118.1853437213621,4.680023319186758]]],[[[118.18260555125968,4.681989360067592],[118.181829583243,4.68159615146125],[118.18188129111986,4.683562196644398],[118.18260555125968,4.683168987177447],[118.18260555125968,4.681989360067592]]],[[[118.18416017643136,4.683562196644398],[118.18416017643136,4.683665049275623],[118.1842230402825,4.683562196644398],[118.18416017643136,4.683562196644398]]],[[[118.18260555125968,4.6859214579659305],[118.18260555125968,4.686208603020709],[118.18278105461977,4.6859214579659305],[118.18260555125968,4.6859214579659305]]],[[[118.18208734286912,4.68631466893966],[118.1823003927322,4.686707880128716],[118.182540723676,4.68631466893966],[118.18208734286912,4.68631466893966]]],[[[118.15306767299774,4.717539236409805],[118.15358588138827,4.716592561943791],[118.15306767299774,4.716592561943791],[118.15254946460716,4.717379017809533],[118.15306767299774,4.717539236409805]]],[[[118.16343184080893,4.717772246067566],[118.1633930796775,4.718165474542396],[118.16446825759006,4.718558703234043],[118.16446825759006,4.718165474542396],[118.16343184080893,4.717772246067566]]],[[[118.15099483943547,4.7197383906100745],[118.15099483943547,4.719345161267864],[118.15047663104492,4.719345161267864],[118.14995842265436,4.720131620169175],[118.15099483943547,4.7205248499451855],[118.15099483943547,4.720131620169175],[118.15151304782603,4.720131620169175],[118.15151304782603,4.7197383906100745],[118.15099483943547,4.7197383906100745]]],[[[118.14892200587323,4.720131620169175],[118.14944021426379,4.720131620169175],[118.14944021426379,4.7197383906100745],[118.14892200587323,4.7197383906100745],[118.14892200587323,4.719345161267864],[118.14788558909213,4.719345161267864],[118.14788558909213,4.7197383906100745],[118.146849172311,4.7197383906100745],[118.14581275552986,4.720918079938123],[118.146849172311,4.721311310148007],[118.146849172311,4.720918079938123],[118.14788558909213,4.720918079938123],[118.14788558909213,4.7205248499451855],[118.14892200587323,4.7205248499451855],[118.14892200587323,4.720131620169175]]],[[[118.14477633874876,4.722097771218685],[118.14373992196762,4.722491002079518],[118.14425813035818,4.7232774644522575],[118.14529454713932,4.722884233157369],[118.14477633874876,4.722097771218685]]]]},"properties":{"place_id":"eacf99b2-da9a-5905-9e60-61773a904e11","habitat":"forest_edge_opening","habitat_label":"Forest edge or opening","resolution_m":50}},{"type":"Feature","geometry":{"type":"MultiPolygon","coordinates":[[[[118.11286782540772,4.725636856780424],[118.11316562692456,4.725243624182919],[118.11286570994437,4.725243624182919],[118.11286782540772,4.725636856780424]]],[[[118.13130292059417,4.726816555876009],[118.13130292059417,4.72642332262695],[118.13078471220362,4.72642332262695],[118.13078471220362,4.726816555876009],[118.13130292059417,4.726816555876009]]],[[[118.11288263365113,4.72838949104465],[118.11316562692456,4.726030089595094],[118.11286994087105,4.726030089595094],[118.11288263365113,4.72838949104465]]],[[[118.13078471220362,4.72720978934229],[118.13026650381306,4.72720978934229],[118.13026650381306,4.727603023025811],[118.13078471220362,4.727603023025811],[118.13078471220362,4.72720978934229]]],[[[118.13182112898473,4.72720978934229],[118.13130292059417,4.72720978934229],[118.13130292059417,4.727603023025811],[118.13182112898473,4.727603023025811],[118.13182112898473,4.72720978934229]]],[[[118.11288898004116,4.729569194702669],[118.11316562692456,4.72917595993267],[118.1128868645778,4.72917595993267],[118.11288898004116,4.729569194702669]]],[[[118.11886591922071,4.737827175109027],[118.11886591922071,4.737040696650285],[118.11834771083016,4.737040696650285],[118.11834771083016,4.737827175109027],[118.11886591922071,4.737827175109027]]],[[[118.11834771083016,4.738613654438717],[118.11834771083016,4.738220414664995],[118.1178295024396,4.738220414664995],[118.1178295024396,4.738613654438717],[118.11834771083016,4.738613654438717]]],[[[118.11316562692456,4.740579856574311],[118.1129460975514,4.740186615711534],[118.11294821301476,4.740579856574311],[118.11316562692456,4.740579856574311]]],[[[118.11575666887737,4.740973097654955],[118.1152384604868,4.740973097654955],[118.1152384604868,4.7413663389534815],[118.11575666887737,4.7413663389534815],[118.11575666887737,4.740973097654955]]],[[[118.1178295024396,4.74333254871503],[118.1178295024396,4.741759580469913],[118.11731129404903,4.741759580469913],[118.11731129404903,4.74333254871503],[118.1178295024396,4.74333254871503]]],[[[118.1819017104408,4.683168987177447],[118.18208734286912,4.681989360067592],[118.18184761504244,4.681989360067592],[118.1819017104408,4.683168987177447]]],[[[118.15330421309301,4.717379017809533],[118.15358588138827,4.717188232019686],[118.15358588138827,4.71698578976828],[118.15306767299774,4.71698578976828],[118.15330421309301,4.717379017809533]]],[[[118.16395004919949,4.718165474542396],[118.16343184080893,4.718165474542396],[118.16343184080893,4.718190274225148],[118.16395004919949,4.7185218281922126],[118.16395004919949,4.718165474542396]]],[[[118.14892200587323,4.7197383906100745],[118.14788558909213,4.7197383906100745],[118.14788558909213,4.720131620169175],[118.14892200587323,4.720131620169175],[118.14892200587323,4.7197383906100745]]],[[[118.15099483943547,4.720131620169175],[118.15099483943547,4.7197383906100745],[118.15047663104492,4.7197383906100745],[118.15047663104492,4.720131620169175],[118.15099483943547,4.720131620169175]]],[[[118.14788558909213,4.720131620169175],[118.146849172311,4.720131620169175],[118.146849172311,4.7205248499451855],[118.14788558909213,4.7205248499451855],[118.14788558909213,4.720131620169175]]],[[[118.14633096392042,4.720918079938123],[118.146849172311,4.720918079938123],[118.146849172311,4.7205248499451855],[118.14633096392042,4.7205248499451855],[118.14633096392042,4.720918079938123]]],[[[118.14477633874876,4.722884233157369],[118.14477633874876,4.722491002079518],[118.14425813035818,4.722491002079518],[118.14425813035818,4.722884233157369],[118.14477633874876,4.722884233157369]]],[[[118.14373992196762,4.739400134639504],[118.14373992196762,4.739414296453648],[118.14378379447386,4.739400134639504],[118.14373992196762,4.739400134639504]]],[[[118.13441217093754,4.740579856574311],[118.13389396254696,4.740579856574311],[118.13389396254696,4.740973097654955],[118.13441217093754,4.740973097654955],[118.13441217093754,4.740579856574311]]]]},"properties":{"place_id":"eacf99b2-da9a-5905-9e60-61773a904e11","habitat":"open_grassland","habitat_label":"Open grassland or shrubland","resolution_m":50}},{"type":"Feature","geometry":{"type":"MultiPolygon","coordinates":[[[[118.12560262829801,4.738220414664995],[118.12612083668856,4.738220414664995],[118.12612083668856,4.737827175109027],[118.12508441990745,4.737433935770798],[118.12456621151688,4.738220414664995],[118.12508441990745,4.738220414664995],[118.12508441990745,4.738613654438717],[118.12560262829801,4.738613654438717],[118.12560262829801,4.738220414664995]]],[[[118.12715725346969,4.739400134639504],[118.12767546186025,4.739400134639504],[118.12767546186025,4.739006894430213],[118.12663904507912,4.738613654438717],[118.12612083668856,4.739400134639504],[118.12663904507912,4.739400134639504],[118.12663904507912,4.739793375066605],[118.12715725346969,4.739793375066605],[118.12715725346969,4.739400134639504]]]]},"properties":{"place_id":"eacf99b2-da9a-5905-9e60-61773a904e11","habitat":"disturbed_built_edge","habitat_label":"Disturbed, bare or built edge","resolution_m":50}}]}