{"type":"FeatureCollection","metadata":{"schema_version":1,"place_id":"eadaf248-65a2-5ba6-bec8-cd5dff39a8bb","place_name":"BMC Section 9 Park 1","place_type":"park","osm_reference":"way/232239675","protection_context":"no protected status confirmed from included OSM tags","resolution_m":50,"raster_coverage":1.0,"interpretation":"Suggested search habitats, not predicted plant locations or probabilities of presence."},"features":[{"type":"Feature","geometry":{"type":"Polygon","coordinates":[[[101.78752849070213,3.0588722280122704],[101.7883295,3.059508496614836],[101.78853969999997,3.059350996615021],[101.78856490748325,3.058479752262103],[101.7882061,3.0589036966155327],[101.78752849070213,3.0588722280122704]]]},"properties":{"place_id":"eadaf248-65a2-5ba6-bec8-cd5dff39a8bb","habitat":"forest_edge_opening","habitat_label":"Forest edge or opening","resolution_m":50}},{"type":"Feature","geometry":{"type":"Polygon","coordinates":[[[101.78716389999998,3.0587804966156655],[101.78853969999997,3.059350996615021],[101.78875,3.057436296617123],[101.78839349999998,3.057395196617142],[101.7882061,3.0589036966155327],[101.78716389999998,3.0587804966156655]]]},"properties":{"place_id":"eadaf248-65a2-5ba6-bec8-cd5dff39a8bb","habitat":"disturbed_built_edge","habitat_label":"Disturbed, bare or built edge","resolution_m":50}}]}