{"type":"FeatureCollection","metadata":{"schema_version":1,"place_id":"ebc85479-7c86-5e2b-a7c9-4386dcf3a48e","place_name":"Seri Kemang Recreation park","place_type":"park","osm_reference":"way/553971365","protection_context":"no protected status confirmed from included OSM tags","resolution_m":50,"raster_coverage":1.0,"interpretation":"Suggested search habitats, not predicted plant locations or probabilities of presence."},"features":[{"type":"Feature","geometry":{"type":"MultiPolygon","coordinates":[[[[101.8540668327347,2.459321675482991],[101.85437737308446,2.4595419265548375],[101.85437737308446,2.459321675482991],[101.8540668327347,2.459321675482991]]],[[[101.85489558147502,2.459713958769244],[101.8546199278014,2.459713958769244],[101.85489558147502,2.459909466483317],[101.85489558147502,2.459713958769244]]]]},"properties":{"place_id":"ebc85479-7c86-5e2b-a7c9-4386dcf3a48e","habitat":"forest_interior","habitat_label":"Forest interior","resolution_m":50}},{"type":"Feature","geometry":{"type":"MultiPolygon","coordinates":[[[[101.85489558147502,2.4581448262977927],[101.85526199999998,2.4558915972725455],[101.8565123,2.456023297272415],[101.85493056170725,2.45579113095679],[101.8542369968567,2.45775254346052],[101.85437737308446,2.4581448262977927],[101.85489558147502,2.4581448262977927]]],[[[101.85366629999999,2.4590375972690794],[101.85532149999999,2.46007229726795],[101.85541378986557,2.459321675482991],[101.85489558147502,2.459321675482991],[101.85489558147502,2.458537109247284],[101.8540702818461,2.4581448262977927],[101.85366629999999,2.4590375972690794]]]]},"properties":{"place_id":"ebc85479-7c86-5e2b-a7c9-4386dcf3a48e","habitat":"forest_edge_opening","habitat_label":"Forest edge or opening","resolution_m":50}},{"type":"Feature","geometry":{"type":"MultiPolygon","coordinates":[[[[101.85541378986557,2.45579113095679],[101.85497089999998,2.455672497272794],[101.85493056170725,2.45579113095679],[101.85541378986557,2.45579113095679]]],[[[101.85453040568524,2.4569679781225546],[101.85489558147502,2.4565756956218268],[101.8546637910259,2.4565756956218268],[101.85453040568524,2.4569679781225546]]],[[[101.85489558147502,2.4569679781225546],[101.85489558147502,2.456995230127769],[101.85490462944382,2.4569679781225546],[101.85489558147502,2.4569679781225546]]],[[[101.85437737308446,2.4581448262977927],[101.85489558147502,2.4581448262977927],[101.85489558147502,2.4578503749378395],[101.85437737308446,2.45775254346052],[101.85437737308446,2.4581448262977927]]],[[[101.85437737308446,2.458537109247284],[101.8540702818461,2.4581448262977927],[101.85389378905559,2.458537109247284],[101.85437737308446,2.458537109247284]]],[[[101.85489558147502,2.458537109247284],[101.85571510806977,2.458537109247284],[101.8558117,2.4581986972700123],[101.85489558147502,2.4581448262977927],[101.85489558147502,2.458537109247284]]],[[[101.85437737308446,2.459321675482991],[101.85541000167878,2.459713958769244],[101.85541378986557,2.4589293923090114],[101.85437737308446,2.4589293923090114],[101.85437737308446,2.459321675482991]]]]},"properties":{"place_id":"ebc85479-7c86-5e2b-a7c9-4386dcf3a48e","habitat":"open_grassland","habitat_label":"Open grassland or shrubland","resolution_m":50}},{"type":"Feature","geometry":{"type":"MultiPolygon","coordinates":[[[[101.85497089999998,2.455672497272794],[101.85503487161648,2.4565756956218268],[101.85526199999998,2.4558915972725455],[101.8565123,2.456023297272415],[101.85497089999998,2.455672497272794]]],[[[101.85489558147502,2.4565756956218268],[101.8538591646939,2.4589293923090114],[101.85437737308446,2.4589293923090114],[101.85437737308446,2.459321675482991],[101.85541378986557,2.459321675482991],[101.85541378986557,2.459698521736412],[101.8558117,2.4581986972700123],[101.8546229,2.4577466972705104],[101.85489558147502,2.4565756956218268]]]]},"properties":{"place_id":"ebc85479-7c86-5e2b-a7c9-4386dcf3a48e","habitat":"disturbed_built_edge","habitat_label":"Disturbed, bare or built edge","resolution_m":50}},{"type":"Feature","geometry":{"type":"Polygon","coordinates":[[[101.85541378986557,2.459321675482991],[101.85541378986557,2.459698521736412],[101.85550626645897,2.459321675482991],[101.85541378986557,2.459321675482991]]]},"properties":{"place_id":"ebc85479-7c86-5e2b-a7c9-4386dcf3a48e","habitat":"cropland","habitat_label":"Cropland","resolution_m":50}},{"type":"Feature","geometry":{"type":"MultiPolygon","coordinates":[[[[101.85489558147502,2.455894006757231],[101.8546637910259,2.4565756956218268],[101.85489558147502,2.4565756956218268],[101.85489558147502,2.455894006757231]]],[[[101.85437737308446,2.4581448262977927],[101.85437737308446,2.457415788243703],[101.8540702818461,2.4581448262977927],[101.85437737308446,2.4581448262977927]]],[[[101.8538591646939,2.4589293923090114],[101.8538591646939,2.4586132846727935],[101.85371548287665,2.4589293923090114],[101.8538591646939,2.4589293923090114]]]]},"properties":{"place_id":"ebc85479-7c86-5e2b-a7c9-4386dcf3a48e","habitat":"permanent_water","habitat_label":"Permanent water","resolution_m":50}},{"type":"Feature","geometry":{"type":"MultiPolygon","coordinates":[[[[101.85489558147502,2.455894006757231],[101.85479717636657,2.4561834132332443],[101.85489558147502,2.4561834132332443],[101.85489558147502,2.455894006757231]]],[[[101.8538591646939,2.4586132846727935],[101.85371548287665,2.4589293923090114],[101.8538591646939,2.4589293923090114],[101.8538591646939,2.4586132846727935]]]]},"properties":{"place_id":"ebc85479-7c86-5e2b-a7c9-4386dcf3a48e","habitat":"seasonal_water_wetland","habitat_label":"Seasonal water or wetland","resolution_m":50}},{"type":"Feature","geometry":{"type":"Polygon","coordinates":[[[101.8538591646939,2.4589293923090114],[101.85437737308446,2.4595419265548375],[101.85489558147502,2.4581448262977927],[101.85541378986557,2.4581448262977927],[101.8546229,2.4577466972705104],[101.85526199999998,2.4558915972725455],[101.85593199825614,2.4558944861176464],[101.85497089999998,2.455672497272794],[101.8538591646939,2.4589293923090114]]]},"properties":{"place_id":"ebc85479-7c86-5e2b-a7c9-4386dcf3a48e","habitat":"water_edge","habitat_label":"Water edge","resolution_m":50}}]}