{"type":"FeatureCollection","metadata":{"schema_version":1,"place_id":"ec843aec-2973-574f-81f9-4ed82e9c1489","place_name":"Kompleks Tugu Negara","place_type":"park","osm_reference":"way/1028079262","protection_context":"no protected status confirmed from included OSM tags","resolution_m":50,"raster_coverage":1.0,"interpretation":"Suggested search habitats, not predicted plant locations or probabilities of presence."},"features":[{"type":"Feature","geometry":{"type":"MultiPolygon","coordinates":[[[[101.68361559980657,3.15032292782868],[101.68411370588478,3.1487528934155002],[101.68337035691012,3.1487528934155002],[101.68361559980657,3.15032292782868]]],[[[101.68440502098056,3.15032292782868],[101.68388681259,3.15032292782868],[101.68388681259,3.1505707768820637],[101.6841158,3.1507145965161354],[101.68440502098056,3.15032292782868]]]]},"properties":{"place_id":"ec843aec-2973-574f-81f9-4ed82e9c1489","habitat":"forest_interior","habitat_label":"Forest interior","resolution_m":50}},{"type":"Feature","geometry":{"type":"MultiPolygon","coordinates":[[[[101.68411370588478,3.1487528934155002],[101.68421049999999,3.1481550965189435],[101.6834014,3.148106996518972],[101.68337035691012,3.1487528934155002],[101.68411370588478,3.1487528934155002]]],[[[101.68336860419944,3.150006267118787],[101.683361,3.1500340965168943],[101.68336860419944,3.150040606486854],[101.68336860419944,3.150006267118787]]],[[[101.68388681259,3.1495379103340744],[101.68388681259,3.15032292782868],[101.68440502098056,3.1504740488813465],[101.6848153,3.1500206965169055],[101.68388681259,3.1495379103340744]]],[[[101.68388681259,3.15032292782868],[101.68361559980657,3.15032292782868],[101.68388681259,3.1505707768820637],[101.68388681259,3.15032292782868]]]]},"properties":{"place_id":"ec843aec-2973-574f-81f9-4ed82e9c1489","habitat":"forest_edge_opening","habitat_label":"Forest edge or opening","resolution_m":50}},{"type":"Feature","geometry":{"type":"Polygon","coordinates":[[[101.68336860419944,3.1483603851721793],[101.68417726005292,3.1483603851721793],[101.68421049999999,3.1481550965189435],[101.68355549999998,3.148065796519014],[101.68336860419944,3.1483603851721793]]]},"properties":{"place_id":"ec843aec-2973-574f-81f9-4ed82e9c1489","habitat":"open_grassland","habitat_label":"Open grassland or shrubland","resolution_m":50}},{"type":"Feature","geometry":{"type":"MultiPolygon","coordinates":[[[[101.68417726005292,3.1483603851721793],[101.6834014,3.148106996518972],[101.6833315,3.148178796518884],[101.68336860419944,3.148726997737861],[101.68336860419944,3.1483603851721793],[101.68417726005292,3.1483603851721793]]],[[[101.68336860419944,3.150006267118787],[101.683361,3.1500340965168943],[101.68336860419944,3.150040606486854],[101.68336860419944,3.150006267118787]]],[[[101.68388681259,3.1495379103340744],[101.68388681259,3.15032292782868],[101.68440502098056,3.1504740488813465],[101.6848153,3.1500206965169055],[101.68388681259,3.1495379103340744]]],[[[101.68388681259,3.15032292782868],[101.68361559980657,3.15032292782868],[101.68388681259,3.1505707768820637],[101.68388681259,3.15032292782868]]]]},"properties":{"place_id":"ec843aec-2973-574f-81f9-4ed82e9c1489","habitat":"disturbed_built_edge","habitat_label":"Disturbed, bare or built edge","resolution_m":50}}]}