{"type":"FeatureCollection","metadata":{"schema_version":1,"place_id":"ec98b516-4168-504d-9068-60f53e4ca27e","place_name":"The Central Park","place_type":"park","osm_reference":"way/182386182","protection_context":"no protected status confirmed from included OSM tags","resolution_m":50,"raster_coverage":1.0,"interpretation":"Suggested search habitats, not predicted plant locations or probabilities of presence."},"features":[{"type":"Feature","geometry":{"type":"Polygon","coordinates":[[[101.62999313997169,3.187677135006508],[101.62947493158113,3.187611925088835],[101.62947493158113,3.1876634222505698],[101.62999313997169,3.187677135006508]]]},"properties":{"place_id":"ec98b516-4168-504d-9068-60f53e4ca27e","habitat":"forest_interior","habitat_label":"Forest interior","resolution_m":50}},{"type":"Feature","geometry":{"type":"Polygon","coordinates":[[[101.62792030640945,3.1856493136247463],[101.6269459,3.185976496478053],[101.62699969999998,3.1864900964774847],[101.62514689999998,3.1870190964769236],[101.62553999999997,3.1877031964761775],[101.62767959999998,3.186480696477496],[101.6288648,3.187648396476247],[101.63016280000001,3.187680696476224],[101.6315702,3.185893696478145],[101.63255499999998,3.1858554964781858],[101.6325724,3.1865505964774083],[101.63306069999999,3.186526696477454],[101.6329222,3.185477596478588],[101.63199409999999,3.1842791964798907],[101.6306028,3.1863427964776445],[101.6299044,3.18503399647907],[101.62897509999999,3.185253296478818],[101.6294953,3.1853535964787345],[101.62929289999998,3.18628539647771],[101.62792030640945,3.1856493136247463]],[[101.62947493158113,3.1864343577732375],[101.62999313997169,3.1864343577732375],[101.62999313997169,3.1868268800660373],[101.62947493158113,3.1868268800660373],[101.62947493158113,3.1864343577732375]]]},"properties":{"place_id":"ec98b516-4168-504d-9068-60f53e4ca27e","habitat":"forest_edge_opening","habitat_label":"Forest edge or opening","resolution_m":50}},{"type":"Feature","geometry":{"type":"MultiPolygon","coordinates":[[[[101.6325841819245,3.1849696366862648],[101.63161642388927,3.1848642700589442],[101.63158255352333,3.185256791769018],[101.6325841819245,3.185256791769018],[101.6325841819245,3.1849696366862648]]],[[[101.6325841819245,3.186550019807331],[101.63255966451152,3.186041835626147],[101.6325724,3.1865505964774083],[101.6325841819245,3.186550019807331]]]]},"properties":{"place_id":"ec98b516-4168-504d-9068-60f53e4ca27e","habitat":"open_grassland","habitat_label":"Open grassland or shrubland","resolution_m":50}},{"type":"Feature","geometry":{"type":"Polygon","coordinates":[[[101.6315477651434,3.1856493136247463],[101.6325841819245,3.185256791769018],[101.6325724,3.1865505964774083],[101.63306069999999,3.186526696477454],[101.6329222,3.185477596478588],[101.63199409999999,3.1842791964798907],[101.63063469999999,3.1863289964776946],[101.6302285,3.186253596477748],[101.6299044,3.18503399647907],[101.62897509999999,3.185253296478818],[101.6294953,3.1853535964787345],[101.62929289999998,3.18628539647771],[101.6282757,3.186087696477923],[101.62795119999998,3.185612196478418],[101.6269459,3.185976496478053],[101.62699969999998,3.1864900964774847],[101.62521749999999,3.1872548964766807],[101.62553999999997,3.1877031964761775],[101.62804109999999,3.186492396477495],[101.6288648,3.187648396476247],[101.63016280000001,3.187680696476224],[101.6315477651434,3.1856493136247463]],[[101.62895672319058,3.1864343577732375],[101.62999313997169,3.186041835626147],[101.63051134836226,3.1868268800660373],[101.62999313997169,3.1868268800660373],[101.62999313997169,3.187219402504564],[101.62895672319058,3.187219402504564],[101.62895672319058,3.1864343577732375]]]},"properties":{"place_id":"ec98b516-4168-504d-9068-60f53e4ca27e","habitat":"disturbed_built_edge","habitat_label":"Disturbed, bare or built edge","resolution_m":50}},{"type":"Feature","geometry":{"type":"Polygon","coordinates":[[[101.62999313997169,3.187219402504564],[101.63051134836226,3.1864343577732375],[101.62947493158113,3.186041835626147],[101.62947493158113,3.1864343577732375],[101.62895672319058,3.1864343577732375],[101.62895672319058,3.187219402504564],[101.62999313997169,3.187219402504564]]]},"properties":{"place_id":"ec98b516-4168-504d-9068-60f53e4ca27e","habitat":"permanent_water","habitat_label":"Permanent water","resolution_m":50}},{"type":"Feature","geometry":{"type":"Polygon","coordinates":[[[101.62999313997169,3.187219402504564],[101.62999313997169,3.1868268800660373],[101.62947493158113,3.1868268800660373],[101.62947493158113,3.187219402504564],[101.62999313997169,3.187219402504564]]]},"properties":{"place_id":"ec98b516-4168-504d-9068-60f53e4ca27e","habitat":"seasonal_water_wetland","habitat_label":"Seasonal water or wetland","resolution_m":50}},{"type":"Feature","geometry":{"type":"Polygon","coordinates":[[[101.62895672319058,3.187611925088835],[101.63016334652752,3.187611925088835],[101.63102955675282,3.1864179824008367],[101.63102955675282,3.186041835626147],[101.63025489999997,3.186285296477704],[101.62996198229214,3.185256791769018],[101.62947493158113,3.185256791769018],[101.62929289999998,3.18628539647771],[101.62861865358342,3.186041835626147],[101.62792030640945,3.1864343577732375],[101.62895672319058,3.187611925088835]],[[101.62895672319058,3.1864343577732375],[101.62999313997169,3.186041835626147],[101.63051134836226,3.1868268800660373],[101.62999313997169,3.1868268800660373],[101.62999313997169,3.187219402504564],[101.62895672319058,3.187219402504564],[101.62895672319058,3.1864343577732375]]]},"properties":{"place_id":"ec98b516-4168-504d-9068-60f53e4ca27e","habitat":"water_edge","habitat_label":"Water edge","resolution_m":50}}]}