{"type":"FeatureCollection","metadata":{"schema_version":1,"place_id":"ecb331b4-9b4c-5c16-9046-59ad46eacdd8","place_name":"Orchid Park","place_type":"park","osm_reference":"way/353343807","protection_context":"no protected status confirmed from included OSM tags","resolution_m":50,"raster_coverage":1.0,"interpretation":"Suggested search habitats, not predicted plant locations or probabilities of presence."},"features":[{"type":"Feature","geometry":{"type":"MultiPolygon","coordinates":[[[[110.34781289437336,1.5655643009516085],[110.34810140153492,1.5655643009516085],[110.34781289437336,1.565092447247451],[110.34781289437336,1.5655643009516085]]],[[[110.34694968928875,1.5659563750004757],[110.34729468598279,1.5667405233123803],[110.34833110276392,1.5663484491207271],[110.34781289437336,1.5655643009516085],[110.34694968928875,1.5659563750004757]]],[[[110.34833110276392,1.5667405233123803],[110.34884931115448,1.5667405233123803],[110.34849210040886,1.5663484491207271],[110.34833110276392,1.5663484491207271],[110.34833110276392,1.5667405233123803]]],[[[110.34833110276392,1.5675246719099631],[110.34781289437336,1.5675246719099631],[110.34781289437336,1.5678874171958472],[110.34930849999999,1.5673676982523348],[110.34886432393182,1.5667405233123803],[110.34833110276392,1.5675246719099631]]]]},"properties":{"place_id":"ecb331b4-9b4c-5c16-9046-59ad46eacdd8","habitat":"forest_interior","habitat_label":"Forest interior","resolution_m":50}},{"type":"Feature","geometry":{"type":"MultiPolygon","coordinates":[[[[110.34677647759224,1.5653539772561949],[110.34729468598279,1.5659563750004757],[110.34729468598279,1.5655643009516085],[110.34781289437336,1.5655643009516085],[110.3477469,1.5647548982552144],[110.3468409,1.5645631982554074],[110.34677647759224,1.5653539772561949]]],[[[110.34781289437336,1.5659563750004757],[110.34810140153492,1.5655643009516085],[110.34781289437336,1.5655643009516085],[110.34781289437336,1.5659563750004757]]],[[[110.34833110276392,1.5663484491207271],[110.34849210040886,1.5663484491207271],[110.34833110276392,1.5662798686473323],[110.34833110276392,1.5663484491207271]]],[[[110.34884931115448,1.5667405233123803],[110.34886432393182,1.5667405233123803],[110.34884931115448,1.5667309725428673],[110.34884931115448,1.5667405233123803]]],[[[110.34833110276392,1.5671325975754526],[110.34884931115448,1.5671325975754526],[110.34833110276392,1.5663484491207271],[110.34781289437336,1.5663484491207271],[110.34781289437336,1.5667405233123803],[110.34704919966788,1.5663484491207271],[110.34756639999999,1.568024698251581],[110.34833110276392,1.5671325975754526]]],[[[110.34884931115448,1.5676007090074864],[110.34899915567874,1.5675246719099631],[110.34884931115448,1.5675246719099631],[110.34884931115448,1.5676007090074864]]]]},"properties":{"place_id":"ecb331b4-9b4c-5c16-9046-59ad46eacdd8","habitat":"forest_edge_opening","habitat_label":"Forest edge or opening","resolution_m":50}},{"type":"Feature","geometry":{"type":"Polygon","coordinates":[[[110.34677647759224,1.564893336681506],[110.34674939999996,1.5650320982548993],[110.34677647759224,1.5653539772561949],[110.34677647759224,1.564893336681506]]]},"properties":{"place_id":"ecb331b4-9b4c-5c16-9046-59ad46eacdd8","habitat":"open_grassland","habitat_label":"Open grassland or shrubland","resolution_m":50}},{"type":"Feature","geometry":{"type":"MultiPolygon","coordinates":[[[[110.34694968928875,1.5659563750004757],[110.34729468598279,1.5655643009516085],[110.34781289437336,1.5655643009516085],[110.3477469,1.5647548982552144],[110.3468409,1.5645631982554074],[110.34694968928875,1.5659563750004757]]],[[[110.34781289437336,1.5659563750004757],[110.34810140153492,1.5655643009516085],[110.34781289437336,1.5655643009516085],[110.34781289437336,1.5659563750004757]]],[[[110.34833110276392,1.5663484491207271],[110.34849210040886,1.5663484491207271],[110.34833110276392,1.5662798686473323],[110.34833110276392,1.5663484491207271]]],[[[110.34884931115448,1.5667405233123803],[110.34886432393182,1.5667405233123803],[110.34884931115448,1.5667309725428673],[110.34884931115448,1.5667405233123803]]],[[[110.34884931115448,1.5667405233123803],[110.34833110276392,1.5667405233123803],[110.34833110276392,1.5663484491207271],[110.34729468598279,1.5667405233123803],[110.34704919966788,1.5663484491207271],[110.34739312156316,1.5675246719099631],[110.34833110276392,1.5675246719099631],[110.34884931115448,1.5667405233123803]]],[[[110.34884931115448,1.5676007090074864],[110.34899915567874,1.5675246719099631],[110.34884931115448,1.5675246719099631],[110.34884931115448,1.5676007090074864]]]]},"properties":{"place_id":"ecb331b4-9b4c-5c16-9046-59ad46eacdd8","habitat":"disturbed_built_edge","habitat_label":"Disturbed, bare or built edge","resolution_m":50}}]}