{"type":"FeatureCollection","metadata":{"schema_version":1,"place_id":"ed085f69-7259-56ef-8501-a7b8a4188b2f","place_name":"Taman Permainan Jalan Enggang","place_type":"park","osm_reference":"way/261849255","protection_context":"no protected status confirmed from included OSM tags","resolution_m":50,"raster_coverage":1.0,"interpretation":"Suggested search habitats, not predicted plant locations or probabilities of presence."},"features":[{"type":"Feature","geometry":{"type":"Polygon","coordinates":[[[103.639707,1.6644003981447766],[103.64012348695641,1.6635850810729118],[103.63960527856587,1.6635850810729118],[103.639707,1.6644003981447766]]]},"properties":{"place_id":"ed085f69-7259-56ef-8501-a7b8a4188b2f","habitat":"forest_edge_opening","habitat_label":"Forest edge or opening","resolution_m":50}},{"type":"Feature","geometry":{"type":"MultiPolygon","coordinates":[[[[103.64051335376118,1.6635850810729118],[103.6401316100777,1.6631929886964585],[103.64012348695641,1.6635850810729118],[103.64051335376118,1.6635850810729118]]],[[[103.63960527856587,1.6639771735252096],[103.64012348695641,1.6639771735252096],[103.64012348695641,1.6635850810729118],[103.63960527856587,1.6635850810729118],[103.63960527856587,1.6639771735252096]]]]},"properties":{"place_id":"ed085f69-7259-56ef-8501-a7b8a4188b2f","habitat":"open_grassland","habitat_label":"Open grassland or shrubland","resolution_m":50}},{"type":"Feature","geometry":{"type":"Polygon","coordinates":[[[103.639707,1.6644003981447766],[103.64067369999998,1.6633827981459157],[103.6403141,1.6630979981462037],[103.63930069999999,1.663625498145626],[103.639707,1.6644003981447766]]]},"properties":{"place_id":"ed085f69-7259-56ef-8501-a7b8a4188b2f","habitat":"disturbed_built_edge","habitat_label":"Disturbed, bare or built edge","resolution_m":50}}]}