{"type":"FeatureCollection","metadata":{"schema_version":1,"place_id":"ed58a3b5-b010-58b0-8890-67f4b955a197","place_name":"Taman Poket Jalan Bayu","place_type":"park","osm_reference":"way/995120839","protection_context":"no protected status confirmed from included OSM tags","resolution_m":50,"raster_coverage":1.0,"interpretation":"Suggested search habitats, not predicted plant locations or probabilities of presence."},"features":[{"type":"Feature","geometry":{"type":"Polygon","coordinates":[[[100.25610407661281,5.47909727858712],[100.25597589999998,5.479270094076649],[100.25617429999998,5.479143094076784],[100.25610407661281,5.47909727858712]]]},"properties":{"place_id":"ed58a3b5-b010-58b0-8890-67f4b955a197","habitat":"forest_interior","habitat_label":"Forest interior","resolution_m":50}},{"type":"Feature","geometry":{"type":"Polygon","coordinates":[[[100.25610407661281,5.47909727858712],[100.2559491,5.47904899407687],[100.25590706948148,5.47909727858712],[100.25610407661281,5.47909727858712]]]},"properties":{"place_id":"ed58a3b5-b010-58b0-8890-67f4b955a197","habitat":"forest_edge_opening","habitat_label":"Forest edge or opening","resolution_m":50}},{"type":"Feature","geometry":{"type":"Polygon","coordinates":[[[100.25610407661281,5.47909727858712],[100.2559491,5.47904899407687],[100.25590706948148,5.47909727858712],[100.25610407661281,5.47909727858712]]]},"properties":{"place_id":"ed58a3b5-b010-58b0-8890-67f4b955a197","habitat":"disturbed_built_edge","habitat_label":"Disturbed, bare or built edge","resolution_m":50}}]}