{"type":"FeatureCollection","metadata":{"schema_version":1,"place_id":"ed681c32-da3a-5d5a-8ba7-2b146de9951f","place_name":"Kijang Park","place_type":"park","osm_reference":"way/493182564","protection_context":"no protected status confirmed from included OSM tags","resolution_m":50,"raster_coverage":1.0,"interpretation":"Suggested search habitats, not predicted plant locations or probabilities of presence."},"features":[{"type":"Feature","geometry":{"type":"Polygon","coordinates":[[[103.9135422,1.494051398333632],[103.91477393395357,1.4946000558780177],[103.91529214234413,1.4938159332357115],[103.9135422,1.494051398333632]]]},"properties":{"place_id":"ed681c32-da3a-5d5a-8ba7-2b146de9951f","habitat":"forest_edge_opening","habitat_label":"Forest edge or opening","resolution_m":50}},{"type":"Feature","geometry":{"type":"Polygon","coordinates":[[[103.91477393395357,1.4946000558780177],[103.91477393395357,1.494207994522811],[103.914255725563,1.494207994522811],[103.914255725563,1.4946000558780177],[103.91477393395357,1.4946000558780177]]]},"properties":{"place_id":"ed681c32-da3a-5d5a-8ba7-2b146de9951f","habitat":"open_grassland","habitat_label":"Open grassland or shrubland","resolution_m":50}},{"type":"Feature","geometry":{"type":"Polygon","coordinates":[[[103.9135422,1.494051398333632],[103.91470129999999,1.4948559983327663],[103.91562179999998,1.4941159983335655],[103.9153202,1.4937547983339874],[103.9135422,1.494051398333632]]]},"properties":{"place_id":"ed681c32-da3a-5d5a-8ba7-2b146de9951f","habitat":"disturbed_built_edge","habitat_label":"Disturbed, bare or built edge","resolution_m":50}}]}