{"type":"FeatureCollection","metadata":{"schema_version":1,"place_id":"ede3fd06-3267-508a-b5b5-58ddbd732045","place_name":"Hutan Simpanan Kekal Ulu Sat","place_type":"park","osm_reference":"relation/18092715","protection_context":"mapped protected boundary","resolution_m":50,"raster_coverage":1.0,"interpretation":"Suggested search habitats, not predicted plant locations or probabilities of presence."},"features":[{"type":"Feature","geometry":{"type":"MultiPolygon","coordinates":[[[[102.28086287851586,5.660218222260099],[102.2811318141202,5.660218222260099],[102.28086287851586,5.660089903785067],[102.28086287851586,5.660218222260099]]],[[[102.28138108690642,5.660612022979232],[102.28174299321103,5.660612022979232],[102.28138108690642,5.66033715894954],[102.28138108690642,5.660612022979232]]],[[[102.28086287851586,5.661005823959531],[102.28138108690642,5.661005823959531],[102.28138108690642,5.660612022979232],[102.28086287851586,5.660612022979232],[102.28086287851586,5.661005823959531]]],[[[102.28192171358089,5.661005823959531],[102.28189929529698,5.660956426430045],[102.28189929529698,5.661005823959531],[102.28192171358089,5.661005823959531]]],[[[102.28241750368755,5.662187228467602],[102.2824578746905,5.662187228467602],[102.28241750368755,5.662098272875889],[102.28241750368755,5.662187228467602]]],[[[102.37621322237902,5.682271465242769],[102.3763432344071,5.682271465242769],[102.37621322237902,5.6822345628878335],[102.37621322237902,5.682271465242769]]],[[[102.3777678475507,5.703537871074318],[102.37764243801227,5.703537871074318],[102.3777678475507,5.703624010495005],[102.3777678475507,5.703537871074318]]],[[[102.25443425059727,5.7181097402081456],[102.25391604220671,5.7181097402081456],[102.25391604220671,5.716140547613404],[102.25287962542559,5.715746709885915],[102.25287962542559,5.714959035222249],[102.25236141703503,5.714959035222249],[102.25236141703503,5.714171361613538],[102.25184320864447,5.714171361613538],[102.25132500025391,5.712596017560391],[102.2502885834728,5.712202182206219],[102.2502885834728,5.711414512288679],[102.24821574991054,5.71023300938911],[102.24821574991054,5.709445342107001],[102.24717933312944,5.709445342107001],[102.24717933312944,5.709051508861174],[102.2461429163483,5.708657675878805],[102.2461429163483,5.707870010704372],[102.24562470795773,5.707870010704372],[102.24562470795773,5.7074761785122705],[102.24458829117663,5.7074761785122705],[102.24458829117663,5.707082346583553],[102.24407008278607,5.707082346583553],[102.24407008278607,5.706688514918199],[102.2435518743955,5.706688514918199],[102.2435518743955,5.706294683516197],[102.24147904083325,5.705113190890078],[102.24147904083325,5.70432553045573],[102.24044262405214,5.70432553045573],[102.24044262405214,5.703931700633414],[102.23992441566158,5.703931700633414],[102.23992441566158,5.703537871074318],[102.23940620727102,5.703537871074318],[102.23940620727102,5.703144041778421],[102.23785158209934,5.702311042510668],[102.23661099999998,5.7040471938510535],[102.2388481,5.705990893849105],[102.24037999999997,5.705506993849579],[102.2426009,5.70711199384799],[102.24571339999999,5.708563693846552],[102.2472534,5.71185429384327],[102.2468481,5.713354393841768],[102.24770729999999,5.715386793839729],[102.2486313,5.7152254938398945],[102.2531865,5.718887093836214],[102.25443425059727,5.718922784720182],[102.25391604220671,5.71889741909313],[102.25443425059727,5.7181097402081456]]],[[[102.39983039999998,5.773236093782029],[102.39845288211684,5.762221387688316],[102.39797797478256,5.762221387688316],[102.397999,5.759949893795263],[102.39497590000002,5.759558593795682],[102.3937946,5.7601264937951075],[102.3929535,5.75953959379568],[102.3936243,5.757894093797301],[102.39452582461765,5.757101115091738],[102.39435051604865,5.756707249829601],[102.39510136011252,5.756313384833181],[102.39460229999997,5.7534478938017735],[102.39400629999999,5.752621993802553],[102.3949111,5.7500794938051145],[102.39445729999998,5.749379493805794],[102.39354709999998,5.749132693806057],[102.39355899999997,5.7485630938065935],[102.39423169999999,5.747749193807423],[102.3945863,5.748077993807082],[102.39530239999999,5.747995593807206],[102.39641620000002,5.749534393805665],[102.39795049999998,5.753365293801825],[102.3990143915637,5.754080519597768],[102.4005782,5.753981593801215],[102.4023114,5.755811593799373],[102.4036737,5.756239093798975],[102.4042318,5.755286793799896],[102.4050606,5.755155093800039],[102.4048751,5.7540857938011],[102.4056503,5.7534739938017365],[102.4074635,5.7534202938017875],[102.40757449999998,5.7529750938022115],[102.40567649999998,5.750683593804507],[102.40580999999999,5.746693693808464],[102.4042127,5.746279193808896],[102.4040775,5.745762793809418],[102.40498269999998,5.745135393810037],[102.4050069,5.744387493810796],[102.40379679999998,5.742555293812617],[102.4040942,5.741058293814105],[102.4050886,5.740565293814591],[102.40759590000002,5.742285493812889],[102.4084288,5.741651993813516],[102.4099258,5.741898193813253],[102.41174999999998,5.744028393811156],[102.41227989999999,5.746300193808901],[102.4134243,5.746841393808338],[102.41347900604725,5.747254563210651],[102.4154568,5.747939393807234],[102.41798729999996,5.747794593807375],[102.41896485891871,5.747254563210651],[102.418706310405,5.7468607045858535],[102.41922451879557,5.7468607045858535],[102.41922451879557,5.745679130302891],[102.4197427271861,5.745679130302891],[102.4197427271861,5.745285272738983],[102.42077914396724,5.745821293869356],[102.42129735235781,5.745175872512692],[102.42077914396724,5.744497558406681],[102.42129735235781,5.744497558406681],[102.42129735235781,5.744103701638247],[102.42233376913892,5.744103701638247],[102.42233376913892,5.744497558406681],[102.42388839431061,5.7443301551438175],[102.42388839431061,5.743315988896722],[102.42337018592005,5.743315988896722],[102.42337018592005,5.741740566594514],[102.42233376913892,5.741346711681528],[102.42233376913892,5.740559002650509],[102.42285197752948,5.740559002650509],[102.42285197752948,5.740165148532436],[102.42233376913892,5.740165148532436],[102.42129735235781,5.738983587767747],[102.42181556074836,5.738983587767747],[102.42181556074836,5.7378020293869545],[102.42233376913892,5.7378020293869545],[102.42233376913892,5.737408177123026],[102.42492481109171,5.737014325123898],[102.42492481109171,5.736620473389556],[102.42539923364802,5.736620473389556],[102.417061,5.72406979383108],[102.4167694,5.722101593833037],[102.41540650000002,5.7209805938341445],[102.41208559999998,5.721174893833953],[102.4068028,5.714390893840734],[102.4070931,5.713575293841527],[102.40342229999999,5.712077293843038],[102.400511,5.703933293851179],[102.3991005,5.703203293851878],[102.39857309999998,5.69978479385533],[102.3975134,5.6974225938576515],[102.39560949999999,5.696621493858482],[102.39413579999997,5.697478593857622],[102.392346,5.700013793855091],[102.38987119999999,5.6982097938569],[102.3871403,5.697278893857798],[102.3862951,5.695377793859706],[102.3852276,5.694437193860677],[102.38440199999998,5.694484993860621],[102.38327669999998,5.693325993861773],[102.38117729999999,5.692893493862207],[102.3799379,5.6919877938631025],[102.37968410000002,5.690367093864707],[102.3803478,5.688882293866218],[102.37847339999999,5.6837003938713915],[102.37881269999997,5.682972393872136],[102.37673143076958,5.682381650138312],[102.37621322237902,5.6830590962511724],[102.37569501398845,5.6830590962511724],[102.37569501398845,5.6826652806158675],[102.3751768055979,5.6826652806158675],[102.37569501398845,5.68208747567393],[102.37448029999999,5.681742693873351],[102.37079849999999,5.681819493873277],[102.368058,5.682618693872449],[102.36434699999997,5.675658393879456],[102.36170338744333,5.673514730105736],[102.36066697066221,5.6732137839884285],[102.36101013352537,5.6728199749027635],[102.36026574191517,5.672032357516639],[102.35911234549052,5.671638549216147],[102.35898629999998,5.670552793884549],[102.35630821027056,5.6696695116386175],[102.35341205319436,5.6696695116386175],[102.35341205319436,5.669275704907968],[102.35185742802267,5.669275704907968],[102.35185742802267,5.6696695116386175],[102.35133921963211,5.6696695116386175],[102.35133921963211,5.669275704907968],[102.35030280285099,5.669015708245526],[102.34978459446043,5.6696695116386175],[102.34874817767931,5.6696695116386175],[102.34822996928875,5.668881898438894],[102.34523269999998,5.6680747938869995],[102.3421138,5.668587193886527],[102.3397536,5.671374693883732],[102.3365539,5.671703193883373],[102.3332499,5.670364693884741],[102.33168759999998,5.667596793887499],[102.32859899999998,5.663716593891373],[102.32439238332297,5.665337651985045],[102.32337079999999,5.665405993889702],[102.3210104,5.668043993887075],[102.3172947,5.668442493886663],[102.31402729999999,5.669679393885415],[102.30999979999999,5.669741893885347],[102.30874569999999,5.670175593884925],[102.30559789999998,5.669270693885826],[102.3025222,5.6669514938881225],[102.30248827976163,5.665731456100779],[102.30159121413828,5.665337651985045],[102.3016441,5.663971093891124],[102.30062249999999,5.663289993891813],[102.29880390000001,5.66425129389086],[102.2958021,5.664899093890209],[102.2956284,5.665427493889648],[102.2925249,5.665281593889833],[102.2920982,5.665809393889271],[102.288693,5.666881593888225],[102.28811779598371,5.665337651985045],[102.28656317081203,5.665337651985045],[102.28656317081203,5.666125260477921],[102.28552675403091,5.666519065116488],[102.28552675403091,5.666125260477921],[102.28500854564035,5.666125260477921],[102.28552675403091,5.665337651985045],[102.28500854564035,5.665337651985045],[102.2841476,5.663857093891238],[102.28138108690642,5.662581030492749],[102.28086287851586,5.661005823959531],[102.2803446701253,5.661005823959531],[102.2803446701253,5.660612022979232],[102.27982646173474,5.660612022979232],[102.27982646173474,5.659824421802113],[102.27930825334418,5.659824421802113],[102.27930825334418,5.659430621605253],[102.27979694848779,5.659430621605253],[102.27930825334418,5.658643021994846],[102.27879004495361,5.658643021994846],[102.27879004495361,5.657461624537226],[102.27930825334418,5.657461624537226],[102.27930825334418,5.657067825906743],[102.28001339999999,5.657130993897959],[102.28024920000001,5.654636393900469],[102.27868460000002,5.655011793900077],[102.27718050000001,5.654340893900755],[102.27567399999998,5.654543893900544],[102.27414220000001,5.655735893899369],[102.24449480000001,5.660602593894507],[102.24264169999996,5.662684893892426],[102.2425213603926,5.6751828333435625],[102.24303366600493,5.6751828333435625],[102.24303366600493,5.675576644000079],[102.24251579214203,5.675576644000079],[102.24251545761437,5.676364266098754],[102.24303366600493,5.676364266098754],[102.24303366600493,5.676758077540947],[102.24251545761437,5.676758077540947],[102.24251545761437,5.6771518892450725],[102.2368582,5.678350693876751],[102.23655019999998,5.679842793875246],[102.2353466,5.679862993875247],[102.23635442451634,5.684240544730538],[102.23681516531822,5.684240544730538],[102.23644509085501,5.684634361414869],[102.23694739999999,5.685881893869199],[102.2360578,5.6866016938685],[102.2367164,5.686948593868148],[102.2363233,5.687222793867877],[102.2376282,5.687654293867424],[102.2376647,5.690053793865048],[102.24113379999999,5.693287993861819],[102.24086629999998,5.698465993856635],[102.24034759999999,5.699780593855316],[102.23888799888046,5.701174899246248],[102.23940620727102,5.701174899246248],[102.23940620727102,5.701568727226435],[102.23992441566158,5.701568727226435],[102.23992441566158,5.701962555469729],[102.24044262405214,5.701962555469729],[102.24044262405214,5.702356383976143],[102.2409608324427,5.702356383976143],[102.24251545761437,5.703931700633414],[102.2435518743955,5.703931700633414],[102.2435518743955,5.70432553045573],[102.24458829117663,5.704719360541277],[102.24458829117663,5.705507021502154],[102.2461429163483,5.706294683516197],[102.2461429163483,5.707082346583553],[102.24717933312944,5.707082346583553],[102.24821574991054,5.708263843159878],[102.2502885834728,5.708263843159878],[102.2502885834728,5.708657675878805],[102.25236141703503,5.709839175616305],[102.25236141703503,5.712202182206219],[102.25287962542559,5.712202182206219],[102.25287962542559,5.712596017560391],[102.25339783381615,5.712596017560391],[102.25339783381615,5.713383689059634],[102.25443425059727,5.713777525204745],[102.25443425059727,5.714959035222249],[102.25495245898783,5.714959035222249],[102.25495245898783,5.715746709885915],[102.25547066737839,5.715746709885915],[102.25547066737839,5.716534385604686],[102.25598887576895,5.716534385604686],[102.25598887576895,5.718881277477554],[102.2571379,5.720141193834961],[102.25952499999998,5.7201491938349855],[102.2610488,5.720830693834279],[102.2618107,5.7231453938320005],[102.26366679999998,5.724032493831109],[102.26563640000002,5.727008493828118],[102.26891650578901,5.727955802186641],[102.27049871070464,5.727955802186641],[102.27049871070464,5.728349648100453],[102.2725715442669,5.728743494278641],[102.2725715442669,5.729137340721218],[102.27308975265746,5.729137340721218],[102.2725715442669,5.729925034399626],[102.27205333587634,5.729925034399626],[102.27205333587634,5.729531187428207],[102.27102005132318,5.729531187428207],[102.2740822,5.731395793823742],[102.27506181772621,5.730712729135828],[102.27412616943857,5.730712729135828],[102.27360796104801,5.729925034399626],[102.27412616943857,5.729925034399626],[102.27412616943857,5.729531187428207],[102.27516258621971,5.729531187428207],[102.27516258621971,5.729925034399626],[102.27566135842773,5.729925034399626],[102.2781681847931,5.727955802186641],[102.2784267,5.726556893828575],[102.28062329999997,5.723427693831687],[102.28138108690642,5.723623514578019],[102.28138108690642,5.724017357584955],[102.28189929529698,5.724017357584955],[102.28184719999999,5.724637393830487],[102.2826902,5.724911593830237],[102.28592419999998,5.730250593824879],[102.2866618,5.731831293823323],[102.28695360000002,5.734726593820406],[102.2893933,5.734839493820293],[102.29073069999998,5.736444393818714],[102.29507519999997,5.738267093816882],[102.3013083,5.743670393811521],[102.3017216,5.744613993810547],[102.30378040000001,5.745928493809246],[102.3037642,5.746638193808516],[102.3097541,5.746638193808516],[102.31052409999998,5.74748499380768],[102.31214519999999,5.749976993805205],[102.3094886,5.753235093801983],[102.30713599999999,5.753452793801728],[102.3075089,5.754505293800688],[102.3090408,5.75494069380028],[102.31143717355894,5.754419976181924],[102.31091896516838,5.754344063836193],[102.31143717355894,5.753556337296769],[102.3119553819495,5.753556337296769],[102.3119553819495,5.753950200433689],[102.31299179873062,5.753950200433689],[102.31402821551174,5.755131791438042],[102.31558284068342,5.755131791438042],[102.31610104907399,5.755859604415373],[102.31713746585511,5.7556652094027605],[102.31661925746455,5.755131791438042],[102.31713746585511,5.755131791438042],[102.31713746585511,5.754737927504307],[102.31817388263623,5.754737927504307],[102.31817388263623,5.754344063836193],[102.31869209102679,5.754344063836193],[102.31869209102679,5.754737927504307],[102.32076492458903,5.754344063836193],[102.32076492458903,5.754737927504307],[102.32120667886902,5.754737927504307],[102.32607449999998,5.748536593806658],[102.3280083,5.749106193806059],[102.32854899999998,5.75019829380499],[102.3293634,5.75070989380448],[102.33004290000001,5.750572393804598],[102.33046989999998,5.752325393802865],[102.3322944,5.751749593803422],[102.33529929999999,5.751893693803303],[102.33734759308697,5.752561278097674],[102.33912129999997,5.752183193803015],[102.3399216,5.751185793803993],[102.3397419,5.750237293804963],[102.3412672,5.748660093806527],[102.3441169,5.747606093807563],[102.34752519999999,5.744565593810616],[102.3490652,5.74378329381137],[102.35221819999998,5.744670493810506],[102.35380690000001,5.7446381938105056],[102.3537818,5.745930793809234],[102.3569456,5.746210593808981],[102.36043289999999,5.750436893804745],[102.36176499999999,5.750529093804653],[102.363322,5.751371993803791],[102.36574319999998,5.750998293804175],[102.36695469999998,5.748757793806418],[102.367784,5.748316993806863],[102.3684857,5.747137893808061],[102.3687005,5.746131693809057],[102.36804499999998,5.745461093809727],[102.3698804,5.7459677938092035],[102.3702748,5.746596693808596],[102.37104660000001,5.744866993810324],[102.3723011,5.745171793809998],[102.37536609999998,5.742214793812943],[102.37804949999999,5.745369593809802],[102.3787504,5.747086093808081],[102.3768255,5.75069719380449],[102.37534230000001,5.752465193802725],[102.37569501398845,5.757494980619611],[102.3751768055979,5.757494980619611],[102.3751768055979,5.758282712472642],[102.37472827145967,5.758282712472642],[102.37465859720734,5.758676578797834],[102.37397259999999,5.7585573937966315],[102.37365939999998,5.759329593795898],[102.37485969999999,5.760761093794444],[102.37668949999998,5.760197793795021],[102.3774268,5.761231293793991],[102.37620979999997,5.7619389937932946],[102.37601759999998,5.762504393792704],[102.3747632,5.762693993792525],[102.3737701,5.763591793791613],[102.37370789999999,5.7641903937910435],[102.3732168,5.764076993791149],[102.37261349999997,5.764739793790477],[102.3724072,5.7660658937891585],[102.3729952,5.766059193789179],[102.37346669999998,5.766912893788318],[102.37510759999999,5.767785593787442],[102.3756987,5.768560093786656],[102.37842979999999,5.7691445937861205],[102.3803823,5.770750493784492],[102.38063560000002,5.771462893783772],[102.38191351467519,5.770886566813713],[102.38191351467519,5.77128044165412],[102.38243172306575,5.77128044165412],[102.38243172306575,5.771674316760936],[102.38191351467519,5.771674316760936],[102.38210619999997,5.772642993782611],[102.3829685,5.773181793782092],[102.38318229999999,5.773882393781356],[102.385359,5.772814493782447],[102.38691899999999,5.772810493782451],[102.3881339,5.770039293785208],[102.3891135,5.770644893784584],[102.3912411,5.770975993784276],[102.39255879999999,5.771571193783673],[102.39302809999997,5.772232893783029],[102.39537019999999,5.7726678937826],[102.39688,5.773869993781399],[102.39983039999998,5.773236093782029]],[[102.4161152684522,5.745285272738983],[102.41663347684276,5.746072988131992],[102.41559706006163,5.746466846226307],[102.41507885167107,5.745679130302891],[102.4161152684522,5.745285272738983]],[[102.41559706006163,5.743709845134933],[102.4161152684522,5.744497558406681],[102.41507885167107,5.744891415440254],[102.4145606432805,5.744103701638247],[102.41559706006163,5.743709845134933]],[[102.4171516852333,5.742134421772507],[102.41766989362387,5.742922132923591],[102.41663347684276,5.743315988896722],[102.4161152684522,5.742528277215525],[102.4171516852333,5.742134421772507]],[[102.42181556074836,5.741346711681528],[102.42233376913892,5.742134421772507],[102.42129735235781,5.742528277215525],[102.42077914396724,5.741740566594514],[102.42181556074836,5.741346711681528]],[[102.4161152684522,5.740165148532436],[102.41663347684276,5.740952857033533],[102.41559706006163,5.741346711681528],[102.41507885167107,5.740559002650509],[102.4161152684522,5.740165148532436]],[[102.42077914396724,5.740165148532436],[102.42129735235781,5.740952857033533],[102.42026093557668,5.741346711681528],[102.4197427271861,5.740559002650509],[102.42077914396724,5.740165148532436]],[[102.41766989362387,5.7378020293869545],[102.41766989362387,5.737408177123026],[102.41922451879557,5.736620473389556],[102.41922451879557,5.737014325123898],[102.4197427271861,5.737014325123898],[102.4197427271861,5.7378020293869545],[102.42026093557668,5.7378020293869545],[102.42026093557668,5.738983587767747],[102.41922451879557,5.739377441091075],[102.41922451879557,5.738983587767747],[102.418706310405,5.738983587767747],[102.418706310405,5.738195881915706],[102.41766989362387,5.7378020293869545]],[[102.38865022375248,5.736226621919979],[102.38916843214304,5.737014325123898],[102.38813201536192,5.737408177123026],[102.38761380697134,5.736620473389556],[102.38865022375248,5.736226621919979]],[[102.42077914396724,5.7354389197750475],[102.42129735235781,5.736226621919979],[102.42026093557668,5.736620473389556],[102.4197427271861,5.735832770715149],[102.42077914396724,5.7354389197750475]],[[102.41818810201444,5.735045069099654],[102.41922451879557,5.733863518661549],[102.42026093557668,5.734257368542923],[102.42026093557668,5.735045069099654],[102.4197427271861,5.735045069099654],[102.4197427271861,5.7354389197750475],[102.418706310405,5.7354389197750475],[102.418706310405,5.735832770715149],[102.41766989362387,5.736226621919979],[102.4171516852333,5.7354389197750475],[102.41818810201444,5.735045069099654]],[[102.32646521688521,5.734257368542923],[102.32646521688521,5.734651218688954],[102.32698342527577,5.734651218688954],[102.32698342527577,5.7354389197750475],[102.32594700849464,5.735832770715149],[102.32594700849464,5.7354389197750475],[102.32542880010408,5.7354389197750475],[102.32542880010408,5.734651218688954],[102.32646521688521,5.734257368542923]],[[102.38398634823743,5.734257368542923],[102.38398634823743,5.733863518661549],[102.384504556628,5.733863518661549],[102.384504556628,5.733469669044807],[102.38398634823743,5.733469669044807],[102.38398634823743,5.732288121782206],[102.384504556628,5.732288121782206],[102.384504556628,5.731894273223817],[102.3855409734091,5.731894273223817],[102.3855409734091,5.731500424929972],[102.38657739019024,5.731106576900648],[102.38657739019024,5.731500424929972],[102.3870955985808,5.731500424929972],[102.38657739019024,5.732288121782206],[102.38761380697134,5.732288121782206],[102.38761380697134,5.732681970605154],[102.38813201536192,5.732681970605154],[102.38813201536192,5.734651218688954],[102.38761380697134,5.734651218688954],[102.38761380697134,5.7354389197750475],[102.3870955985808,5.7354389197750475],[102.3870955985808,5.735832770715149],[102.38605918179967,5.735832770715149],[102.38605918179967,5.7354389197750475],[102.38502276501855,5.735832770715149],[102.38502276501855,5.7354389197750475],[102.38398634823743,5.7354389197750475],[102.38398634823743,5.735045069099654],[102.38346813984687,5.735045069099654],[102.38346813984687,5.734257368542923],[102.38398634823743,5.734257368542923]],[[102.41663347684276,5.733863518661549],[102.4171516852333,5.733075819692683],[102.41818810201444,5.733469669044807],[102.41818810201444,5.734257368542923],[102.4161152684522,5.735045069099654],[102.41559706006163,5.734257368542923],[102.41663347684276,5.733863518661549]],[[102.42233376913892,5.732681970605154],[102.42285197752948,5.733469669044807],[102.42181556074836,5.733863518661549],[102.42129735235781,5.733075819692683],[102.42233376913892,5.732681970605154]],[[102.38865022375248,5.729925034399626],[102.38916843214304,5.730712729135828],[102.38813201536192,5.731106576900648],[102.38761380697134,5.730318881635495],[102.38865022375248,5.729925034399626]],[[102.260652751284,5.7181097402081456],[102.26117095967456,5.71889741909313],[102.26013454289344,5.719291258931501],[102.25961633450288,5.718503579518684],[102.260652751284,5.7181097402081456]],[[102.25806170933119,5.716928223859783],[102.25806170933119,5.716534385604686],[102.25857991772176,5.716534385604686],[102.25857991772176,5.716928223859783],[102.25961633450288,5.716928223859783],[102.26013454289344,5.717715901161495],[102.25909812611232,5.7181097402081456],[102.25909812611232,5.717715901161495],[102.25806170933119,5.717715901161495],[102.25806170933119,5.717322062378714],[102.25754350094064,5.717322062378714],[102.25754350094064,5.716928223859783],[102.25806170933119,5.716928223859783]],[[102.37724963916014,5.702750212745703],[102.3777678475507,5.702750212745703],[102.3777678475507,5.702356383976143],[102.37880426433182,5.702750212745703],[102.37880426433182,5.703537871074318],[102.37828605594126,5.703537871074318],[102.37821581045824,5.703931700633414],[102.37911189999998,5.704547193850551],[102.37990629999999,5.705990893849105],[102.38087709789406,5.706294683516197],[102.38087709789406,5.705900852377519],[102.38191351467519,5.705900852377519],[102.38191351467519,5.706294683516197],[102.3829499314563,5.706294683516197],[102.3829499314563,5.706688514918199],[102.384504556628,5.7074761785122705],[102.38324570000002,5.710031593845079],[102.38222439999998,5.710942893844177],[102.3807492,5.711467193843657],[102.37847970000001,5.7099508938451375],[102.37847159999998,5.709063693846062],[102.37267630000001,5.708353993846748],[102.37210079999998,5.707474893847642],[102.37175219999999,5.7087007938464005],[102.37223049999999,5.709555693845556],[102.3739326,5.709902493845189],[102.37383529999997,5.711588093843514],[102.37079580000001,5.71151559384362],[102.37002579999998,5.709813793845293],[102.37038239999998,5.708257193846829],[102.36892349999998,5.706515093848579],[102.36840469999999,5.7088298938462865],[102.36717269999998,5.709233093845867],[102.36545439999999,5.70842659384669],[102.36438439999999,5.707249093847839],[102.36470059999999,5.706184493848935],[102.36677550000002,5.704998893850095],[102.36624059999997,5.702296993852798],[102.3673834,5.699570893855518],[102.3670835,5.6991998938559005],[102.3684858,5.697377193857732],[102.3681616,5.695247893859849],[102.36577859999998,5.695215593859854],[102.3652112,5.697473893857627],[102.3628931,5.697506193857579],[102.361734,5.693876793861229],[102.36259320000002,5.6922313938628655],[102.36689709999997,5.69267499386241],[102.3670835,5.691287793863795],[102.36387379999998,5.689440793865641],[102.36448169999997,5.686158093868949],[102.3662244,5.684512793870591],[102.36786169999998,5.683641693871442],[102.36926389999999,5.6836093938715],[102.3706256,5.684182093870913],[102.3706985,5.6860613938690285],[102.3812193,5.695844693859237],[102.3834808,5.696965793858145],[102.385426,5.69709489385802],[102.38641489999998,5.698965993856117],[102.3903298,5.701014593854067],[102.3928263,5.705474693849626],[102.39365300000001,5.705660193849443],[102.3945608,5.702038893853051],[102.39596309999999,5.699264493855831],[102.396652,5.698982193856109],[102.39723559999999,5.699401593855705],[102.3985001,5.703619693851492],[102.3968952,5.707628093847497],[102.39818390000002,5.711410693843711],[102.3980056,5.714644793840462],[102.3969924,5.714902893840221],[102.39432579999998,5.709854093845266],[102.3924615,5.707611993847475],[102.39029739999998,5.705998993849121],[102.387728,5.704498793850587],[102.3854342,5.703813293851277],[102.3842427,5.702853493852242],[102.3830025,5.703103493852014],[102.37991439999999,5.702192193852902],[102.3791849,5.698651493856448],[102.37210079999998,5.698135293856988],[102.37078770000001,5.6948042938603125],[102.36953139999999,5.6949494938601495],[102.3701555,5.698425693856669],[102.3721494,5.699812893855276],[102.3751646,5.700990393854092],[102.37724963916014,5.703255896512683],[102.37724963916014,5.702750212745703]],[[102.32335596654184,5.71298985317819],[102.3238741749324,5.713777525204745],[102.32283775815127,5.714171361613538],[102.32231954976072,5.713383689059634],[102.32335596654184,5.71298985317819]],[[102.37724963916014,5.709445342107001],[102.3777678475507,5.71023300938911],[102.37673143076958,5.710626843425426],[102.37621322237902,5.709839175616305],[102.37724963916014,5.709445342107001]],[[102.2829357120781,5.705507021502154],[102.28345392046866,5.706294683516197],[102.28241750368755,5.706688514918199],[102.28189929529698,5.705900852377519],[102.2829357120781,5.705507021502154]],[[102.31817388263623,5.688178723379705],[102.31869209102679,5.688966362258587],[102.31765567424566,5.689360182091782],[102.31713746585511,5.6885725426879015],[102.31817388263623,5.688178723379705]],[[102.31040075677781,5.681877650131863],[102.31091896516838,5.6826652806158675],[102.30988254838726,5.6830590962511724],[102.3093643399967,5.682271465242769],[102.31040075677781,5.681877650131863]],[[102.32335596654184,5.6751828333435625],[102.3238741749324,5.6759704549184695],[102.32283775815127,5.676364266098754],[102.32231954976072,5.675576644000079],[102.32335596654184,5.6751828333435625]]],[[[102.28241750368755,5.662581030492749],[102.28241750368755,5.6627032546629055],[102.28245611225091,5.662581030492749],[102.28241750368755,5.662581030492749]]],[[[102.27516258621971,5.730318881635495],[102.27516258621971,5.730340497674223],[102.27518853671017,5.730318881635495],[102.27516258621971,5.730318881635495]]],[[[102.3119553819495,5.754737927504307],[102.31152208988293,5.754737927504307],[102.3119553819495,5.755127602101564],[102.3119553819495,5.754737927504307]]],[[[102.31972850780792,5.755213461220712],[102.31869209102679,5.755131791438042],[102.31869209102679,5.755395797534349],[102.31972850780792,5.755213461220712]]],[[[102.31454642390231,5.755919520102459],[102.31299179873062,5.755919520102459],[102.31299179873062,5.75552565563742],[102.31260187253616,5.75552565563742],[102.31263149999998,5.75649319379871],[102.31398609999998,5.756480193798713],[102.31454642390231,5.755919520102459]]],[[[102.31558284068342,5.755919520102459],[102.31558284068342,5.755956801945948],[102.3157816087283,5.755919520102459],[102.31558284068342,5.755919520102459]]],[[[102.38605918179967,5.731894273223817],[102.3855409734091,5.731894273223817],[102.3855409734091,5.732288121782206],[102.38605918179967,5.732288121782206],[102.38605918179967,5.731894273223817]]],[[[102.38502276501855,5.733863518661549],[102.384504556628,5.733863518661549],[102.384504556628,5.734257368542923],[102.38502276501855,5.734257368542923],[102.38502276501855,5.733863518661549]]],[[[102.418706310405,5.735045069099654],[102.41818810201444,5.735045069099654],[102.41818810201444,5.7354389197750475],[102.418706310405,5.7354389197750475],[102.418706310405,5.735045069099654]]],[[[102.42544301948229,5.737014325123898],[102.425658645766,5.737014325123898],[102.42544301948229,5.736686951093382],[102.42544301948229,5.737014325123898]]],[[[102.42388839431061,5.740165148532436],[102.42337018592005,5.740165148532436],[102.42337018592005,5.740559002650509],[102.42388839431061,5.740559002650509],[102.42388839431061,5.740165148532436]]],[[[102.42492481109171,5.740165148532436],[102.42440660270117,5.740165148532436],[102.42440660270117,5.740559002650509],[102.42492481109171,5.740559002650509],[102.42492481109171,5.740165148532436]]],[[[102.42388839431061,5.741740566594514],[102.42388839431061,5.741346711681528],[102.42337018592005,5.741346711681528],[102.42337018592005,5.741740566594514],[102.42388839431061,5.741740566594514]]],[[[102.42855226982566,5.742134421772507],[102.42903104243216,5.742134421772507],[102.42855226982566,5.741407540660508],[102.42855226982566,5.742134421772507]]],[[[102.42954988110715,5.742922132923591],[102.4290704782162,5.742194293923578],[102.4290704782162,5.742922132923591],[102.42954988110715,5.742922132923591]]],[[[102.42958868660676,5.744497558406681],[102.43010689499732,5.744497558406681],[102.42958868660676,5.745285272738983],[102.43106786934177,5.746072988131992],[102.43139259999998,5.745719793809449],[102.42958868660676,5.742981048244191],[102.42958868660676,5.744497558406681]]],[[[102.4290704782162,5.744891415440254],[102.42855226982566,5.744891415440254],[102.42855226982566,5.745285272738983],[102.4290704782162,5.745285272738983],[102.4290704782162,5.744891415440254]]],[[[102.42855226982566,5.746072988131992],[102.42803406143508,5.746072988131992],[102.42803406143508,5.745679130302891],[102.42702380215796,5.745679130302891],[102.42703999380166,5.746072988131992],[102.42751585304453,5.746072988131992],[102.42751585304453,5.7468607045858535],[102.427061,5.7471442938080335],[102.42958868660676,5.746862822706253],[102.42855226982566,5.746466846226307],[102.42855226982566,5.746072988131992]]],[[[102.4306251033879,5.746466846226307],[102.4306251033879,5.74655456425905],[102.43070575220577,5.746466846226307],[102.4306251033879,5.746466846226307]]]]},"properties":{"place_id":"ede3fd06-3267-508a-b5b5-58ddbd732045","habitat":"forest_interior","habitat_label":"Forest interior","resolution_m":50}},{"type":"Feature","geometry":{"type":"MultiPolygon","coordinates":[[[[102.27930825334418,5.657067825906743],[102.27930825334418,5.657461624537226],[102.27879004495361,5.657461624537226],[102.27879004495361,5.658643021994846],[102.27961888589283,5.6590368216695035],[102.2790576,5.657795493897321],[102.27982646173474,5.657067825906743],[102.27930825334418,5.657067825906743]]],[[[102.27930825334418,5.659430621605253],[102.27930825334418,5.659824421802113],[102.27982646173474,5.659824421802113],[102.27982646173474,5.660612022979232],[102.28086287851586,5.661005823959531],[102.28138108690642,5.66033715894954],[102.27930825334418,5.659430621605253]]],[[[102.28253019999998,5.662346593892753],[102.28138108690642,5.660612022979232],[102.28138108690642,5.661005823959531],[102.28086287851586,5.661005823959531],[102.28086287851586,5.661793426703698],[102.28138108690642,5.661793426703698],[102.28138108690642,5.662581030492749],[102.28233171674852,5.662974832779151],[102.28253019999998,5.662346593892753]]],[[[102.2932998798893,5.66522441012922],[102.29381808827988,5.665337651985045],[102.29381808827988,5.665186172876124],[102.2932998798893,5.66522441012922]]],[[[102.30248827976163,5.665731456100779],[102.30192174915469,5.664550044537724],[102.30159121413828,5.664550044537724],[102.30159121413828,5.665337651985045],[102.30248827976163,5.665731456100779]]],[[[102.28831555663866,5.665731456100779],[102.2881793,5.66531639388979],[102.28500854564035,5.664943848130698],[102.28500854564035,5.665337651985045],[102.28552675403091,5.665337651985045],[102.28552675403091,5.665731456100779],[102.28500854564035,5.665731456100779],[102.28552675403091,5.666519065116488],[102.28656317081203,5.666125260477921],[102.28656317081203,5.665337651985045],[102.28811779598371,5.665337651985045],[102.28831555663866,5.665731456100779]]],[[[102.2425213603926,5.6751828333435625],[102.24251579214203,5.675576644000079],[102.24303366600493,5.675576644000079],[102.24303366600493,5.6751828333435625],[102.2425213603926,5.6751828333435625]]],[[[102.24199724922383,5.6771518892450725],[102.24251545761437,5.6771518892450725],[102.24251545761437,5.676758077540947],[102.24303366600493,5.676758077540947],[102.24303366600493,5.676364266098754],[102.24251545761437,5.676364266098754],[102.24251545761437,5.67560030324503],[102.24249549999999,5.677011793878084],[102.24199724922383,5.6771518892450725]]],[[[102.2409608324427,5.6775457012111445],[102.2409608324427,5.677376288352288],[102.24024753685264,5.6775457012111445],[102.2409608324427,5.6775457012111445]]],[[[102.23571976014551,5.681483835283128],[102.23577874853709,5.6817400549799135],[102.23577874853709,5.681483835283128],[102.23571976014551,5.681483835283128]]],[[[102.30988254838726,5.681877650131863],[102.3093643399967,5.6826652806158675],[102.31040075677781,5.6830590962511724],[102.31091896516838,5.682271465242769],[102.30988254838726,5.681877650131863]]],[[[102.23629695692765,5.683846728308489],[102.23626375817764,5.683846728308489],[102.23629695692765,5.683990929677765],[102.23629695692765,5.683846728308489]]],[[[102.23681516531822,5.684240544730538],[102.23635442451634,5.684240544730538],[102.23644509085501,5.684634361414869],[102.23681516531822,5.684634361414869],[102.23681516531822,5.684240544730538]]],[[[102.31765567424566,5.688178723379705],[102.31713746585511,5.688966362258587],[102.31817388263623,5.689360182091782],[102.31869209102679,5.6885725426879015],[102.31765567424566,5.688178723379705]]],[[[102.28241750368755,5.705507021502154],[102.28189929529698,5.706294683516197],[102.2829357120781,5.706688514918199],[102.28345392046866,5.705900852377519],[102.28241750368755,5.705507021502154]]],[[[102.23940620727102,5.703144041778421],[102.24044262405214,5.70432553045573],[102.24147904083325,5.70432553045573],[102.24147904083325,5.705113190890078],[102.24199724922383,5.705113190890078],[102.24199724922383,5.705507021502154],[102.24251545761437,5.705507021502154],[102.24251545761437,5.705900852377519],[102.24303366600493,5.705900852377519],[102.24458829117663,5.7074761785122705],[102.24562470795773,5.7074761785122705],[102.24562470795773,5.707870010704372],[102.2461429163483,5.707870010704372],[102.2461429163483,5.708657675878805],[102.24666112473886,5.708657675878805],[102.24717933312944,5.709445342107001],[102.24821574991054,5.709445342107001],[102.24821574991054,5.71023300938911],[102.2487339583011,5.71023300938911],[102.2487339583011,5.710626843425426],[102.2502885834728,5.711414512288679],[102.2502885834728,5.712202182206219],[102.25132500025391,5.712596017560391],[102.25132500025391,5.713383689059634],[102.25184320864447,5.713383689059634],[102.25184320864447,5.714171361613538],[102.25236141703503,5.714171361613538],[102.25287962542559,5.715746709885915],[102.25391604220671,5.716140547613404],[102.25391604220671,5.7181097402081456],[102.25443425059727,5.7181097402081456],[102.25391604220671,5.71889741909313],[102.25598887576895,5.718881277477554],[102.25598887576895,5.716534385604686],[102.25547066737839,5.716534385604686],[102.25547066737839,5.715746709885915],[102.25495245898783,5.715746709885915],[102.25495245898783,5.714959035222249],[102.25443425059727,5.714959035222249],[102.25443425059727,5.713777525204745],[102.25391604220671,5.713777525204745],[102.25391604220671,5.713383689059634],[102.25339783381615,5.713383689059634],[102.25339783381615,5.712596017560391],[102.25236141703503,5.712202182206219],[102.25236141703503,5.709839175616305],[102.25184320864447,5.709839175616305],[102.2502885834728,5.708263843159878],[102.24821574991054,5.708263843159878],[102.24717933312944,5.707082346583553],[102.2461429163483,5.707082346583553],[102.2461429163483,5.706294683516197],[102.24458829117663,5.705507021502154],[102.24458829117663,5.704719360541277],[102.24407008278607,5.704719360541277],[102.2435518743955,5.703931700633414],[102.24251545761437,5.703931700633414],[102.24251545761437,5.703537871074318],[102.24199724922383,5.703537871074318],[102.24199724922383,5.703144041778421],[102.24147904083325,5.703144041778421],[102.24147904083325,5.702750212745703],[102.2409608324427,5.702750212745703],[102.2409608324427,5.702356383976143],[102.24044262405214,5.702356383976143],[102.24044262405214,5.701962555469729],[102.23888799888046,5.701085524533202],[102.23838201108242,5.701568727226435],[102.23888799888046,5.701568727226435],[102.23888799888046,5.701962555469729],[102.23836979048988,5.701962555469729],[102.23836979048988,5.7015858294725765],[102.23785158209934,5.702356383976143],[102.23940620727102,5.703144041778421]],[[102.25339783381615,5.714171361613538],[102.25287962542559,5.714171361613538],[102.25287962542559,5.713777525204745],[102.25339783381615,5.713777525204745],[102.25339783381615,5.714171361613538]],[[102.24925216669168,5.709445342107001],[102.2487339583011,5.709445342107001],[102.2487339583011,5.709051508861174],[102.24977037508222,5.709051508861174],[102.2502885834728,5.709839175616305],[102.25132500025391,5.709839175616305],[102.25132500025391,5.711414512288679],[102.24925216669168,5.71023300938911],[102.24925216669168,5.709445342107001]],[[102.24769754151998,5.708657675878805],[102.24717933312944,5.708657675878805],[102.24717933312944,5.708263843159878],[102.24769754151998,5.708263843159878],[102.24769754151998,5.708657675878805]],[[102.24407008278607,5.705900852377519],[102.2435518743955,5.705900852377519],[102.2435518743955,5.705507021502154],[102.24407008278607,5.705507021502154],[102.24407008278607,5.705900852377519]],[[102.2435518743955,5.705113190890078],[102.24303366600493,5.705113190890078],[102.24303366600493,5.704719360541277],[102.2435518743955,5.704719360541277],[102.2435518743955,5.705113190890078]],[[102.24044262405214,5.703537871074318],[102.24044262405214,5.703144041778421],[102.2409608324427,5.703144041778421],[102.2409608324427,5.703537871074318],[102.24044262405214,5.703537871074318]],[[102.23992441566158,5.703144041778421],[102.23992441566158,5.702750212745703],[102.24044262405214,5.702750212745703],[102.24044262405214,5.703144041778421],[102.23992441566158,5.703144041778421]]],[[[102.25857991772176,5.716534385604686],[102.25806170933119,5.716534385604686],[102.25754350094064,5.717322062378714],[102.25961633450288,5.7181097402081456],[102.26013454289344,5.717322062378714],[102.25961633450288,5.717322062378714],[102.25961633450288,5.716928223859783],[102.25857991772176,5.716928223859783],[102.25857991772176,5.716534385604686]]],[[[102.26013454289344,5.718503579518684],[102.25961633450288,5.718503579518684],[102.25961633450288,5.71889741909313],[102.260652751284,5.719291258931501],[102.26117095967456,5.718503579518684],[102.260652751284,5.718503579518684],[102.260652751284,5.7181097402081456],[102.26013454289344,5.7181097402081456],[102.26013454289344,5.718503579518684]]],[[[102.28161835206264,5.724411200856058],[102.28189929529698,5.724017357584955],[102.28086287851586,5.723623514578019],[102.28161835206264,5.724411200856058]]],[[[102.27827183656306,5.727561956537183],[102.27827183656306,5.727694337930992],[102.27832431628097,5.727561956537183],[102.27827183656306,5.727561956537183]]],[[[102.2777536281725,5.727955802186641],[102.2777536281725,5.7282854662030385],[102.2781681847931,5.727955802186641],[102.2777536281725,5.727955802186641]]],[[[102.27153512748576,5.728743494278641],[102.27153512748576,5.728349648100453],[102.27049871070464,5.728349648100453],[102.27049871070464,5.727955802186641],[102.26891650578901,5.727955802186641],[102.26996470000002,5.728560993826589],[102.26996069999998,5.728992493826138],[102.2725715442669,5.729925034399626],[102.27308975265746,5.729137340721218],[102.2725715442669,5.729137340721218],[102.2725715442669,5.728743494278641],[102.27153512748576,5.728743494278641]]],[[[102.27412616943857,5.729531187428207],[102.27360796104801,5.730318881635495],[102.27412616943857,5.730318881635495],[102.27412616943857,5.730712729135828],[102.27506181772621,5.730712729135828],[102.27566135842773,5.729925034399626],[102.27516258621971,5.729925034399626],[102.27516258621971,5.729531187428207],[102.27412616943857,5.729531187428207]]],[[[102.31402821551174,5.755131791438042],[102.31299179873062,5.753950200433689],[102.3119553819495,5.753950200433689],[102.3119553819495,5.753556337296769],[102.31091896516838,5.753950200433689],[102.31091896516838,5.754344063836193],[102.31143717355894,5.754344063836193],[102.3120114,5.755170593800046],[102.312591,5.755170593800046],[102.31299179873062,5.755919520102459],[102.31454642390231,5.755919520102459],[102.31454642390231,5.756241090557651],[102.31610104907399,5.755859604415373],[102.31558284068342,5.755131791438042],[102.31402821551174,5.755131791438042]]],[[[102.32491059171352,5.664943848130698],[102.32491059171352,5.664908437038248],[102.3248010047833,5.664943848130698],[102.32491059171352,5.664943848130698]]],[[[102.3238741749324,5.665243337008934],[102.32439238332297,5.665337651985045],[102.32439238332297,5.665075886999961],[102.3238741749324,5.665243337008934]]],[[[102.34512071894538,5.668094286285398],[102.34512071894538,5.668093191100255],[102.34511405271917,5.668094286285398],[102.34512071894538,5.668094286285398]]],[[[102.34771176089818,5.668717472826136],[102.34822996928875,5.668881898438894],[102.34874817767931,5.6696695116386175],[102.34978459446043,5.6696695116386175],[102.34978459446043,5.669275704907968],[102.35030280285099,5.669275704907968],[102.35030280285099,5.669015708245526],[102.34771176089818,5.668717472826136]]],[[[102.35082101124155,5.669058840785634],[102.35133921963211,5.669275704907968],[102.35133921963211,5.6696695116386175],[102.35185742802267,5.6696695116386175],[102.35185742802267,5.669275704907968],[102.35341205319436,5.669275704907968],[102.35341205319436,5.6696695116386175],[102.35630821027056,5.6696695116386175],[102.35548739999999,5.669398793885716],[102.35082101124155,5.669058840785634]]],[[[102.35703951192828,5.67006331863086],[102.35750222373746,5.67006331863086],[102.35703951192828,5.669910707971122],[102.35703951192828,5.67006331863086]]],[[[102.35911234549052,5.671638549216147],[102.35963055388109,5.671638549216147],[102.35963055388109,5.672032357516639],[102.36026574191517,5.672032357516639],[102.35911234549052,5.670712720220814],[102.35911234549052,5.671638549216147]]],[[[102.36170338744333,5.673607593335857],[102.36101013352537,5.6728199749027635],[102.36066697066221,5.6728199749027635],[102.36066697066221,5.6732137839884285],[102.36170338744333,5.673607593335857]]],[[[102.32283775815127,5.6751828333435625],[102.32231954976072,5.6759704549184695],[102.32335596654184,5.676364266098754],[102.3238741749324,5.675576644000079],[102.32283775815127,5.6751828333435625]]],[[[102.37673143076958,5.682381650138312],[102.3751768055979,5.682271465242769],[102.3751768055979,5.6826652806158675],[102.37621322237902,5.6830590962511724],[102.37673143076958,5.682381650138312]]],[[[102.3777678475507,5.702750212745703],[102.37724963916014,5.702750212745703],[102.37724963916014,5.703255896512683],[102.37828605594126,5.703931700633414],[102.37828605594126,5.703537871074318],[102.37880426433182,5.703537871074318],[102.37880426433182,5.702750212745703],[102.37828605594126,5.702750212745703],[102.37828605594126,5.702356383976143],[102.3777678475507,5.702356383976143],[102.3777678475507,5.702750212745703]]],[[[102.38398634823743,5.707082346583553],[102.38346813984687,5.707082346583553],[102.3829499314563,5.706294683516197],[102.38087709789406,5.705900852377519],[102.38083029999999,5.706337693848754],[102.38223249999999,5.7066602938484365],[102.383578,5.708353993846748],[102.38336182498342,5.709445342107001],[102.38346813984687,5.709051508861174],[102.38398634823743,5.709051508861174],[102.38398634823743,5.707870010704372],[102.384504556628,5.707870010704372],[102.38398634823743,5.707082346583553]]],[[[102.37673143076958,5.709445342107001],[102.37621322237902,5.71023300938911],[102.37724963916014,5.710626843425426],[102.3777678475507,5.709839175616305],[102.37673143076958,5.709445342107001]]],[[[102.32283775815127,5.71298985317819],[102.32231954976072,5.713777525204745],[102.32335596654184,5.714171361613538],[102.3238741749324,5.713383689059634],[102.32283775815127,5.71298985317819]]],[[[102.38813201536192,5.729925034399626],[102.38761380697134,5.730712729135828],[102.38865022375248,5.731106576900648],[102.38916843214304,5.730318881635495],[102.38813201536192,5.729925034399626]]],[[[102.38502276501855,5.7354389197750475],[102.38502276501855,5.735832770715149],[102.3855409734091,5.735832770715149],[102.3855409734091,5.7354389197750475],[102.38605918179967,5.7354389197750475],[102.38605918179967,5.735832770715149],[102.3870955985808,5.735832770715149],[102.3870955985808,5.7354389197750475],[102.38761380697134,5.7354389197750475],[102.38761380697134,5.734651218688954],[102.38813201536192,5.734651218688954],[102.38813201536192,5.732681970605154],[102.38761380697134,5.732681970605154],[102.38761380697134,5.732288121782206],[102.38657739019024,5.732288121782206],[102.38657739019024,5.731894273223817],[102.3870955985808,5.731894273223817],[102.38657739019024,5.731106576900648],[102.38605918179967,5.731106576900648],[102.3855409734091,5.731894273223817],[102.384504556628,5.731894273223817],[102.384504556628,5.732288121782206],[102.38398634823743,5.732288121782206],[102.38398634823743,5.733469669044807],[102.384504556628,5.733469669044807],[102.384504556628,5.733863518661549],[102.38346813984687,5.734257368542923],[102.38346813984687,5.735045069099654],[102.38398634823743,5.735045069099654],[102.38398634823743,5.7354389197750475],[102.38502276501855,5.7354389197750475]],[[102.38605918179967,5.731894273223817],[102.38605918179967,5.732288121782206],[102.3855409734091,5.732288121782206],[102.3855409734091,5.731894273223817],[102.38605918179967,5.731894273223817]],[[102.38502276501855,5.733863518661549],[102.38502276501855,5.734257368542923],[102.384504556628,5.734257368542923],[102.384504556628,5.733863518661549],[102.38502276501855,5.733863518661549]],[[102.38605918179967,5.734651218688954],[102.38657739019024,5.734651218688954],[102.38657739019024,5.735045069099654],[102.38605918179967,5.735045069099654],[102.38605918179967,5.734651218688954]],[[102.38657739019024,5.734257368542923],[102.3870955985808,5.734257368542923],[102.3870955985808,5.734651218688954],[102.38657739019024,5.734651218688954],[102.38657739019024,5.734257368542923]],[[102.38657739019024,5.733469669044807],[102.38605918179967,5.733469669044807],[102.38605918179967,5.733075819692683],[102.3870955985808,5.733075819692683],[102.3870955985808,5.733863518661549],[102.38657739019024,5.733863518661549],[102.38657739019024,5.733469669044807]]],[[[102.32594700849464,5.734257368542923],[102.32594700849464,5.734651218688954],[102.32542880010408,5.734651218688954],[102.32542880010408,5.7354389197750475],[102.32646521688521,5.735832770715149],[102.32646521688521,5.7354389197750475],[102.32698342527577,5.7354389197750475],[102.32698342527577,5.734651218688954],[102.32594700849464,5.734257368542923]]],[[[102.38813201536192,5.736226621919979],[102.38761380697134,5.737014325123898],[102.38865022375248,5.737408177123026],[102.38916843214304,5.736620473389556],[102.38813201536192,5.736226621919979]]],[[[102.33734759308697,5.752374749479348],[102.33755259999998,5.752580393802632],[102.33782931000736,5.752374749479348],[102.33734759308697,5.752374749479348]]],[[[102.39435051604865,5.7531624744254195],[102.39439633091197,5.7531624744254195],[102.39435051604865,5.753098987006286],[102.39435051604865,5.7531624744254195]]],[[[102.32076492458903,5.754737927504307],[102.32076492458903,5.754344063836193],[102.31972850780792,5.754344063836193],[102.31972850780792,5.754737927504307],[102.31869209102679,5.754737927504307],[102.31869209102679,5.754344063836193],[102.31817388263623,5.754344063836193],[102.31817388263623,5.754737927504307],[102.31713746585511,5.754737927504307],[102.31661925746455,5.75552565563742],[102.32120667886902,5.754737927504307],[102.32076492458903,5.754737927504307]]],[[[102.3751768055979,5.758282712472642],[102.3751768055979,5.757494980619611],[102.37569501398845,5.757494980619611],[102.37569501398845,5.753556337296769],[102.37523270882724,5.753556337296769],[102.375141,5.754748893800464],[102.3744885,5.75559769379959],[102.375163,5.757322493797873],[102.37472827145967,5.758282712472642],[102.3751768055979,5.758282712472642]]],[[[102.37414038881678,5.758676578797834],[102.37465859720734,5.758386853243776],[102.37414038881678,5.758561448394876],[102.37414038881678,5.758676578797834]]],[[[102.38139530628463,5.770886566813713],[102.38191351467519,5.771712826071179],[102.38243172306575,5.771674316760936],[102.38243172306575,5.77128044165412],[102.38139530628463,5.770886566813713]]],[[[102.38087709789406,5.77128044165412],[102.38087709789406,5.771324941367594],[102.38095499858673,5.77128044165412],[102.38087709789406,5.77128044165412]]],[[[102.42181556074836,5.732681970605154],[102.42129735235781,5.733469669044807],[102.42233376913892,5.733863518661549],[102.42285197752948,5.733075819692683],[102.42181556074836,5.732681970605154]]],[[[102.41766989362387,5.733469669044807],[102.41766989362387,5.733075819692683],[102.4171516852333,5.733075819692683],[102.41559706006163,5.734651218688954],[102.4161152684522,5.734651218688954],[102.4161152684522,5.735045069099654],[102.41663347684276,5.735045069099654],[102.41663347684276,5.734651218688954],[102.41766989362387,5.734651218688954],[102.41766989362387,5.734257368542923],[102.41818810201444,5.734257368542923],[102.41818810201444,5.733469669044807],[102.41766989362387,5.733469669044807]]],[[[102.41922451879557,5.733863518661549],[102.41922451879557,5.734257368542923],[102.41818810201444,5.734651218688954],[102.418706310405,5.7354389197750475],[102.4197427271861,5.7354389197750475],[102.4197427271861,5.735045069099654],[102.42026093557668,5.735045069099654],[102.42026093557668,5.734257368542923],[102.41922451879557,5.733863518661549]]],[[[102.41766989362387,5.735045069099654],[102.4171516852333,5.735832770715149],[102.41818810201444,5.736226621919979],[102.418706310405,5.7354389197750475],[102.41766989362387,5.735045069099654]]],[[[102.42026093557668,5.735832770715149],[102.4197427271861,5.735832770715149],[102.4197427271861,5.736226621919979],[102.42077914396724,5.736620473389556],[102.42129735235781,5.735832770715149],[102.42077914396724,5.735832770715149],[102.42077914396724,5.7354389197750475],[102.42026093557668,5.7354389197750475],[102.42026093557668,5.735832770715149]]],[[[102.41922451879557,5.736620473389556],[102.418706310405,5.736620473389556],[102.41766989362387,5.7378020293869545],[102.41818810201444,5.7378020293869545],[102.41818810201444,5.738195881915706],[102.418706310405,5.738195881915706],[102.418706310405,5.738983587767747],[102.4197427271861,5.739377441091075],[102.4197427271861,5.738983587767747],[102.42026093557668,5.738983587767747],[102.42026093557668,5.7378020293869545],[102.4197427271861,5.7378020293869545],[102.4197427271861,5.737014325123898],[102.41922451879557,5.737014325123898],[102.41922451879557,5.736620473389556]]],[[[102.41559706006163,5.740165148532436],[102.41507885167107,5.740952857033533],[102.4161152684522,5.741346711681528],[102.41663347684276,5.740559002650509],[102.41559706006163,5.740165148532436]]],[[[102.42026093557668,5.740165148532436],[102.4197427271861,5.740952857033533],[102.42077914396724,5.741346711681528],[102.42129735235781,5.740559002650509],[102.42026093557668,5.740165148532436]]],[[[102.42129735235781,5.741346711681528],[102.42077914396724,5.742134421772507],[102.42181556074836,5.742528277215525],[102.42233376913892,5.741740566594514],[102.42129735235781,5.741346711681528]]],[[[102.42544301948229,5.743709845134933],[102.42596122787285,5.743709845134933],[102.42596122787285,5.743315988896722],[102.42440660270117,5.742528277215525],[102.42440660270117,5.741740566594514],[102.42492481109171,5.741740566594514],[102.42492481109171,5.741346711681528],[102.42596122787285,5.741346711681528],[102.42596122787285,5.742134421772507],[102.42699764465395,5.742528277215525],[102.42699764465395,5.743315988896722],[102.4264794362634,5.743315988896722],[102.4264794362634,5.743764481992067],[102.42694469999999,5.743917893811236],[102.42702380215796,5.745679130302891],[102.42803406143508,5.745679130302891],[102.4290704782162,5.7468607045858535],[102.43040120000002,5.746798093808388],[102.43106786934177,5.746072988131992],[102.42958868660676,5.745285272738983],[102.42958868660676,5.744891415440254],[102.43010689499732,5.744891415440254],[102.43010689499732,5.744497558406681],[102.42958868660676,5.744497558406681],[102.42958868660676,5.742981048244191],[102.4290704782162,5.742922132923591],[102.4290704782162,5.742194293923578],[102.42855226982566,5.742134421772507],[102.42855226982566,5.741407540660508],[102.42539923364802,5.736620473389556],[102.42492481109171,5.736620473389556],[102.42492481109171,5.737014325123898],[102.42233376913892,5.737408177123026],[102.42129735235781,5.739377441091075],[102.42285197752948,5.740165148532436],[102.42285197752948,5.740559002650509],[102.42233376913892,5.740559002650509],[102.42233376913892,5.741346711681528],[102.42337018592005,5.741740566594514],[102.42337018592005,5.743315988896722],[102.42388839431061,5.743315988896722],[102.42388839431061,5.7443301551438175],[102.42544301948229,5.744020246098209],[102.42544301948229,5.743709845134933]],[[102.42337018592005,5.741346711681528],[102.42388839431061,5.741346711681528],[102.42388839431061,5.741740566594514],[102.42337018592005,5.741740566594514],[102.42337018592005,5.741346711681528]],[[102.43010689499732,5.746466846226307],[102.42958868660676,5.746466846226307],[102.42958868660676,5.746072988131992],[102.43010689499732,5.746072988131992],[102.43010689499732,5.746466846226307]],[[102.4290704782162,5.745285272738983],[102.42855226982566,5.745285272738983],[102.42855226982566,5.744891415440254],[102.4290704782162,5.744891415440254],[102.4290704782162,5.745285272738983]],[[102.42855226982566,5.744497558406681],[102.42803406143508,5.744497558406681],[102.42803406143508,5.743709845134933],[102.42855226982566,5.743709845134933],[102.42855226982566,5.744497558406681]],[[102.42388839431061,5.740559002650509],[102.42337018592005,5.740559002650509],[102.42337018592005,5.740165148532436],[102.42388839431061,5.740165148532436],[102.42388839431061,5.740559002650509]],[[102.42492481109171,5.740559002650509],[102.42440660270117,5.740559002650509],[102.42440660270117,5.740165148532436],[102.42492481109171,5.740165148532436],[102.42492481109171,5.740559002650509]],[[102.42440660270117,5.739377441091075],[102.42337018592005,5.739377441091075],[102.42337018592005,5.739771294679299],[102.42285197752948,5.739771294679299],[102.42233376913892,5.738983587767747],[102.42285197752948,5.738983587767747],[102.42285197752948,5.738195881915706],[102.42337018592005,5.738195881915706],[102.42337018592005,5.7378020293869545],[102.42492481109171,5.7378020293869545],[102.42492481109171,5.737408177123026],[102.42544301948229,5.737408177123026],[102.42544301948229,5.7378020293869545],[102.42596122787285,5.7378020293869545],[102.42596122787285,5.738589734709297],[102.4264794362634,5.738589734709297],[102.4264794362634,5.739771294679299],[102.42699764465395,5.739771294679299],[102.42699764465395,5.740165148532436],[102.42596122787285,5.740165148532436],[102.42492481109171,5.738983587767747],[102.42440660270117,5.738983587767747],[102.42440660270117,5.739377441091075]]],[[[102.41663347684276,5.742134421772507],[102.4161152684522,5.742922132923591],[102.4171516852333,5.743315988896722],[102.41766989362387,5.742528277215525],[102.41663347684276,5.742134421772507]]],[[[102.41507885167107,5.743709845134933],[102.4145606432805,5.744497558406681],[102.41559706006163,5.744891415440254],[102.4161152684522,5.744103701638247],[102.41507885167107,5.743709845134933]]],[[[102.42129735235781,5.744103701638247],[102.42129735235781,5.744497558406681],[102.42077914396724,5.744497558406681],[102.42129735235781,5.745175872512692],[102.42246250268697,5.744497558406681],[102.42233376913892,5.744103701638247],[102.42129735235781,5.744103701638247]]],[[[102.41196960132771,5.745679130302891],[102.41194832756183,5.745679130302891],[102.41196960132771,5.745718977864195],[102.41196960132771,5.745679130302891]]],[[[102.41559706006163,5.745679130302891],[102.41507885167107,5.745679130302891],[102.41507885167107,5.746072988131992],[102.4161152684522,5.746466846226307],[102.41663347684276,5.745679130302891],[102.4161152684522,5.745679130302891],[102.4161152684522,5.745285272738983],[102.41559706006163,5.745285272738983],[102.41559706006163,5.745679130302891]]],[[[102.4197427271861,5.745285272738983],[102.4197427271861,5.745679130302891],[102.41922451879557,5.745679130302891],[102.41922451879557,5.7468607045858535],[102.418706310405,5.7468607045858535],[102.418706310405,5.747254563210651],[102.42007209999998,5.746964993808195],[102.42077914396724,5.745821293869356],[102.4197427271861,5.745285272738983]]],[[[102.42703999380166,5.746072988131992],[102.427057373242,5.7468607045858535],[102.42751585304453,5.7468607045858535],[102.42751585304453,5.746072988131992],[102.42703999380166,5.746072988131992]]],[[[102.41352422649939,5.747254563210651],[102.41347949999998,5.747258293807898],[102.41352422649939,5.747265743040018],[102.41352422649939,5.747254563210651]]],[[[102.3990143915637,5.753950200433689],[102.39865429999999,5.7541870938010025],[102.3990143915637,5.754080519597768],[102.3990143915637,5.753950200433689]]],[[[102.40491990419416,5.754344063836193],[102.40471468385985,5.754737927504307],[102.40498823087559,5.754737927504307],[102.40491990419416,5.754344063836193]]],[[[102.39452582461765,5.757101115091738],[102.3952658,5.756900793798301],[102.39510136011252,5.756313384833181],[102.39435051604865,5.756707249829601],[102.39452582461765,5.757101115091738]]],[[[102.39797797478256,5.762221387688316],[102.39845288211684,5.762221387688316],[102.39829547937816,5.761433650517946],[102.39797797478256,5.761433650517946],[102.39797797478256,5.762221387688316]]],[[[102.39849618317314,5.762615256672461],[102.3985315834862,5.762615256672461],[102.39849618317314,5.762438092182792],[102.39849618317314,5.762615256672461]]],[[[102.39953259995426,5.7681294503887335],[102.39957984209228,5.768523323364804],[102.39953975528645,5.7681294503887335],[102.39953259995426,5.7681294503887335]]]]},"properties":{"place_id":"ede3fd06-3267-508a-b5b5-58ddbd732045","habitat":"forest_edge_opening","habitat_label":"Forest edge or opening","resolution_m":50}},{"type":"Feature","geometry":{"type":"MultiPolygon","coordinates":[[[[102.24251545761437,5.676364266098754],[102.24249908739034,5.676758077540947],[102.24251545761437,5.676758077540947],[102.24251545761437,5.676364266098754]]],[[[102.23888799888046,5.701568727226435],[102.23888799888046,5.701174899246248],[102.23872359986545,5.701174899246248],[102.23838201108242,5.701568727226435],[102.23888799888046,5.701568727226435]]],[[[102.23836979048988,5.702356383976143],[102.23888799888046,5.702356383976143],[102.23888799888046,5.701962555469729],[102.23836979048988,5.701962555469729],[102.23836979048988,5.702356383976143]]],[[[102.23888799888046,5.702750212745703],[102.23940620727102,5.702750212745703],[102.23940620727102,5.702356383976143],[102.23888799888046,5.702356383976143],[102.23888799888046,5.702750212745703]]],[[[102.23940620727102,5.702750212745703],[102.24044262405214,5.703931700633414],[102.24147904083325,5.703537871074318],[102.24044262405214,5.702356383976143],[102.23940620727102,5.702750212745703]]],[[[102.24147904083325,5.703537871074318],[102.24147904083325,5.703931700633414],[102.24199724922383,5.703931700633414],[102.24199724922383,5.703537871074318],[102.24147904083325,5.703537871074318]]],[[[102.24199724922383,5.70432553045573],[102.24251545761437,5.70432553045573],[102.24251545761437,5.703931700633414],[102.24199724922383,5.703931700633414],[102.24199724922383,5.70432553045573]]],[[[102.24251545761437,5.704719360541277],[102.24199724922383,5.704719360541277],[102.24199724922383,5.705113190890078],[102.24303366600493,5.705113190890078],[102.24303366600493,5.705900852377519],[102.2435518743955,5.705900852377519],[102.2435518743955,5.705113190890078],[102.24407008278607,5.705113190890078],[102.24407008278607,5.704719360541277],[102.2435518743955,5.704719360541277],[102.2435518743955,5.70432553045573],[102.24251545761437,5.70432553045573],[102.24251545761437,5.704719360541277]]],[[[102.24407008278607,5.705900852377519],[102.24458829117663,5.705900852377519],[102.24458829117663,5.705507021502154],[102.24407008278607,5.705507021502154],[102.24407008278607,5.705900852377519]]],[[[102.2435518743955,5.706294683516197],[102.24407008278607,5.706294683516197],[102.24407008278607,5.705900852377519],[102.2435518743955,5.705900852377519],[102.2435518743955,5.706294683516197]]],[[[102.24458829117663,5.706294683516197],[102.24510649956719,5.706294683516197],[102.24510649956719,5.705900852377519],[102.24458829117663,5.705900852377519],[102.24458829117663,5.706294683516197]]],[[[102.24510649956719,5.706688514918199],[102.24562470795773,5.706688514918199],[102.24562470795773,5.706294683516197],[102.24510649956719,5.706294683516197],[102.24510649956719,5.706688514918199]]],[[[102.24510649956719,5.706688514918199],[102.24458829117663,5.706688514918199],[102.24458829117663,5.707082346583553],[102.24510649956719,5.707082346583553],[102.24510649956719,5.706688514918199]]],[[[102.24562470795773,5.7074761785122705],[102.2461429163483,5.7074761785122705],[102.2461429163483,5.707082346583553],[102.24562470795773,5.707082346583553],[102.24562470795773,5.7074761785122705]]],[[[102.24717933312944,5.707870010704372],[102.24717933312944,5.7074761785122705],[102.2461429163483,5.7074761785122705],[102.2461429163483,5.707870010704372],[102.24717933312944,5.707870010704372]]],[[[102.24717933312944,5.707870010704372],[102.24717933312944,5.708263843159878],[102.24769754151998,5.708263843159878],[102.24769754151998,5.707870010704372],[102.24717933312944,5.707870010704372]]],[[[102.24666112473886,5.708657675878805],[102.24717933312944,5.708657675878805],[102.24717933312944,5.708263843159878],[102.24666112473886,5.708263843159878],[102.24666112473886,5.708657675878805]]],[[[102.24769754151998,5.708263843159878],[102.24769754151998,5.708657675878805],[102.24717933312944,5.708657675878805],[102.24717933312944,5.709051508861174],[102.24821574991054,5.709051508861174],[102.24821574991054,5.708263843159878],[102.24769754151998,5.708263843159878]]],[[[102.2502885834728,5.709839175616305],[102.2502885834728,5.708657675878805],[102.2487339583011,5.708657675878805],[102.2487339583011,5.709051508861174],[102.24821574991054,5.709051508861174],[102.24925216669168,5.710626843425426],[102.24977037508222,5.710626843425426],[102.24977037508222,5.709839175616305],[102.2502885834728,5.709839175616305]],[[102.24925216669168,5.709839175616305],[102.24925216669168,5.709445342107001],[102.24977037508222,5.709445342107001],[102.24977037508222,5.709839175616305],[102.24925216669168,5.709839175616305]]],[[[102.25080679186334,5.709839175616305],[102.25132500025391,5.709839175616305],[102.25132500025391,5.709445342107001],[102.25080679186334,5.709445342107001],[102.25080679186334,5.709839175616305]]],[[[102.2502885834728,5.71023300938911],[102.25080679186334,5.71023300938911],[102.25080679186334,5.709839175616305],[102.2502885834728,5.709839175616305],[102.2502885834728,5.71023300938911]]],[[[102.25132500025391,5.71023300938911],[102.25184320864447,5.71023300938911],[102.25184320864447,5.709839175616305],[102.25132500025391,5.709839175616305],[102.25132500025391,5.71023300938911]]],[[[102.2502885834728,5.711020677725275],[102.2502885834728,5.711414512288679],[102.25080679186334,5.711414512288679],[102.25080679186334,5.712202182206219],[102.25132500025391,5.712202182206219],[102.25132500025391,5.711414512288679],[102.25184320864447,5.711414512288679],[102.25184320864447,5.711020677725275],[102.24977037508222,5.710626843425426],[102.24977037508222,5.711020677725275],[102.2502885834728,5.711020677725275]]],[[[102.25132500025391,5.712202182206219],[102.25132500025391,5.712596017560391],[102.25184320864447,5.712596017560391],[102.25184320864447,5.712202182206219],[102.25132500025391,5.712202182206219]]],[[[102.25287962542559,5.71298985317819],[102.25287962542559,5.712596017560391],[102.25184320864447,5.712596017560391],[102.25184320864447,5.713383689059634],[102.25287962542559,5.71298985317819]]],[[[102.25287962542559,5.714171361613538],[102.25287962542559,5.713777525204745],[102.25339783381615,5.713777525204745],[102.25339783381615,5.713383689059634],[102.25236141703503,5.713383689059634],[102.25236141703503,5.714171361613538],[102.25287962542559,5.714171361613538]]],[[[102.25339783381615,5.713777525204745],[102.25339783381615,5.714171361613538],[102.25287962542559,5.714171361613538],[102.25287962542559,5.714959035222249],[102.25339783381615,5.714959035222249],[102.25339783381615,5.715746709885915],[102.25391604220671,5.715746709885915],[102.25443425059727,5.714959035222249],[102.25391604220671,5.714959035222249],[102.25391604220671,5.713777525204745],[102.25339783381615,5.713777525204745]]],[[[102.28138108690642,5.66139962520101],[102.28189929529698,5.66139962520101],[102.28189929529698,5.661005823959531],[102.28138108690642,5.661005823959531],[102.28138108690642,5.66139962520101]]],[[[102.30210942252886,5.665337651985045],[102.302299436226,5.665337651985045],[102.30210942252886,5.664941407941534],[102.30210942252886,5.665337651985045]]],[[[102.28552675403091,5.6651070086816455],[102.28656317081203,5.665337651985045],[102.28656317081203,5.6651246595654525],[102.28552675403091,5.6651070086816455]]],[[[102.28811779598371,5.665337651985045],[102.28818627888991,5.665337651985045],[102.28811779598371,5.665307953763232],[102.28811779598371,5.665337651985045]]],[[[102.34874817767931,5.669275704907968],[102.34978459446043,5.669275704907968],[102.34978459446043,5.668972575708559],[102.34874817767931,5.668886310644034],[102.34874817767931,5.669275704907968]]],[[[102.32283775815127,5.675576644000079],[102.32283775815127,5.6759704549184695],[102.32335596654184,5.6759704549184695],[102.32335596654184,5.675576644000079],[102.32283775815127,5.675576644000079]]],[[[102.30988254838726,5.6826652806158675],[102.31040075677781,5.6826652806158675],[102.31040075677781,5.682271465242769],[102.30988254838726,5.682271465242769],[102.30988254838726,5.6826652806158675]]],[[[102.31765567424566,5.688966362258587],[102.31817388263623,5.688966362258587],[102.31817388263623,5.6885725426879015],[102.31765567424566,5.6885725426879015],[102.31765567424566,5.688966362258587]]],[[[102.32283775815127,5.713777525204745],[102.32335596654184,5.713777525204745],[102.32335596654184,5.713383689059634],[102.32283775815127,5.713383689059634],[102.32283775815127,5.713777525204745]]],[[[102.25391604220671,5.716140547613404],[102.25495245898783,5.716140547613404],[102.25495245898783,5.715746709885915],[102.25391604220671,5.715746709885915],[102.25391604220671,5.716140547613404]]],[[[102.25443425059727,5.7181097402081456],[102.25495245898783,5.7181097402081456],[102.25547066737839,5.716534385604686],[102.25443425059727,5.716928223859783],[102.25443425059727,5.7181097402081456]]],[[[102.25909812611232,5.717715901161495],[102.25961633450288,5.717715901161495],[102.25961633450288,5.717322062378714],[102.25909812611232,5.717322062378714],[102.25909812611232,5.717715901161495]]],[[[102.25443425059727,5.718503579518684],[102.25443425059727,5.71889741909313],[102.25547066737839,5.718863461952248],[102.25547066737839,5.718503579518684],[102.25443425059727,5.718503579518684]]],[[[102.26013454289344,5.71889741909313],[102.260652751284,5.71889741909313],[102.260652751284,5.718503579518684],[102.26013454289344,5.718503579518684],[102.26013454289344,5.71889741909313]]],[[[102.28138108690642,5.724017357584955],[102.28121988580587,5.724017357584955],[102.28138108690642,5.72417668840655],[102.28138108690642,5.724017357584955]]],[[[102.27049871070464,5.728743494278641],[102.27049871070464,5.728349648100453],[102.2696072522109,5.728349648100453],[102.26996300822256,5.728743494278641],[102.27049871070464,5.728743494278641]]],[[[102.27049871070464,5.728743494278641],[102.27153512748576,5.729137340721218],[102.27153512748576,5.728743494278641],[102.27049871070464,5.728743494278641]]],[[[102.27205333587634,5.729531187428207],[102.2725715442669,5.729531187428207],[102.2725715442669,5.729137340721218],[102.27205333587634,5.729137340721218],[102.27205333587634,5.729531187428207]]],[[[102.27412616943857,5.729925034399626],[102.27412616943857,5.730318881635495],[102.27516258621971,5.730318881635495],[102.27516258621971,5.729925034399626],[102.27412616943857,5.729925034399626]]],[[[102.32594700849464,5.7354389197750475],[102.32646521688521,5.7354389197750475],[102.32646521688521,5.734651218688954],[102.32594700849464,5.734651218688954],[102.32594700849464,5.7354389197750475]]],[[[102.31143717355894,5.754344063836193],[102.3119553819495,5.754344063836193],[102.3119553819495,5.753950200433689],[102.31143717355894,5.753950200433689],[102.31143717355894,5.754344063836193]]],[[[102.3119553819495,5.754737927504307],[102.31247359034008,5.754737927504307],[102.31299179873062,5.75552565563742],[102.31402821551174,5.75552565563742],[102.31299179873062,5.754344063836193],[102.3119553819495,5.754344063836193],[102.3119553819495,5.754737927504307]]],[[[102.31817388263623,5.755131791438042],[102.31869209102679,5.755131791438042],[102.31869209102679,5.754737927504307],[102.31817388263623,5.754737927504307],[102.31817388263623,5.755131791438042]]],[[[102.31972850780792,5.755131791438042],[102.32076492458903,5.7549671667852556],[102.32076492458903,5.754737927504307],[102.31972850780792,5.754737927504307],[102.31972850780792,5.755131791438042]]],[[[102.31247359034008,5.755131791438042],[102.31196084064219,5.755131791438042],[102.3120114,5.755170593800046],[102.31247359034008,5.755131791438042]]],[[[102.31713746585511,5.755131791438042],[102.31713746585511,5.75552565563742],[102.31817388263623,5.755482742351604],[102.31817388263623,5.755131791438042],[102.31713746585511,5.755131791438042]]],[[[102.31454642390231,5.755919520102459],[102.31558284068342,5.755919520102459],[102.31558284068342,5.75552565563742],[102.31454642390231,5.75552565563742],[102.31454642390231,5.755919520102459]]],[[[102.35133921963211,5.669101973328877],[102.35185742802267,5.669275704907968],[102.35185742802267,5.669145105875259],[102.35133921963211,5.669101973328877]]],[[[102.35341205319436,5.669275704907968],[102.35371684341992,5.669275704907968],[102.35341205319436,5.669254515913982],[102.35341205319436,5.669275704907968]]],[[[102.35963055388109,5.671638549216147],[102.35989354611011,5.671638549216147],[102.35963055388109,5.671360285832704],[102.35963055388109,5.671638549216147]]],[[[102.36118517905275,5.6732137839884285],[102.36138232933045,5.6732137839884285],[102.36118517905275,5.673005185230279],[102.36118517905275,5.6732137839884285]]],[[[102.37569501398845,5.682271465242769],[102.37569501398845,5.6826652806158675],[102.37621322237902,5.6826652806158675],[102.37621322237902,5.682271465242769],[102.37569501398845,5.682271465242769]]],[[[102.3777678475507,5.703537871074318],[102.37828605594126,5.703537871074318],[102.37828605594126,5.702750212745703],[102.3777678475507,5.702750212745703],[102.3777678475507,5.703537871074318]]],[[[102.38087709789406,5.706348460498745],[102.38191351467519,5.706586905824296],[102.38191351467519,5.706294683516197],[102.38087709789406,5.706348460498745]]],[[[102.3829499314563,5.706688514918199],[102.38225491926141,5.706688514918199],[102.38346813984687,5.708215702960908],[102.38398634823743,5.7074761785122705],[102.38346813984687,5.7074761785122705],[102.3829499314563,5.706688514918199]]],[[[102.38346813984687,5.709051508861174],[102.38346813984687,5.708908616828766],[102.38343983569835,5.709051508861174],[102.38346813984687,5.709051508861174]]],[[[102.37673143076958,5.71023300938911],[102.37724963916014,5.71023300938911],[102.37724963916014,5.709839175616305],[102.37673143076958,5.709839175616305],[102.37673143076958,5.71023300938911]]],[[[102.38813201536192,5.730712729135828],[102.38865022375248,5.730712729135828],[102.38865022375248,5.730318881635495],[102.38813201536192,5.730318881635495],[102.38813201536192,5.730712729135828]]],[[[102.38605918179967,5.731500424929972],[102.38605918179967,5.731894273223817],[102.38657739019024,5.731894273223817],[102.38657739019024,5.731500424929972],[102.38605918179967,5.731500424929972]]],[[[102.38502276501855,5.732681970605154],[102.3855409734091,5.732681970605154],[102.3855409734091,5.732288121782206],[102.384504556628,5.732288121782206],[102.384504556628,5.733469669044807],[102.38502276501855,5.733469669044807],[102.38502276501855,5.732681970605154]]],[[[102.4171516852333,5.734257368542923],[102.41766989362387,5.734257368542923],[102.41766989362387,5.733469669044807],[102.4171516852333,5.733469669044807],[102.4171516852333,5.734257368542923]]],[[[102.38761380697134,5.734651218688954],[102.38761380697134,5.732681970605154],[102.3855409734091,5.732681970605154],[102.3855409734091,5.733863518661549],[102.38657739019024,5.733863518661549],[102.38657739019024,5.734257368542923],[102.38605918179967,5.734257368542923],[102.38605918179967,5.734651218688954],[102.38502276501855,5.734257368542923],[102.38502276501855,5.7354389197750475],[102.3855409734091,5.7354389197750475],[102.3855409734091,5.735045069099654],[102.38605918179967,5.735045069099654],[102.38605918179967,5.7354389197750475],[102.3870955985808,5.7354389197750475],[102.3870955985808,5.734651218688954],[102.38761380697134,5.734651218688954]]],[[[102.4161152684522,5.734651218688954],[102.41663347684276,5.734651218688954],[102.41663347684276,5.734257368542923],[102.4161152684522,5.734257368542923],[102.4161152684522,5.734651218688954]]],[[[102.38398634823743,5.735045069099654],[102.384504556628,5.735045069099654],[102.384504556628,5.734257368542923],[102.38398634823743,5.734257368542923],[102.38398634823743,5.735045069099654]]],[[[102.41766989362387,5.7354389197750475],[102.41766989362387,5.735832770715149],[102.41818810201444,5.735832770715149],[102.41818810201444,5.7354389197750475],[102.41766989362387,5.7354389197750475]]],[[[102.38813201536192,5.737014325123898],[102.38865022375248,5.737014325123898],[102.38865022375248,5.736620473389556],[102.38813201536192,5.736620473389556],[102.38813201536192,5.737014325123898]]],[[[102.41818810201444,5.7378020293869545],[102.418706310405,5.7378020293869545],[102.418706310405,5.737408177123026],[102.41818810201444,5.737408177123026],[102.41818810201444,5.7378020293869545]]],[[[102.41559706006163,5.740952857033533],[102.4161152684522,5.740952857033533],[102.4161152684522,5.740559002650509],[102.41559706006163,5.740559002650509],[102.41559706006163,5.740952857033533]]],[[[102.41663347684276,5.742922132923591],[102.4171516852333,5.742922132923591],[102.4171516852333,5.742528277215525],[102.41663347684276,5.742528277215525],[102.41663347684276,5.742922132923591]]],[[[102.41507885167107,5.744497558406681],[102.41559706006163,5.744497558406681],[102.41559706006163,5.744103701638247],[102.41507885167107,5.744103701638247],[102.41507885167107,5.744497558406681]]],[[[102.41559706006163,5.746072988131992],[102.4161152684522,5.746072988131992],[102.4161152684522,5.745679130302891],[102.41559706006163,5.745679130302891],[102.41559706006163,5.746072988131992]]],[[[102.3751768055979,5.757494980619611],[102.3751768055979,5.754112938065528],[102.3744885,5.75559769379959],[102.3751768055979,5.757494980619611]]],[[[102.39486872443919,5.756707249829601],[102.3952658,5.756900793798301],[102.39521161911482,5.756707249829601],[102.39486872443919,5.756707249829601]]],[[[102.38188299333243,5.771674316760936],[102.38191351467519,5.77128044165412],[102.38157081943126,5.77128044165412],[102.38188299333243,5.771674316760936]]],[[[102.42181556074836,5.733075819692683],[102.42181556074836,5.733469669044807],[102.42233376913892,5.733469669044807],[102.42233376913892,5.733075819692683],[102.42181556074836,5.733075819692683]]],[[[102.4197427271861,5.734257368542923],[102.41922451879557,5.734257368542923],[102.418706310405,5.735045069099654],[102.4197427271861,5.735045069099654],[102.4197427271861,5.734257368542923]]],[[[102.42026093557668,5.736226621919979],[102.42077914396724,5.736226621919979],[102.42077914396724,5.735832770715149],[102.42026093557668,5.735832770715149],[102.42026093557668,5.736226621919979]]],[[[102.418706310405,5.737014325123898],[102.418706310405,5.737408177123026],[102.41922451879557,5.737408177123026],[102.41922451879557,5.737014325123898],[102.418706310405,5.737014325123898]]],[[[102.42492481109171,5.737408177123026],[102.42544301948229,5.737408177123026],[102.42544301948229,5.737014325123898],[102.42492481109171,5.737014325123898],[102.42492481109171,5.737408177123026]]],[[[102.42492481109171,5.737408177123026],[102.42440660270117,5.737408177123026],[102.42440660270117,5.7378020293869545],[102.42492481109171,5.7378020293869545],[102.42492481109171,5.737408177123026]]],[[[102.42596122787285,5.7378020293869545],[102.425918057884,5.737408177123026],[102.42544301948229,5.737408177123026],[102.42544301948229,5.7378020293869545],[102.42596122787285,5.7378020293869545]]],[[[102.42596122787285,5.7378020293869545],[102.42596122787285,5.738195881915706],[102.42643688212002,5.738195881915706],[102.42617747000202,5.7378020293869545],[102.42596122787285,5.7378020293869545]]],[[[102.42285197752948,5.738195881915706],[102.42337018592005,5.738195881915706],[102.42337018592005,5.7378020293869545],[102.42233376913892,5.7378020293869545],[102.42233376913892,5.738589734709297],[102.42285197752948,5.738589734709297],[102.42285197752948,5.738195881915706]]],[[[102.41922451879557,5.738983587767747],[102.4197427271861,5.738983587767747],[102.4197427271861,5.7378020293869545],[102.41922451879557,5.7378020293869545],[102.41922451879557,5.738983587767747]]],[[[102.42440660270117,5.738195881915706],[102.42440660270117,5.738589734709297],[102.42544301948229,5.738589734709297],[102.42544301948229,5.738195881915706],[102.42440660270117,5.738195881915706]]],[[[102.42181556074836,5.739377441091075],[102.42233376913892,5.739377441091075],[102.42233376913892,5.738983587767747],[102.42181556074836,5.738983587767747],[102.42181556074836,5.739377441091075]]],[[[102.4264794362634,5.739377441091075],[102.42699764465395,5.739377441091075],[102.426955706356,5.738983587767747],[102.4264794362634,5.738983587767747],[102.4264794362634,5.739377441091075]]],[[[102.42026093557668,5.740952857033533],[102.42077914396724,5.740952857033533],[102.42077914396724,5.740559002650509],[102.42026093557668,5.740559002650509],[102.42026093557668,5.740952857033533]]],[[[102.42388839431061,5.740952857033533],[102.42440660270117,5.740952857033533],[102.42440660270117,5.740559002650509],[102.42388839431061,5.740559002650509],[102.42388839431061,5.740952857033533]]],[[[102.42285197752948,5.741346711681528],[102.42337018592005,5.741346711681528],[102.42337018592005,5.740559002650509],[102.42285197752948,5.740559002650509],[102.42285197752948,5.741346711681528]]],[[[102.42440660270117,5.741346711681528],[102.42544301948229,5.741346711681528],[102.42544301948229,5.740952857033533],[102.42440660270117,5.740952857033533],[102.42440660270117,5.741346711681528]]],[[[102.42129735235781,5.741740566594514],[102.42129735235781,5.742134421772507],[102.42181556074836,5.742134421772507],[102.42181556074836,5.741740566594514],[102.42129735235781,5.741740566594514]]],[[[102.42751585304453,5.742134421772507],[102.42803406143508,5.742134421772507],[102.42803406143508,5.741740566594514],[102.42751585304453,5.741740566594514],[102.42751585304453,5.742134421772507]]],[[[102.4264794362634,5.742528277215525],[102.42699764465395,5.742528277215525],[102.42699764465395,5.742134421772507],[102.4264794362634,5.742134421772507],[102.4264794362634,5.742528277215525]]],[[[102.42388839431061,5.743315988896722],[102.42440660270117,5.743315988896722],[102.42440660270117,5.741740566594514],[102.42388839431061,5.741740566594514],[102.42388839431061,5.743315988896722]]],[[[102.4264794362634,5.743764481992067],[102.42694469999999,5.743917893811236],[102.42699764465395,5.744103701638247],[102.42699764465395,5.743709845134933],[102.4264794362634,5.743764481992067]]],[[[102.42129735235781,5.744891415440254],[102.42181556074836,5.744859818886157],[102.42181556074836,5.744497558406681],[102.42129735235781,5.744497558406681],[102.42129735235781,5.744891415440254]]],[[[102.4197427271861,5.746072988131992],[102.42026093557668,5.746072988131992],[102.42026093557668,5.745679130302891],[102.4197427271861,5.745679130302891],[102.4197427271861,5.746072988131992]]]]},"properties":{"place_id":"ede3fd06-3267-508a-b5b5-58ddbd732045","habitat":"open_grassland","habitat_label":"Open grassland or shrubland","resolution_m":50}},{"type":"Feature","geometry":{"type":"MultiPolygon","coordinates":[[[[102.27982646173474,5.657067825906743],[102.27879004495361,5.657461624537226],[102.27879004495361,5.658643021994846],[102.27930825334418,5.658643021994846],[102.27930825334418,5.6590368216695035],[102.27961888589283,5.6590368216695035],[102.2790576,5.657795493897321],[102.27982646173474,5.657067825906743]]],[[[102.23992441566158,5.702356383976143],[102.23992441566158,5.701568727226435],[102.23940620727102,5.701568727226435],[102.23940620727102,5.701174899246248],[102.2386252,5.701228393853884],[102.23785158209934,5.702311042510668],[102.23888799888046,5.702356383976143],[102.23940620727102,5.703144041778421],[102.24044262405214,5.702750212745703],[102.24044262405214,5.702356383976143],[102.23992441566158,5.702356383976143]]],[[[102.24251545761437,5.70432553045573],[102.24147904083325,5.703144041778421],[102.24044262405214,5.703537871074318],[102.24199724922383,5.705113190890078],[102.24303366600493,5.704719360541277],[102.24303366600493,5.70432553045573],[102.24251545761437,5.70432553045573]]],[[[102.24510649956719,5.706294683516197],[102.24510649956719,5.705900852377519],[102.24458829117663,5.705900852377519],[102.24458829117663,5.705113190890078],[102.2435518743955,5.704719360541277],[102.2435518743955,5.705113190890078],[102.24303366600493,5.705113190890078],[102.24303366600493,5.705900852377519],[102.2435518743955,5.705900852377519],[102.24458829117663,5.707082346583553],[102.24562470795773,5.706688514918199],[102.24562470795773,5.706294683516197],[102.24510649956719,5.706294683516197]]],[[[102.24769754151998,5.708263843159878],[102.24769754151998,5.707870010704372],[102.24717933312944,5.707870010704372],[102.24666112473886,5.708657675878805],[102.24769754151998,5.709051508861174],[102.24769754151998,5.708657675878805],[102.24821574991054,5.708657675878805],[102.24821574991054,5.708263843159878],[102.24769754151998,5.708263843159878]]],[[[102.25339783381615,5.713777525204745],[102.25339783381615,5.71298985317819],[102.25287962542559,5.71298985317819],[102.25287962542559,5.712202182206219],[102.25236141703503,5.712202182206219],[102.25236141703503,5.711414512288679],[102.25184320864447,5.711414512288679],[102.25184320864447,5.711020677725275],[102.25236141703503,5.711020677725275],[102.25236141703503,5.71023300938911],[102.25184320864447,5.71023300938911],[102.25080679186334,5.709051508861174],[102.2502885834728,5.709051508861174],[102.2502885834728,5.709445342107001],[102.24925216669168,5.709051508861174],[102.2487339583011,5.709839175616305],[102.24925216669168,5.709839175616305],[102.24925216669168,5.710626843425426],[102.24977037508222,5.710626843425426],[102.24977037508222,5.711020677725275],[102.25080679186334,5.711020677725275],[102.25080679186334,5.712202182206219],[102.25184320864447,5.712596017560391],[102.25184320864447,5.713383689059634],[102.25236141703503,5.713383689059634],[102.25236141703503,5.714171361613538],[102.25287962542559,5.714171361613538],[102.25287962542559,5.714565198286033],[102.25391604220671,5.714171361613538],[102.25391604220671,5.713777525204745],[102.25339783381615,5.713777525204745]]],[[[102.25547066737839,5.717322062378714],[102.25547066737839,5.716140547613404],[102.25495245898783,5.716140547613404],[102.25495245898783,5.715352872422202],[102.25391604220671,5.714959035222249],[102.25339783381615,5.715746709885915],[102.25391604220671,5.715746709885915],[102.25443425059727,5.718503579518684],[102.25495245898783,5.718503579518684],[102.25495245898783,5.71889741909313],[102.25443425059727,5.718922784720182],[102.25501839999998,5.718939493836193],[102.25547066737839,5.718863461952248],[102.25547066737839,5.718503579518684],[102.25598887576895,5.718503579518684],[102.25598887576895,5.717322062378714],[102.25547066737839,5.717322062378714]]],[[[102.25857991772176,5.716928223859783],[102.25857991772176,5.716534385604686],[102.25806170933119,5.716534385604686],[102.25754350094064,5.717322062378714],[102.25857991772176,5.717715901161495],[102.25857991772176,5.717322062378714],[102.25909812611232,5.717322062378714],[102.25909812611232,5.716928223859783],[102.25857991772176,5.716928223859783]]],[[[102.28138108690642,5.660612022979232],[102.27979694848779,5.659430621605253],[102.27930825334418,5.659430621605253],[102.2803446701253,5.661005823959531],[102.28138108690642,5.660612022979232]]],[[[102.28233171674852,5.662974832779151],[102.28189929529698,5.661005823959531],[102.28138108690642,5.661005823959531],[102.28086287851586,5.661793426703698],[102.28138108690642,5.661793426703698],[102.28138108690642,5.662581030492749],[102.28189929529698,5.662581030492749],[102.28189929529698,5.662974832779151],[102.28233171674852,5.662974832779151]]],[[[102.28604496242146,5.665731456100779],[102.28604496242146,5.665337651985045],[102.28552675403091,5.665337651985045],[102.28500854564035,5.666125260477921],[102.28604496242146,5.666519065116488],[102.28604496242146,5.666125260477921],[102.28656317081203,5.666125260477921],[102.28656317081203,5.665731456100779],[102.28604496242146,5.665731456100779]]],[[[102.2829357120781,5.705900852377519],[102.2829357120781,5.705507021502154],[102.28241750368755,5.705507021502154],[102.28189929529698,5.706294683516197],[102.2829357120781,5.706688514918199],[102.2829357120781,5.706294683516197],[102.28345392046866,5.706294683516197],[102.28345392046866,5.705900852377519],[102.2829357120781,5.705900852377519]]],[[[102.43040120000002,5.746798093808388],[102.43106786934177,5.746072988131992],[102.42958868660676,5.745285272738983],[102.42958868660676,5.744891415440254],[102.43010689499732,5.744891415440254],[102.43010689499732,5.744497558406681],[102.42958868660676,5.744497558406681],[102.42958868660676,5.742981048244191],[102.4290704782162,5.742922132923591],[102.4290704782162,5.742194293923578],[102.42855226982566,5.742134421772507],[102.42855226982566,5.741407540660508],[102.425918057884,5.737408177123026],[102.42544301948229,5.737408177123026],[102.42544301948229,5.737014325123898],[102.42492481109171,5.737014325123898],[102.42492481109171,5.737408177123026],[102.42440660270117,5.737408177123026],[102.42440660270117,5.737014325123898],[102.42337018592005,5.737014325123898],[102.42337018592005,5.737408177123026],[102.42285197752948,5.737408177123026],[102.42285197752948,5.738195881915706],[102.42181556074836,5.738589734709297],[102.42181556074836,5.739771294679299],[102.42233376913892,5.739771294679299],[102.42285197752948,5.740559002650509],[102.42337018592005,5.740559002650509],[102.42337018592005,5.740165148532436],[102.42492481109171,5.740165148532436],[102.42492481109171,5.740559002650509],[102.42544301948229,5.740559002650509],[102.42544301948229,5.740952857033533],[102.42440660270117,5.740952857033533],[102.42440660270117,5.741346711681528],[102.42388839431061,5.741346711681528],[102.42388839431061,5.742922132923591],[102.42440660270117,5.742922132923591],[102.42440660270117,5.743315988896722],[102.42388839431061,5.743315988896722],[102.42388839431061,5.7443301551438175],[102.42647279999998,5.7437622938114155],[102.42694469999999,5.743917893811236],[102.42702380215796,5.745679130302891],[102.42803406143508,5.745679130302891],[102.4290704782162,5.7468607045858535],[102.43040120000002,5.746798093808388]],[[102.42855226982566,5.744891415440254],[102.4290704782162,5.744891415440254],[102.4290704782162,5.745285272738983],[102.42855226982566,5.745285272738983],[102.42855226982566,5.744891415440254]]],[[[102.42181556074836,5.744103701638247],[102.42181556074836,5.744497558406681],[102.42129735235781,5.744497558406681],[102.42129735235781,5.744891415440254],[102.42246250268697,5.744497558406681],[102.42233376913892,5.744103701638247],[102.42181556074836,5.744103701638247]]],[[[102.42007209999998,5.746964993808195],[102.42026093557668,5.745679130302891],[102.4197427271861,5.745679130302891],[102.418706310405,5.747254563210651],[102.42007209999998,5.746964993808195]]],[[[102.33734759308697,5.752374749479348],[102.33755259999998,5.752580393802632],[102.33782931000736,5.752374749479348],[102.33734759308697,5.752374749479348]]]]},"properties":{"place_id":"ede3fd06-3267-508a-b5b5-58ddbd732045","habitat":"disturbed_built_edge","habitat_label":"Disturbed, bare or built edge","resolution_m":50}},{"type":"Feature","geometry":{"type":"MultiPolygon","coordinates":[[[[102.4264794362634,5.738589734709297],[102.42596122787285,5.738195881915706],[102.42596122787285,5.738589734709297],[102.4264794362634,5.738589734709297]]],[[[102.42544301948229,5.738983587767747],[102.42596122787285,5.738983587767747],[102.42596122787285,5.738589734709297],[102.42544301948229,5.738589734709297],[102.42544301948229,5.738983587767747]]]]},"properties":{"place_id":"ede3fd06-3267-508a-b5b5-58ddbd732045","habitat":"seasonal_water_wetland","habitat_label":"Seasonal water or wetland","resolution_m":50}},{"type":"Feature","geometry":{"type":"Polygon","coordinates":[[[102.42596122787285,5.7378020293869545],[102.42440660270117,5.738589734709297],[102.42544301948229,5.739771294679299],[102.426955706356,5.738983587767747],[102.4264794362634,5.738260489782437],[102.4264794362634,5.738589734709297],[102.42596122787285,5.738589734709297],[102.42596122787285,5.738195881915706],[102.42643688212002,5.738195881915706],[102.42596122787285,5.737473719909553],[102.42596122787285,5.7378020293869545]],[[102.42596122787285,5.738983587767747],[102.42544301948229,5.738983587767747],[102.42544301948229,5.738589734709297],[102.42596122787285,5.738589734709297],[102.42596122787285,5.738983587767747]]]},"properties":{"place_id":"ede3fd06-3267-508a-b5b5-58ddbd732045","habitat":"water_edge","habitat_label":"Water edge","resolution_m":50}}]}