{"type":"FeatureCollection","metadata":{"schema_version":1,"place_id":"ee19a3c8-1d19-5b26-b195-0a4bf3c3e312","place_name":"Laman Rekreasi Tasek Tambahan","place_type":"park","osm_reference":"way/771284922","protection_context":"no protected status confirmed from included OSM tags","resolution_m":50,"raster_coverage":1.0,"interpretation":"Suggested search habitats, not predicted plant locations or probabilities of presence."},"features":[{"type":"Feature","geometry":{"type":"MultiPolygon","coordinates":[[[[101.77094582220418,3.122062659888902],[101.77157953357515,3.122062659888902],[101.77094582220418,3.121954062230915],[101.77094582220418,3.122062659888902]]],[[[101.77114795620975,3.1228476573085415],[101.77130859999998,3.1228772965462706],[101.77132243263067,3.1228476573085415],[101.77114795620975,3.1228476573085415]]]]},"properties":{"place_id":"ee19a3c8-1d19-5b26-b195-0a4bf3c3e312","habitat":"forest_edge_opening","habitat_label":"Forest edge or opening","resolution_m":50}},{"type":"Feature","geometry":{"type":"Polygon","coordinates":[[[101.77094582220418,3.122062659888902],[101.77094582220418,3.122810363008846],[101.77132243263067,3.1228476573085415],[101.77168069999999,3.122079996547115],[101.77094582220418,3.122062659888902]]]},"properties":{"place_id":"ee19a3c8-1d19-5b26-b195-0a4bf3c3e312","habitat":"open_grassland","habitat_label":"Open grassland or shrubland","resolution_m":50}},{"type":"Feature","geometry":{"type":"Polygon","coordinates":[[[101.77130859999998,3.1228772965462706],[101.77168069999999,3.122079996547115],[101.7706951,3.121911096547298],[101.7705704,3.1227410965463984],[101.77130859999998,3.1228772965462706]]]},"properties":{"place_id":"ee19a3c8-1d19-5b26-b195-0a4bf3c3e312","habitat":"disturbed_built_edge","habitat_label":"Disturbed, bare or built edge","resolution_m":50}}]}