{"type":"FeatureCollection","metadata":{"schema_version":1,"place_id":"ee29c9ea-bfcf-5be7-a2cf-0be328831b6c","place_name":"Pulau Temerloh","place_type":"wood","osm_reference":"way/131994522","protection_context":"no protected status confirmed from included OSM tags","resolution_m":50,"raster_coverage":1.0,"interpretation":"Suggested search habitats, not predicted plant locations or probabilities of presence."},"features":[{"type":"Feature","geometry":{"type":"MultiPolygon","coordinates":[[[[102.43425256212181,3.43571611683136],[102.43477077051237,3.43571611683136],[102.43477077051237,3.4353234985137258],[102.43425256212181,3.4353234985137258],[102.43425256212181,3.43571611683136]]],[[[102.43373435373125,3.436108735306207],[102.43269793695013,3.4365013539382856],[102.43217972855956,3.4384644494577836],[102.43425256212181,3.4384644494577836],[102.43425256212181,3.438071830039276],[102.43632539568405,3.436893972727613],[102.43632539568405,3.436108735306207],[102.43684360407462,3.436108735306207],[102.43684360407462,3.4353234985137258],[102.43788002085574,3.4349308803532868],[102.4383982292463,3.4333604092831194],[102.43736181246517,3.4333604092831194],[102.4358071872935,3.4349308803532868],[102.43477077051237,3.4349308803532868],[102.43477077051237,3.4353234985137258],[102.4358071872935,3.43571611683136],[102.43528897890293,3.4365013539382856],[102.43477077051237,3.4365013539382856],[102.43425256212181,3.43571611683136],[102.43373435373125,3.43571611683136],[102.43373435373125,3.436108735306207]]]]},"properties":{"place_id":"ee29c9ea-bfcf-5be7-a2cf-0be328831b6c","habitat":"forest_interior","habitat_label":"Forest interior","resolution_m":50}},{"type":"Feature","geometry":{"type":"MultiPolygon","coordinates":[[[[102.43528897890293,3.438071830039276],[102.4361989,3.4375818962070226],[102.43889449999999,3.4335951962113005],[102.4397244306682,3.4317899407266217],[102.43943464602741,3.4316319660980446],[102.4330084,3.436122696208573],[102.4314031,3.4380115962065503],[102.431153514616,3.4388570690336313],[102.4323870690262,3.4392496887668367],[102.43528897890293,3.438071830039276]],[[102.4358071872935,3.4349308803532868],[102.43736181246517,3.4333604092831194],[102.4383982292463,3.4333604092831194],[102.4383982292463,3.4341456445039222],[102.43788002085574,3.4341456445039222],[102.43788002085574,3.4349308803532868],[102.43684360407462,3.4353234985137258],[102.43632539568405,3.436893972727613],[102.4358071872935,3.436893972727613],[102.43425256212181,3.4384644494577836],[102.43217972855956,3.4384644494577836],[102.43269793695013,3.4365013539382856],[102.4332161453407,3.4365013539382856],[102.43477077051237,3.4349308803532868],[102.4358071872935,3.4349308803532868]]],[[[102.43477077051237,3.436108735306207],[102.43477077051237,3.4365013539382856],[102.43528897890293,3.4365013539382856],[102.4358071872935,3.43571611683136],[102.43477077051237,3.4353234985137258],[102.43477077051237,3.43571611683136],[102.43425256212181,3.43571611683136],[102.43425256212181,3.436108735306207],[102.43477077051237,3.436108735306207]]]]},"properties":{"place_id":"ee29c9ea-bfcf-5be7-a2cf-0be328831b6c","habitat":"forest_edge_opening","habitat_label":"Forest edge or opening","resolution_m":50}},{"type":"Feature","geometry":{"type":"Polygon","coordinates":[[[102.43166152016902,3.4388570690336313],[102.43166152016902,3.438071830039276],[102.43136740587515,3.438071830039276],[102.431153514616,3.4388570690336313],[102.43166152016902,3.4388570690336313]]]},"properties":{"place_id":"ee29c9ea-bfcf-5be7-a2cf-0be328831b6c","habitat":"open_grassland","habitat_label":"Open grassland or shrubland","resolution_m":50}},{"type":"Feature","geometry":{"type":"MultiPolygon","coordinates":[[[[102.43528897890293,3.436108735306207],[102.4358071872935,3.436108735306207],[102.4358071872935,3.43571611683136],[102.43477077051237,3.4353234985137258],[102.43425256212181,3.436108735306207],[102.43477077051237,3.436108735306207],[102.43477077051237,3.4365013539382856],[102.43528897890293,3.4365013539382856],[102.43528897890293,3.436108735306207]]],[[[102.4311081,3.439603296204841],[102.43217972855956,3.4393985902132704],[102.43217972855956,3.4388570690336313],[102.43120398311227,3.4384644494577836],[102.4311081,3.439603296204841]]]]},"properties":{"place_id":"ee29c9ea-bfcf-5be7-a2cf-0be328831b6c","habitat":"disturbed_built_edge","habitat_label":"Disturbed, bare or built edge","resolution_m":50}},{"type":"Feature","geometry":{"type":"MultiPolygon","coordinates":[[[[102.43166152016902,3.4376792107780916],[102.4314031,3.4380115962065503],[102.43136740587515,3.438071830039276],[102.43166152016902,3.438071830039276],[102.43166152016902,3.4376792107780916]]],[[[102.43528897890293,3.4376792107780916],[102.43528897890293,3.438071830039276],[102.43566441272745,3.438071830039276],[102.4358071872935,3.4376792107780916],[102.43528897890293,3.4376792107780916]]],[[[102.43166152016902,3.4388570690336313],[102.43166152016902,3.4392496887668367],[102.43217972855956,3.4392496887668367],[102.43217972855956,3.4388570690336313],[102.43166152016902,3.4388570690336313]]]]},"properties":{"place_id":"ee29c9ea-bfcf-5be7-a2cf-0be328831b6c","habitat":"cropland","habitat_label":"Cropland","resolution_m":50}},{"type":"Feature","geometry":{"type":"MultiPolygon","coordinates":[[[[102.43632539568405,3.4341456445039222],[102.43632539568405,3.4339325828224436],[102.43600744174061,3.4341456445039222],[102.43632539568405,3.4341456445039222]]],[[[102.4358071872935,3.4345382623500247],[102.4358071872935,3.4342578685748233],[102.43536310293129,3.4345382623500247],[102.4358071872935,3.4345382623500247]]],[[[102.43477077051237,3.4349308803532868],[102.43477077051237,3.434926685038478],[102.43476493079233,3.4349308803532868],[102.43477077051237,3.4349308803532868]]],[[[102.43425256212181,3.4352889205625443],[102.43419643819445,3.4353234985137258],[102.43425256212181,3.4353234985137258],[102.43425256212181,3.4352889205625443]]],[[[102.43373435373125,3.43571611683136],[102.43373435373125,3.435608188793989],[102.43356208001175,3.43571611683136],[102.43373435373125,3.43571611683136]]],[[[102.4332161453407,3.436108735306207],[102.4332161453407,3.435946399263301],[102.43302485129004,3.436108735306207],[102.4332161453407,3.436108735306207]]],[[[102.43269793695013,3.436458546427303],[102.43265686488019,3.4365013539382856],[102.43269793695013,3.4365013539382856],[102.43269793695013,3.436458546427303]]],[[[102.43217972855956,3.4376792107780916],[102.43217972855956,3.437202271156681],[102.4316600924663,3.4376792107780916],[102.43217972855956,3.4376792107780916]]],[[[102.4358071872935,3.4376792107780916],[102.4358071872935,3.4379557806237786],[102.43609694507039,3.4376792107780916],[102.4358071872935,3.4376792107780916]]],[[[102.43477077051237,3.438071830039276],[102.43477077051237,3.4384343974281206],[102.43566441272745,3.438071830039276],[102.43477077051237,3.438071830039276]]],[[[102.43425256212181,3.438613690190116],[102.43468404684664,3.4384644494577836],[102.43425256212181,3.4384644494577836],[102.43425256212181,3.438613690190116]]],[[[102.43217972855956,3.4388570690336313],[102.43166152016902,3.439642308657419],[102.43114331177846,3.439642308657419],[102.43114331177846,3.4392496887668367],[102.4311332521184,3.4392496887668367],[102.4311081,3.439603296204841],[102.4311644,3.43968089620477],[102.43181879999999,3.4396460962048154],[102.4335489054817,3.4388570690336313],[102.43217972855956,3.4388570690336313]]],[[[102.43943464602741,3.4317899407266217],[102.43943464602741,3.432548425223587],[102.4398158,3.4313260962137453],[102.43943464602741,3.4317899407266217]]],[[[102.43891643763686,3.432182557630153],[102.43891643763686,3.4321178285779053],[102.43880526352369,3.432182557630153],[102.43891643763686,3.432182557630153]]],[[[102.4383982292463,3.4329677919083843],[102.4383982292463,3.432514508617674],[102.43779881466568,3.4329677919083843],[102.4383982292463,3.4329677919083843]]],[[[102.43736181246517,3.4333604092831194],[102.43723819999997,3.4333314962115615],[102.43720843534952,3.4333604092831194],[102.43736181246517,3.4333604092831194]]],[[[102.43891643763686,3.4325751746907343],[102.43891643763686,3.433552368307805],[102.43942206643838,3.4325751746907343],[102.43891643763686,3.4325751746907343]]],[[[102.43684360407462,3.4337530268149594],[102.43684360407462,3.4336383143132583],[102.43666213374485,3.4337530268149594],[102.43684360407462,3.4337530268149594]]],[[[102.4383982292463,3.4341456445039222],[102.4383982292463,3.4343391671395835],[102.43853206298148,3.4341456445039222],[102.4383982292463,3.4341456445039222]]],[[[102.43788002085574,3.4349308803532868],[102.43788002085574,3.435097545925061],[102.43799349422446,3.4349308803532868],[102.43788002085574,3.4349308803532868]]],[[[102.43736181246517,3.4353234985137258],[102.43736181246517,3.4358575335088903],[102.43772618226743,3.4353234985137258],[102.43736181246517,3.4353234985137258]]],[[[102.43684360407462,3.436108735306207],[102.43684360407462,3.436592540861045],[102.43718470551404,3.436108735306207],[102.43684360407462,3.436108735306207]]],[[[102.43632539568405,3.436893972727613],[102.4364591,3.437174896207458],[102.43664037416528,3.436893972727613],[102.43632539568405,3.436893972727613]]]]},"properties":{"place_id":"ee29c9ea-bfcf-5be7-a2cf-0be328831b6c","habitat":"permanent_water","habitat_label":"Permanent water","resolution_m":50}},{"type":"Feature","geometry":{"type":"MultiPolygon","coordinates":[[[[102.43632539568405,3.4341456445039222],[102.43632539568405,3.4339325828224436],[102.43600744174061,3.4341456445039222],[102.43632539568405,3.4341456445039222]]],[[[102.43373435373125,3.43571611683136],[102.43373435373125,3.435608188793989],[102.43356208001175,3.43571611683136],[102.43373435373125,3.43571611683136]]],[[[102.4332161453407,3.436108735306207],[102.4332161453407,3.435946399263301],[102.43302485129004,3.436108735306207],[102.4332161453407,3.436108735306207]]],[[[102.43632539568405,3.436893972727613],[102.4364591,3.437174896207458],[102.43664037416528,3.436893972727613],[102.43632539568405,3.436893972727613]]],[[[102.43217972855956,3.43728659167421],[102.43136740587515,3.438071830039276],[102.43217972855956,3.438071830039276],[102.43217972855956,3.43728659167421]]],[[[102.43166152016902,3.4388570690336313],[102.431153514616,3.4388570690336313],[102.4311081,3.439603296204841],[102.43114331177846,3.439651829667801],[102.43166152016902,3.439642308657419],[102.43166152016902,3.4388570690336313]]],[[[102.43943464602741,3.432182557630153],[102.4397244306682,3.4317899407266217],[102.43943464602741,3.4317899407266217],[102.43943464602741,3.432182557630153]]],[[[102.43788002085574,3.4329677919083843],[102.43788002085574,3.4329094862313645],[102.43779881466568,3.4329677919083843],[102.43788002085574,3.4329677919083843]]],[[[102.43891643763686,3.4329677919083843],[102.43901476437095,3.4333604092831194],[102.4392172167644,3.4329677919083843],[102.43891643763686,3.4329677919083843]]],[[[102.43745887031041,3.43571611683136],[102.43772618226743,3.4353234985137258],[102.43736181246517,3.4353234985137258],[102.43745887031041,3.43571611683136]]],[[[102.43690789433352,3.4365013539382856],[102.43718470551404,3.436108735306207],[102.43684360407462,3.436108735306207],[102.43690789433352,3.4365013539382856]]]]},"properties":{"place_id":"ee29c9ea-bfcf-5be7-a2cf-0be328831b6c","habitat":"seasonal_water_wetland","habitat_label":"Seasonal water or wetland","resolution_m":50}},{"type":"Feature","geometry":{"type":"Polygon","coordinates":[[[102.43166152016902,3.4388570690336313],[102.43166152016902,3.4392496887668367],[102.43217972855956,3.4392496887668367],[102.43217972855956,3.4388570690336313],[102.4335489054817,3.4388570690336313],[102.43477077051237,3.4384343974281206],[102.43477077051237,3.438071830039276],[102.43573749999999,3.4380222962065288],[102.43889449999999,3.4335951962113005],[102.43943464602741,3.4317899407266217],[102.4383982292463,3.432514508617674],[102.4383982292463,3.4329677919083843],[102.43779881466568,3.4329677919083843],[102.4330084,3.436122696208573],[102.43217972855956,3.437202271156681],[102.43217972855956,3.438071830039276],[102.43131189999998,3.438165496206392],[102.431153514616,3.4388570690336313],[102.43166152016902,3.4388570690336313]],[[102.43736181246517,3.4349308803532868],[102.43632539568405,3.4353234985137258],[102.4358071872935,3.436893972727613],[102.43528897890293,3.436893972727613],[102.43425256212181,3.438071830039276],[102.4332161453407,3.438071830039276],[102.4332161453407,3.4365013539382856],[102.43373435373125,3.4365013539382856],[102.43477077051237,3.4353234985137258],[102.4358071872935,3.4353234985137258],[102.43684360407462,3.4341456445039222],[102.43736181246517,3.4341456445039222],[102.43736181246517,3.4349308803532868]],[[102.43736181246517,3.4337530268149594],[102.43788002085574,3.4337530268149594],[102.43788002085574,3.4341456445039222],[102.43736181246517,3.4341456445039222],[102.43736181246517,3.4337530268149594]]]},"properties":{"place_id":"ee29c9ea-bfcf-5be7-a2cf-0be328831b6c","habitat":"water_edge","habitat_label":"Water edge","resolution_m":50}}]}