{"type":"FeatureCollection","metadata":{"schema_version":1,"place_id":"ee65bf68-844f-5245-a9a1-6c3eea28f312","place_name":"Bukit Mak Dayang","place_type":"wood","osm_reference":"way/705801077","protection_context":"no protected status confirmed from included OSM tags","resolution_m":50,"raster_coverage":1.0,"interpretation":"Suggested search habitats, not predicted plant locations or probabilities of presence."},"features":[{"type":"Feature","geometry":{"type":"MultiPolygon","coordinates":[[[[103.42195775453038,4.227186126220539],[103.42284505494476,4.227579098417235],[103.42351237970209,4.226400182408851],[103.4245487964832,4.226400182408851],[103.4245487964832,4.2267931542177495],[103.42506700487375,4.2267931542177495],[103.42506700487375,4.229150989143462],[103.42610342165489,4.229150989143462],[103.42610342165489,4.226400182408851],[103.42662163004543,4.226400182408851],[103.42662163004543,4.225242764620404],[103.42610342165489,4.225221268145307],[103.42610342165489,4.223256414915486],[103.42558521326433,4.223256414915486],[103.42558521326433,4.221684535818787],[103.42506700487375,4.221684535818787],[103.42506700487375,4.221291566528787],[103.4245487964832,4.221291566528787],[103.4245487964832,4.222077505302439],[103.42403058809263,4.222218782671706],[103.4245487964832,4.223256414915486],[103.42403058809263,4.223256414915486],[103.42403058809263,4.223649385173928],[103.42247596292096,4.223654582852204],[103.42247596292096,4.224435326272059],[103.42403058809263,4.225221268145307],[103.42351237970209,4.226007210793824],[103.42247596292096,4.226007210793824],[103.42247596292096,4.225614239372649],[103.42195775453038,4.225614239372649],[103.42195775453038,4.227186126220539]]],[[[103.42143954613984,4.225221268145307],[103.42143954613984,4.225614239372649],[103.42195775453038,4.225614239372649],[103.42195775453038,4.225221268145307],[103.42143954613984,4.225221268145307]]]]},"properties":{"place_id":"ee65bf68-844f-5245-a9a1-6c3eea28f312","habitat":"forest_interior","habitat_label":"Forest interior","resolution_m":50}},{"type":"Feature","geometry":{"type":"MultiPolygon","coordinates":[[[[103.4245487964832,4.223256414915486],[103.42393579999998,4.22227519537253],[103.42345299999997,4.222247095372559],[103.4238325,4.223273595371491],[103.42325729104833,4.223649385173928],[103.4245487964832,4.223256414915486]]],[[[103.42403058809263,4.222218782671706],[103.4240243,4.222242595372566],[103.42403058809263,4.222244270203327],[103.42403058809263,4.222218782671706]]],[[[103.4245487964832,4.222077505302439],[103.4245487964832,4.221291566528787],[103.42506700487375,4.221291566528787],[103.42506700487375,4.221684535818787],[103.42558521326433,4.221684535818787],[103.42558521326433,4.223256414915486],[103.42610342165489,4.223256414915486],[103.42610342165489,4.225221268145307],[103.42661507709362,4.225221268145307],[103.42603329999999,4.222045095372783],[103.42534389999999,4.221304195373542],[103.4246159,4.220937095373945],[103.42387139999998,4.2217628953730575],[103.4245487964832,4.222077505302439]]],[[[103.42267120784685,4.223649385173928],[103.42253119999997,4.223627395371107],[103.4224865230961,4.223649385173928],[103.42267120784685,4.223649385173928]]],[[[103.42293530000002,4.227854995366655],[103.42247596292096,4.227186126220539],[103.42195775453038,4.227186126220539],[103.42195775453038,4.225614239372649],[103.42247596292096,4.225614239372649],[103.42247596292096,4.226007210793824],[103.42351237970209,4.226007210793824],[103.42351237970209,4.225614239372649],[103.42403058809263,4.225614239372649],[103.42403058809263,4.225221268145307],[103.42247596292096,4.224435326272059],[103.42247596292096,4.223654582852204],[103.42198039999998,4.224312095370384],[103.4237097,4.225459795369196],[103.42283080000001,4.225950095368664],[103.4222802,4.224858495369805],[103.42196090000002,4.225014295369658],[103.4215271,4.224487995370193],[103.4210779,4.224471295370201],[103.42097469999999,4.225064595369579],[103.4223088,4.2282481953662305],[103.42293530000002,4.227854995366655]],[[103.42143954613984,4.225614239372649],[103.42143954613984,4.225221268145307],[103.42195775453038,4.225221268145307],[103.42195775453038,4.225614239372649],[103.42143954613984,4.225614239372649]]],[[[103.42662163004543,4.226400182408851],[103.42610342165489,4.226400182408851],[103.42610342165489,4.227972070807856],[103.4269043,4.226349695368239],[103.42662163004543,4.225242764620404],[103.42662163004543,4.226400182408851]]],[[[103.42610342165489,4.228365043392422],[103.42610342165489,4.229150989143462],[103.42506700487375,4.229150989143462],[103.42506700487375,4.2267931542177495],[103.4245487964832,4.2267931542177495],[103.4245487964832,4.226400182408851],[103.42351237970209,4.226400182408851],[103.42351237970209,4.2267931542177495],[103.42299417131152,4.2267931542177495],[103.42299417131152,4.2273294011536855],[103.42435619999999,4.2265907953679855],[103.4248604,4.22738249536715],[103.4243873,4.227657795366873],[103.42489779999998,4.229423195364998],[103.42620809999997,4.22940539536504],[103.4265925,4.229002395365443],[103.42610342165489,4.228365043392422]]]]},"properties":{"place_id":"ee65bf68-844f-5245-a9a1-6c3eea28f312","habitat":"forest_edge_opening","habitat_label":"Forest edge or opening","resolution_m":50}},{"type":"Feature","geometry":{"type":"MultiPolygon","coordinates":[[[[103.42403058809263,4.223256414915486],[103.42381163006486,4.22286344485077],[103.42383416705314,4.223256414915486],[103.42403058809263,4.223256414915486]]],[[[103.42195775453038,4.225006787877557],[103.42247596292096,4.225221268145307],[103.4222802,4.224858495369805],[103.42195775453038,4.225006787877557]]],[[[103.42351237970209,4.225569871736109],[103.42343284733143,4.225614239372649],[103.42351237970209,4.225614239372649],[103.42351237970209,4.225569871736109]]],[[[103.42351237970209,4.225221268145307],[103.42331932684495,4.225221268145307],[103.42351237970209,4.225339227994742],[103.42351237970209,4.225221268145307]]],[[[103.42247596292096,4.225221268145307],[103.42247596292096,4.225614239372649],[103.42266801661783,4.225614239372649],[103.4227073,4.225573995369047],[103.42247596292096,4.225221268145307]]]]},"properties":{"place_id":"ee65bf68-844f-5245-a9a1-6c3eea28f312","habitat":"open_grassland","habitat_label":"Open grassland or shrubland","resolution_m":50}},{"type":"Feature","geometry":{"type":"MultiPolygon","coordinates":[[[[103.4245487964832,4.222077505302439],[103.4245487964832,4.221291566528787],[103.42506700487375,4.221291566528787],[103.42506700487375,4.221684535818787],[103.42558521326433,4.221684535818787],[103.42558521326433,4.223256414915486],[103.42610342165489,4.223256414915486],[103.42610342165489,4.225221268145307],[103.42661507709362,4.225221268145307],[103.42603329999999,4.222045095372783],[103.42534389999999,4.221304195373542],[103.4246159,4.220937095373945],[103.42387139999998,4.2217628953730575],[103.4245487964832,4.222077505302439]]],[[[103.42383416705314,4.223256414915486],[103.42393579999998,4.22227519537253],[103.42345299999997,4.222247095372559],[103.42383416705314,4.223256414915486]]],[[[103.42403058809263,4.222218782671706],[103.4240243,4.222242595372566],[103.42403058809263,4.222244270203327],[103.42403058809263,4.222218782671706]]],[[[103.42267120784685,4.223649385173928],[103.42253119999997,4.223627395371107],[103.4224865230961,4.223649385173928],[103.42267120784685,4.223649385173928]]],[[[103.42351237970209,4.223649385173928],[103.42351237970209,4.223482733164963],[103.42325729104833,4.223649385173928],[103.42351237970209,4.223649385173928]]],[[[103.42195775453038,4.227186126220539],[103.42195775453038,4.225614239372649],[103.42143954613984,4.225614239372649],[103.42143954613984,4.225221268145307],[103.42247596292096,4.225221268145307],[103.4227073,4.225573995369047],[103.4222802,4.224858495369805],[103.42196090000002,4.225014295369658],[103.4210779,4.224471295370201],[103.42097469999999,4.225064595369579],[103.4223088,4.2282481953662305],[103.42284505494476,4.227579098417235],[103.42195775453038,4.227186126220539]]],[[[103.42351237970209,4.225221268145307],[103.42351237970209,4.224828297111785],[103.42247596292096,4.224435326272059],[103.42247596292096,4.223654582852204],[103.42190969999999,4.223933295370787],[103.42198039999998,4.224312095370384],[103.42351237970209,4.225221268145307]]],[[[103.42662163004543,4.226400182408851],[103.42610342165489,4.226400182408851],[103.42610342165489,4.227972070807856],[103.4269043,4.226349695368239],[103.42662163004543,4.225242764620404],[103.42662163004543,4.226400182408851]]],[[[103.42610342165489,4.229150989143462],[103.42506700487375,4.229150989143462],[103.42506700487375,4.2267931542177495],[103.4245487964832,4.2267931542177495],[103.4245487964832,4.226400182408851],[103.42351237970209,4.226400182408851],[103.42299417131152,4.2273294011536855],[103.42435619999999,4.2265907953679855],[103.4248604,4.22738249536715],[103.4243873,4.227657795366873],[103.42489779999998,4.229423195364998],[103.42620809999997,4.22940539536504],[103.42640673675264,4.228365043392422],[103.42610342165489,4.229150989143462]]]]},"properties":{"place_id":"ee65bf68-844f-5245-a9a1-6c3eea28f312","habitat":"disturbed_built_edge","habitat_label":"Disturbed, bare or built edge","resolution_m":50}}]}