{"type":"FeatureCollection","metadata":{"schema_version":1,"place_id":"eec422cd-1306-5ad3-a54a-484cefb9ff3c","place_name":"Dataran Kuala Rompin","place_type":"park","osm_reference":"way/846636710","protection_context":"no protected status confirmed from included OSM tags","resolution_m":50,"raster_coverage":1.0,"interpretation":"Suggested search habitats, not predicted plant locations or probabilities of presence."},"features":[{"type":"Feature","geometry":{"type":"Polygon","coordinates":[[[103.48673380335048,2.800228159034411],[103.48780474804,2.799083001324695],[103.4877702201316,2.798690614177641],[103.48727911570587,2.798690614177641],[103.48673380335048,2.7993788229246714],[103.48673380335048,2.800228159034411]]]},"properties":{"place_id":"eec422cd-1306-5ad3-a54a-484cefb9ff3c","habitat":"open_grassland","habitat_label":"Open grassland or shrubland","resolution_m":50}},{"type":"Feature","geometry":{"type":"Polygon","coordinates":[[[103.48683149999998,2.800306996896341],[103.48725201174105,2.799083001324695],[103.488039,2.7987883968980007],[103.48751050000001,2.7983985968984393],[103.4863233,2.7998968968968114],[103.48683149999998,2.800306996896341]]]},"properties":{"place_id":"eec422cd-1306-5ad3-a54a-484cefb9ff3c","habitat":"disturbed_built_edge","habitat_label":"Disturbed, bare or built edge","resolution_m":50}}]}