{"type":"FeatureCollection","metadata":{"schema_version":1,"place_id":"ef8a1459-c7cb-5a17-9895-765802442eab","place_name":"Field","place_type":"park","osm_reference":"way/616215673","protection_context":"no protected status confirmed from included OSM tags","resolution_m":50,"raster_coverage":1.0,"interpretation":"Suggested search habitats, not predicted plant locations or probabilities of presence."},"features":[{"type":"Feature","geometry":{"type":"Polygon","coordinates":[[[113.07075339999999,3.193330696470116],[113.0705152,3.1935847964698314],[113.07075919999998,3.1936990964697163],[113.07075339999999,3.193330696470116]]]},"properties":{"place_id":"ef8a1459-c7cb-5a17-9895-765802442eab","habitat":"disturbed_built_edge","habitat_label":"Disturbed, bare or built edge","resolution_m":50}}]}