{"type":"FeatureCollection","metadata":{"schema_version":1,"place_id":"f03542df-4d11-56a0-9268-970221ad3c8f","place_name":"Taman Rekreasi Puncak Jalil","place_type":"park","osm_reference":"way/545784938","protection_context":"no protected status confirmed from included OSM tags","resolution_m":50,"raster_coverage":1.0,"interpretation":"Suggested search habitats, not predicted plant locations or probabilities of presence."},"features":[{"type":"Feature","geometry":{"type":"MultiPolygon","coordinates":[[[[101.6719680196071,3.0153082692865834],[101.67169199999998,3.0153031966627566],[101.67168945946723,3.0153082692865834],[101.6719680196071,3.0153082692865834]]],[[[101.67144981121655,3.016093190382839],[101.67139099999999,3.015904196662113],[101.67141067198905,3.016093190382839],[101.67144981121655,3.016093190382839]]]]},"properties":{"place_id":"f03542df-4d11-56a0-9268-970221ad3c8f","habitat":"forest_interior","habitat_label":"Forest interior","resolution_m":50}},{"type":"Feature","geometry":{"type":"Polygon","coordinates":[[[101.67144981121655,3.016093190382839],[101.67232419999999,3.0161617966618492],[101.6722696,3.0152834966627813],[101.67168945946723,3.0153082692865834],[101.67144981121655,3.016093190382839]]]},"properties":{"place_id":"f03542df-4d11-56a0-9268-970221ad3c8f","habitat":"forest_edge_opening","habitat_label":"Forest edge or opening","resolution_m":50}},{"type":"Feature","geometry":{"type":"Polygon","coordinates":[[[101.67227114000431,3.0153082692865834],[101.6719680196071,3.01570072976579],[101.67229553752948,3.01570072976579],[101.67227114000431,3.0153082692865834]]]},"properties":{"place_id":"f03542df-4d11-56a0-9268-970221ad3c8f","habitat":"open_grassland","habitat_label":"Open grassland or shrubland","resolution_m":50}},{"type":"Feature","geometry":{"type":"Polygon","coordinates":[[[101.67144981121655,3.016093190382839],[101.67232419999999,3.0161617966618492],[101.6722696,3.0152834966627813],[101.67149290270375,3.01570072976579],[101.67144981121655,3.016093190382839]]]},"properties":{"place_id":"f03542df-4d11-56a0-9268-970221ad3c8f","habitat":"disturbed_built_edge","habitat_label":"Disturbed, bare or built edge","resolution_m":50}}]}