{"type":"FeatureCollection","metadata":{"schema_version":1,"place_id":"f2676647-a649-5b39-9735-6b5a88a2be7d","place_name":"Taman Terbuka Sri Serdang","place_type":"park","osm_reference":"way/685333563","protection_context":"no protected status confirmed from included OSM tags","resolution_m":50,"raster_coverage":1.0,"interpretation":"Suggested search habitats, not predicted plant locations or probabilities of presence."},"features":[{"type":"Feature","geometry":{"type":"Polygon","coordinates":[[[101.71222331116003,3.004319431759239],[101.71187006568027,3.0047118883862094],[101.71223240055568,3.0047118883862094],[101.71222331116003,3.004319431759239]]]},"properties":{"place_id":"f2676647-a649-5b39-9735-6b5a88a2be7d","habitat":"open_grassland","habitat_label":"Open grassland or shrubland","resolution_m":50}},{"type":"Feature","geometry":{"type":"Polygon","coordinates":[[[101.7116215,3.005004496673931],[101.7122142,3.0048785966740774],[101.7121788,3.0042758966747396],[101.7115895,3.0043076966747013],[101.7116215,3.005004496673931]]]},"properties":{"place_id":"f2676647-a649-5b39-9735-6b5a88a2be7d","habitat":"disturbed_built_edge","habitat_label":"Disturbed, bare or built edge","resolution_m":50}}]}