{"type":"FeatureCollection","metadata":{"schema_version":1,"place_id":"f27b724b-37ad-5d52-ae56-fb059f872c68","place_name":"Taman Permainan Jalan B","place_type":"park","osm_reference":"way/544346157","protection_context":"no protected status confirmed from included OSM tags","resolution_m":50,"raster_coverage":1.0,"interpretation":"Suggested search habitats, not predicted plant locations or probabilities of presence."},"features":[{"type":"Feature","geometry":{"type":"Polygon","coordinates":[[[101.7493997,3.2125959964492816],[101.74908842050668,3.2131262065559723],[101.74943469999998,3.2131066964487585],[101.7493997,3.2125959964492816]]]},"properties":{"place_id":"f27b724b-37ad-5d52-ae56-fb059f872c68","habitat":"forest_edge_opening","habitat_label":"Forest edge or opening","resolution_m":50}},{"type":"Feature","geometry":{"type":"Polygon","coordinates":[[[101.74908869999999,3.2131302964487474],[101.74943469999998,3.2131066964487585],[101.7493997,3.2125959964492816],[101.7490538,3.2126195964492656],[101.74908869999999,3.2131302964487474]]]},"properties":{"place_id":"f27b724b-37ad-5d52-ae56-fb059f872c68","habitat":"disturbed_built_edge","habitat_label":"Disturbed, bare or built edge","resolution_m":50}}]}