{"type":"FeatureCollection","metadata":{"schema_version":1,"place_id":"f2a1c2aa-1dec-5a03-8981-3765acb96285","place_name":"Park of Che Ru Kho","place_type":"park","osm_reference":"way/1172655872","protection_context":"no protected status confirmed from included OSM tags","resolution_m":50,"raster_coverage":1.0,"interpretation":"Suggested search habitats, not predicted plant locations or probabilities of presence."},"features":[{"type":"Feature","geometry":{"type":"Polygon","coordinates":[[[103.63111626071915,2.6492002492018756],[103.63121719999997,2.6489236970614107],[103.63102039999998,2.648990497061351],[103.63111626071915,2.6492002492018756]]]},"properties":{"place_id":"f2a1c2aa-1dec-5a03-8981-3765acb96285","habitat":"forest_edge_opening","habitat_label":"Forest edge or opening","resolution_m":50}},{"type":"Feature","geometry":{"type":"Polygon","coordinates":[[[103.6313681,2.649751297060524],[103.63173840000002,2.649568097060707],[103.63121719999997,2.6489236970614107],[103.63102039999998,2.648990497061351],[103.6313681,2.649751297060524]]]},"properties":{"place_id":"f2a1c2aa-1dec-5a03-8981-3765acb96285","habitat":"disturbed_built_edge","habitat_label":"Disturbed, bare or built edge","resolution_m":50}}]}