{"type":"FeatureCollection","metadata":{"schema_version":1,"place_id":"f2b94e05-bf10-531c-81ac-5094407eae94","place_name":"Pulau Pakuh","place_type":"wood","osm_reference":"way/679191178","protection_context":"no protected status confirmed from included OSM tags","resolution_m":50,"raster_coverage":1.0,"interpretation":"Suggested search habitats, not predicted plant locations or probabilities of presence."},"features":[{"type":"Feature","geometry":{"type":"MultiPolygon","coordinates":[[[[102.62858070858205,4.98718552721485],[102.62891271650936,4.98718552721485],[102.62858070858205,4.987061514676211],[102.62858070858205,4.98718552721485]]],[[[102.62754429180093,4.987578908524596],[102.62650787501981,4.987578908524596],[102.62650787501981,4.98718552721485],[102.62598966662924,4.98718552721485],[102.62598966662924,4.9907259672640425],[102.62547145823869,4.9907259672640425],[102.62547145823869,4.992299502143328],[102.62650787501981,4.991906118079056],[102.62650787501981,4.99033258411824],[102.62702608341037,4.99033258411824],[102.62702608341037,4.98993920120201],[102.62806250019149,4.98993920120201],[102.62806486000561,4.99033258411824],[102.62909891697261,4.99033258411824],[102.62909891697261,4.98993920120201],[102.62961712536318,4.98993920120201],[102.62961712536318,4.989152436058193],[102.62858070858205,4.988759053830566],[102.62858070858205,4.98718552721485],[102.6276650738942,4.98718552721485],[102.62754429180093,4.987578908524596]]]]},"properties":{"place_id":"f2b94e05-bf10-531c-81ac-5094407eae94","habitat":"forest_interior","habitat_label":"Forest interior","resolution_m":50}},{"type":"Feature","geometry":{"type":"MultiPolygon","coordinates":[[[[102.62858070858205,4.98718552721485],[102.62836579999998,4.9870441945774555],[102.6276650738942,4.98718552721485],[102.62858070858205,4.98718552721485]]],[[[102.62858070858205,4.98718552721485],[102.62858070858205,4.988759053830566],[102.62961712536318,4.989152436058193],[102.62961712536318,4.98993920120201],[102.62909891697261,4.98993920120201],[102.62909891697261,4.99033258411824],[102.62806486000561,4.99033258411824],[102.62855749999997,4.990667494573729],[102.63002069999999,4.99024669457417],[102.63010379999999,4.989550594574879],[102.62908729999998,4.988516494575951],[102.6290806,4.987320794577166],[102.62891271650936,4.98718552721485],[102.62858070858205,4.98718552721485]]],[[[102.62702608341037,4.99033258411824],[102.62650787501981,4.99033258411824],[102.62650787501981,4.991906118079056],[102.62598966662924,4.991906118079056],[102.62598966662924,4.992299502143328],[102.62547145823869,4.992299502143328],[102.62547145823869,4.9907259672640425],[102.62598966662924,4.9907259672640425],[102.62598966662924,4.98718552721485],[102.62650787501981,4.98718552721485],[102.62650787501981,4.987578908524596],[102.62745172552927,4.987578908524596],[102.62569830000001,4.986601994577926],[102.62520209999998,4.987082994577407],[102.625587,4.99001559457439],[102.62475420000001,4.991863294572479],[102.62594239999999,4.9930282945713],[102.62606979999998,4.992198594572143],[102.62675509999998,4.991876594572488],[102.6270005,4.991438394572927],[102.6270394,4.990590094573806],[102.62806250019149,4.990331309861033],[102.62806250019149,4.98993920120201],[102.62702608341037,4.98993920120201],[102.62702608341037,4.99033258411824]]],[[[102.62754429180093,4.987578908524596],[102.62754429180093,4.9874842014991145],[102.62748056931191,4.987578908524596],[102.62754429180093,4.987578908524596]]]]},"properties":{"place_id":"f2b94e05-bf10-531c-81ac-5094407eae94","habitat":"forest_edge_opening","habitat_label":"Forest edge or opening","resolution_m":50}},{"type":"Feature","geometry":{"type":"MultiPolygon","coordinates":[[[[102.62650787501981,4.98718552721485],[102.6266403585745,4.98718552721485],[102.62650787501981,4.986860529539902],[102.62650787501981,4.98718552721485]]],[[[102.62547145823869,4.986677892219126],[102.62520209999998,4.987082994577407],[102.62547145823869,4.988644547648161],[102.62547145823869,4.986677892219126]]],[[[102.62547145823869,4.9907259672640425],[102.62547145823869,4.990431200725485],[102.62525028937513,4.9907259672640425],[102.62547145823869,4.9907259672640425]]],[[[102.62495324984813,4.9909692829551435],[102.62475420000001,4.991863294572479],[102.62495324984813,4.992205396387577],[102.62495324984813,4.9909692829551435]]],[[[102.62650787501981,4.991906118079056],[102.6265888,4.991919394572463],[102.62669471100887,4.991906118079056],[102.62650787501981,4.991906118079056]]],[[[102.62598966662924,4.992299502143328],[102.62598966662924,4.992485049335975],[102.62603115308535,4.992299502143328],[102.62598966662924,4.992299502143328]]],[[[102.62598966662924,4.993029907970776],[102.62617569999999,4.992917394571451],[102.62598966662924,4.992488720585654],[102.62598966662924,4.993029907970776]]],[[[102.62547145823869,4.99269288643726],[102.62541696406042,4.99269288643726],[102.62547145823869,4.9927312410943285],[102.62547145823869,4.99269288643726]]],[[[102.62909891697261,4.987503127324248],[102.629106,4.9874035945770885],[102.62909891697261,4.987380505022298],[102.62909891697261,4.987503127324248]]],[[[102.62909891697261,4.988759053830566],[102.6294366,4.988648794575783],[102.62909891697261,4.988526431772884],[102.62909891697261,4.988759053830566]]],[[[102.62909891697261,4.988276980975011],[102.6291168,4.988187894576288],[102.62909891697261,4.988085000053563],[102.62909891697261,4.988276980975011]]],[[[102.62961712536318,4.989152436058193],[102.62963980000002,4.989105694575331],[102.62961712536318,4.989091833827787],[102.62961712536318,4.989152436058193]]],[[[102.62702608341037,4.99033258411824],[102.62702608341037,4.990628425749785],[102.62731339681089,4.99033258411824],[102.62702608341037,4.99033258411824]]],[[[102.62909891697261,4.99033258411824],[102.62909891697261,4.990471253499811],[102.62979212630971,4.99033258411824],[102.62909891697261,4.99033258411824]]],[[[102.62702608341037,4.991375866983141],[102.6270407,4.991306194573089],[102.62702608341037,4.991151772677977],[102.62702608341037,4.991375866983141]]]]},"properties":{"place_id":"f2b94e05-bf10-531c-81ac-5094407eae94","habitat":"permanent_water","habitat_label":"Permanent water","resolution_m":50}},{"type":"Feature","geometry":{"type":"MultiPolygon","coordinates":[[[[102.62858070858205,4.98718552721485],[102.62836579999998,4.9870441945774555],[102.6276650738942,4.98718552721485],[102.62858070858205,4.98718552721485]]],[[[102.62909891697261,4.987503127324248],[102.629106,4.9874035945770885],[102.62909891697261,4.987380505022298],[102.62909891697261,4.987503127324248]]],[[[102.6255284410869,4.988759053830566],[102.62559873331902,4.98993920120201],[102.62598966662924,4.98993920120201],[102.62598966662924,4.988759053830566],[102.6255284410869,4.988759053830566]]],[[[102.62858070858205,4.99033258411824],[102.62806486000561,4.99033258411824],[102.62855749999997,4.990667494573729],[102.62858070858205,4.99033258411824]]],[[[102.62495324984813,4.9909692829551435],[102.62547145823869,4.991119350639432],[102.62547145823869,4.990431200725485],[102.62495324984813,4.9909692829551435]]]]},"properties":{"place_id":"f2b94e05-bf10-531c-81ac-5094407eae94","habitat":"seasonal_water_wetland","habitat_label":"Seasonal water or wetland","resolution_m":50}},{"type":"Feature","geometry":{"type":"Polygon","coordinates":[[[102.62495324984813,4.992205396387577],[102.62598966662924,4.993029907970776],[102.62598966662924,4.992299502143328],[102.62702608341037,4.991375866983141],[102.62702608341037,4.99033258411824],[102.62858070858205,4.99033258411824],[102.62858070858205,4.990665933458337],[102.6300462,4.99020389457422],[102.6300985,4.989470494574938],[102.62909891697261,4.988759053830566],[102.628752,4.98708969457739],[102.6276650738942,4.98718552721485],[102.6274498,4.987578694576899],[102.62635449999998,4.986733394577753],[102.62547145823869,4.986677892219126],[102.62547145823869,4.988644547648161],[102.62598966662924,4.988759053830566],[102.62598966662924,4.98993920120201],[102.62559873331902,4.98993920120201],[102.62547145823869,4.991119350639432],[102.62495324984813,4.991119350639432],[102.62495324984813,4.992205396387577]],[[102.62858070858205,4.989545818515334],[102.62702608341037,4.989545818515334],[102.62650787501981,4.987972290063787],[102.62806250019149,4.987972290063787],[102.62806250019149,4.988759053830566],[102.62909891697261,4.989152436058193],[102.62909891697261,4.98993920120201],[102.62858070858205,4.98993920120201],[102.62858070858205,4.989545818515334]]]},"properties":{"place_id":"f2b94e05-bf10-531c-81ac-5094407eae94","habitat":"water_edge","habitat_label":"Water edge","resolution_m":50}}]}