{"type":"FeatureCollection","metadata":{"schema_version":1,"place_id":"f31d0dd9-82db-53b0-9eb4-8750e58dbdb7","place_name":"Padang Rekreasi Taman Seri Inderapura","place_type":"park","osm_reference":"way/549740536","protection_context":"no protected status confirmed from included OSM tags","resolution_m":50,"raster_coverage":1.0,"interpretation":"Suggested search habitats, not predicted plant locations or probabilities of presence."},"features":[{"type":"Feature","geometry":{"type":"Polygon","coordinates":[[[103.26750907365776,3.7506481912983083],[103.26650218273005,3.751040941704583],[103.26671743000621,3.75182644303255],[103.26753165414331,3.751703038030126],[103.26750907365776,3.7506481912983083]]]},"properties":{"place_id":"f31d0dd9-82db-53b0-9eb4-8750e58dbdb7","habitat":"open_grassland","habitat_label":"Open grassland or shrubland","resolution_m":50}},{"type":"Feature","geometry":{"type":"Polygon","coordinates":[[[103.2667426,3.751918295870665],[103.26777949999999,3.7516353958709714],[103.26748789999999,3.7505708958721256],[103.2664509,3.750853795871804],[103.2667426,3.751918295870665]]]},"properties":{"place_id":"f31d0dd9-82db-53b0-9eb4-8750e58dbdb7","habitat":"disturbed_built_edge","habitat_label":"Disturbed, bare or built edge","resolution_m":50}}]}