{"type":"FeatureCollection","metadata":{"schema_version":1,"place_id":"f3c0caee-6dad-59ff-9cd6-ba7332350b78","place_name":"Pulau Kerengga","place_type":"wood","osm_reference":"way/337768800","protection_context":"no protected status confirmed from included OSM tags","resolution_m":50,"raster_coverage":1.0,"interpretation":"Suggested search habitats, not predicted plant locations or probabilities of presence."},"features":[{"type":"Feature","geometry":{"type":"MultiPolygon","coordinates":[[[[103.44488925861523,3.5154209158609193],[103.44579534049619,3.5150282652570226],[103.44527713210563,3.514242964531848],[103.44372250693392,3.514242964531848],[103.44372250693392,3.513850314410532],[103.44268609015282,3.514242964531848],[103.44280421670784,3.5146356148140057],[103.44488925861523,3.5154209158609193]]],[[[103.44809984445025,3.5177768228637625],[103.44890459083953,3.5173841712942133],[103.44890459083953,3.5177768228637625],[103.45045921601124,3.5177768228637625],[103.45059936798032,3.5173841712942133],[103.44931926823911,3.51620621755142],[103.44734996566787,3.516991519885653],[103.44809984445025,3.5177768228637625]]]]},"properties":{"place_id":"f3c0caee-6dad-59ff-9cd6-ba7332350b78","habitat":"forest_edge_opening","habitat_label":"Forest edge or opening","resolution_m":50}},{"type":"Feature","geometry":{"type":"Polygon","coordinates":[[[103.44890459083953,3.5173841712942133],[103.44890459083953,3.516991519885653],[103.448386382449,3.516991519885653],[103.448386382449,3.5173841712942133],[103.44890459083953,3.5173841712942133]]]},"properties":{"place_id":"f3c0caee-6dad-59ff-9cd6-ba7332350b78","habitat":"open_grassland","habitat_label":"Open grassland or shrubland","resolution_m":50}},{"type":"Feature","geometry":{"type":"Polygon","coordinates":[[[103.44756268919133,3.5173841712942133],[103.44900963437561,3.518562126485894],[103.45085968825475,3.5181694745943166],[103.45020006002028,3.516991519885653],[103.44786817405843,3.516991519885653],[103.44756268919133,3.5173841712942133]]]},"properties":{"place_id":"f3c0caee-6dad-59ff-9cd6-ba7332350b78","habitat":"disturbed_built_edge","habitat_label":"Disturbed, bare or built edge","resolution_m":50}},{"type":"Feature","geometry":{"type":"MultiPolygon","coordinates":[[[[103.44307734056177,3.513065014650356],[103.44264419999999,3.5128601961262365],[103.44216788176226,3.512765160579939],[103.44216788176226,3.513065014650356],[103.44307734056177,3.513065014650356]]],[[[103.44164967337169,3.512730783655546],[103.4414077,3.512944496126145],[103.44164967337169,3.5132216552107254],[103.44164967337169,3.512730783655546]]],[[[103.44372250693392,3.513457664450041],[103.44393878871271,3.513457664450041],[103.44372250693392,3.5133400584976138],[103.44372250693392,3.513457664450041]]],[[[103.4442407153245,3.513850314410532],[103.44462542968728,3.513850314410532],[103.4442407153245,3.513637928880413],[103.4442407153245,3.513850314410532]]],[[[103.44216788176226,3.513457664450041],[103.44192018261727,3.513457664450041],[103.44216788176226,3.5138549949801385],[103.44216788176226,3.513457664450041]]],[[[103.44530682208458,3.514242964531848],[103.44527713210563,3.5142258557760644],[103.44527713210563,3.514242964531848],[103.44530682208458,3.514242964531848]]],[[[103.44268609015282,3.514242964531848],[103.4425288,3.514443696124533],[103.44268609015282,3.5145533006541054],[103.44268609015282,3.514242964531848]]],[[[103.44320429854339,3.5146356148140057],[103.44280421670784,3.5146356148140057],[103.44320429854339,3.514840439073035],[103.44320429854339,3.5146356148140057]]],[[[103.4442407153245,3.5150282652570226],[103.44381164923595,3.5150282652570226],[103.4442407153245,3.515171576007405],[103.4442407153245,3.5150282652570226]]],[[[103.44527713210563,3.5154209158609193],[103.4449482,3.5154449961234797],[103.44527713210563,3.5155833627812467],[103.44527713210563,3.5154209158609193]]],[[[103.44631354888674,3.515813566625713],[103.44578286494725,3.515813566625713],[103.44631354888674,3.5161193982930086],[103.44631354888674,3.515813566625713]]],[[[103.44579534049619,3.5146356148140057],[103.44594210356439,3.5146356148140057],[103.44579534049619,3.514537912946072],[103.44579534049619,3.5146356148140057]]],[[[103.44631354888674,3.5150282652570226],[103.44654165746131,3.5150282652570226],[103.44631354888674,3.514880372689373],[103.44631354888674,3.5150282652570226]]],[[[103.4468317572773,3.5154209158609193],[103.44715569999998,3.5153887961235455],[103.4468317572773,3.5152126325550714],[103.4468317572773,3.5154209158609193]]],[[[103.44786817405843,3.515813566625713],[103.4486061851702,3.515813566625713],[103.44786817405843,3.515643463994954],[103.44786817405843,3.515813566625713]]],[[[103.44890459083953,3.51620621755142],[103.44916459999997,3.516103596122737],[103.44890459083953,3.515959213146825],[103.44890459083953,3.51620621755142]]],[[[103.4468317572773,3.51620621755142],[103.44643746409079,3.51620621755142],[103.4468317572773,3.516583677942867],[103.4468317572773,3.51620621755142]]],[[[103.4494227992301,3.516598868638061],[103.44982986668956,3.516598868638061],[103.4494227992301,3.516274909735558],[103.4494227992301,3.516598868638061]]],[[[103.44994100762067,3.516991519885653],[103.4499425,3.5167112961220774],[103.44994100762067,3.5167098064698403],[103.44994100762067,3.516991519885653]]],[[[103.44734996566787,3.516991519885653],[103.44714683597826,3.516991519885653],[103.44734996566787,3.5172101784703047],[103.44734996566787,3.516991519885653]]],[[[103.44786817405843,3.5173841712942133],[103.4477323,3.5175732961211543],[103.44786817405843,3.5176331134828254],[103.44786817405843,3.5173841712942133]]],[[[103.45045921601124,3.5181694745943166],[103.44890459083953,3.5181694745943166],[103.44890459083953,3.5177768228637625],[103.44809984445025,3.5177768228637625],[103.4493363,3.5188127961198608],[103.4497172,3.5182104961205107],[103.45083699999998,3.518597296120058],[103.45045921601124,3.5172028868637706],[103.45045921601124,3.5181694745943166]]]]},"properties":{"place_id":"f3c0caee-6dad-59ff-9cd6-ba7332350b78","habitat":"permanent_water","habitat_label":"Permanent water","resolution_m":50}},{"type":"Feature","geometry":{"type":"MultiPolygon","coordinates":[[[[103.44372250693392,3.513457664450041],[103.44393878871271,3.513457664450041],[103.44372250693392,3.5133400584976138],[103.44372250693392,3.513457664450041]]],[[[103.44216788176226,3.513850314410532],[103.44216788176226,3.513457664450041],[103.44192018261727,3.513457664450041],[103.4420729,3.5135762961254704],[103.44216788176226,3.513850314410532]]],[[[103.4442407153245,3.513850314410532],[103.44462542968728,3.513850314410532],[103.4442407153245,3.513637928880413],[103.4442407153245,3.513850314410532]]],[[[103.44631354888674,3.5150282652570226],[103.44654165746131,3.5150282652570226],[103.44631354888674,3.514880372689373],[103.44631354888674,3.5150282652570226]]],[[[103.448386382449,3.5177768228637625],[103.44890459083953,3.5181694745943166],[103.44890459083953,3.5177768228637625],[103.448386382449,3.5177768228637625]]],[[[103.45045921601124,3.5181694745943166],[103.45088792664646,3.518562126485894],[103.45085968825475,3.5181694745943166],[103.45045921601124,3.5181694745943166]]]]},"properties":{"place_id":"f3c0caee-6dad-59ff-9cd6-ba7332350b78","habitat":"seasonal_water_wetland","habitat_label":"Seasonal water or wetland","resolution_m":50}},{"type":"Feature","geometry":{"type":"Polygon","coordinates":[[[103.44890459083953,3.5177768228637625],[103.44890459083953,3.5181694745943166],[103.45045921601124,3.5181694745943166],[103.45045921601124,3.5172028868637706],[103.4494227992301,3.516274909735558],[103.4468317572773,3.5154209158609193],[103.44372250693392,3.5133400584976138],[103.44164967337169,3.512730783655546],[103.44280421670784,3.5146356148140057],[103.44631354888674,3.515813566625713],[103.44786817405843,3.5176331134828254],[103.44890459083953,3.5177768228637625]],[[103.4494227992301,3.516991519885653],[103.4494227992301,3.5173841712942133],[103.44890459083953,3.5173841712942133],[103.44890459083953,3.516991519885653],[103.4494227992301,3.516991519885653]],[[103.44786817405843,3.516991519885653],[103.44786817405843,3.516598868638061],[103.44890459083953,3.516598868638061],[103.44890459083953,3.516991519885653],[103.44786817405843,3.516991519885653]],[[103.44320429854339,3.513850314410532],[103.44372250693392,3.513850314410532],[103.44372250693392,3.514242964531848],[103.44320429854339,3.514242964531848],[103.44320429854339,3.513850314410532]]]},"properties":{"place_id":"f3c0caee-6dad-59ff-9cd6-ba7332350b78","habitat":"water_edge","habitat_label":"Water edge","resolution_m":50}},{"type":"Feature","geometry":{"type":"MultiPolygon","coordinates":[[[[103.44268609015282,3.5145533006541054],[103.4468317572773,3.51620621755142],[103.44756268919133,3.5173841712942133],[103.4494227992301,3.516598868638061],[103.44890459083953,3.515959213146825],[103.4468317572773,3.5154209158609193],[103.44372250693392,3.5133400584976138],[103.44164967337169,3.512730783655546],[103.44268609015282,3.5145533006541054]],[[103.44320429854339,3.514242964531848],[103.44372250693392,3.514242964531848],[103.44372250693392,3.5146356148140057],[103.44320429854339,3.5146356148140057],[103.44320429854339,3.514242964531848]],[[103.4442407153245,3.5146356148140057],[103.44527713210563,3.5146356148140057],[103.44527713210563,3.5150282652570226],[103.4442407153245,3.5150282652570226],[103.4442407153245,3.5146356148140057]]],[[[103.44994100762067,3.516991519885653],[103.44982986668956,3.516598868638061],[103.4494227992301,3.516598868638061],[103.4494227992301,3.516991519885653],[103.44994100762067,3.516991519885653]]]]},"properties":{"place_id":"f3c0caee-6dad-59ff-9cd6-ba7332350b78","habitat":"mangrove","habitat_label":"Mangrove","resolution_m":50}}]}