{"type":"FeatureCollection","metadata":{"schema_version":1,"place_id":"f4070e30-f425-51d2-8cde-8fbef816edf2","place_name":"Jalan Bedara Park","place_type":"park","osm_reference":"way/1122309513","protection_context":"no protected status confirmed from included OSM tags","resolution_m":50,"raster_coverage":1.0,"interpretation":"Suggested search habitats, not predicted plant locations or probabilities of presence."},"features":[{"type":"Feature","geometry":{"type":"Polygon","coordinates":[[[103.8201358280562,1.5981066915722573],[103.8204055,1.5974625982189645],[103.8198288,1.5974236982189995],[103.8201358280562,1.5981066915722573]]]},"properties":{"place_id":"f4070e30-f425-51d2-8cde-8fbef816edf2","habitat":"forest_edge_opening","habitat_label":"Forest edge or opening","resolution_m":50}},{"type":"Feature","geometry":{"type":"Polygon","coordinates":[[[103.8199924,1.5973834982190458],[103.82002499999999,1.5992050982170338],[103.82024649999998,1.5992173982170321],[103.8205117,1.5975444982188496],[103.8199924,1.5973834982190458]]]},"properties":{"place_id":"f4070e30-f425-51d2-8cde-8fbef816edf2","habitat":"disturbed_built_edge","habitat_label":"Disturbed, bare or built edge","resolution_m":50}}]}