{"type":"FeatureCollection","metadata":{"schema_version":1,"place_id":"f41d0182-f136-5059-be46-a7d9ab666a34","place_name":"Koh Seang Tat Fountain Garden","place_type":"park","osm_reference":"way/264409589","protection_context":"no protected status confirmed from included OSM tags","resolution_m":50,"raster_coverage":1.0,"interpretation":"Suggested search habitats, not predicted plant locations or probabilities of presence."},"features":[{"type":"Feature","geometry":{"type":"MultiPolygon","coordinates":[[[[100.34069066425684,5.420741857394597],[100.34119508069863,5.420835034913329],[100.3411053,5.420608394135857],[100.34069066425684,5.420741857394597]]],[[[100.34120887264739,5.420896539586675],[100.3412166,5.4208936941355566],[100.34120887264739,5.420872630231149],[100.34120887264739,5.420896539586675]]]]},"properties":{"place_id":"f41d0182-f136-5059-be46-a7d9ab666a34","habitat":"forest_edge_opening","habitat_label":"Forest edge or opening","resolution_m":50}},{"type":"Feature","geometry":{"type":"Polygon","coordinates":[[[100.340783,5.421102694135326],[100.3412166,5.4208936941355566],[100.34108620000002,5.420596794135869],[100.34066149999998,5.420753394135707],[100.340783,5.421102694135326]]]},"properties":{"place_id":"f41d0182-f136-5059-be46-a7d9ab666a34","habitat":"disturbed_built_edge","habitat_label":"Disturbed, bare or built edge","resolution_m":50}}]}