{"type":"FeatureCollection","metadata":{"schema_version":1,"place_id":"f42a0052-1d18-5bf6-b6b7-aac710084e22","place_name":"Taman Permainan · OSM way/779468698","place_type":"park","osm_reference":"way/779468698","protection_context":"no protected status confirmed from included OSM tags","resolution_m":50,"raster_coverage":1.0,"interpretation":"Suggested search habitats, not predicted plant locations or probabilities of presence."},"features":[{"type":"Feature","geometry":{"type":"Polygon","coordinates":[[[103.92350009999998,1.4961021983313885],[103.923933,1.4963439983311155],[103.9237379,1.4958135983317165],[103.92350009999998,1.4961021983313885]]]},"properties":{"place_id":"f42a0052-1d18-5bf6-b6b7-aac710084e22","habitat":"forest_edge_opening","habitat_label":"Forest edge or opening","resolution_m":50}},{"type":"Feature","geometry":{"type":"Polygon","coordinates":[[[103.92350009999998,1.4961021983313885],[103.923933,1.4963439983311155],[103.9237379,1.4958135983317165],[103.92350009999998,1.4961021983313885]]]},"properties":{"place_id":"f42a0052-1d18-5bf6-b6b7-aac710084e22","habitat":"disturbed_built_edge","habitat_label":"Disturbed, bare or built edge","resolution_m":50}}]}