{"type":"FeatureCollection","metadata":{"schema_version":1,"place_id":"f4b81316-0cf6-561e-ab02-59cf36b7b5a3","place_name":"Taman Bandar","place_type":"park","osm_reference":"way/551940737","protection_context":"no protected status confirmed from included OSM tags","resolution_m":50,"raster_coverage":1.0,"interpretation":"Suggested search habitats, not predicted plant locations or probabilities of presence."},"features":[{"type":"Feature","geometry":{"type":"MultiPolygon","coordinates":[[[[103.29810594918641,3.8350935106384347],[103.29862415757695,3.8350935106384347],[103.29862415757695,3.8347007230520997],[103.29810594918641,3.8347007230520997],[103.29810594918641,3.8350935106384347]]],[[[103.29499669884304,3.8358790863382057],[103.2955149072336,3.8358790863382057],[103.2955149072336,3.835486298400463],[103.29499669884304,3.835486298400463],[103.29499669884304,3.8358790863382057]]],[[[103.29447849045248,3.8362718744516817],[103.29499669884304,3.8362718744516817],[103.29499669884304,3.8358790863382057],[103.29447849045248,3.8358790863382057],[103.29447849045248,3.8362718744516817]]],[[[103.29706953240527,3.8370574512059017],[103.29758774079583,3.8370574512059017],[103.29758774079583,3.836664662740907],[103.29706953240527,3.836664662740907],[103.29706953240527,3.8370574512059017]]],[[[103.29862415757695,3.836664662740907],[103.298933290526,3.8370574512059017],[103.29887894890203,3.836664662740907],[103.29862415757695,3.836664662740907]]],[[[103.29499669884304,3.8370574512059017],[103.29447849045248,3.8370574512059017],[103.29447849045248,3.836664662740907],[103.29396152567887,3.836664662740907],[103.29396028206192,3.836993332162787],[103.2955149072336,3.8377848037055284],[103.29499669884304,3.8370574512059017]]],[[[103.29603311562416,3.837843028663268],[103.29558944901434,3.837843028663268],[103.29603311562416,3.838189578950922],[103.29603311562416,3.837843028663268]]],[[[103.29609231212615,3.838235817655675],[103.29650259999998,3.838556295778439],[103.29655132401471,3.838235817655675],[103.29609231212615,3.838235817655675]]]]},"properties":{"place_id":"f4b81316-0cf6-561e-ab02-59cf36b7b5a3","habitat":"forest_interior","habitat_label":"Forest interior","resolution_m":50}},{"type":"Feature","geometry":{"type":"MultiPolygon","coordinates":[[[[103.29447849045248,3.8370574512059017],[103.29499669884304,3.8370574512059017],[103.29499669884304,3.837450239846681],[103.2955149072336,3.837450239846681],[103.29655132401471,3.838512558062291],[103.29688329999999,3.8374592957796025],[103.2989958,3.837376895779686],[103.29862415757695,3.8370574512059017],[103.298838,3.8345487957827045],[103.2974432,3.834357395782919],[103.29404449999998,3.8353829957818246],[103.29396152567887,3.836664662740907],[103.29447849045248,3.836664662740907],[103.29447849045248,3.8370574512059017]],[[103.29603311562416,3.836664662740907],[103.29603311562416,3.8370574512059017],[103.2955149072336,3.8370574512059017],[103.2955149072336,3.8362718744516817],[103.29655132401471,3.8362718744516817],[103.29655132401471,3.836664662740907],[103.29603311562416,3.836664662740907]],[[103.29655132401471,3.8358790863382057],[103.29706953240527,3.8358790863382057],[103.29706953240527,3.8362718744516817],[103.29655132401471,3.8362718744516817],[103.29655132401471,3.8358790863382057]],[[103.29706953240527,3.835486298400463],[103.29758774079583,3.835486298400463],[103.29758774079583,3.8358790863382057],[103.29706953240527,3.8358790863382057],[103.29706953240527,3.835486298400463]],[[103.29810594918641,3.8358790863382057],[103.29810594918641,3.8362718744516817],[103.29758774079583,3.8362718744516817],[103.29758774079583,3.8358790863382057],[103.29810594918641,3.8358790863382057]],[[103.29758774079583,3.836664662740907],[103.29758774079583,3.8370574512059017],[103.29706953240527,3.8370574512059017],[103.29706953240527,3.836664662740907],[103.29758774079583,3.836664662740907]],[[103.29447849045248,3.8362718744516817],[103.29447849045248,3.8358790863382057],[103.29499669884304,3.8358790863382057],[103.29499669884304,3.8362718744516817],[103.29447849045248,3.8362718744516817]],[[103.29499669884304,3.835486298400463],[103.2955149072336,3.835486298400463],[103.2955149072336,3.8358790863382057],[103.29499669884304,3.8358790863382057],[103.29499669884304,3.835486298400463]],[[103.29862415757695,3.8347007230520997],[103.29862415757695,3.8350935106384347],[103.29810594918641,3.8350935106384347],[103.29810594918641,3.8347007230520997],[103.29862415757695,3.8347007230520997]]],[[[103.29396028206192,3.83671949052672],[103.2938003,3.83676089578033],[103.29396028206192,3.836993332162787],[103.29396028206192,3.83671949052672]]]]},"properties":{"place_id":"f4b81316-0cf6-561e-ab02-59cf36b7b5a3","habitat":"forest_edge_opening","habitat_label":"Forest edge or opening","resolution_m":50}},{"type":"Feature","geometry":{"type":"Polygon","coordinates":[[[103.29706953240527,3.8344565461589086],[103.29758774079583,3.8347007230520997],[103.29758774079583,3.8343621512030426],[103.29706953240527,3.8344565461589086]]]},"properties":{"place_id":"f4b81316-0cf6-561e-ab02-59cf36b7b5a3","habitat":"open_grassland","habitat_label":"Open grassland or shrubland","resolution_m":50}},{"type":"Feature","geometry":{"type":"MultiPolygon","coordinates":[[[[103.29810594918641,3.8362718744516817],[103.29887894890203,3.836664662740907],[103.298838,3.8345487957827045],[103.2974432,3.834357395782919],[103.2939785,3.835438595781751],[103.29396152567887,3.836664662740907],[103.29447849045248,3.836664662740907],[103.29447849045248,3.8358790863382057],[103.29499669884304,3.8358790863382057],[103.29499669884304,3.835486298400463],[103.29603311562416,3.835486298400463],[103.29603311562416,3.8358790863382057],[103.29706953240527,3.835486298400463],[103.29706953240527,3.8358790863382057],[103.29810594918641,3.8358790863382057],[103.29810594918641,3.8362718744516817]],[[103.29810594918641,3.835486298400463],[103.29862415757695,3.835486298400463],[103.29862415757695,3.8358790863382057],[103.29810594918641,3.8358790863382057],[103.29810594918641,3.835486298400463]],[[103.29862415757695,3.8347007230520997],[103.29862415757695,3.8350935106384347],[103.29810594918641,3.8350935106384347],[103.29810594918641,3.8347007230520997],[103.29862415757695,3.8347007230520997]]],[[[103.29396028206192,3.83671949052672],[103.2938003,3.83676089578033],[103.29396028206192,3.836993332162787],[103.29396028206192,3.83671949052672]]],[[[103.29706953240527,3.8370574512059017],[103.29706953240527,3.837450239846681],[103.29655132401471,3.837450239846681],[103.29655132401471,3.838512558062291],[103.29688329999999,3.8374592957796025],[103.2989958,3.837376895779686],[103.298933290526,3.8370574512059017],[103.29706953240527,3.8370574512059017]]]]},"properties":{"place_id":"f4b81316-0cf6-561e-ab02-59cf36b7b5a3","habitat":"disturbed_built_edge","habitat_label":"Disturbed, bare or built edge","resolution_m":50}},{"type":"Feature","geometry":{"type":"Polygon","coordinates":[[[103.29655132401471,3.837843028663268],[103.29655132401471,3.836664662740907],[103.29706953240527,3.836664662740907],[103.29706953240527,3.8362718744516817],[103.29758774079583,3.8362718744516817],[103.29758774079583,3.836664662740907],[103.29862415757695,3.836664662740907],[103.29862415757695,3.8358790863382057],[103.29810594918641,3.8358790863382057],[103.29810594918641,3.835486298400463],[103.29655132401471,3.835486298400463],[103.29655132401471,3.8358790863382057],[103.2955149072336,3.8358790863382057],[103.2955149072336,3.8362718744516817],[103.29499669884304,3.8362718744516817],[103.29499669884304,3.8370574512059017],[103.29655132401471,3.837843028663268]]]},"properties":{"place_id":"f4b81316-0cf6-561e-ab02-59cf36b7b5a3","habitat":"permanent_water","habitat_label":"Permanent water","resolution_m":50}},{"type":"Feature","geometry":{"type":"MultiPolygon","coordinates":[[[[103.2955149072336,3.8358790863382057],[103.2955149072336,3.8362718744516817],[103.29603311562416,3.8362718744516817],[103.29603311562416,3.8358790863382057],[103.2955149072336,3.8358790863382057]]],[[[103.2955149072336,3.836664662740907],[103.2955149072336,3.8362718744516817],[103.29499669884304,3.8362718744516817],[103.29499669884304,3.836664662740907],[103.2955149072336,3.836664662740907]]],[[[103.29655132401471,3.8362718744516817],[103.29655132401471,3.836664662740907],[103.29810594918641,3.836664662740907],[103.29810594918641,3.8362718744516817],[103.29655132401471,3.8362718744516817]]],[[[103.2955149072336,3.8370574512059017],[103.2955149072336,3.837450239846681],[103.29655132401471,3.837843028663268],[103.29655132401471,3.8370574512059017],[103.2955149072336,3.8370574512059017]]]]},"properties":{"place_id":"f4b81316-0cf6-561e-ab02-59cf36b7b5a3","habitat":"seasonal_water_wetland","habitat_label":"Seasonal water or wetland","resolution_m":50}},{"type":"Feature","geometry":{"type":"Polygon","coordinates":[[[103.29396028206192,3.836993332162787],[103.29650259999998,3.838556295778439],[103.29688329999999,3.8374592957796025],[103.29862415757695,3.837450239846681],[103.298933290526,3.8370574512059017],[103.29862415757695,3.8350935106384347],[103.29810594918641,3.8350935106384347],[103.29810594918641,3.8347007230520997],[103.2955149072336,3.8350935106384347],[103.2955149072336,3.835486298400463],[103.29397043499911,3.8362718744516817],[103.29396028206192,3.836993332162787]],[[103.29603311562416,3.837450239846681],[103.29499669884304,3.8370574512059017],[103.29499669884304,3.8362718744516817],[103.2955149072336,3.8362718744516817],[103.2955149072336,3.8358790863382057],[103.29655132401471,3.8358790863382057],[103.29655132401471,3.835486298400463],[103.29810594918641,3.835486298400463],[103.29810594918641,3.8358790863382057],[103.29862415757695,3.8358790863382057],[103.29862415757695,3.836664662740907],[103.29655132401471,3.836664662740907],[103.29655132401471,3.837843028663268],[103.29603311562416,3.837843028663268],[103.29603311562416,3.837450239846681]]]},"properties":{"place_id":"f4b81316-0cf6-561e-ab02-59cf36b7b5a3","habitat":"water_edge","habitat_label":"Water edge","resolution_m":50}}]}