{"type":"FeatureCollection","metadata":{"schema_version":1,"place_id":"f5b85815-05a5-53e9-ab57-d1630ed0384c","place_name":"Taman Kejiranan Rena","place_type":"park","osm_reference":"way/1306922168","protection_context":"no protected status confirmed from included OSM tags","resolution_m":50,"raster_coverage":1.0,"interpretation":"Suggested search habitats, not predicted plant locations or probabilities of presence."},"features":[{"type":"Feature","geometry":{"type":"MultiPolygon","coordinates":[[[[100.21733401924422,5.374780245300992],[100.21716819999999,5.374439294182515],[100.21718667594067,5.374780245300992],[100.21733401924422,5.374780245300992]]],[[[100.21735706730338,5.3749343986718765],[100.21738269999997,5.374925994182028],[100.21735706730338,5.374835661590793],[100.21735706730338,5.3749343986718765]]]]},"properties":{"place_id":"f5b85815-05a5-53e9-ab57-d1630ed0384c","habitat":"forest_edge_opening","habitat_label":"Forest edge or opening","resolution_m":50}},{"type":"Feature","geometry":{"type":"Polygon","coordinates":[[[100.21735706730338,5.3749343986718765],[100.21738269999997,5.374925994182028],[100.21735706730338,5.374835661590793],[100.21735706730338,5.3749343986718765]]]},"properties":{"place_id":"f5b85815-05a5-53e9-ab57-d1630ed0384c","habitat":"open_grassland","habitat_label":"Open grassland or shrubland","resolution_m":50}},{"type":"Feature","geometry":{"type":"Polygon","coordinates":[[[100.21707649999999,5.374474194182498],[100.21738269999997,5.374925994182028],[100.21716819999999,5.374439294182515],[100.21707649999999,5.374474194182498]]]},"properties":{"place_id":"f5b85815-05a5-53e9-ab57-d1630ed0384c","habitat":"disturbed_built_edge","habitat_label":"Disturbed, bare or built edge","resolution_m":50}},{"type":"Feature","geometry":{"type":"Polygon","coordinates":[[[100.21733401924422,5.374780245300992],[100.2172543,5.374968094181989],[100.21735706730338,5.3749343986718765],[100.21733401924422,5.374780245300992]]]},"properties":{"place_id":"f5b85815-05a5-53e9-ab57-d1630ed0384c","habitat":"seasonal_water_wetland","habitat_label":"Seasonal water or wetland","resolution_m":50}},{"type":"Feature","geometry":{"type":"MultiPolygon","coordinates":[[[[100.21733401924422,5.374780245300992],[100.21716819999999,5.374439294182515],[100.21718667594067,5.374780245300992],[100.21733401924422,5.374780245300992]]],[[[100.21735706730338,5.3749343986718765],[100.21738269999997,5.374925994182028],[100.21735706730338,5.374835661590793],[100.21735706730338,5.3749343986718765]]]]},"properties":{"place_id":"f5b85815-05a5-53e9-ab57-d1630ed0384c","habitat":"water_edge","habitat_label":"Water edge","resolution_m":50}}]}