{"type":"FeatureCollection","metadata":{"schema_version":1,"place_id":"f5d90234-48f0-53c0-961b-e07a23a38316","place_name":"Pulau Gapis","place_type":"wood","osm_reference":"way/725453016","protection_context":"no protected status confirmed from included OSM tags","resolution_m":50,"raster_coverage":1.0,"interpretation":"Suggested search habitats, not predicted plant locations or probabilities of presence."},"features":[{"type":"Feature","geometry":{"type":"Polygon","coordinates":[[[100.6622341,4.32852269526095],[100.66251169999998,4.329203395260217],[100.6623146,4.328461195260975],[100.6622341,4.32852269526095]]]},"properties":{"place_id":"f5d90234-48f0-53c0-961b-e07a23a38316","habitat":"permanent_water","habitat_label":"Permanent water","resolution_m":50}}]}