{"type":"FeatureCollection","metadata":{"schema_version":1,"place_id":"f5ea677f-5c52-555f-951a-fbed40989168","place_name":"Dataran Ayer Keroh","place_type":"park","osm_reference":"way/1224442872","protection_context":"no protected status confirmed from included OSM tags","resolution_m":50,"raster_coverage":1.0,"interpretation":"Suggested search habitats, not predicted plant locations or probabilities of presence."},"features":[{"type":"Feature","geometry":{"type":"Polygon","coordinates":[[[102.29900017218549,2.272999485480564],[102.29900017218549,2.2733917174628653],[102.29951838057605,2.2733917174628653],[102.29951838057605,2.273072400724678],[102.29900017218549,2.272999485480564]]]},"properties":{"place_id":"f5ea677f-5c52-555f-951a-fbed40989168","habitat":"forest_interior","habitat_label":"Forest interior","resolution_m":50}},{"type":"Feature","geometry":{"type":"Polygon","coordinates":[[[102.29951838057605,2.2733917174628653],[102.29900017218549,2.2733917174628653],[102.29934433057008,2.272999485480564],[102.29766819999999,2.2723468974739514],[102.2971518,2.2725531974737048],[102.2970861,2.272982097473217],[102.2979672,2.275211897470768],[102.2992979,2.2746986974713526],[102.2998783,2.273284897472914],[102.29951838057605,2.273072400724678],[102.29951838057605,2.2733917174628653]],[[102.29848196379491,2.2749606464297147],[102.29796375540435,2.2749606464297147],[102.29796375540435,2.2745684140323204],[102.29848196379491,2.2745684140323204],[102.29848196379491,2.2749606464297147]],[[102.29848196379491,2.2741761817387247],[102.29900017218549,2.2741761817387247],[102.29900017218549,2.2745684140323204],[102.29848196379491,2.2745684140323204],[102.29848196379491,2.2741761817387247]],[[102.29796375540435,2.2741761817387247],[102.29796375540435,2.273783949548913],[102.29744554701381,2.273783949548913],[102.29744554701381,2.272999485480564],[102.29848196379491,2.2733917174628653],[102.29848196379491,2.2741761817387247],[102.29796375540435,2.2741761817387247]]]},"properties":{"place_id":"f5ea677f-5c52-555f-951a-fbed40989168","habitat":"forest_edge_opening","habitat_label":"Forest edge or opening","resolution_m":50}},{"type":"Feature","geometry":{"type":"MultiPolygon","coordinates":[[[[102.29796375540435,2.2726072536019926],[102.29744554701381,2.2723496361951874],[102.29744554701381,2.2726072536019926],[102.29796375540435,2.2726072536019926]]],[[[102.29900017218549,2.2733917174628653],[102.29796375540435,2.273783949548913],[102.29796375540435,2.272999485480564],[102.29744554701381,2.272999485480564],[102.29796375540435,2.2749606464297147],[102.29900017218549,2.274813531270044],[102.29900017218549,2.2733917174628653]]]]},"properties":{"place_id":"f5ea677f-5c52-555f-951a-fbed40989168","habitat":"open_grassland","habitat_label":"Open grassland or shrubland","resolution_m":50}},{"type":"Feature","geometry":{"type":"Polygon","coordinates":[[[102.29951838057605,2.2733917174628653],[102.29900017218549,2.2733917174628653],[102.29934433057008,2.272999485480564],[102.29766819999999,2.2723468974739514],[102.2971518,2.2725531974737048],[102.2979672,2.275211897470768],[102.2992979,2.2746986974713526],[102.2998783,2.273284897472914],[102.29951838057605,2.273072400724678],[102.29951838057605,2.2733917174628653]],[[102.29848196379491,2.2745684140323204],[102.29796375540435,2.2745684140323204],[102.29796375540435,2.2741761817387247],[102.29848196379491,2.2741761817387247],[102.29848196379491,2.2745684140323204]],[[102.29848196379491,2.273783949548913],[102.29900017218549,2.273783949548913],[102.29900017218549,2.2741761817387247],[102.29848196379491,2.2741761817387247],[102.29848196379491,2.273783949548913]]]},"properties":{"place_id":"f5ea677f-5c52-555f-951a-fbed40989168","habitat":"disturbed_built_edge","habitat_label":"Disturbed, bare or built edge","resolution_m":50}},{"type":"Feature","geometry":{"type":"Polygon","coordinates":[[[102.29951838057605,2.2733917174628653],[102.29900017218549,2.2733917174628653],[102.29900017218549,2.2745684140323204],[102.2997512,2.27378339747235],[102.29951838057605,2.273072400724678],[102.29951838057605,2.2733917174628653]]]},"properties":{"place_id":"f5ea677f-5c52-555f-951a-fbed40989168","habitat":"water_edge","habitat_label":"Water edge","resolution_m":50}}]}