{"type":"FeatureCollection","metadata":{"schema_version":1,"place_id":"f63c2b69-295a-509f-972d-8cfbe1084571","place_name":"Laman Sultan Ismail","place_type":"park","osm_reference":"way/1193064326","protection_context":"no protected status confirmed from included OSM tags","resolution_m":50,"raster_coverage":1.0,"interpretation":"Suggested search habitats, not predicted plant locations or probabilities of presence."},"features":[{"type":"Feature","geometry":{"type":"Polygon","coordinates":[[[101.697228,3.1598956965062297],[101.69722160000002,3.159971596506171],[101.6973619,3.1598940965062314],[101.697228,3.1598956965062297]]]},"properties":{"place_id":"f63c2b69-295a-509f-972d-8cfbe1084571","habitat":"disturbed_built_edge","habitat_label":"Disturbed, bare or built edge","resolution_m":50}}]}