{"type":"FeatureCollection","metadata":{"schema_version":1,"place_id":"f6aea0f6-d28e-5d9d-924e-476250efa894","place_name":"Taman Warisan Pertanian","place_type":"park","osm_reference":"relation/7927870","protection_context":"no protected status confirmed from included OSM tags","resolution_m":50,"raster_coverage":1.0,"interpretation":"Suggested search habitats, not predicted plant locations or probabilities of presence."},"features":[{"type":"Feature","geometry":{"type":"Polygon","coordinates":[[[101.70150589786907,2.928185421509605],[101.70202410625963,2.928185421509605],[101.70202410625963,2.9301475744756793],[101.70150589786907,2.9301475744756793],[101.70150589786907,2.931324867862024],[101.70254231465019,2.931717299258698],[101.70254231465019,2.931324867862024],[101.70306052304075,2.931324867862024],[101.70306052304075,2.9293627128876647],[101.70254231465019,2.9293627128876647],[101.70254231465019,2.928970282294468],[101.70306052304075,2.928970282294468],[101.70357873143132,2.928185421509605],[101.70306052304075,2.928185421509605],[101.70299942765746,2.9270081313358656],[101.70150589786907,2.9263961193518955],[101.70150589786907,2.928185421509605]]]},"properties":{"place_id":"f6aea0f6-d28e-5d9d-924e-476250efa894","habitat":"forest_interior","habitat_label":"Forest interior","resolution_m":50}},{"type":"Feature","geometry":{"type":"MultiPolygon","coordinates":[[[[101.70202410625963,2.926615701545496],[101.70254231465019,2.926615701545496],[101.70254231465019,2.9270081313358656],[101.70299942765746,2.9270081313358656],[101.7025841,2.9266146967589877],[101.70202410625963,2.926615701545496]]],[[[101.70357873143132,2.928185421509605],[101.70357873143132,2.928577851835121],[101.70254231465019,2.928970282294468],[101.70254231465019,2.9293627128876647],[101.70306052304075,2.9293627128876647],[101.70306052304075,2.931324867862024],[101.70202410625963,2.931717299258698],[101.70202410625963,2.931324867862024],[101.70150589786907,2.931324867862024],[101.70150589786907,2.9301475744756793],[101.70202410625963,2.9301475744756793],[101.70150589786907,2.9263961193518955],[101.70046948108795,2.9262232718888663],[101.70008314364604,2.926615701545496],[101.70003359999998,2.9267389967588553],[101.69982248622362,2.9274005612599954],[101.69995127269738,2.9270081313358656],[101.70046948108795,2.9270081313358656],[101.70046948108795,2.9277929913179026],[101.69995127269738,2.9279824616461014],[101.70129659999999,2.928953296756449],[101.70093029999998,2.931106196754112],[101.70131568487446,2.931717299258698],[101.70255239999997,2.9321390967529837],[101.70327259999998,2.931001696754247],[101.7033496,2.929326696756037],[101.70428949999999,2.928529896756913],[101.70306052304075,2.927066006222249],[101.70306052304075,2.928185421509605],[101.70357873143132,2.928185421509605]]]]},"properties":{"place_id":"f6aea0f6-d28e-5d9d-924e-476250efa894","habitat":"forest_edge_opening","habitat_label":"Forest edge or opening","resolution_m":50}},{"type":"Feature","geometry":{"type":"MultiPolygon","coordinates":[[[[101.70150589786907,2.928185421509605],[101.70098768947851,2.928185421509605],[101.70104044509624,2.928577851835121],[101.70150589786907,2.928577851835121],[101.70150589786907,2.928185421509605]]],[[[101.70357873143132,2.928970282294468],[101.70306052304075,2.928970282294468],[101.70306052304075,2.9293627128876647],[101.70333379867076,2.9293627128876647],[101.70357873143132,2.928970282294468]]]]},"properties":{"place_id":"f6aea0f6-d28e-5d9d-924e-476250efa894","habitat":"open_grassland","habitat_label":"Open grassland or shrubland","resolution_m":50}},{"type":"Feature","geometry":{"type":"MultiPolygon","coordinates":[[[[101.70202410625963,2.926615701545496],[101.70254231465019,2.926615701545496],[101.70254231465019,2.9270081313358656],[101.70299942765746,2.9270081313358656],[101.7025841,2.9266146967589877],[101.70202410625963,2.926615701545496]]],[[[101.70357873143132,2.928185421509605],[101.70357873143132,2.928970282294468],[101.70306052304075,2.928970282294468],[101.70306052304075,2.931324867862024],[101.70202410625963,2.931717299258698],[101.70202410625963,2.931324867862024],[101.70150589786907,2.931324867862024],[101.70202410625963,2.928577851835121],[101.70098768947851,2.928185421509605],[101.70098768947851,2.9277929913179026],[101.70150589786907,2.9277929913179026],[101.70150589786907,2.9263961193518955],[101.70027699999999,2.926226196759399],[101.6997853,2.9278108967576864],[101.70129659999999,2.928953296756449],[101.70093029999998,2.931106196754112],[101.70132139999998,2.9317249967534385],[101.70255239999997,2.9321390967529837],[101.70327259999998,2.931001696754247],[101.7033496,2.929326696756037],[101.70428949999999,2.928529896756913],[101.70306052304075,2.927066006222249],[101.70306052304075,2.928185421509605],[101.70357873143132,2.928185421509605]]]]},"properties":{"place_id":"f6aea0f6-d28e-5d9d-924e-476250efa894","habitat":"disturbed_built_edge","habitat_label":"Disturbed, bare or built edge","resolution_m":50}}]}