{"type":"FeatureCollection","metadata":{"schema_version":1,"place_id":"f71c582c-679f-5919-b4cd-cee42b541613","place_name":"Taman Kejiranan Murraya Indah","place_type":"park","osm_reference":"way/1018472513","protection_context":"no protected status confirmed from included OSM tags","resolution_m":50,"raster_coverage":1.0,"interpretation":"Suggested search habitats, not predicted plant locations or probabilities of presence."},"features":[{"type":"Feature","geometry":{"type":"Polygon","coordinates":[[[100.29095989999999,5.3430499942143115],[100.29164279999998,5.343793294213561],[100.2917143,5.34312149421425],[100.29095989999999,5.3430499942143115]]]},"properties":{"place_id":"f71c582c-679f-5919-b4cd-cee42b541613","habitat":"forest_edge_opening","habitat_label":"Forest edge or opening","resolution_m":50}},{"type":"Feature","geometry":{"type":"Polygon","coordinates":[[[100.29095989999999,5.3430499942143115],[100.29164279999998,5.343793294213561],[100.2917143,5.34312149421425],[100.29095989999999,5.3430499942143115]]]},"properties":{"place_id":"f71c582c-679f-5919-b4cd-cee42b541613","habitat":"disturbed_built_edge","habitat_label":"Disturbed, bare or built edge","resolution_m":50}}]}