{"type":"FeatureCollection","metadata":{"schema_version":1,"place_id":"f746cb1a-142c-57a6-bcd4-540079685dc0","place_name":"Taman Kluang Indah","place_type":"park","osm_reference":"way/675443169","protection_context":"no protected status confirmed from included OSM tags","resolution_m":50,"raster_coverage":1.0,"interpretation":"Suggested search habitats, not predicted plant locations or probabilities of presence."},"features":[{"type":"Feature","geometry":{"type":"Polygon","coordinates":[[[103.32888630000001,2.012032997760526],[103.3298696,2.012195197760322],[103.3299919,2.0117442977608126],[103.3289713,2.011557897761009],[103.32888630000001,2.012032997760526]]]},"properties":{"place_id":"f746cb1a-142c-57a6-bcd4-540079685dc0","habitat":"disturbed_built_edge","habitat_label":"Disturbed, bare or built edge","resolution_m":50}}]}