{"type":"FeatureCollection","metadata":{"schema_version":1,"place_id":"f7f040bc-03fb-5e59-b482-9bd5422db7bc","place_name":"Springhill Lake","place_type":"park","osm_reference":"way/622844008","protection_context":"no protected status confirmed from included OSM tags","resolution_m":50,"raster_coverage":1.0,"interpretation":"Suggested search habitats, not predicted plant locations or probabilities of presence."},"features":[{"type":"Feature","geometry":{"type":"MultiPolygon","coordinates":[[[[101.85895198023853,2.6048666336527577],[101.85904124859951,2.604971117313258],[101.85904124859951,2.6048666336527577],[101.85895198023853,2.6048666336527577]]],[[[101.86370512411455,2.6056512861343912],[101.86370512411455,2.6052589598340896],[101.86266870733343,2.6048666336527577],[101.86266870733343,2.6040819816469316],[101.86163229055231,2.6040819816469316],[101.86163229055231,2.6044743075903782],[101.86059587377117,2.6044743075903782],[101.86059587377117,2.6048666336527577],[101.85955945699007,2.6048666336527577],[101.85928717438381,2.6052589598340896],[101.86370512411455,2.6056512861343912]]]]},"properties":{"place_id":"f7f040bc-03fb-5e59-b482-9bd5422db7bc","habitat":"forest_interior","habitat_label":"Forest interior","resolution_m":50}},{"type":"Feature","geometry":{"type":"Polygon","coordinates":[[[101.85955945699007,2.6052589598340896],[101.85955945699007,2.6048666336527577],[101.86059587377117,2.6048666336527577],[101.86059587377117,2.6044743075903782],[101.86163229055231,2.6044743075903782],[101.86163229055231,2.6040819816469316],[101.86266870733343,2.6040819816469316],[101.86266870733343,2.6048666336527577],[101.86318691572399,2.6048666336527577],[101.86370512411455,2.6056512861343912],[101.8645788,2.605243097109138],[101.86370512411455,2.6048666336527577],[101.86224629999998,2.6030607971115147],[101.8607328,2.603025997111547],[101.85831459999997,2.6034541971110756],[101.8587862,2.6046725971097544],[101.85955945699007,2.6052589598340896]],[[101.85904124859951,2.6040819816469316],[101.85955945699007,2.6040819816469316],[101.85955945699007,2.6044743075903782],[101.85904124859951,2.6044743075903782],[101.85904124859951,2.6040819816469316]],[[101.86059587377117,2.6040819816469316],[101.86007766538063,2.6040819816469316],[101.86007766538063,2.6036896558224005],[101.86059587377117,2.6036896558224005],[101.86059587377117,2.6040819816469316]],[[101.86059587377117,2.6032973301167672],[101.86111408216175,2.6032973301167672],[101.86111408216175,2.6036896558224005],[101.86059587377117,2.6036896558224005],[101.86059587377117,2.6032973301167672]]]},"properties":{"place_id":"f7f040bc-03fb-5e59-b482-9bd5422db7bc","habitat":"forest_edge_opening","habitat_label":"Forest edge or opening","resolution_m":50}},{"type":"Feature","geometry":{"type":"MultiPolygon","coordinates":[[[[101.86059587377117,2.6036896558224005],[101.86163229055231,2.6036896558224005],[101.86163229055231,2.6031318141455406],[101.86059587377117,2.6030345672435646],[101.86059587377117,2.6036896558224005]]],[[[101.85855759347915,2.6040819816469316],[101.85870944909668,2.6044743075903782],[101.85904124859951,2.6044743075903782],[101.85904124859951,2.6040819816469316],[101.85855759347915,2.6040819816469316]]],[[[101.86007766538063,2.6040819816469316],[101.86007766538063,2.6044743075903782],[101.86059587377117,2.6044743075903782],[101.86059587377117,2.6040819816469316],[101.86007766538063,2.6040819816469316]]],[[[101.85904124859951,2.6044743075903782],[101.85904124859951,2.6048666336527577],[101.85955945699007,2.6048666336527577],[101.85955945699007,2.6044743075903782],[101.85904124859951,2.6044743075903782]]]]},"properties":{"place_id":"f7f040bc-03fb-5e59-b482-9bd5422db7bc","habitat":"open_grassland","habitat_label":"Open grassland or shrubland","resolution_m":50}},{"type":"Feature","geometry":{"type":"MultiPolygon","coordinates":[[[[101.85905519999999,2.6031309971114207],[101.85955945699007,2.6032973301167672],[101.85955945699007,2.6030994359613278],[101.85905519999999,2.6031309971114207]]],[[[101.86007766538063,2.603067001602039],[101.86059587377117,2.6032973301167672],[101.86059587377117,2.6030345672435646],[101.86007766538063,2.603067001602039]]],[[[101.85955945699007,2.6040819816469316],[101.85904124859951,2.6032973301167672],[101.85852304020894,2.6033632331878986],[101.85870944909668,2.6044743075903782],[101.85955945699007,2.6040819816469316]]],[[[101.86163229055231,2.6036896558224005],[101.86266870733343,2.6040819816469316],[101.86266870733343,2.6048666336527577],[101.86318691572399,2.6048666336527577],[101.86370512411455,2.6056512861343912],[101.8645788,2.605243097109138],[101.86224629999998,2.6030607971115147],[101.86163229055231,2.6031318141455406],[101.86163229055231,2.6036896558224005]]]]},"properties":{"place_id":"f7f040bc-03fb-5e59-b482-9bd5422db7bc","habitat":"disturbed_built_edge","habitat_label":"Disturbed, bare or built edge","resolution_m":50}},{"type":"Feature","geometry":{"type":"Polygon","coordinates":[[[101.86163229055231,2.6040819816469316],[101.86163229055231,2.6036896558224005],[101.86111408216175,2.6036896558224005],[101.86111408216175,2.6040819816469316],[101.86163229055231,2.6040819816469316]]]},"properties":{"place_id":"f7f040bc-03fb-5e59-b482-9bd5422db7bc","habitat":"cropland","habitat_label":"Cropland","resolution_m":50}},{"type":"Feature","geometry":{"type":"Polygon","coordinates":[[[101.86007766538063,2.6044743075903782],[101.86007766538063,2.6040819816469316],[101.86111408216175,2.6040819816469316],[101.86059587377117,2.6032973301167672],[101.86007766538063,2.6032973301167672],[101.86007766538063,2.6036896558224005],[101.85904124859951,2.6036896558224005],[101.85904124859951,2.6044743075903782],[101.86007766538063,2.6044743075903782]]]},"properties":{"place_id":"f7f040bc-03fb-5e59-b482-9bd5422db7bc","habitat":"permanent_water","habitat_label":"Permanent water","resolution_m":50}},{"type":"Feature","geometry":{"type":"MultiPolygon","coordinates":[[[[101.86111408216175,2.6036896558224005],[101.86059587377117,2.6036896558224005],[101.86059587377117,2.6040819816469316],[101.86111408216175,2.6040819816469316],[101.86111408216175,2.6036896558224005]]],[[[101.85955945699007,2.6044743075903782],[101.85904124859951,2.6044743075903782],[101.85904124859951,2.6048666336527577],[101.85955945699007,2.6048666336527577],[101.85955945699007,2.6044743075903782]]]]},"properties":{"place_id":"f7f040bc-03fb-5e59-b482-9bd5422db7bc","habitat":"seasonal_water_wetland","habitat_label":"Seasonal water or wetland","resolution_m":50}},{"type":"Feature","geometry":{"type":"Polygon","coordinates":[[[101.85852304020894,2.6036896558224005],[101.8587862,2.6046725971097544],[101.85935529999999,2.605338697109022],[101.86007766538063,2.6052589598340896],[101.86007766538063,2.6048666336527577],[101.86111408216175,2.6048666336527577],[101.86111408216175,2.6044743075903782],[101.86215049894287,2.6040819816469316],[101.86163229055231,2.6032973301167672],[101.8607328,2.603025997111547],[101.85905519999999,2.6031309971114207],[101.85852304020894,2.6036896558224005]],[[101.85904124859951,2.6036896558224005],[101.86007766538063,2.6036896558224005],[101.86007766538063,2.6032973301167672],[101.86059587377117,2.6032973301167672],[101.86111408216175,2.6040819816469316],[101.86007766538063,2.6040819816469316],[101.86007766538063,2.6044743075903782],[101.85904124859951,2.6048666336527577],[101.85904124859951,2.6036896558224005]]]},"properties":{"place_id":"f7f040bc-03fb-5e59-b482-9bd5422db7bc","habitat":"water_edge","habitat_label":"Water edge","resolution_m":50}}]}