{"type":"FeatureCollection","metadata":{"schema_version":1,"place_id":"f832e0ff-6dce-549d-9df0-9fe02008cf25","place_name":"Nilam Sari Central Park","place_type":"park","osm_reference":"relation/7494500","protection_context":"no protected status confirmed from included OSM tags","resolution_m":50,"raster_coverage":1.0,"interpretation":"Suggested search habitats, not predicted plant locations or probabilities of presence."},"features":[{"type":"Feature","geometry":{"type":"Polygon","coordinates":[[[100.4617886,5.628769193926377],[100.46297950000002,5.628615593926536],[100.4629983,5.628341993926812],[100.46206469999998,5.628350093926798],[100.4617886,5.628769193926377]]]},"properties":{"place_id":"f832e0ff-6dce-549d-9df0-9fe02008cf25","habitat":"forest_edge_opening","habitat_label":"Forest edge or opening","resolution_m":50}},{"type":"Feature","geometry":{"type":"Polygon","coordinates":[[[100.4617886,5.628769193926377],[100.46297950000002,5.628615593926536],[100.4629983,5.628341993926812],[100.46206469999998,5.628350093926798],[100.4617886,5.628769193926377]]]},"properties":{"place_id":"f832e0ff-6dce-549d-9df0-9fe02008cf25","habitat":"disturbed_built_edge","habitat_label":"Disturbed, bare or built edge","resolution_m":50}}]}