{"type":"FeatureCollection","metadata":{"schema_version":1,"place_id":"f83691fe-3fa4-5593-880e-17f9b691dc69","place_name":"Taman Tasik Ujana Nilai Impian","place_type":"park","osm_reference":"way/671948468","protection_context":"no protected status confirmed from included OSM tags","resolution_m":50,"raster_coverage":1.0,"interpretation":"Suggested search habitats, not predicted plant locations or probabilities of presence."},"features":[{"type":"Feature","geometry":{"type":"MultiPolygon","coordinates":[[[[101.81084786827736,2.838322364806476],[101.81136607666792,2.838322364806476],[101.81084786827736,2.837537564888373],[101.81238369999997,2.837475196855884],[101.81055329999998,2.837104396856295],[101.8103296598868,2.838714764960039],[101.81084786827736,2.838714764960039],[101.81084786827736,2.838322364806476]]],[[[101.8103296598868,2.839891966198982],[101.81004778094726,2.839107165243298],[101.8097273,2.8406434968524557],[101.811473,2.841153996851893],[101.81136607666792,2.8402843668714417],[101.8103296598868,2.839891966198982]],[[101.81084786827736,2.8406767676736724],[101.8103296598868,2.8406767676736724],[101.8103296598868,2.8402843668714417],[101.81084786827736,2.8402843668714417],[101.81084786827736,2.8406767676736724]]]]},"properties":{"place_id":"f83691fe-3fa4-5593-880e-17f9b691dc69","habitat":"forest_edge_opening","habitat_label":"Forest edge or opening","resolution_m":50}},{"type":"Feature","geometry":{"type":"MultiPolygon","coordinates":[[[[101.81084786827736,2.837537564888373],[101.8103449181793,2.837929964782594],[101.81084786827736,2.837929964782594],[101.81084786827736,2.837537564888373]]],[[[101.8103296598868,2.838322364806476],[101.8103296598868,2.837990415169006],[101.81024587243527,2.838322364806476],[101.8103296598868,2.838322364806476]]],[[[101.81136607666792,2.8406767676736724],[101.81238369999997,2.837475196855884],[101.81084786827736,2.8371451651237947],[101.81084786827736,2.837537564888373],[101.81136607666792,2.837537564888373],[101.81136607666792,2.837929964782594],[101.81188428505848,2.837929964782594],[101.81188428505848,2.838714764960039],[101.81136607666792,2.838714764960039],[101.81136607666792,2.8406767676736724]]],[[[101.8103296598868,2.839891966198982],[101.8103296598868,2.840859412458495],[101.81084786827736,2.8409929301163275],[101.81084786827736,2.839891966198982],[101.8103296598868,2.839891966198982]]]]},"properties":{"place_id":"f83691fe-3fa4-5593-880e-17f9b691dc69","habitat":"open_grassland","habitat_label":"Open grassland or shrubland","resolution_m":50}},{"type":"Feature","geometry":{"type":"MultiPolygon","coordinates":[[[[101.81136607666792,2.837537564888373],[101.81065619999998,2.8370601968563642],[101.81044396392329,2.837537564888373],[101.81136607666792,2.837537564888373]]],[[[101.81136607666792,2.838714764960039],[101.81136607666792,2.838322364806476],[101.8103449181793,2.837929964782594],[101.809684,2.840548396852546],[101.811473,2.841153996851893],[101.81238369999997,2.837475196855884],[101.81188428505848,2.8373552216163938],[101.81188428505848,2.839107165243298],[101.81136607666792,2.839107165243298],[101.81136607666792,2.839891966198982],[101.81084786827736,2.839891966198982],[101.81084786827736,2.838714764960039],[101.81136607666792,2.838714764960039]],[[101.81084786827736,2.8402843668714417],[101.8103296598868,2.8402843668714417],[101.8103296598868,2.839891966198982],[101.81084786827736,2.839891966198982],[101.81084786827736,2.8402843668714417]]]]},"properties":{"place_id":"f83691fe-3fa4-5593-880e-17f9b691dc69","habitat":"disturbed_built_edge","habitat_label":"Disturbed, bare or built edge","resolution_m":50}},{"type":"Feature","geometry":{"type":"Polygon","coordinates":[[[101.81136607666792,2.8406767676736724],[101.81136607666792,2.838714764960039],[101.81188428505848,2.838714764960039],[101.81188428505848,2.837929964782594],[101.81084786827736,2.837537564888373],[101.8103296598868,2.839891966198982],[101.81084786827736,2.839891966198982],[101.81084786827736,2.8406767676736724],[101.81136607666792,2.8406767676736724]]]},"properties":{"place_id":"f83691fe-3fa4-5593-880e-17f9b691dc69","habitat":"permanent_water","habitat_label":"Permanent water","resolution_m":50}},{"type":"Feature","geometry":{"type":"Polygon","coordinates":[[[101.81188428505848,2.838714764960039],[101.81188428505848,2.838322364806476],[101.81136607666792,2.838322364806476],[101.81136607666792,2.838714764960039],[101.81188428505848,2.838714764960039]]]},"properties":{"place_id":"f83691fe-3fa4-5593-880e-17f9b691dc69","habitat":"seasonal_water_wetland","habitat_label":"Seasonal water or wetland","resolution_m":50}},{"type":"Feature","geometry":{"type":"Polygon","coordinates":[[[101.80981145149624,2.8406767676736724],[101.81149399950174,2.84106916860569],[101.8123682605486,2.837537564888373],[101.81054300966731,2.8371451651237947],[101.80981145149624,2.8406767676736724]],[[101.81084786827736,2.839891966198982],[101.8103296598868,2.839891966198982],[101.8103296598868,2.838714764960039],[101.81084786827736,2.838714764960039],[101.81084786827736,2.837537564888373],[101.81136607666792,2.837537564888373],[101.81136607666792,2.837929964782594],[101.81188428505848,2.837929964782594],[101.81188428505848,2.838714764960039],[101.81136607666792,2.838714764960039],[101.81136607666792,2.8406767676736724],[101.81084786827736,2.8406767676736724],[101.81084786827736,2.839891966198982]]]},"properties":{"place_id":"f83691fe-3fa4-5593-880e-17f9b691dc69","habitat":"water_edge","habitat_label":"Water edge","resolution_m":50}}]}