{"type":"FeatureCollection","metadata":{"schema_version":1,"place_id":"f8a8beda-c159-5d51-b232-f1f15ebde22c","place_name":"EcoWorld Gallery @ Eco Sanctuary","place_type":"park","osm_reference":"way/628260885","protection_context":"no protected status confirmed from included OSM tags","resolution_m":50,"raster_coverage":1.0,"interpretation":"Suggested search habitats, not predicted plant locations or probabilities of presence."},"features":[{"type":"Feature","geometry":{"type":"Polygon","coordinates":[[[101.5418977135764,2.945844918907262],[101.54086129679527,2.945844918907262],[101.54086129679527,2.9458740865099657],[101.54151369999998,2.9463654967375534],[101.5418977135764,2.945844918907262]]]},"properties":{"place_id":"f8a8beda-c159-5d51-b232-f1f15ebde22c","habitat":"forest_edge_opening","habitat_label":"Forest edge or opening","resolution_m":50}},{"type":"Feature","geometry":{"type":"Polygon","coordinates":[[[101.54086129679527,2.945452482676076],[101.5404878,2.9455980967383932],[101.54086129679527,2.9458740865099657],[101.54086129679527,2.945452482676076]]]},"properties":{"place_id":"f8a8beda-c159-5d51-b232-f1f15ebde22c","habitat":"open_grassland","habitat_label":"Open grassland or shrubland","resolution_m":50}},{"type":"Feature","geometry":{"type":"Polygon","coordinates":[[[101.54048909999999,2.9456529967383207],[101.54141979999999,2.9463547967375705],[101.5418852,2.9461605967377857],[101.5410054,2.9449846967390356],[101.54048909999999,2.9456529967383207]]]},"properties":{"place_id":"f8a8beda-c159-5d51-b232-f1f15ebde22c","habitat":"disturbed_built_edge","habitat_label":"Disturbed, bare or built edge","resolution_m":50}},{"type":"Feature","geometry":{"type":"Polygon","coordinates":[[[101.54137950518583,2.9462373552730745],[101.54151369999998,2.9463654967375534],[101.54176710106472,2.9462373552730745],[101.54137950518583,2.9462373552730745]]]},"properties":{"place_id":"f8a8beda-c159-5d51-b232-f1f15ebde22c","habitat":"water_edge","habitat_label":"Water edge","resolution_m":50}}]}