{"type":"FeatureCollection","metadata":{"schema_version":1,"place_id":"f8d4d8bc-3aaf-537f-91f4-0386c22baf65","place_name":"The Island @ Cybersouth","place_type":"wood","osm_reference":"way/793261739","protection_context":"no protected status confirmed from included OSM tags","resolution_m":50,"raster_coverage":1.0,"interpretation":"Suggested search habitats, not predicted plant locations or probabilities of presence."},"features":[{"type":"Feature","geometry":{"type":"Polygon","coordinates":[[[101.65954959999999,2.876103396813871],[101.66037579999998,2.8769337968129673],[101.66062789999998,2.8764890968134518],[101.66042939999998,2.875921196814098],[101.65954959999999,2.876103396813871]]]},"properties":{"place_id":"f8d4d8bc-3aaf-537f-91f4-0386c22baf65","habitat":"forest_edge_opening","habitat_label":"Forest edge or opening","resolution_m":50}},{"type":"Feature","geometry":{"type":"MultiPolygon","coordinates":[[[[101.65953101823365,2.876190227495318],[101.6595175,2.87625339681374],[101.65953101823365,2.8762732786258667],[101.65953101823365,2.876190227495318]]],[[[101.66056743501478,2.8759933735478462],[101.66056743501478,2.8766188793820304],[101.66071909999998,2.876044396813937],[101.66042939999998,2.875921196814098],[101.6601075,2.8758890968141246],[101.65964552445043,2.8759933735478462],[101.66056743501478,2.8759933735478462]]],[[[101.65960751548896,2.8763857862346702],[101.6599573,2.876842696813091],[101.66037579999998,2.8769337968129673],[101.66004922662422,2.8763857862346702],[101.65960751548896,2.8763857862346702]]]]},"properties":{"place_id":"f8d4d8bc-3aaf-537f-91f4-0386c22baf65","habitat":"permanent_water","habitat_label":"Permanent water","resolution_m":50}},{"type":"Feature","geometry":{"type":"Polygon","coordinates":[[[101.6601075,2.8758890968141246],[101.66056743501478,2.8759933735478462],[101.66056743501478,2.8759798986205625],[101.6601075,2.8758890968141246]]]},"properties":{"place_id":"f8d4d8bc-3aaf-537f-91f4-0386c22baf65","habitat":"seasonal_water_wetland","habitat_label":"Seasonal water or wetland","resolution_m":50}},{"type":"Feature","geometry":{"type":"Polygon","coordinates":[[[101.66004922662422,2.8763857862346702],[101.66004922662422,2.876778199052924],[101.66049320886515,2.876778199052924],[101.66056743501478,2.8759933735478462],[101.65962469999998,2.876001596813997],[101.65960751548896,2.8763857862346702],[101.66004922662422,2.8763857862346702]]]},"properties":{"place_id":"f8d4d8bc-3aaf-537f-91f4-0386c22baf65","habitat":"water_edge","habitat_label":"Water edge","resolution_m":50}}]}