{"type":"FeatureCollection","metadata":{"schema_version":1,"place_id":"f8eca2d1-1301-5c35-b75d-9915bb799c29","place_name":"Dataran Bandar Sibu","place_type":"park","osm_reference":"way/402322742","protection_context":"no protected status confirmed from included OSM tags","resolution_m":50,"raster_coverage":1.0,"interpretation":"Suggested search habitats, not predicted plant locations or probabilities of presence."},"features":[{"type":"Feature","geometry":{"type":"Polygon","coordinates":[[[111.82470680747119,2.2902304895111043],[111.82475419793082,2.290257791084167],[111.8247311,2.290224197454278],[111.82470680747119,2.2902304895111043]]]},"properties":{"place_id":"f8eca2d1-1301-5c35-b75d-9915bb799c29","habitat":"forest_edge_opening","habitat_label":"Forest edge or opening","resolution_m":50}},{"type":"Feature","geometry":{"type":"Polygon","coordinates":[[[111.82367039069005,2.2909094874996487],[111.82418859908063,2.2918267379680914],[111.82522501586173,2.2914345010902686],[111.82470680747119,2.2910422643170176],[111.82470680747119,2.290257791084167],[111.82367039069005,2.2909094874996487]]]},"properties":{"place_id":"f8eca2d1-1301-5c35-b75d-9915bb799c29","habitat":"open_grassland","habitat_label":"Open grassland or shrubland","resolution_m":50}},{"type":"Feature","geometry":{"type":"Polygon","coordinates":[[[111.823612,2.290956297453484],[111.82400989999998,2.291872697452494],[111.82536199999998,2.2915721974527923],[111.8247311,2.290224197454278],[111.823612,2.290956297453484]],[[111.82418859908063,2.2910422643170176],[111.82470680747119,2.2910422643170176],[111.82470680747119,2.2914345010902686],[111.82418859908063,2.2914345010902686],[111.82418859908063,2.2910422643170176]]]},"properties":{"place_id":"f8eca2d1-1301-5c35-b75d-9915bb799c29","habitat":"disturbed_built_edge","habitat_label":"Disturbed, bare or built edge","resolution_m":50}}]}