{"type":"FeatureCollection","metadata":{"schema_version":1,"place_id":"f9939d08-9919-5449-b230-d3a03d865f5c","place_name":"Serenia City Serenity Park","place_type":"park","osm_reference":"way/1064117519","protection_context":"no protected status confirmed from included OSM tags","resolution_m":50,"raster_coverage":1.0,"interpretation":"Suggested search habitats, not predicted plant locations or probabilities of presence."},"features":[{"type":"Feature","geometry":{"type":"Polygon","coordinates":[[[101.70575316148648,2.847347601183843],[101.7061697733841,2.8461703925408233],[101.70565156499356,2.8461703925408233],[101.70513335660299,2.846955198172766],[101.70565156499356,2.846955198172766],[101.70575316148648,2.847347601183843]]]},"properties":{"place_id":"f9939d08-9919-5449-b230-d3a03d865f5c","habitat":"forest_edge_opening","habitat_label":"Forest edge or opening","resolution_m":50}},{"type":"Feature","geometry":{"type":"MultiPolygon","coordinates":[[[[101.7061697733841,2.8466352970542808],[101.7062751,2.8458729968467535],[101.705718,2.845397296847279],[101.70485229999998,2.8452259968474474],[101.70468467720377,2.846562795291766],[101.70565156499356,2.8461703925408233],[101.70565156499356,2.846562795291766],[101.7061697733841,2.8466352970542808]],[[101.70565156499356,2.8457779899199225],[101.70513335660299,2.8457779899199225],[101.70513335660299,2.845385587429044],[101.70565156499356,2.845385587429044],[101.70565156499356,2.8457779899199225]]],[[[101.70565156499356,2.846562795291766],[101.7050563,2.847127196845414],[101.70514400000002,2.848882396843475],[101.70556265313321,2.8477400043250136],[101.70513335660299,2.8477400043250136],[101.70513335660299,2.847347601183843],[101.70575316148648,2.847347601183843],[101.70596668374883,2.846955198172766],[101.70565156499356,2.846562795291766]]]]},"properties":{"place_id":"f9939d08-9919-5449-b230-d3a03d865f5c","habitat":"open_grassland","habitat_label":"Open grassland or shrubland","resolution_m":50}},{"type":"Feature","geometry":{"type":"MultiPolygon","coordinates":[[[[101.7061697733841,2.8461703925408233],[101.7062751,2.8458729968467535],[101.7061697733841,2.8457779899199225],[101.7061697733841,2.8461703925408233]]],[[[101.70514400000002,2.848882396843475],[101.70596668374883,2.846955198172766],[101.70565156499356,2.846562795291766],[101.7061697733841,2.846562795291766],[101.70565156499356,2.8457779899199225],[101.7061697733841,2.8457743561978632],[101.70485229999998,2.8452259968474474],[101.70466909999999,2.8469253968455934],[101.7050563,2.847127196845414],[101.70514400000002,2.848882396843475]]]]},"properties":{"place_id":"f9939d08-9919-5449-b230-d3a03d865f5c","habitat":"disturbed_built_edge","habitat_label":"Disturbed, bare or built edge","resolution_m":50}},{"type":"Feature","geometry":{"type":"Polygon","coordinates":[[[101.70565156499356,2.846562795291766],[101.70565156499356,2.8461703925408233],[101.70513335660299,2.8461703925408233],[101.70513335660299,2.846562795291766],[101.70565156499356,2.846562795291766]]]},"properties":{"place_id":"f9939d08-9919-5449-b230-d3a03d865f5c","habitat":"seasonal_water_wetland","habitat_label":"Seasonal water or wetland","resolution_m":50}},{"type":"Feature","geometry":{"type":"MultiPolygon","coordinates":[[[[101.70565156499356,2.847347601183843],[101.70637431188307,2.8461703925408233],[101.70565156499356,2.845385587429044],[101.70513335660299,2.845385587429044],[101.70466909999999,2.8469253968455934],[101.70513335660299,2.846955198172766],[101.70513335660299,2.847347601183843],[101.70565156499356,2.847347601183843]],[[101.70565156499356,2.8461703925408233],[101.70565156499356,2.846562795291766],[101.70513335660299,2.846562795291766],[101.70513335660299,2.8461703925408233],[101.70565156499356,2.8461703925408233]]],[[[101.70531032582478,2.8485248109977124],[101.70513335660299,2.848871676875068],[101.70514400000002,2.848882396843475],[101.70531032582478,2.8485248109977124]]]]},"properties":{"place_id":"f9939d08-9919-5449-b230-d3a03d865f5c","habitat":"water_edge","habitat_label":"Water edge","resolution_m":50}}]}