{"type":"FeatureCollection","metadata":{"schema_version":1,"place_id":"f9bc2970-b816-52a1-802b-305e0a0d3b7b","place_name":"Pusat Rekreasi dan Campsite Jeriau","place_type":"park","osm_reference":"way/1545064160","protection_context":"mapped protected boundary","resolution_m":50,"raster_coverage":1.0,"interpretation":"Suggested search habitats, not predicted plant locations or probabilities of presence."},"features":[{"type":"Feature","geometry":{"type":"Polygon","coordinates":[[[101.71246469999998,3.728169495895987],[101.71341989999999,3.7273485958968555],[101.71403889999999,3.7250893958992783],[101.71518299999998,3.7250961958992517],[101.71518099999999,3.724747695899636],[101.7132651,3.724777295899611],[101.71247589999999,3.7272515958969716],[101.7105025,3.7272278958970047],[101.71049129999999,3.728145795896008],[101.71246469999998,3.728169495895987]]]},"properties":{"place_id":"f9bc2970-b816-52a1-802b-305e0a0d3b7b","habitat":"forest_interior","habitat_label":"Forest interior","resolution_m":50}}]}