{"type":"FeatureCollection","metadata":{"schema_version":1,"place_id":"fae24bc0-fe78-5f40-8907-f61cc0ce2669","place_name":"UNM Arboretum","place_type":"park","osm_reference":"way/233261448","protection_context":"no protected status confirmed from included OSM tags","resolution_m":50,"raster_coverage":1.0,"interpretation":"Suggested search habitats, not predicted plant locations or probabilities of presence."},"features":[{"type":"Feature","geometry":{"type":"Polygon","coordinates":[[[101.87447380000002,2.942377396741878],[101.8754173,2.942006296742268],[101.87416499999999,2.942264496742024],[101.8736184,2.9428174967414047],[101.8739644,2.944023296740068],[101.87476489999999,2.9429334967412606],[101.87447380000002,2.942377396741878]]]},"properties":{"place_id":"fae24bc0-fe78-5f40-8907-f61cc0ce2669","habitat":"forest_edge_opening","habitat_label":"Forest edge or opening","resolution_m":50}},{"type":"Feature","geometry":{"type":"Polygon","coordinates":[[[101.87359639999998,2.9433161967408705],[101.8739644,2.944023296740068],[101.87476489999999,2.9429334967412606],[101.87447380000002,2.942377396741878],[101.8754173,2.942006296742268],[101.87416499999999,2.942264496742024],[101.87359639999998,2.9433161967408705]]]},"properties":{"place_id":"fae24bc0-fe78-5f40-8907-f61cc0ce2669","habitat":"disturbed_built_edge","habitat_label":"Disturbed, bare or built edge","resolution_m":50}},{"type":"Feature","geometry":{"type":"MultiPolygon","coordinates":[[[[101.87458750031632,2.9427054328257887],[101.87458750031632,2.9430611397563564],[101.87476489999999,2.9429334967412606],[101.87458750031632,2.9427054328257887]]],[[[101.87406929192576,2.9434903035389057],[101.87363508488775,2.9434903035389057],[101.8739644,2.944023296740068],[101.87453645483804,2.943097868115098],[101.87406929192576,2.943097868115098],[101.87406929192576,2.9434903035389057]]]]},"properties":{"place_id":"fae24bc0-fe78-5f40-8907-f61cc0ce2669","habitat":"water_edge","habitat_label":"Water edge","resolution_m":50}}]}