{"type":"FeatureCollection","metadata":{"schema_version":1,"place_id":"fae4b71e-3a7b-5981-87e1-225a462a3616","place_name":"Taman Poket Jalan Cengai","place_type":"park","osm_reference":"way/988528798","protection_context":"no protected status confirmed from included OSM tags","resolution_m":50,"raster_coverage":1.0,"interpretation":"Suggested search habitats, not predicted plant locations or probabilities of presence."},"features":[{"type":"Feature","geometry":{"type":"Polygon","coordinates":[[[100.30170429999998,5.4606609940953925],[100.3020568,5.460842394095218],[100.3020356,5.460608094095446],[100.30170429999998,5.4606609940953925]]]},"properties":{"place_id":"fae4b71e-3a7b-5981-87e1-225a462a3616","habitat":"forest_edge_opening","habitat_label":"Forest edge or opening","resolution_m":50}},{"type":"Feature","geometry":{"type":"Polygon","coordinates":[[[100.30182503496478,5.460637644408188],[100.30170429999998,5.4606609940953925],[100.30182503496478,5.46082228480526],[100.30182503496478,5.460637644408188]]]},"properties":{"place_id":"fae4b71e-3a7b-5981-87e1-225a462a3616","habitat":"open_grassland","habitat_label":"Open grassland or shrubland","resolution_m":50}},{"type":"Feature","geometry":{"type":"Polygon","coordinates":[[[100.30182503496478,5.460637644408188],[100.3020423,5.4608628940952215],[100.3020356,5.460608094095446],[100.30182503496478,5.460637644408188]]]},"properties":{"place_id":"fae4b71e-3a7b-5981-87e1-225a462a3616","habitat":"disturbed_built_edge","habitat_label":"Disturbed, bare or built edge","resolution_m":50}}]}