{"type":"FeatureCollection","metadata":{"schema_version":1,"place_id":"fbf5046e-6c7b-5ac7-a193-a1b027385a57","place_name":"Taman Merdeka · OSM way/1147640364","place_type":"park","osm_reference":"way/1147640364","protection_context":"no protected status confirmed from included OSM tags","resolution_m":50,"raster_coverage":1.0,"interpretation":"Suggested search habitats, not predicted plant locations or probabilities of presence."},"features":[{"type":"Feature","geometry":{"type":"Polygon","coordinates":[[[103.3193529,2.0328470977375566],[103.31935249319939,2.032187939636884],[103.31883428480883,2.032187939636884],[103.31872209999999,2.032710997737704],[103.3193529,2.0328470977375566]]]},"properties":{"place_id":"fbf5046e-6c7b-5ac7-a193-a1b027385a57","habitat":"forest_edge_opening","habitat_label":"Forest edge or opening","resolution_m":50}},{"type":"Feature","geometry":{"type":"Polygon","coordinates":[[[103.31883428480883,2.032580111310846],[103.31935249319939,2.032580111310846],[103.3195675,2.0318949977386165],[103.31891355651834,2.031795768055621],[103.31883428480883,2.032580111310846]]]},"properties":{"place_id":"fbf5046e-6c7b-5ac7-a193-a1b027385a57","habitat":"open_grassland","habitat_label":"Open grassland or shrubland","resolution_m":50}},{"type":"Feature","geometry":{"type":"Polygon","coordinates":[[[103.3193529,2.0328470977375566],[103.3195675,2.0318949977386165],[103.3189206,2.0317620977387514],[103.31872209999999,2.032710997737704],[103.3193529,2.0328470977375566]]]},"properties":{"place_id":"fbf5046e-6c7b-5ac7-a193-a1b027385a57","habitat":"disturbed_built_edge","habitat_label":"Disturbed, bare or built edge","resolution_m":50}}]}