{"type":"FeatureCollection","metadata":{"schema_version":1,"place_id":"fc81767e-c4b9-547f-bcfd-b10fc02c4701","place_name":"Parking Kereta","place_type":"park","osm_reference":"way/1408776336","protection_context":"no protected status confirmed from included OSM tags","resolution_m":50,"raster_coverage":1.0,"interpretation":"Suggested search habitats, not predicted plant locations or probabilities of presence."},"features":[{"type":"Feature","geometry":{"type":"Polygon","coordinates":[[[101.52133009999999,3.043021996632701],[101.5218451,3.0428579966328813],[101.52149319999998,3.0427512966330212],[101.52133009999999,3.043021996632701]]]},"properties":{"place_id":"fc81767e-c4b9-547f-bcfd-b10fc02c4701","habitat":"forest_edge_opening","habitat_label":"Forest edge or opening","resolution_m":50}},{"type":"Feature","geometry":{"type":"Polygon","coordinates":[[[101.52133009999999,3.043021996632701],[101.5218451,3.0428579966328813],[101.52149319999998,3.0427512966330212],[101.52133009999999,3.043021996632701]]]},"properties":{"place_id":"fc81767e-c4b9-547f-bcfd-b10fc02c4701","habitat":"disturbed_built_edge","habitat_label":"Disturbed, bare or built edge","resolution_m":50}}]}