{"type":"FeatureCollection","metadata":{"schema_version":1,"place_id":"fcec57fa-6bff-5db1-91be-db4c06521d50","place_name":"Puncak Vista UUM","place_type":"park","osm_reference":"way/354249806","protection_context":"no protected status confirmed from included OSM tags","resolution_m":50,"raster_coverage":1.0,"interpretation":"Suggested search habitats, not predicted plant locations or probabilities of presence."},"features":[{"type":"Feature","geometry":{"type":"Polygon","coordinates":[[[100.497957,6.465395693102603],[100.498413,6.464625493103329],[100.49757930000001,6.464586693103362],[100.497957,6.465395693102603]]]},"properties":{"place_id":"fcec57fa-6bff-5db1-91be-db4c06521d50","habitat":"forest_interior","habitat_label":"Forest interior","resolution_m":50}},{"type":"Feature","geometry":{"type":"Polygon","coordinates":[[[100.49822601498725,6.464930025140327],[100.49822601498725,6.464950608964959],[100.49823785343023,6.464930025140327],[100.49822601498725,6.464930025140327]]]},"properties":{"place_id":"fcec57fa-6bff-5db1-91be-db4c06521d50","habitat":"forest_edge_opening","habitat_label":"Forest edge or opening","resolution_m":50}},{"type":"Feature","geometry":{"type":"Polygon","coordinates":[[[100.49822601498725,6.464930025140327],[100.49822601498725,6.464950608964959],[100.49823785343023,6.464930025140327],[100.49822601498725,6.464930025140327]]]},"properties":{"place_id":"fcec57fa-6bff-5db1-91be-db4c06521d50","habitat":"disturbed_built_edge","habitat_label":"Disturbed, bare or built edge","resolution_m":50}}]}