{"type":"FeatureCollection","metadata":{"schema_version":1,"place_id":"fd05eac4-f317-51dc-945f-0554be8cd2d9","place_name":"Taman Seri Empangan · OSM way/544674365","place_type":"park","osm_reference":"way/544674365","protection_context":"no protected status confirmed from included OSM tags","resolution_m":50,"raster_coverage":1.0,"interpretation":"Suggested search habitats, not predicted plant locations or probabilities of presence."},"features":[{"type":"Feature","geometry":{"type":"Polygon","coordinates":[[[101.67819639999999,2.8991033967888744],[101.6786176,2.899313396788658],[101.6785362,2.899046896788937],[101.67819639999999,2.8991033967888744]]]},"properties":{"place_id":"fd05eac4-f317-51dc-945f-0554be8cd2d9","habitat":"forest_edge_opening","habitat_label":"Forest edge or opening","resolution_m":50}},{"type":"Feature","geometry":{"type":"Polygon","coordinates":[[[101.67818652029383,2.899145947534399],[101.67856645415111,2.899145947534399],[101.6785362,2.899046896788937],[101.67818652029383,2.899145947534399]]]},"properties":{"place_id":"fd05eac4-f317-51dc-945f-0554be8cd2d9","habitat":"open_grassland","habitat_label":"Open grassland or shrubland","resolution_m":50}},{"type":"Feature","geometry":{"type":"Polygon","coordinates":[[[101.67819639999999,2.8991033967888744],[101.6786176,2.899313396788658],[101.6785362,2.899046896788937],[101.67819639999999,2.8991033967888744]]]},"properties":{"place_id":"fd05eac4-f317-51dc-945f-0554be8cd2d9","habitat":"disturbed_built_edge","habitat_label":"Disturbed, bare or built edge","resolution_m":50}},{"type":"Feature","geometry":{"type":"Polygon","coordinates":[[[101.67818652029383,2.899145947534399],[101.67812009999999,2.8993290967886365],[101.67818652029383,2.899346805862724],[101.67818652029383,2.899145947534399]]]},"properties":{"place_id":"fd05eac4-f317-51dc-945f-0554be8cd2d9","habitat":"permanent_water","habitat_label":"Permanent water","resolution_m":50}},{"type":"Feature","geometry":{"type":"Polygon","coordinates":[[[101.6785362,2.899046896788937],[101.67818652029383,2.899346805862724],[101.6786176,2.899313396788658],[101.6785362,2.899046896788937]]]},"properties":{"place_id":"fd05eac4-f317-51dc-945f-0554be8cd2d9","habitat":"water_edge","habitat_label":"Water edge","resolution_m":50}}]}