{"type":"FeatureCollection","metadata":{"schema_version":1,"place_id":"fd590396-06f0-5648-a7b0-b2ef74b17dd8","place_name":"Irama Wanga Hillpark","place_type":"forest","osm_reference":"way/1304701144","protection_context":"no protected status confirmed from included OSM tags","resolution_m":50,"raster_coverage":1.0,"interpretation":"Suggested search habitats, not predicted plant locations or probabilities of presence."},"features":[{"type":"Feature","geometry":{"type":"Polygon","coordinates":[[[101.7380263,3.1895235964742117],[101.73901509999999,3.1896514964740867],[101.7387028,3.1884712964753286],[101.7377072,3.1889918964747705],[101.7380263,3.1895235964742117]]]},"properties":{"place_id":"fd590396-06f0-5648-a7b0-b2ef74b17dd8","habitat":"forest_edge_opening","habitat_label":"Forest edge or opening","resolution_m":50}},{"type":"Feature","geometry":{"type":"Polygon","coordinates":[[[101.7380263,3.1895235964742117],[101.73901509999999,3.1896514964740867],[101.7387028,3.1884712964753286],[101.7377072,3.1889918964747705],[101.7380263,3.1895235964742117]]]},"properties":{"place_id":"fd590396-06f0-5648-a7b0-b2ef74b17dd8","habitat":"disturbed_built_edge","habitat_label":"Disturbed, bare or built edge","resolution_m":50}},{"type":"Feature","geometry":{"type":"MultiPolygon","coordinates":[[[[101.73782130086963,3.1891820168837284],[101.7380263,3.1895235964742117],[101.73829869359888,3.189518791215885],[101.73829869359888,3.1891820168837284],[101.73782130086963,3.1891820168837284]]],[[[101.73881690198942,3.1895745401969937],[101.73852784632689,3.1895745401969937],[101.73875669999998,3.189682896474048],[101.73881690198942,3.1895745401969937]]]]},"properties":{"place_id":"fd590396-06f0-5648-a7b0-b2ef74b17dd8","habitat":"water_edge","habitat_label":"Water edge","resolution_m":50}}]}