{"type":"FeatureCollection","metadata":{"schema_version":1,"place_id":"fece505e-0e03-5974-ac1e-6b52a8719995","place_name":"Kolam Takungan Taman Bukit Kempas","place_type":"park","osm_reference":"way/1370241681","protection_context":"no protected status confirmed from included OSM tags","resolution_m":50,"raster_coverage":1.0,"interpretation":"Suggested search habitats, not predicted plant locations or probabilities of presence."},"features":[{"type":"Feature","geometry":{"type":"Polygon","coordinates":[[[102.06649529999999,2.9818568966990484],[102.06632460482376,2.982918900304186],[102.06645499999999,2.983016696697762],[102.0669244,2.9824018966984394],[102.06649529999999,2.9818568966990484]]]},"properties":{"place_id":"fece505e-0e03-5974-ac1e-6b52a8719995","habitat":"forest_edge_opening","habitat_label":"Forest edge or opening","resolution_m":50}},{"type":"Feature","geometry":{"type":"Polygon","coordinates":[[[102.06684281321432,2.9823420792795368],[102.06632460482376,2.9823420792795368],[102.06632460482376,2.9827345282445314],[102.0666879444641,2.9827345282445314],[102.06684281321432,2.9823420792795368]]]},"properties":{"place_id":"fece505e-0e03-5974-ac1e-6b52a8719995","habitat":"open_grassland","habitat_label":"Open grassland or shrubland","resolution_m":50}},{"type":"Feature","geometry":{"type":"Polygon","coordinates":[[[102.0659702,2.9826530966981464],[102.06649119999997,2.9830112966977533],[102.0669244,2.9824018966984394],[102.06649529999999,2.9818568966990484],[102.0659702,2.9826530966981464]]]},"properties":{"place_id":"fece505e-0e03-5974-ac1e-6b52a8719995","habitat":"disturbed_built_edge","habitat_label":"Disturbed, bare or built edge","resolution_m":50}}]}