{"type":"FeatureCollection","metadata":{"schema_version":1,"place_id":"fedbe062-2201-5c80-8881-631d8a89c268","place_name":"Pulau Gawi","place_type":"wood","osm_reference":"way/257191447","protection_context":"no protected status confirmed from included OSM tags","resolution_m":50,"raster_coverage":1.0,"interpretation":"Suggested search habitats, not predicted plant locations or probabilities of presence."},"features":[{"type":"Feature","geometry":{"type":"MultiPolygon","coordinates":[[[[102.80891722849717,5.1056037438746955],[102.80891722849717,5.105997195080568],[102.80943543688772,5.105997195080568],[102.80943543688772,5.1056037438746955],[102.80891722849717,5.1056037438746955]]],[[[102.79440739356147,5.10796445463536],[102.79405909160667,5.10796445463536],[102.79440739356147,5.108354440496907],[102.79440739356147,5.10796445463536]]],[[[102.79440739356147,5.10796445463536],[102.79621839999999,5.1075120944540675],[102.79562366779405,5.10796445463536],[102.79699843551427,5.108357907251533],[102.79751664390481,5.108751360102824],[102.79751664390481,5.10953826651082],[102.79803485229537,5.10953826651082],[102.7977821,5.110624394450866],[102.79699843551427,5.110759283631557],[102.79699843551427,5.112685901551103],[102.79648022712371,5.113079356989878],[102.79492560195202,5.113079356989878],[102.79492560195202,5.11347281266399],[102.79699843551427,5.11465318109853],[102.79699843551427,5.115440094565247],[102.79751664390481,5.115440094565247],[102.79751664390481,5.117013924324205],[102.79855306068595,5.117013924324205],[102.79958947746707,5.118194299116337],[102.80010768585763,5.118194299116337],[102.80010768585763,5.117800840616739],[102.80166231102932,5.117800840616739],[102.80166231102932,5.118194299116337],[102.80373514459156,5.118587757851511],[102.80373514459156,5.117025166180732],[102.80321693620098,5.116227008973755],[102.80269872781042,5.116227008973755],[102.80269674811144,5.11465318109853],[102.80166231102932,5.114259724718297],[102.80166231102932,5.113179860078408],[102.80114410263874,5.113079356989878],[102.80114410263874,5.111898991379491],[102.80166231102932,5.111898991379491],[102.80166231102932,5.111505536646618],[102.80218051941986,5.111505536646618],[102.80269872781042,5.112292446347649],[102.80321693620098,5.112292446347649],[102.80321693620098,5.111898991379491],[102.80425335298212,5.111898991379491],[102.80477156137266,5.112292446347649],[102.8053419,5.114189594447221],[102.80425335298212,5.114414547361754],[102.80477156137266,5.115440094565247],[102.8058079781538,5.115440094565247],[102.8058079781538,5.115833551651769],[102.80632618654435,5.115833551651769],[102.80632618654435,5.115440094565247],[102.80736260332547,5.115046637714174],[102.80788081171603,5.115833551651769],[102.80891722849717,5.115833551651769],[102.80831061150315,5.11465318109853],[102.80788081171603,5.11465318109853],[102.80839902010659,5.113848595427549],[102.80839902010659,5.108357907251533],[102.80995364527827,5.107571002254282],[102.80995364527827,5.106082706698134],[102.80943543688772,5.105997195080568],[102.80943543688772,5.107177550108283],[102.80891722849717,5.107571002254282],[102.8066522,5.107578894453959],[102.80684439493491,5.1066054624990596],[102.80632618654435,5.105997195080568],[102.8058079781538,5.105997195080568],[102.8058079781538,5.105210292903808],[102.80477156137266,5.105210292903808],[102.80477156137266,5.104816842167889],[102.80373514459156,5.104816842167889],[102.80350181206397,5.10442339166692],[102.80166231102932,5.10442339166692],[102.80166231102932,5.104771787927287],[102.80321693620098,5.1056037438746955],[102.80321693620098,5.106390646521444],[102.8016378,5.107443894454136],[102.80191492367094,5.106784098197344],[102.80114410263874,5.106390646521444],[102.80062589424818,5.105210292903808],[102.7989221,5.1054722944561375],[102.79869780987406,5.104816842167889],[102.79803485229537,5.104816842167889],[102.79699843551427,5.103640411438149],[102.79492560195202,5.103243041573511],[102.79492560195202,5.103636491369748],[102.79596201873314,5.104029941400876],[102.79596201873314,5.105434247822424],[102.7970928,5.105710094455883],[102.79440739356147,5.105997195080568],[102.79440739356147,5.10796445463536]]]]},"properties":{"place_id":"fedbe062-2201-5c80-8881-631d8a89c268","habitat":"forest_interior","habitat_label":"Forest interior","resolution_m":50}},{"type":"Feature","geometry":{"type":"MultiPolygon","coordinates":[[[[102.79544381034258,5.103636491369748],[102.79492560195202,5.103636491369748],[102.79492560195202,5.103243041573511],[102.79577579999999,5.1032334944584425],[102.79469089999999,5.1031974944584455],[102.7948759,5.103973594457661],[102.79544381034258,5.103636491369748]]],[[[102.79596201873314,5.103636491369748],[102.79607789352387,5.103636491369748],[102.79596201873314,5.10340858112008],[102.79596201873314,5.103636491369748]]],[[[102.79698589921512,5.103636491369748],[102.7966087,5.103550094458112],[102.79634836510684,5.103636491369748],[102.79698589921512,5.103636491369748]]],[[[102.79699843551427,5.104029941400876],[102.79723923595498,5.104029941400876],[102.79699843551427,5.103640411438149],[102.79699843551427,5.104029941400876]]],[[[102.79771769999999,5.104141894457493],[102.79751664390481,5.10442339166692],[102.79783053697494,5.10442339166692],[102.79771769999999,5.104141894457493]]],[[[102.79803485229537,5.104816842167889],[102.79869780987406,5.104816842167889],[102.79818849999998,5.104562694457068],[102.79803485229537,5.104816842167889]]],[[[102.80218051941986,5.104816842167889],[102.80184992285122,5.104816842167889],[102.80218051941986,5.105138372992266],[102.80218051941986,5.104816842167889]]],[[[102.80062589424818,5.1056037438746955],[102.80071239999998,5.105274594456348],[102.80057429999997,5.105115694456486],[102.80043546661085,5.105210292903808],[102.80062589424818,5.1056037438746955]]],[[[102.80008116628014,5.105210292903808],[102.79960069999998,5.105048894456567],[102.79948682780245,5.105210292903808],[102.80008116628014,5.105210292903808]]],[[[102.79596201873314,5.10464421484041],[102.79528769999999,5.105060894456543],[102.79596201873314,5.105434247822424],[102.79596201873314,5.10464421484041]]],[[[102.79596201873314,5.104029941400876],[102.79562044124167,5.104029941400876],[102.79596201873314,5.104336164227898],[102.79596201873314,5.104029941400876]]],[[[102.79440739356147,5.10796445463536],[102.79455183091679,5.105997195080568],[102.79438639999998,5.1059504944556515],[102.79386739999998,5.106749294454846],[102.794251,5.107236894454319],[102.79383119999999,5.107288994454254],[102.79440739356147,5.10796445463536]]],[[[102.79544381034258,5.105997195080568],[102.7951401,5.1056646944559345],[102.79482049147094,5.105997195080568],[102.79544381034258,5.105997195080568]]],[[[102.80114410263874,5.106390646521444],[102.8011845,5.106212294455385],[102.80118919999997,5.105647294455954],[102.80114410263874,5.106390646521444]]],[[[102.79440739356147,5.10796445463536],[102.79477399999999,5.108464494453073],[102.79544381034258,5.107571002254282],[102.79492560195202,5.107571002254282],[102.79492560195202,5.10796445463536],[102.79440739356147,5.10796445463536]]],[[[102.7959207,5.108153194453402],[102.79562366779405,5.10796445463536],[102.79569669999998,5.1082026944533565],[102.7959207,5.108153194453402]]],[[[102.79699843551427,5.108357907251533],[102.79637257517184,5.108357907251533],[102.79662339999999,5.1085352944530005],[102.79699843551427,5.108357907251533]]],[[[102.79803485229537,5.110325173859498],[102.79803485229537,5.10953826651082],[102.79751664390481,5.10953826651082],[102.79751664390481,5.108751360102824],[102.79722358479916,5.108751360102824],[102.797133,5.109468994452061],[102.79803485229537,5.110325173859498]]],[[[102.79751664390481,5.110718627886639],[102.79751664390481,5.110704284203278],[102.79738151130655,5.110718627886639],[102.79751664390481,5.110718627886639]]],[[[102.79492560195202,5.113079356989878],[102.79648022712371,5.112858613885418],[102.7946091,5.112877894448575],[102.79493629999997,5.113796894447622],[102.79596201873314,5.114179163340301],[102.79492560195202,5.113079356989878]]],[[[102.79699843551427,5.112685901551103],[102.79699843551427,5.110759283631557],[102.7963069,5.11152209444994],[102.7964544,5.112418394449027],[102.79699843551427,5.112685901551103]]],[[[102.79770309588098,5.117800840616739],[102.79823539999998,5.117423494443939],[102.799834,5.11858959444272],[102.8011456,5.118064594443276],[102.80295339999998,5.1187498944425665],[102.80305,5.1192681944420215],[102.80432269999999,5.118638994442664],[102.804096,5.118247594443091],[102.80373514459156,5.118587757851511],[102.80269872781042,5.118587757851511],[102.80269872781042,5.118194299116337],[102.80166231102932,5.118194299116337],[102.80166231102932,5.117800840616739],[102.80010768585763,5.117800840616739],[102.80010768585763,5.118194299116337],[102.79958947746707,5.118194299116337],[102.79855306068595,5.117013924324205],[102.79751664390481,5.117013924324205],[102.79751664390481,5.115440094565247],[102.79699843551427,5.115440094565247],[102.79699843551427,5.11465318109853],[102.79607293519334,5.114259724718297],[102.7972484,5.116003594445354],[102.79709149999998,5.117387394443966],[102.79770309588098,5.117800840616739]]],[[[102.80373514459156,5.117867517992676],[102.8044501,5.117467594443886],[102.80417519999999,5.116620694444728],[102.80373514459156,5.117025166180732],[102.80373514459156,5.117867517992676]]],[[[102.80166231102932,5.10442339166692],[102.80350181206397,5.10442339166692],[102.8021514,5.103972194457682],[102.80115769999999,5.104501194457142],[102.80166231102932,5.104771787927287],[102.80166231102932,5.10442339166692]]],[[[102.80373514459156,5.104816842167889],[102.8058079781538,5.105210292903808],[102.8058079781538,5.105997195080568],[102.80670470305543,5.106390646521444],[102.805983,5.104972694456641],[102.80496779999999,5.105014194456597],[102.804383,5.10433889445728],[102.80373514459156,5.104816842167889]]],[[[102.80230569691447,5.105210292903808],[102.8025833,5.105376094456213],[102.80269872781042,5.105488725164237],[102.80269872781042,5.105210292903808],[102.80230569691447,5.105210292903808]]],[[[102.80321693620098,5.106390646521444],[102.80321693620098,5.1056037438746955],[102.80279464829435,5.1056037438746955],[102.80279650000001,5.106327194455253],[102.80321693620098,5.106390646521444]]],[[[102.80269872781042,5.106784098197344],[102.80255509999999,5.106502194455088],[102.80235209781709,5.106784098197344],[102.80269872781042,5.106784098197344]]],[[[102.80166231102932,5.106784098197344],[102.8019778,5.106688594454895],[102.80181749999998,5.106407394455168],[102.80166231102932,5.106401314106343],[102.80166231102932,5.106784098197344]]],[[[102.80684439493491,5.107177550108283],[102.8070827,5.1068628944547125],[102.80684439493491,5.1066054624990596],[102.80684439493491,5.107177550108283]]],[[[102.80736260332547,5.107571002254282],[102.80891722849717,5.107571002254282],[102.80891722849717,5.107312334916596],[102.80759359999999,5.107162094454414],[102.80736260332547,5.107571002254282]]],[[[102.80891722849717,5.108357907251533],[102.80839902010659,5.108357907251533],[102.80839902010659,5.112632611750087],[102.80896429999999,5.110120794451401],[102.80872549999997,5.108953394452597],[102.8093091082725,5.10796445463536],[102.80891722849717,5.10796445463536],[102.80891722849717,5.108357907251533]]],[[[102.80839902010659,5.113848595427549],[102.80883549999999,5.11339079444804],[102.80839902010659,5.112957296483968],[102.80839902010659,5.113848595427549]]],[[[102.80943543688772,5.107177550108283],[102.8096214,5.105643294455974],[102.80878719999998,5.1050528944565645],[102.80861419999998,5.10563659445596],[102.80943543688772,5.107177550108283]],[[102.80891722849717,5.105997195080568],[102.80891722849717,5.1056037438746955],[102.80943543688772,5.1056037438746955],[102.80943543688772,5.105997195080568],[102.80891722849717,5.105997195080568]]],[[[102.80995364527827,5.107571002254282],[102.80943543688772,5.107571002254282],[102.80943543688772,5.1079548347736345],[102.8103241,5.107791194453754],[102.8101538,5.105971894455609],[102.80995364527827,5.107571002254282]]],[[[102.80477156137266,5.112951058369498],[102.804548,5.11284179444861],[102.8045668,5.112920594448508],[102.80477156137266,5.112951058369498]]],[[[102.80477156137266,5.112292446347649],[102.80433315393721,5.112292446347649],[102.80457079999996,5.11251989444891],[102.80477156137266,5.112292446347649]]],[[[102.80324216553429,5.113866268573457],[102.803231,5.112316794449132],[102.80425335298212,5.112215672595602],[102.80425335298212,5.111898991379491],[102.80321693620098,5.111898991379491],[102.80321693620098,5.112292446347649],[102.80269872781042,5.112292446347649],[102.80269872781042,5.111898991379491],[102.80166231102932,5.111505536646618],[102.80166231102932,5.111898991379491],[102.80114410263874,5.111898991379491],[102.80114410263874,5.113079356989878],[102.80169679999999,5.112949994448488],[102.80121000000001,5.112567994448902],[102.8016378,5.112084394449397],[102.80248939999998,5.112071094449395],[102.80285949999998,5.11378219444766],[102.80324216553429,5.113866268573457]]],[[[102.80166231102932,5.114259724718297],[102.80269674811144,5.11465318109853],[102.80170750000002,5.113907694447521],[102.80216489999998,5.113496294447916],[102.80166231102932,5.113179860078408],[102.80166231102932,5.114259724718297]]],[[[102.80528976976323,5.113079356989878],[102.80478269999999,5.113226494448226],[102.80509091582425,5.113866268573457],[102.80528976976323,5.113866268573457],[102.80528976976323,5.113079356989878]]],[[[102.80477156137266,5.114259724718297],[102.80464049999999,5.114126794447287],[102.8044201065257,5.114259724718297],[102.80477156137266,5.114259724718297]]],[[[102.80839902010659,5.115440094565247],[102.80889678802379,5.115440094565247],[102.80839902010659,5.114858115661279],[102.80839902010659,5.115440094565247]]],[[[102.80788081171603,5.114259724718297],[102.80788081171603,5.11465318109853],[102.80831061150315,5.11465318109853],[102.80834479132386,5.114259724718297],[102.80788081171603,5.114259724718297]]],[[[102.80736260332547,5.115046637714174],[102.80684439493491,5.115046637714174],[102.80684439493491,5.115351634850599],[102.80736260332547,5.1154115125514075],[102.80736260332547,5.115046637714174]]],[[[102.80269872781042,5.116227008973755],[102.80321693620098,5.1164682530498125],[102.80269872781042,5.114659685823501],[102.80269872781042,5.116227008973755]]],[[[102.8034926017861,5.116620466531228],[102.80344959999998,5.116616694444732],[102.80343917961093,5.116620466531228],[102.8034926017861,5.116620466531228]]],[[[102.80891722849717,5.116227008973755],[102.80933039999996,5.115819194445574],[102.80891722849717,5.115467469118225],[102.80891722849717,5.115833551651769],[102.80788081171603,5.115833551651769],[102.80788081171603,5.115440094565247],[102.8073844217882,5.115440094565247],[102.8076003,5.116150494445236],[102.80891722849717,5.116227008973755]]],[[[102.80632618654435,5.115440094565247],[102.80632618654435,5.115833551651769],[102.8058079781538,5.115833551651769],[102.8058079781538,5.115440094565247],[102.80477156137266,5.115440094565247],[102.80425335298212,5.114414547361754],[102.8039043,5.114547594446854],[102.80407189999998,5.11524079444615],[102.80454260000002,5.115145994446242],[102.8048082,5.115525394445861],[102.8049758,5.11566959444571],[102.8061426,5.116071694445319],[102.8057939,5.11699339444435],[102.8063531,5.116222594445151],[102.80688960000002,5.116209294445149],[102.80680369999997,5.115440094565247],[102.80632618654435,5.115440094565247]]]]},"properties":{"place_id":"fedbe062-2201-5c80-8881-631d8a89c268","habitat":"forest_edge_opening","habitat_label":"Forest edge or opening","resolution_m":50}},{"type":"Feature","geometry":{"type":"MultiPolygon","coordinates":[[[[102.7938891851709,5.10670079649194],[102.79386739999998,5.106749294454846],[102.7938891851709,5.10680660185013],[102.7938891851709,5.10670079649194]]],[[[102.79648022712371,5.111505536646618],[102.79648022712371,5.111125674729292],[102.79631195472678,5.111505536646618],[102.79648022712371,5.111505536646618]]],[[[102.80166231102932,5.111898991379491],[102.80218051941986,5.1120218083413755],[102.80218051941986,5.111898991379491],[102.80166231102932,5.111898991379491]]],[[[102.80891722849717,5.115833551651769],[102.80911709999998,5.116214594445152],[102.80932399692452,5.115833551651769],[102.80891722849717,5.115833551651769]]],[[[102.8058079781538,5.116620466531228],[102.80623422145577,5.116620466531228],[102.80634842902568,5.116227008973755],[102.80594517917633,5.116227008973755],[102.8058079781538,5.116620466531228]]],[[[102.80684439493491,5.116227008973755],[102.80643621857311,5.116227008973755],[102.8067112,5.116360194445003],[102.80684439493491,5.116227008973755]]],[[[102.79751664390481,5.117407382352702],[102.79770309588098,5.117800840616739],[102.79788679458636,5.117407382352702],[102.79751664390481,5.117407382352702]]],[[[102.8036937,5.119062394442248],[102.80308247215595,5.11898121682228],[102.80302989999998,5.1192600944420255],[102.8036937,5.119062394442248]]]]},"properties":{"place_id":"fedbe062-2201-5c80-8881-631d8a89c268","habitat":"open_grassland","habitat_label":"Open grassland or shrubland","resolution_m":50}},{"type":"Feature","geometry":{"type":"MultiPolygon","coordinates":[[[[102.79492560195202,5.1030877026047055],[102.79464530000001,5.103250894458401],[102.79452976568572,5.103636491369748],[102.79492560195202,5.103636491369748],[102.79492560195202,5.1030877026047055]]],[[[102.79648022712371,5.103636491369748],[102.79698589921512,5.103636491369748],[102.7966087,5.103550094458112],[102.79648022712371,5.103636491369748]]],[[[102.79751664390481,5.104029941400876],[102.79757480846979,5.104029941400876],[102.79751789999999,5.104024294457593],[102.79751664390481,5.104029941400876]]],[[[102.79544381034258,5.104921339878671],[102.79528769999999,5.105060894456543],[102.79544381034258,5.105270700277288],[102.79544381034258,5.104921339878671]]],[[[102.79440739356147,5.105997195080568],[102.79438639999998,5.1059504944556515],[102.79415233200983,5.105997195080568],[102.79440739356147,5.105997195080568]]],[[[102.79387410250838,5.106784098197344],[102.7938891851709,5.10680660185013],[102.7938891851709,5.106784098197344],[102.79387410250838,5.106784098197344]]],[[[102.7938891851709,5.107227989800513],[102.79383119999999,5.107288994454254],[102.7938891851709,5.107411468447625],[102.7938891851709,5.107227989800513]]],[[[102.79492560195202,5.10796445463536],[102.79492560195202,5.108130246530962],[102.79502299946516,5.10796445463536],[102.79492560195202,5.10796445463536]]],[[[102.79441198822228,5.108357907251533],[102.7946667,5.108485794453051],[102.79486918651419,5.108357907251533],[102.79441198822228,5.108357907251533]]],[[[102.79751664390481,5.10953826651082],[102.7974723,5.109575794451934],[102.79751664390481,5.109645096945129],[102.79751664390481,5.10953826651082]]],[[[102.79751664390481,5.110718627886639],[102.79751664390481,5.110704284203278],[102.79738151130655,5.110718627886639],[102.79751664390481,5.110718627886639]]],[[[102.79648022712371,5.112141522676531],[102.7964236,5.11233419444914],[102.79648022712371,5.1124501746322375],[102.79648022712371,5.112141522676531]]],[[[102.79648022712371,5.111125674729292],[102.7963069,5.11152209444994],[102.79648022712371,5.111878008019581],[102.79648022712371,5.111125674729292]]],[[[102.79492560195202,5.11347281266399],[102.79471979255497,5.11347281266399],[102.79492560195202,5.113781505714442],[102.79492560195202,5.11347281266399]]],[[[102.79544381034258,5.113866268573457],[102.79506478248177,5.113866268573457],[102.79544381034258,5.113923252710172],[102.79544381034258,5.113866268573457]]],[[[102.79648022712371,5.11465318109853],[102.7964040195126,5.11465318109853],[102.79648022712371,5.114782690306805],[102.79648022712371,5.11465318109853]]],[[[102.79688742097413,5.115440094565247],[102.79699843551427,5.115607518109884],[102.79699843551427,5.115440094565247],[102.79688742097413,5.115440094565247]]],[[[102.79751664390481,5.117407382352702],[102.79726849999999,5.117610494443751],[102.79751664390481,5.117668430923703],[102.79751664390481,5.117407382352702]]],[[[102.79855306068595,5.117407382352702],[102.79818308893753,5.117407382352702],[102.79855306068595,5.117609369313835],[102.79855306068595,5.117407382352702]]],[[[102.79760359816915,5.117800840616739],[102.79766539999997,5.1178361944435125],[102.79770309588098,5.117800840616739],[102.79760359816915,5.117800840616739]]],[[[102.80259399772713,5.104029941400876],[102.8021514,5.103972194457682],[102.80194402588788,5.104029941400876],[102.80259399772713,5.104029941400876]]],[[[102.80456510146593,5.10442339166692],[102.804383,5.10433889445728],[102.80410791801386,5.10442339166692],[102.80456510146593,5.10442339166692]]],[[[102.79958947746707,5.105210292903808],[102.79958947746707,5.105053670002456],[102.79948682780245,5.105210292903808],[102.79958947746707,5.105210292903808]]],[[[102.80218051941986,5.104816842167889],[102.8019771,5.1050100944566275],[102.80218051941986,5.105138372992266],[102.80218051941986,5.104816842167889]]],[[[102.80062589424818,5.1056037438746955],[102.80071239999998,5.105329394456259],[102.80062589424818,5.105148296408171],[102.80062589424818,5.1056037438746955]]],[[[102.80230569691447,5.105210292903808],[102.8025833,5.105376094456213],[102.80269872781042,5.105488725164237],[102.80269872781042,5.105210292903808],[102.80230569691447,5.105210292903808]]],[[[102.80235209781709,5.106784098197344],[102.80269872781042,5.106553943771069],[102.80255509999999,5.106502194455088],[102.80235209781709,5.106784098197344]]],[[[102.80166231102932,5.112990837925752],[102.8017062,5.112915294448543],[102.80166231102932,5.112847551963378],[102.80166231102932,5.112990837925752]]],[[[102.80269872781042,5.113079356989878],[102.80264899924227,5.113079356989878],[102.80269872781042,5.113165393793762],[102.80269872781042,5.113079356989878]]],[[[102.8034809690725,5.112292446347649],[102.8035569,5.112319494449161],[102.80360292628691,5.112292446347649],[102.8034809690725,5.112292446347649]]],[[[102.80321693620098,5.112292446347649],[102.80321693620098,5.1123551589620115],[102.80324870309848,5.112292446347649],[102.80321693620098,5.112292446347649]]],[[[102.80321693620098,5.11292541326923],[102.80327390000001,5.112734894448721],[102.80321693620098,5.112449580805144],[102.80321693620098,5.11292541326923]]],[[[102.80321693620098,5.11312656254343],[102.8029024042773,5.113866268573457],[102.80307009999999,5.113970494447451],[102.8031975,5.113925094447524],[102.80327259999999,5.113799494447625],[102.80321693620098,5.11312656254343]]],[[[102.80218051941986,5.114259724718297],[102.80218938003372,5.114259724718297],[102.80218051941986,5.114250216080114],[102.80218051941986,5.114259724718297]]],[[[102.80425335298212,5.11465318109853],[102.8039297,5.1145168944469],[102.80388922166298,5.11465318109853],[102.80425335298212,5.11465318109853]]],[[[102.80425335298212,5.1152282600064325],[102.80400941527309,5.115046637714174],[102.80407189999998,5.11524079444615],[102.80425335298212,5.1152282600064325]]],[[[102.80321693620098,5.116227008973755],[102.8032807,5.116222594445151],[102.80321693620098,5.1160820671647524],[102.80321693620098,5.116227008973755]]],[[[102.79958947746707,5.118194299116337],[102.79936599999999,5.118263694443074],[102.79958947746707,5.1183530235462795],[102.79958947746707,5.118194299116337]]],[[[102.80166231102932,5.118194299116337],[102.8015533,5.1183718944429435],[102.80166231102932,5.118475599481106],[102.80166231102932,5.118194299116337]]],[[[102.80010768585763,5.118194299116337],[102.80010768585763,5.1183079149819175],[102.80083451942265,5.118194299116337],[102.80010768585763,5.118194299116337]]],[[[102.79983006051192,5.118587757851511],[102.79987959999998,5.118592294442732],[102.79989581725349,5.118587757851511],[102.79983006051192,5.118587757851511]]],[[[102.80269872781042,5.118587757851511],[102.8026772,5.118588294442741],[102.80269872781042,5.118620479052673],[102.80269872781042,5.118587757851511]]],[[[102.80186681547731,5.118587757851511],[102.80192209999998,5.118592294442732],[102.80194864388467,5.118587757851511],[102.80186681547731,5.118587757851511]]],[[[102.80373514459156,5.11898121682228],[102.80373514459156,5.119039399964908],[102.80378627733006,5.11898121682228],[102.80373514459156,5.11898121682228]]],[[[102.80477156137266,5.104816842167889],[102.80488580882623,5.104816842167889],[102.80477156137266,5.104641895553403],[102.80477156137266,5.104816842167889]]],[[[102.80943543688772,5.1056037438746955],[102.8096030758462,5.1056037438746955],[102.80943543688772,5.105428986609873],[102.80943543688772,5.1056037438746955]]],[[[102.80891722849717,5.10617600290792],[102.80888649999999,5.106237694455374],[102.80891722849717,5.106321118339324],[102.80891722849717,5.10617600290792]]],[[[102.80891722849717,5.105062647209226],[102.80859419999999,5.1054268944561745],[102.80891722849717,5.105999993794149],[102.80891722849717,5.105062647209226]]],[[[102.80632618654435,5.105997195080568],[102.8064175829121,5.105997195080568],[102.80632618654435,5.105934383813765],[102.80632618654435,5.105997195080568]]],[[[102.81022322730554,5.105997195080568],[102.8101538,5.105971894455609],[102.81007227412928,5.105997195080568],[102.81022322730554,5.105997195080568]]],[[[102.80684439493491,5.106784098197344],[102.80706861564484,5.106784098197344],[102.80684439493491,5.1066054624990596],[102.80684439493491,5.106784098197344]]],[[[102.80771205320481,5.107177550108283],[102.8076446,5.107158094454397],[102.80756439085656,5.107177550108283],[102.80771205320481,5.107177550108283]]],[[[102.80953081094651,5.10796445463536],[102.8100626,5.108031694453513],[102.81019929345992,5.10796445463536],[102.80953081094651,5.10796445463536]]],[[[102.80891722849717,5.108357907251533],[102.80891722849717,5.108428576537843],[102.80895174903152,5.108357907251533],[102.80891722849717,5.108357907251533]]],[[[102.80891722849717,5.11025242331014],[102.80896429999999,5.110120794451401],[102.80891722849717,5.11003304074544],[102.80891722849717,5.11025242331014]]],[[[102.80891722849717,5.110582877109564],[102.80892000000001,5.110561594450929],[102.80891722849717,5.110542919183327],[102.80891722849717,5.110582877109564]]],[[[102.80839902010659,5.114483104322437],[102.8084157,5.114423294446977],[102.80839902010659,5.114364817576776],[102.80839902010659,5.114483104322437]]],[[[102.8047414523413,5.115440094565247],[102.80477156137266,5.115478572269776],[102.80477156137266,5.115440094565247],[102.8047414523413,5.115440094565247]]],[[[102.80684439493491,5.116285970195568],[102.8068963,5.1161517944452335],[102.80684439493491,5.116028353857439],[102.80684439493491,5.116285970195568]]],[[[102.80574195023685,5.115833551651769],[102.8058079781538,5.115889528948019],[102.8058079781538,5.115833551651769],[102.80574195023685,5.115833551651769]]],[[[102.8058079781538,5.116463253988816],[102.8056531,5.1167822944445795],[102.8058079781538,5.116993951570681],[102.8058079781538,5.116463253988816]]],[[[102.80876964411215,5.116227008973755],[102.80895079999999,5.116276094445091],[102.80909840846232,5.116227008973755],[102.80876964411215,5.116227008973755]]],[[[102.80839960503745,5.116227008973755],[102.80846939999999,5.11623999444513],[102.80853764523023,5.116227008973755],[102.80839960503745,5.116227008973755]]],[[[102.80425335298212,5.117576518588071],[102.8044608,5.117387394443966],[102.80425335298212,5.117129739232227],[102.80425335298212,5.117576518588071]]],[[[102.80425335298212,5.118765493543437],[102.80432269999999,5.118638994442664],[102.80425335298212,5.118367681847244],[102.80425335298212,5.118765493543437]]]]},"properties":{"place_id":"fedbe062-2201-5c80-8881-631d8a89c268","habitat":"permanent_water","habitat_label":"Permanent water","resolution_m":50}},{"type":"Feature","geometry":{"type":"MultiPolygon","coordinates":[[[[102.79492560195202,5.103243041573511],[102.79492560195202,5.1030877026047055],[102.79465200583407,5.103243041573511],[102.79492560195202,5.103243041573511]]],[[[102.79492560195202,5.1039792492829275],[102.79452859999999,5.103642294458026],[102.79490809999999,5.1039815944576485],[102.79492560195202,5.1039792492829275]]],[[[102.80218051941986,5.104029941400876],[102.802071,5.1039802944576484],[102.80194402588788,5.104029941400876],[102.80218051941986,5.104029941400876]]],[[[102.79596201873314,5.104816842167889],[102.79592299999999,5.104678494456946],[102.79568172776318,5.104816842167889],[102.79596201873314,5.104816842167889]]],[[[102.79596201873314,5.104029941400876],[102.79562044124167,5.104029941400876],[102.79596201873314,5.104336164227898],[102.79596201873314,5.104029941400876]]],[[[102.79544381034258,5.104921339878671],[102.79528769999999,5.105060894456543],[102.79544381034258,5.105270700277288],[102.79544381034258,5.104921339878671]]],[[[102.79958947746707,5.105210292903808],[102.7990712690765,5.10545251192486],[102.7990712690765,5.1056037438746955],[102.79958947746707,5.1056037438746955],[102.79958947746707,5.105210292903808]]],[[[102.80269872781042,5.106784098197344],[102.80255509999999,5.106502194455088],[102.80235209781709,5.106784098197344],[102.80269872781042,5.106784098197344]]],[[[102.7938891851709,5.107227989800513],[102.79383119999999,5.107288994454254],[102.7938891851709,5.107411468447625],[102.7938891851709,5.107227989800513]]],[[[102.79441198822228,5.108357907251533],[102.7946667,5.108485794453051],[102.79486918651419,5.108357907251533],[102.79441198822228,5.108357907251533]]],[[[102.79648022712371,5.108357907251533],[102.79637257517184,5.108357907251533],[102.79648022712371,5.108483286195863],[102.79648022712371,5.108357907251533]]],[[[102.79751664390481,5.10953826651082],[102.79729727534807,5.10953826651082],[102.79751664390481,5.109645096945129],[102.79751664390481,5.10953826651082]]],[[[102.79492560195202,5.113079356989878],[102.7951992,5.11302209444844],[102.79492560195202,5.112727596834405],[102.79492560195202,5.113079356989878]]],[[[102.79492560195202,5.11347281266399],[102.79471979255497,5.11347281266399],[102.79492560195202,5.113781505714442],[102.79492560195202,5.11347281266399]]],[[[102.79788679458636,5.117407382352702],[102.79751664390481,5.117668430923703],[102.79766539999997,5.1178361944435125],[102.79788679458636,5.117407382352702]]],[[[102.80062589424818,5.118194299116337],[102.80062589424818,5.118256702629963],[102.80083451942265,5.118194299116337],[102.80062589424818,5.118194299116337]]],[[[102.80321693620098,5.10442339166692],[102.80343089999997,5.10431019445733],[102.80321693620098,5.104290276250322],[102.80321693620098,5.10442339166692]]],[[[102.80918536930471,5.105210292903808],[102.8088409,5.105047494456553],[102.80863720847881,5.105210292903808],[102.80918536930471,5.105210292903808]]],[[[102.80269872781042,5.105210292903808],[102.80230569691447,5.105210292903808],[102.80269872781042,5.105488725164237],[102.80269872781042,5.105210292903808]]],[[[102.80321693620098,5.1056037438746955],[102.80279464829435,5.1056037438746955],[102.8030650759339,5.105997195080568],[102.80321693620098,5.105997195080568],[102.80321693620098,5.1056037438746955]]],[[[102.81022322730554,5.105997195080568],[102.8101538,5.105971894455609],[102.81007227412928,5.105997195080568],[102.81022322730554,5.105997195080568]]],[[[102.80891722849717,5.10617600290792],[102.80888649999999,5.106237694455374],[102.80891722849717,5.106321118339324],[102.80891722849717,5.10617600290792]]],[[[102.80891722849717,5.105997195080568],[102.80891126488324,5.105997195080568],[102.80891722849717,5.105999993794149],[102.80891722849717,5.105997195080568]]],[[[102.80684439493491,5.106784098197344],[102.80706861564484,5.106784098197344],[102.80684439493491,5.1066054624990596],[102.80684439493491,5.106784098197344]]],[[[102.80943543688772,5.106390646521444],[102.80897232613137,5.106390646521444],[102.80929037859462,5.107177550108283],[102.80943543688772,5.107177550108283],[102.80943543688772,5.106390646521444]]],[[[102.80425335298212,5.1152282600064325],[102.80400941527309,5.115046637714174],[102.80407189999998,5.11524079444615],[102.80425335298212,5.1152282600064325]]],[[[102.80477156137266,5.115440094565247],[102.8047414523413,5.115440094565247],[102.80477156137266,5.115478572269776],[102.80477156137266,5.115440094565247]]],[[[102.80788081171603,5.116139112427825],[102.80748733819155,5.115833551651769],[102.80754939999998,5.116122394445265],[102.80788081171603,5.116139112427825]]],[[[102.8058079781538,5.116463253988816],[102.8056531,5.1167822944445795],[102.8058079781538,5.116993951570681],[102.8058079781538,5.116463253988816]]],[[[102.8058079781538,5.115833551651769],[102.80574195023685,5.115833551651769],[102.8058079781538,5.115889528948019],[102.8058079781538,5.115833551651769]]],[[[102.80684439493491,5.116227008973755],[102.80643621857311,5.116227008973755],[102.8067112,5.116360194445003],[102.80684439493491,5.116227008973755]]],[[[102.80632618654435,5.116227008973755],[102.80632618654435,5.11624886966963],[102.80634842902568,5.116227008973755],[102.80632618654435,5.116227008973755]]],[[[102.80321693620098,5.119201751442879],[102.80308247215595,5.11898121682228],[102.80305,5.1192681944420215],[102.80321693620098,5.119201751442879]]],[[[102.80373514459156,5.11898121682228],[102.80373514459156,5.119039399964908],[102.80378627733006,5.11898121682228],[102.80373514459156,5.11898121682228]]]]},"properties":{"place_id":"fedbe062-2201-5c80-8881-631d8a89c268","habitat":"seasonal_water_wetland","habitat_label":"Seasonal water or wetland","resolution_m":50}},{"type":"Feature","geometry":{"type":"MultiPolygon","coordinates":[[[[102.80321693620098,5.11898121682228],[102.80425335298212,5.118765493543437],[102.8041792,5.118272994443061],[102.80348719999999,5.117939094443372],[102.80425335298212,5.117576518588071],[102.80420739999998,5.116632694444709],[102.80368159999999,5.117041394444318],[102.80321693620098,5.116667637436202],[102.80321693620098,5.118194299116337],[102.80269872781042,5.118194299116337],[102.80269872781042,5.117800840616739],[102.80166231102932,5.117800840616739],[102.80166231102932,5.117407382352702],[102.80010768585763,5.117407382352702],[102.80010768585763,5.117800840616739],[102.79958947746707,5.117800840616739],[102.79958947746707,5.117407382352702],[102.79803485229537,5.116620466531228],[102.79751664390481,5.11465318109853],[102.79596201873314,5.113866268573457],[102.79596201873314,5.11347281266399],[102.79751664390481,5.112685901551103],[102.79751664390481,5.111112082149006],[102.79855306068595,5.110718627886639],[102.79855306068595,5.10953826651082],[102.79803485229537,5.10953826651082],[102.79803485229537,5.108751360102824],[102.79751664390481,5.108751360102824],[102.79648022712371,5.107571002254282],[102.79580529999998,5.1077083944538435],[102.79569669999998,5.1082026944533565],[102.79612990000001,5.108082394453458],[102.79742139999998,5.108951994452581],[102.797133,5.109468994452061],[102.79790819999997,5.110211694451273],[102.79773380000002,5.1106657944508145],[102.79648022712371,5.111125674729292],[102.7966435,5.1128377944486205],[102.79492560195202,5.113079356989878],[102.7947861,5.112706894448722],[102.7946278,5.11325459444819],[102.79699843551427,5.115440094565247],[102.79710256974757,5.117407382352702],[102.79855306068595,5.117407382352702],[102.79983006051192,5.118587757851511],[102.80010768585763,5.118194299116337],[102.80109869999998,5.118055294443284],[102.80321693620098,5.11898121682228]]],[[[102.79486918651419,5.108357907251533],[102.79544381034258,5.107177550108283],[102.79492560195202,5.107177550108283],[102.79440739356147,5.106390646521444],[102.79544381034258,5.106390646521444],[102.79596201873314,5.105625991359401],[102.7941397,5.106010594455572],[102.7939962,5.107844694453694],[102.79441198822228,5.108357907251533],[102.79486918651419,5.108357907251533]]],[[[102.79544381034258,5.105270700277288],[102.79648022712371,5.105559616826712],[102.79648022712371,5.104816842167889],[102.79751664390481,5.10442339166692],[102.79751664390481,5.104816842167889],[102.79803485229537,5.104816842167889],[102.79803485229537,5.1056037438746955],[102.79855306068595,5.1056037438746955],[102.7990712690765,5.106390646521444],[102.79958947746707,5.106390646521444],[102.79958947746707,5.105997195080568],[102.80062589424818,5.105997195080568],[102.8017653918399,5.107177550108283],[102.8019704,5.106597094454991],[102.8013159,5.1064734944550985],[102.8006172,5.105141094456468],[102.79960069999998,5.105048894456567],[102.79958947746707,5.1056037438746955],[102.7990712690765,5.1056037438746955],[102.798627,5.10472159445691],[102.7979216,5.1046601944569465],[102.79707939999999,5.103683694457956],[102.7961607,5.1036956944579455],[102.79498459999999,5.103077294458599],[102.79492560195202,5.1039792492829275],[102.79526619999999,5.103757194457904],[102.79596201873314,5.104029941400876],[102.79596201873314,5.104816842167889],[102.79544381034258,5.105270700277288]]],[[[102.80269872781042,5.106784098197344],[102.8019959,5.106989794454584],[102.80218051941986,5.107571002254282],[102.80373514459156,5.106784098197344],[102.80373514459156,5.105997195080568],[102.80425335298212,5.105997195080568],[102.80373514459156,5.105210292903808],[102.80477156137266,5.105210292903808],[102.80477156137266,5.1056037438746955],[102.8058079781538,5.105997195080568],[102.8058079781538,5.106784098197344],[102.80632618654435,5.106784098197344],[102.80632618654435,5.107177550108283],[102.8070827,5.1068628944547125],[102.805983,5.104972694456641],[102.80496779999999,5.105014194456597],[102.80456510146593,5.10442339166692],[102.80388079999999,5.104678194456945],[102.80194402588788,5.104029941400876],[102.80115769999999,5.104501194457142],[102.80321693620098,5.1056037438746955],[102.80269872781042,5.106784098197344]]],[[[102.80756439085656,5.107177550108283],[102.80684439493491,5.107571002254282],[102.80736260332547,5.107571002254282],[102.80736260332547,5.10796445463536],[102.80839902010659,5.10796445463536],[102.80839902010659,5.108357907251533],[102.80788081171603,5.108357907251533],[102.80788081171603,5.114259724718297],[102.80736260332547,5.114259724718297],[102.80632618654435,5.115440094565247],[102.8058079781538,5.115440094565247],[102.8058079781538,5.115046637714174],[102.80477156137266,5.115046637714174],[102.80528976976323,5.114261363671636],[102.8045855,5.114130794447298],[102.80388922166298,5.11465318109853],[102.80425335298212,5.1152282600064325],[102.8061426,5.116071694445319],[102.8058079781538,5.116993951570681],[102.80632618654435,5.116227008973755],[102.80684439493491,5.116227008973755],[102.8068346,5.115352994446054],[102.80726639999999,5.115296894446086],[102.80788081171603,5.116139112427825],[102.80909840846232,5.116227008973755],[102.80933039999996,5.115819194445574],[102.8083272,5.114763994446636],[102.80883549999999,5.113341394448081],[102.80826959999999,5.112696194448749],[102.80891722849717,5.110582877109564],[102.80873630000002,5.10891199445263],[102.8092821,5.107980894453568],[102.8103241,5.107791194453754],[102.8103536,5.106122894455495],[102.80971659999999,5.106031994455575],[102.80891722849717,5.105210292903808],[102.80943543688772,5.107177550108283],[102.80756439085656,5.107177550108283]],[[102.80788081171603,5.11465318109853],[102.80788081171603,5.115046637714174],[102.80736260332547,5.115046637714174],[102.80736260332547,5.11465318109853],[102.80788081171603,5.11465318109853]]],[[[102.80321693620098,5.112292446347649],[102.80405849999998,5.112128494449344],[102.8048886,5.112570594448889],[102.8045306,5.11286849444857],[102.8048994,5.113652594447748],[102.80528976976323,5.1140776138523],[102.8058079781538,5.113866268573457],[102.8058079781538,5.113079356989878],[102.80528976976323,5.113079356989878],[102.80528976976323,5.112292446347649],[102.80477156137266,5.112292446347649],[102.80425335298212,5.111505536646618],[102.80321693620098,5.111505536646618],[102.80321693620098,5.111898991379491],[102.80218051941986,5.111898991379491],[102.80218051941986,5.111505536646618],[102.80166231102932,5.111505536646618],[102.80166231102932,5.111898991379491],[102.80062589424818,5.112292446347649],[102.80114410263874,5.114259724718297],[102.80218051941986,5.11465318109853],[102.80218051941986,5.116227008973755],[102.80269872781042,5.116227008973755],[102.80269872781042,5.116620466531228],[102.80321165243238,5.116620466531228],[102.8031063,5.115214094446161],[102.80170750000002,5.113907694447521],[102.8021595,5.113444194447995],[102.80121269999998,5.112534594448915],[102.80192879999998,5.111912094449558],[102.8025417,5.112105794449359],[102.80285949999998,5.11378219444766],[102.80321693620098,5.113866268573457],[102.80321693620098,5.112292446347649]]]]},"properties":{"place_id":"fedbe062-2201-5c80-8881-631d8a89c268","habitat":"water_edge","habitat_label":"Water edge","resolution_m":50}}]}