{"type":"FeatureCollection","metadata":{"schema_version":1,"place_id":"ff618790-4495-5116-9690-ee2b5dc8aaba","place_name":"Secret Garden","place_type":"park","osm_reference":"way/1030451611","protection_context":"no protected status confirmed from included OSM tags","resolution_m":50,"raster_coverage":1.0,"interpretation":"Suggested search habitats, not predicted plant locations or probabilities of presence."},"features":[{"type":"Feature","geometry":{"type":"Polygon","coordinates":[[[101.6161161,3.1507708965160797],[101.61642189999999,3.1501660965167697],[101.61609029999998,3.1498334965171177],[101.6156726,3.1505142965163753],[101.6161161,3.1507708965160797]]]},"properties":{"place_id":"ff618790-4495-5116-9690-ee2b5dc8aaba","habitat":"disturbed_built_edge","habitat_label":"Disturbed, bare or built edge","resolution_m":50}}]}