{"type":"FeatureCollection","metadata":{"schema_version":1,"place_id":"ff7518c2-b6c1-5d64-95e8-fc75ff1a7106","place_name":"City Park","place_type":"park","osm_reference":"way/680602373","protection_context":"no protected status confirmed from included OSM tags","resolution_m":50,"raster_coverage":1.0,"interpretation":"Suggested search habitats, not predicted plant locations or probabilities of presence."},"features":[{"type":"Feature","geometry":{"type":"Polygon","coordinates":[[[111.82004293195612,2.2931593660545118],[111.81952472356558,2.293003449229182],[111.81952472356558,2.2932771712986],[111.82004293195612,2.2931593660545118]]]},"properties":{"place_id":"ff7518c2-b6c1-5d64-95e8-fc75ff1a7106","habitat":"forest_interior","habitat_label":"Forest interior","resolution_m":50}},{"type":"Feature","geometry":{"type":"Polygon","coordinates":[[[111.81848830678445,2.2935067647793583],[111.8205611403467,2.2929826759175413],[111.8205611403467,2.292218974950506],[111.81900651517502,2.292218974950506],[111.81848830678445,2.2935067647793583]]]},"properties":{"place_id":"ff7518c2-b6c1-5d64-95e8-fc75ff1a7106","habitat":"forest_edge_opening","habitat_label":"Forest edge or opening","resolution_m":50}},{"type":"Feature","geometry":{"type":"MultiPolygon","coordinates":[[[[111.8205611403467,2.2918267379680914],[111.8205611403467,2.292218974950506],[111.82004293195612,2.292218974950506],[111.82004293195612,2.293003449229182],[111.82069419999999,2.2929263974513363],[111.8205611403467,2.2918267379680914]]],[[[111.81943012183478,2.292218974950506],[111.81900651517502,2.292218974950506],[111.81900651517502,2.293003449229182],[111.81952472356558,2.293003449229182],[111.81943012183478,2.292218974950506]]],[[[111.81900651517502,2.29339568652548],[111.81900651517502,2.293003449229182],[111.81851046336999,2.293003449229182],[111.81848830678445,2.29339568652548],[111.81900651517502,2.29339568652548]]]]},"properties":{"place_id":"ff7518c2-b6c1-5d64-95e8-fc75ff1a7106","habitat":"open_grassland","habitat_label":"Open grassland or shrubland","resolution_m":50}},{"type":"Feature","geometry":{"type":"MultiPolygon","coordinates":[[[[111.8205611403467,2.2926112120375306],[111.8208124,2.291689097452668],[111.81875191266366,2.292218974950506],[111.81900651517502,2.2926112120375306],[111.8205611403467,2.2926112120375306]]],[[[111.8205611403467,2.2926112120375306],[111.8205611403467,2.2929826759175413],[111.8207276628845,2.2926112120375306],[111.8205611403467,2.2926112120375306]]],[[[111.82004293195612,2.293003449229182],[111.82004293195612,2.2931593660545118],[111.82051202583169,2.293003449229182],[111.82004293195612,2.293003449229182]]]]},"properties":{"place_id":"ff7518c2-b6c1-5d64-95e8-fc75ff1a7106","habitat":"disturbed_built_edge","habitat_label":"Disturbed, bare or built edge","resolution_m":50}},{"type":"Feature","geometry":{"type":"MultiPolygon","coordinates":[[[[111.81900651517502,2.293003449229182],[111.8187584,2.2921978974521324],[111.81851046336999,2.293003449229182],[111.81900651517502,2.293003449229182]]],[[[111.81900651517502,2.29339568652548],[111.81848830678445,2.29339568652548],[111.81848830678445,2.2930754365034485],[111.81834879999998,2.2935286974506366],[111.81900651517502,2.29339568652548]]]]},"properties":{"place_id":"ff7518c2-b6c1-5d64-95e8-fc75ff1a7106","habitat":"permanent_water","habitat_label":"Permanent water","resolution_m":50}},{"type":"Feature","geometry":{"type":"MultiPolygon","coordinates":[[[[111.8205611403467,2.291791962138537],[111.82047619610763,2.2918267379680914],[111.8205611403467,2.2918267379680914],[111.8205611403467,2.291791962138537]]],[[[111.81900651517502,2.293003449229182],[111.81851046336999,2.293003449229182],[111.81848830678445,2.29339568652548],[111.82069419999999,2.2929263974513363],[111.82076988700489,2.292218974950506],[111.82004293195612,2.2926112120375306],[111.82004293195612,2.2920726127870674],[111.81900651517502,2.2922041411755427],[111.81900651517502,2.293003449229182]]]]},"properties":{"place_id":"ff7518c2-b6c1-5d64-95e8-fc75ff1a7106","habitat":"water_edge","habitat_label":"Water edge","resolution_m":50}}]}