{"type":"FeatureCollection","metadata":{"schema_version":1,"place_id":"ffbfd50a-6411-5756-8654-02ec7068c8e7","place_name":"Gunung Bercham","place_type":"forest","osm_reference":"way/289005046","protection_context":"no protected status confirmed from included OSM tags","resolution_m":50,"raster_coverage":1.0,"interpretation":"Suggested search habitats, not predicted plant locations or probabilities of presence."},"features":[{"type":"Feature","geometry":{"type":"Polygon","coordinates":[[[101.1335495018146,4.646132764636927],[101.13414891267867,4.646601444838426],[101.13510412698629,4.646208255518037],[101.13510412698629,4.6442423121175],[101.13303769999997,4.644664494930989],[101.13303129342404,4.6454218775175935],[101.1335495018146,4.6454218775175935],[101.1335495018146,4.646132764636927]]]},"properties":{"place_id":"ffbfd50a-6411-5756-8654-02ec7068c8e7","habitat":"forest_interior","habitat_label":"Forest interior","resolution_m":50}},{"type":"Feature","geometry":{"type":"MultiPolygon","coordinates":[[[[101.13510412698629,4.6442423121175],[101.13511910000001,4.643659294932026],[101.13407411421316,4.6442423121175],[101.13510412698629,4.6442423121175]]],[[[101.13406771020517,4.644635500370814],[101.13406771020517,4.644243242006421],[101.13308277417804,4.644635500370814],[101.13406771020517,4.644635500370814]]],[[[101.1335495018146,4.6454218775175935],[101.13303129342404,4.6454218775175935],[101.13303129342404,4.644707348347275],[101.13293609999998,4.645344094930261],[101.1335495018146,4.646132764636927],[101.1335495018146,4.6454218775175935]]],[[[101.13510412698629,4.646127752495445],[101.13458591859572,4.646208255518037],[101.13458591859572,4.646390661208208],[101.13511910000001,4.64624709492933],[101.13510412698629,4.646127752495445]]],[[[101.13406771020517,4.646208255518037],[101.13362392485425,4.646208255518037],[101.13406771020517,4.646550486571074],[101.13406771020517,4.646208255518037]]],[[[101.13414891267867,4.646601444838426],[101.13436809999999,4.646738994928841],[101.13443534945064,4.646601444838426],[101.13414891267867,4.646601444838426]]]]},"properties":{"place_id":"ffbfd50a-6411-5756-8654-02ec7068c8e7","habitat":"forest_edge_opening","habitat_label":"Forest edge or opening","resolution_m":50}},{"type":"Feature","geometry":{"type":"Polygon","coordinates":[[[101.13510412698629,4.643849124077548],[101.13510412698629,4.6442423121175],[101.13520659922014,4.6442423121175],[101.13531219999997,4.644044194931632],[101.13510412698629,4.643849124077548]]]},"properties":{"place_id":"ffbfd50a-6411-5756-8654-02ec7068c8e7","habitat":"open_grassland","habitat_label":"Open grassland or shrubland","resolution_m":50}},{"type":"Feature","geometry":{"type":"MultiPolygon","coordinates":[[[[101.13510412698629,4.643849124077548],[101.13520659922014,4.6442423121175],[101.13511910000001,4.643659294932026],[101.13449679999998,4.643744794931917],[101.13407411421316,4.6442423121175],[101.13510412698629,4.643849124077548]]],[[[101.13406771020517,4.644635500370814],[101.13406771020517,4.644243242006421],[101.13308277417804,4.644635500370814],[101.13406771020517,4.644635500370814]]],[[[101.1335495018146,4.6454218775175935],[101.13303129342404,4.6454218775175935],[101.13303129342404,4.644707348347275],[101.13293609999998,4.645344094930261],[101.1335495018146,4.646132764636927],[101.1335495018146,4.6454218775175935]]],[[[101.13510412698629,4.646127752495445],[101.13458591859572,4.646208255518037],[101.13458591859572,4.646390661208208],[101.13511910000001,4.64624709492933],[101.13510412698629,4.646127752495445]]],[[[101.13406771020517,4.646208255518037],[101.13362392485425,4.646208255518037],[101.13406771020517,4.646550486571074],[101.13406771020517,4.646208255518037]]],[[[101.13414891267867,4.646601444838426],[101.13436809999999,4.646738994928841],[101.13443534945064,4.646601444838426],[101.13414891267867,4.646601444838426]]]]},"properties":{"place_id":"ffbfd50a-6411-5756-8654-02ec7068c8e7","habitat":"disturbed_built_edge","habitat_label":"Disturbed, bare or built edge","resolution_m":50}}]}